<?xml version="1.0" encoding="utf-8"?>
<gpx xmlns:xsd="http://www.w3.org/2001/XMLSchema" xmlns:xsi="http://www.w3.org/2001/XMLSchema-instance" version="1.1" creator="Geo::Gpx" xsi:schemaLocation="http://www.topografix.com/GPX/1/1 http://www.topografix.com/GPX/1/1/gpx.xsd" xmlns="http://www.topografix.com/GPX/1/1">
<metadata>
<name>agc</name>
<author>
<link href="https://www.strava.com/athletes/462432">
</link>
<name>Ryan Yates</name>
</author>
<time>2026-09-23T18:14:06Z</time>
<keywords>processGPX</keywords>
<copyright>2020 https://www.openstreetmap.org/copyright</copyright>
<link href="https://www.strava.com/routes/3537883827857337142">
</link>
<bounds maxlat="35.0083632915546" maxlon="137.493715958612" minlat="34.9631636708196" minlon="137.437405761981" />
</metadata>
<trk>
<link href="https://www.strava.com/routes/3537883827857337142">
</link>
<name>agc</name>
<trkseg>
<trkpt lat="34.9650391116162" lon="137.446397853576">
<ele>531.145234019964</ele>
</trkpt>
<trkpt lat="34.9652000002064" lon="137.446742856754">
<ele>528.153905032778</ele>
</trkpt>
<trkpt lat="34.9653563134008" lon="137.447092048164">
<ele>525.713773028458</ele>
</trkpt>
<trkpt lat="34.9655012515955" lon="137.447459372798">
<ele>523.812850892029</ele>
</trkpt>
<trkpt lat="34.9655737521799" lon="137.447643122236">
<ele>523.083009052012</ele>
</trkpt>
<trkpt lat="34.9656825017063" lon="137.447918747601">
<ele>522.24467675427</ele>
</trkpt>
<trkpt lat="34.9657912510615" lon="137.448194373498">
<ele>521.675913130387</ele>
</trkpt>
<trkpt lat="34.9658990724712" lon="137.448473586601">
<ele>521.31552329</ele>
</trkpt>
<trkpt lat="34.9659593342545" lon="137.448717220101">
<ele>521.126520771855</ele>
</trkpt>
<trkpt lat="34.9659981111395" lon="137.448970128409">
<ele>520.979521519596</ele>
</trkpt>
<trkpt lat="34.9660099911791" lon="137.449325110057">
<ele>520.750514790196</ele>
</trkpt>
<trkpt lat="34.96601" lon="137.449703135779">
<ele>520.337474282759</ele>
</trkpt>
<trkpt lat="34.9660086036257" lon="137.449949807834">
<ele>519.910026847605</ele>
</trkpt>
<trkpt lat="34.9659942770326" lon="137.450183487114">
<ele>519.358894062641</ele>
</trkpt>
<trkpt lat="34.9660040367317" lon="137.450328065265">
<ele>518.938340417736</ele>
</trkpt>
<trkpt lat="34.9661329267337" lon="137.450751897132">
<ele>517.230440532578</ele>
</trkpt>
<trkpt lat="34.9662936921274" lon="137.451235152775">
<ele>514.520954259239</ele>
</trkpt>
<trkpt lat="34.9664581146052" lon="137.451698961173">
<ele>511.227861663083</ele>
</trkpt>
<trkpt lat="34.9664696375092" lon="137.45181997982">
<ele>510.347756965749</ele>
</trkpt>
<trkpt lat="34.9664605963311" lon="137.451956403111">
<ele>509.325754743144</ele>
</trkpt>
<trkpt lat="34.9663604211203" lon="137.452435021777">
<ele>505.377010792997</ele>
</trkpt>
<trkpt lat="34.9662743435752" lon="137.452861056062">
<ele>501.575551713736</ele>
</trkpt>
<trkpt lat="34.9662841567479" lon="137.453045596245">
<ele>499.891396564566</ele>
</trkpt>
<trkpt lat="34.9663122909681" lon="137.453118119727">
<ele>499.150735541022</ele>
</trkpt>
<trkpt lat="34.9663625043922" lon="137.453186493655">
<ele>498.293000417664</ele>
</trkpt>
<trkpt lat="34.9664544061857" lon="137.453232751997">
<ele>497.13064412247</ele>
</trkpt>
<trkpt lat="34.9665425157052" lon="137.453217294856">
<ele>496.084091144863</ele>
</trkpt>
<trkpt lat="34.9666094692964" lon="137.453177832979">
<ele>495.201275512653</ele>
</trkpt>
<trkpt lat="34.966820684758" lon="137.452990851548">
<ele>492.026060053054</ele>
</trkpt>
<trkpt lat="34.9669449705627" lon="137.452938317214">
<ele>490.359776750216</ele>
</trkpt>
<trkpt lat="34.9671996043392" lon="137.452973159583">
<ele>487.037229699029</ele>
</trkpt>
<trkpt lat="34.9672408729153" lon="137.452998452799">
<ele>486.42026050937</ele>
</trkpt>
<trkpt lat="34.9672798080943" lon="137.453059721664">
<ele>485.564809545983</ele>
</trkpt>
<trkpt lat="34.9673556933279" lon="137.453276994319">
<ele>482.929239187583</ele>
</trkpt>
<trkpt lat="34.9674010272227" lon="137.453492550708">
<ele>480.379286585988</ele>
</trkpt>
<trkpt lat="34.9674184586789" lon="137.453834491994">
<ele>476.36909444594</ele>
</trkpt>
<trkpt lat="34.9674080107894" lon="137.454136601928">
<ele>472.768203787237</ele>
</trkpt>
<trkpt lat="34.9673567560311" lon="137.454490350365">
<ele>468.461539412021</ele>
</trkpt>
<trkpt lat="34.9671658100031" lon="137.454840885583">
<ele>463.471280623775</ele>
</trkpt>
<trkpt lat="34.9671336292464" lon="137.45492540698">
<ele>462.385010565886</ele>
</trkpt>
<trkpt lat="34.9671190975734" lon="137.455059325056">
<ele>460.824884712907</ele>
</trkpt>
<trkpt lat="34.9671286201488" lon="137.455213949355">
<ele>459.064493040309</ele>
</trkpt>
<trkpt lat="34.9671639044619" lon="137.455376170488">
<ele>457.19799038631</ele>
</trkpt>
<trkpt lat="34.9672128798613" lon="137.455505035682">
<ele>455.653700679083</ele>
</trkpt>
<trkpt lat="34.9673262728541" lon="137.455743126811">
<ele>452.759977616423</ele>
</trkpt>
<trkpt lat="34.9674311263908" lon="137.456005540637">
<ele>449.845301446625</ele>
</trkpt>
<trkpt lat="34.9675620242671" lon="137.456273140762">
<ele>446.905158094163</ele>
</trkpt>
<trkpt lat="34.9676409436154" lon="137.456371882379">
<ele>445.661000715905</ele>
</trkpt>
<trkpt lat="34.9677203814682" lon="137.456431698029">
<ele>444.655951433539</ele>
</trkpt>
<trkpt lat="34.9681123298435" lon="137.456572977861">
<ele>440.479573418695</ele>
</trkpt>
<trkpt lat="34.9681701786621" lon="137.456645187282">
<ele>439.706020127675</ele>
</trkpt>
<trkpt lat="34.9681643576214" lon="137.45672116315">
<ele>439.174976427202</ele>
</trkpt>
<trkpt lat="34.9681178626425" lon="137.456765999909">
<ele>438.642676956948</ele>
</trkpt>
<trkpt lat="34.9680226376166" lon="137.45679531731">
<ele>437.695723186587</ele>
</trkpt>
<trkpt lat="34.9678417699813" lon="137.456754500617">
<ele>435.907704236092</ele>
</trkpt>
<trkpt lat="34.9676426078747" lon="137.456627502968">
<ele>433.704812961551</ele>
</trkpt>
<trkpt lat="34.9672471755787" lon="137.4562516775">
<ele>428.490343747736</ele>
</trkpt>
<trkpt lat="34.9671749093207" lon="137.45622747094">
<ele>427.642104071411</ele>
</trkpt>
<trkpt lat="34.9671138365517" lon="137.45625116727">
<ele>426.904876750748</ele>
</trkpt>
<trkpt lat="34.9670747758849" lon="137.456330715684">
<ele>425.994801407896</ele>
</trkpt>
<trkpt lat="34.9670917728068" lon="137.456433993942">
<ele>424.945093200012</ele>
</trkpt>
<trkpt lat="34.96725062478" lon="137.45662848797">
<ele>422.132347745127</ele>
</trkpt>
<trkpt lat="34.9674869575553" lon="137.456870242249">
<ele>417.980957285479</ele>
</trkpt>
<trkpt lat="34.9675389368887" lon="137.45695179073">
<ele>416.778463006957</ele>
</trkpt>
<trkpt lat="34.9675522979282" lon="137.45701513295">
<ele>416.001517626175</ele>
</trkpt>
<trkpt lat="34.9675277638291" lon="137.457108554908">
<ele>414.818025114449</ele>
</trkpt>
<trkpt lat="34.9672955518764" lon="137.457552889426">
<ele>408.290599547056</ele>
</trkpt>
<trkpt lat="34.9672446868346" lon="137.457691433526">
<ele>406.363866481993</ele>
</trkpt>
<trkpt lat="34.9672368085386" lon="137.457820591466">
<ele>404.717659280311</ele>
</trkpt>
<trkpt lat="34.9672726155979" lon="137.458142799314">
<ele>400.647547705599</ele>
</trkpt>
<trkpt lat="34.967258859468" lon="137.458353741447">
<ele>398.062575984489</ele>
</trkpt>
<trkpt lat="34.9671871511441" lon="137.458665683212">
<ele>394.27937315014</ele>
</trkpt>
<trkpt lat="34.9671385939385" lon="137.458817939483">
<ele>392.459139360973</ele>
</trkpt>
<trkpt lat="34.9669272826993" lon="137.459178149988">
<ele>387.837242212063</ele>
</trkpt>
<trkpt lat="34.9669079974234" lon="137.459302784719">
<ele>386.591926589423</ele>
</trkpt>
<trkpt lat="34.9669406605762" lon="137.459390793199">
<ele>385.651813149299</ele>
</trkpt>
<trkpt lat="34.9670041728786" lon="137.459423509493">
<ele>384.851947995657</ele>
</trkpt>
<trkpt lat="34.9670604957194" lon="137.459401658149">
<ele>384.173438507691</ele>
</trkpt>
<trkpt lat="34.967231328973" lon="137.459161826301">
<ele>381.339066679202</ele>
</trkpt>
<trkpt lat="34.9673521420246" lon="137.45887860824">
<ele>378.572596919808</ele>
</trkpt>
<trkpt lat="34.967417308709" lon="137.458831685575">
<ele>377.78738486969</ele>
</trkpt>
<trkpt lat="34.9674717091208" lon="137.458845583595">
<ele>377.223209843531</ele>
</trkpt>
<trkpt lat="34.9675146136471" lon="137.458924933466">
<ele>376.406193553556</ele>
</trkpt>
<trkpt lat="34.9675343100355" lon="137.45911930284">
<ele>374.709667605285</ele>
</trkpt>
<trkpt lat="34.967523100472" lon="137.459410470987">
<ele>372.122768958133</ele>
</trkpt>
<trkpt lat="34.9675304927036" lon="137.459754479919">
<ele>368.93479019042</ele>
</trkpt>
<trkpt lat="34.9674311121139" lon="137.460165552207">
<ele>364.726043533886</ele>
</trkpt>
<trkpt lat="34.9673505571823" lon="137.460492180578">
<ele>361.176484254419</ele>
</trkpt>
<trkpt lat="34.9672666963511" lon="137.461006530609">
<ele>355.398376178188</ele>
</trkpt>
<trkpt lat="34.9672461031869" lon="137.461315297496">
<ele>351.821160216129</ele>
</trkpt>
<trkpt lat="34.9672727877551" lon="137.461585257692">
<ele>348.604455998263</ele>
</trkpt>
<trkpt lat="34.9673527807719" lon="137.461855509558">
<ele>345.13502254048</ele>
</trkpt>
<trkpt lat="34.9675139363611" lon="137.462045332374">
<ele>341.773938092713</ele>
</trkpt>
<trkpt lat="34.967529720765" lon="137.462113475715">
<ele>340.880503889367</ele>
</trkpt>
<trkpt lat="34.967512914436" lon="137.462160137219">
<ele>340.249621348648</ele>
</trkpt>
<trkpt lat="34.9674705103788" lon="137.462196907205">
<ele>339.457303869417</ele>
</trkpt>
<trkpt lat="34.9672505539698" lon="137.462251669106">
<ele>336.061038880935</ele>
</trkpt>
<trkpt lat="34.9671934585172" lon="137.462280741956">
<ele>335.122137066363</ele>
</trkpt>
<trkpt lat="34.9670394831599" lon="137.462485574156">
<ele>331.662588016412</ele>
</trkpt>
<trkpt lat="34.9670253851113" lon="137.462580220063">
<ele>330.466096209776</ele>
</trkpt>
<trkpt lat="34.9670393966028" lon="137.462738801746">
<ele>328.509857457236</ele>
</trkpt>
<trkpt lat="34.9671434570318" lon="137.462988228876">
<ele>325.111838377221</ele>
</trkpt>
<trkpt lat="34.9671523073433" lon="137.463092418651">
<ele>323.854972609615</ele>
</trkpt>
<trkpt lat="34.9671046058023" lon="137.463197458821">
<ele>322.413894737648</ele>
</trkpt>
<trkpt lat="34.966930035554" lon="137.463324804179">
<ele>319.549236372756</ele>
</trkpt>
<trkpt lat="34.9668564294293" lon="137.463433752645">
<ele>317.94543122019</ele>
</trkpt>
<trkpt lat="34.9667731221054" lon="137.46385961261">
<ele>313.211502170142</ele>
</trkpt>
<trkpt lat="34.9666632832779" lon="137.464423970506">
<ele>307.347255121162</ele>
</trkpt>
<trkpt lat="34.966541066737" lon="137.464752859415">
<ele>303.844333164882</ele>
</trkpt>
<trkpt lat="34.9662178396766" lon="137.465277519042">
<ele>297.457805092111</ele>
</trkpt>
<trkpt lat="34.9661366370805" lon="137.465361842176">
<ele>296.148507482164</ele>
</trkpt>
<trkpt lat="34.9660484318232" lon="137.46541396442">
<ele>294.929861633947</ele>
</trkpt>
<trkpt lat="34.9655822597309" lon="137.465529317607">
<ele>288.749741411484</ele>
</trkpt>
<trkpt lat="34.9654493467502" lon="137.465625143626">
<ele>286.637235270552</ele>
</trkpt>
<trkpt lat="34.9653486295397" lon="137.465745253671">
<ele>284.68610816278</ele>
</trkpt>
<trkpt lat="34.9652374067038" lon="137.465929148199">
<ele>282.060508264033</ele>
</trkpt>
<trkpt lat="34.9651811095156" lon="137.466048517116">
<ele>280.470982473012</ele>
</trkpt>
<trkpt lat="34.965067397801" lon="137.466388141088">
<ele>276.259046715621</ele>
</trkpt>
<trkpt lat="34.9650149570069" lon="137.466484839615">
<ele>274.946649447708</ele>
</trkpt>
<trkpt lat="34.9649787056355" lon="137.466520160481">
<ele>274.311472796829</ele>
</trkpt>
<trkpt lat="34.9648809355839" lon="137.46654487138">
<ele>272.9469863947</ele>
</trkpt>
<trkpt lat="34.9648100178012" lon="137.466525408354">
<ele>271.981171965176</ele>
</trkpt>
<trkpt lat="34.9647368640684" lon="137.466479500351">
<ele>270.907384480681</ele>
</trkpt>
<trkpt lat="34.964604256388" lon="137.466335043551">
<ele>268.66556607181</ele>
</trkpt>
<trkpt lat="34.9644669058209" lon="137.466079451541">
<ele>265.732254907123</ele>
</trkpt>
<trkpt lat="34.9643954792411" lon="137.466002396087">
<ele>264.686996834115</ele>
</trkpt>
<trkpt lat="34.9642584642392" lon="137.465953934441">
<ele>263.208899287661</ele>
</trkpt>
<trkpt lat="34.9640839818182" lon="137.465969413518">
<ele>261.559590206805</ele>
</trkpt>
<trkpt lat="34.9639867139737" lon="137.466007167334">
<ele>260.675289857399</ele>
</trkpt>
<trkpt lat="34.9637951837028" lon="137.466146800957">
<ele>258.96441689492</ele>
</trkpt>
<trkpt lat="34.9635786595988" lon="137.466307450527">
<ele>257.373734446125</ele>
</trkpt>
<trkpt lat="34.9634581586792" lon="137.466415634732">
<ele>256.602040038357</ele>
</trkpt>
<trkpt lat="34.9634421303041" lon="137.466480998927">
<ele>256.343194756844</ele>
</trkpt>
<trkpt lat="34.9634623836714" lon="137.466678002702">
<ele>255.692667692213</ele>
</trkpt>
<trkpt lat="34.9634362756827" lon="137.466816368234">
<ele>255.306349385699</ele>
</trkpt>
<trkpt lat="34.9633710080407" lon="137.466994284732">
<ele>254.87441685591</ele>
</trkpt>
<trkpt lat="34.9632398574738" lon="137.467306610054">
<ele>254.334939686197</ele>
</trkpt>
<trkpt lat="34.9631649449039" lon="137.467580375907">
<ele>254.066016965839</ele>
</trkpt>
<trkpt lat="34.9631636708196" lon="137.467715829975">
<ele>253.979057484732</ele>
</trkpt>
<trkpt lat="34.9631822138394" lon="137.467803029677">
<ele>253.932739446766</ele>
</trkpt>
<trkpt lat="34.9632231050273" lon="137.467896977535">
<ele>253.88755717011</ele>
</trkpt>
<trkpt lat="34.9633059528839" lon="137.467997278708">
<ele>253.841300621319</ele>
</trkpt>
<trkpt lat="34.9634094087738" lon="137.468054642694">
<ele>253.809937591404</ele>
</trkpt>
<trkpt lat="34.9637288639696" lon="137.468147574582">
<ele>253.782657668517</ele>
</trkpt>
<trkpt lat="34.9640993646264" lon="137.468365923302">
<ele>253.883649540302</ele>
</trkpt>
<trkpt lat="34.9642805299373" lon="137.468518203878">
<ele>254.009944518384</ele>
</trkpt>
<trkpt lat="34.9643748135102" lon="137.4686852345">
<ele>254.141113585619</ele>
</trkpt>
<trkpt lat="34.964417079127" lon="137.468811705561">
<ele>254.244583251375</ele>
</trkpt>
<trkpt lat="34.9645280015276" lon="137.469375130751">
<ele>254.76223617086</ele>
</trkpt>
<trkpt lat="34.9645547396724" lon="137.469805238367">
<ele>255.1102088772</ele>
</trkpt>
<trkpt lat="34.9645393821679" lon="137.470033663275">
<ele>255.230234349539</ele>
</trkpt>
<trkpt lat="34.9644233014848" lon="137.470580496989">
<ele>255.226311127231</ele>
</trkpt>
<trkpt lat="34.9644056839902" lon="137.470883503654">
<ele>255.04175167419</ele>
</trkpt>
<trkpt lat="34.9644185685631" lon="137.471285056563">
<ele>254.663636237388</ele>
</trkpt>
<trkpt lat="34.9644798191764" lon="137.471965768269">
<ele>254.015508726251</ele>
</trkpt>
<trkpt lat="34.9645165239159" lon="137.472253707953">
<ele>253.862328364276</ele>
</trkpt>
<trkpt lat="34.9645631138041" lon="137.472386541713">
<ele>253.825748950838</ele>
</trkpt>
<trkpt lat="34.9646547411706" lon="137.472516828511">
<ele>253.81553658125</ele>
</trkpt>
<trkpt lat="34.9647037244448" lon="137.472554071166">
<ele>253.820830504133</ele>
</trkpt>
<trkpt lat="34.964916997217" lon="137.472650411445">
<ele>253.884140972219</ele>
</trkpt>
<trkpt lat="34.9653527867498" lon="137.47304399722">
<ele>254.083005085795</ele>
</trkpt>
<trkpt lat="34.9654504561926" lon="137.473089263342">
<ele>254.085742713755</ele>
</trkpt>
<trkpt lat="34.9655341912567" lon="137.47310687923">
<ele>254.071704901708</ele>
</trkpt>
<trkpt lat="34.9657596050681" lon="137.473091845399">
<ele>253.947842166181</ele>
</trkpt>
<trkpt lat="34.9660355119758" lon="137.472963736878">
<ele>253.573940237564</ele>
</trkpt>
<trkpt lat="34.9662897004923" lon="137.472851557439">
<ele>253.029148057408</ele>
</trkpt>
<trkpt lat="34.9667661371525" lon="137.472721900905">
<ele>251.735348947597</ele>
</trkpt>
<trkpt lat="34.9669761978077" lon="137.472691379273">
<ele>251.149184216286</ele>
</trkpt>
<trkpt lat="34.9671100790813" lon="137.472702734598">
<ele>250.796687126358</ele>
</trkpt>
<trkpt lat="34.9672977446969" lon="137.472769974062">
<ele>250.330598882754</ele>
</trkpt>
<trkpt lat="34.9676108272354" lon="137.472956224583">
<ele>249.691924415798</ele>
</trkpt>
<trkpt lat="34.9678311160295" lon="137.473039377376">
<ele>249.417640714298</ele>
</trkpt>
<trkpt lat="34.968205917151" lon="137.473152341442">
<ele>249.191924016076</ele>
</trkpt>
<trkpt lat="34.9686171615232" lon="137.47327522812">
<ele>249.159041826298</ele>
</trkpt>
<trkpt lat="34.9688504185113" lon="137.473318317969">
<ele>249.179529085219</ele>
</trkpt>
<trkpt lat="34.969067896733" lon="137.47331875307">
<ele>249.200882377356</ele>
</trkpt>
<trkpt lat="34.9702424967324" lon="137.473185835259">
<ele>249.433190102355</ele>
</trkpt>
<trkpt lat="34.9709878761689" lon="137.473100699452">
<ele>250.193515491919</ele>
</trkpt>
<trkpt lat="34.9711095646346" lon="137.473107009714">
<ele>250.380357488196</ele>
</trkpt>
<trkpt lat="34.9712044921219" lon="137.47316112231">
<ele>250.551100447243</ele>
</trkpt>
<trkpt lat="34.971326125392" lon="137.473272177735">
<ele>250.810189156156</ele>
</trkpt>
<trkpt lat="34.9716763845286" lon="137.473700833864">
<ele>251.640460612337</ele>
</trkpt>
<trkpt lat="34.9717390433937" lon="137.473821734702">
<ele>251.801379575588</ele>
</trkpt>
<trkpt lat="34.9717536720438" lon="137.473913810734">
<ele>251.891847210379</ele>
</trkpt>
<trkpt lat="34.9717424039005" lon="137.474018516499">
<ele>251.976669544943</ele>
</trkpt>
<trkpt lat="34.9716673848069" lon="137.474302922695">
<ele>252.095139041838</ele>
</trkpt>
<trkpt lat="34.9716065524273" lon="137.474550715328">
<ele>252.016621255177</ele>
</trkpt>
<trkpt lat="34.9716104341737" lon="137.474724775013">
<ele>251.850614534064</ele>
</trkpt>
<trkpt lat="34.9716481404925" lon="137.474878284126">
<ele>251.610031510267</ele>
</trkpt>
<trkpt lat="34.97175797859" lon="137.475100486629">
<ele>251.034733883043</ele>
</trkpt>
<trkpt lat="34.9718681821574" lon="137.475277129808">
<ele>250.357187365006</ele>
</trkpt>
<trkpt lat="34.9720097448613" lon="137.475364844057">
<ele>249.633060614316</ele>
</trkpt>
<trkpt lat="34.9722243380704" lon="137.475433541864">
<ele>248.441627927743</ele>
</trkpt>
<trkpt lat="34.9723989172026" lon="137.475459206723">
<ele>247.370129349124</ele>
</trkpt>
<trkpt lat="34.9726921427394" lon="137.475478281521">
<ele>245.398743138075</ele>
</trkpt>
<trkpt lat="34.9729515296033" lon="137.475447687257">
<ele>243.53562901701</ele>
</trkpt>
<trkpt lat="34.9734040371571" lon="137.475316078447">
<ele>240.144524219508</ele>
</trkpt>
<trkpt lat="34.9737130734109" lon="137.475245996921">
<ele>237.882170387561</ele>
</trkpt>
<trkpt lat="34.9738569741859" lon="137.475173791471">
<ele>236.773722715599</ele>
</trkpt>
<trkpt lat="34.9741059995924" lon="137.474895684061">
<ele>234.413695897233</ele>
</trkpt>
<trkpt lat="34.9741890760826" lon="137.474728848853">
<ele>233.317216371158</ele>
</trkpt>
<trkpt lat="34.9742522047073" lon="137.47455124394">
<ele>232.248850005904</ele>
</trkpt>
<trkpt lat="34.9742696021927" lon="137.474455338168">
<ele>231.71629268138</ele>
</trkpt>
<trkpt lat="34.9742784248619" lon="137.474247203363">
<ele>230.612782938495</ele>
</trkpt>
<trkpt lat="34.9742632119765" lon="137.473609795255">
<ele>227.57292491922</ele>
</trkpt>
<trkpt lat="34.9742764456835" lon="137.473490592188">
<ele>227.074295659871</ele>
</trkpt>
<trkpt lat="34.9743079555506" lon="137.473388473526">
<ele>226.64430569208</ele>
</trkpt>
<trkpt lat="34.9743433988435" lon="137.473334955796">
<ele>226.385404278936</ele>
</trkpt>
<trkpt lat="34.9743982526887" lon="137.473289903952">
<ele>226.093984764191</ele>
</trkpt>
<trkpt lat="34.9745047417558" lon="137.473254005004">
<ele>225.635975227341</ele>
</trkpt>
<trkpt lat="34.974670614155" lon="137.473258636321">
<ele>225.014678890572</ele>
</trkpt>
<trkpt lat="34.9748190279176" lon="137.473306802813">
<ele>224.502833382726</ele>
</trkpt>
<trkpt lat="34.9748779466701" lon="137.473353942016">
<ele>224.286431114475</ele>
</trkpt>
<trkpt lat="34.97495560545" lon="137.473467975659">
<ele>223.937288207818</ele>
</trkpt>
<trkpt lat="34.9750116452432" lon="137.473668471636">
<ele>223.474112081732</ele>
</trkpt>
<trkpt lat="34.9751085638619" lon="137.474431310402">
<ele>221.886418485459</ele>
</trkpt>
<trkpt lat="34.9751302044463" lon="137.47512346569">
<ele>220.206572846301</ele>
</trkpt>
<trkpt lat="34.9751529535799" lon="137.475289159311">
<ele>219.767202587432</ele>
</trkpt>
<trkpt lat="34.9751881904489" lon="137.475411331044">
<ele>219.428814943359</ele>
</trkpt>
<trkpt lat="34.9753158779214" lon="137.475651637956">
<ele>218.710734787054</ele>
</trkpt>
<trkpt lat="34.9755620017339" lon="137.475986823123">
<ele>217.772123301173</ele>
</trkpt>
<trkpt lat="34.975771154825" lon="137.476178309275">
<ele>217.320546479226</ele>
</trkpt>
<trkpt lat="34.9759465882009" lon="137.476306068276">
<ele>217.107607217273</ele>
</trkpt>
<trkpt lat="34.9761940137803" lon="137.476420699134">
<ele>216.995756228683</ele>
</trkpt>
<trkpt lat="34.976368213733" lon="137.476458662096">
<ele>216.996731159771</ele>
</trkpt>
<trkpt lat="34.9765662999914" lon="137.476449900377">
<ele>217.033862882951</ele>
</trkpt>
<trkpt lat="34.9766870569884" lon="137.476414156669">
<ele>217.057408891975</ele>
</trkpt>
<trkpt lat="34.9768073915408" lon="137.476353794091">
<ele>217.068383857674</ele>
</trkpt>
<trkpt lat="34.9769879704512" lon="137.476220535622">
<ele>217.026062068379</ele>
</trkpt>
<trkpt lat="34.9772666626671" lon="137.475986672286">
<ele>216.704688374596</ele>
</trkpt>
<trkpt lat="34.9775957360603" lon="137.475709140051">
<ele>215.789079507246</ele>
</trkpt>
<trkpt lat="34.9777630856664" lon="137.475568938423">
<ele>215.090547272506</ele>
</trkpt>
<trkpt lat="34.9778305080779" lon="137.475531542416">
<ele>214.797228239139</ele>
</trkpt>
<trkpt lat="34.9779219427833" lon="137.475544769307">
<ele>214.405289739222</ele>
</trkpt>
<trkpt lat="34.97812447386" lon="137.475676845555">
<ele>213.330315862618</ele>
</trkpt>
<trkpt lat="34.9783198830698" lon="137.475675467471">
<ele>212.322751259708</ele>
</trkpt>
<trkpt lat="34.9784115896111" lon="137.475701653527">
<ele>211.813895681152</ele>
</trkpt>
<trkpt lat="34.9785174642399" lon="137.475789932141">
<ele>211.107234200755</ele>
</trkpt>
<trkpt lat="34.9787043233562" lon="137.476002090252">
<ele>209.677375680015</ele>
</trkpt>
<trkpt lat="34.9787446649556" lon="137.476158417947">
<ele>208.920191727058</ele>
</trkpt>
<trkpt lat="34.9787766970487" lon="137.47688815779">
<ele>205.780436406296</ele>
</trkpt>
<trkpt lat="34.9788033333455" lon="137.477278888809">
<ele>204.319056642754</ele>
</trkpt>
<trkpt lat="34.978831809561" lon="137.477669874936">
<ele>203.055831707452</ele>
</trkpt>
<trkpt lat="34.97890428577" lon="137.478047142716">
<ele>202.025978992793</ele>
</trkpt>
<trkpt lat="34.9789747935152" lon="137.47842686348">
<ele>201.229020940195</ele>
</trkpt>
<trkpt lat="34.9790333380703" lon="137.478810030685">
<ele>200.69935966222</ele>
</trkpt>
<trkpt lat="34.9790860381466" lon="137.47909436439">
<ele>200.500947710967</ele>
</trkpt>
<trkpt lat="34.9792102172373" lon="137.479460264207">
<ele>200.540321910972</ele>
</trkpt>
<trkpt lat="34.9793080122363" lon="137.479746405574">
<ele>200.843629437418</ele>
</trkpt>
<trkpt lat="34.9794282775996" lon="137.480063290134">
<ele>201.489859171505</ele>
</trkpt>
<trkpt lat="34.979533565787" lon="137.480301584633">
<ele>202.211633714178</ele>
</trkpt>
<trkpt lat="34.9796289801109" lon="137.480423631028">
<ele>202.752813786283</ele>
</trkpt>
<trkpt lat="34.9798194694831" lon="137.480592775705">
<ele>203.815047625332</ele>
</trkpt>
<trkpt lat="34.9803479004206" lon="137.481053281549">
<ele>207.334737892806</ele>
</trkpt>
<trkpt lat="34.9805928081039" lon="137.481185353112">
<ele>208.849649369248</ele>
</trkpt>
<trkpt lat="34.9807325766729" lon="137.481204785693">
<ele>209.61638365129</ele>
</trkpt>
<trkpt lat="34.9808225416443" lon="137.481196588917">
<ele>210.092999650918</ele>
</trkpt>
<trkpt lat="34.9809693769382" lon="137.481127169117">
<ele>210.888191243916</ele>
</trkpt>
<trkpt lat="34.9813041807127" lon="137.480886709452">
<ele>212.598930814999</ele>
</trkpt>
<trkpt lat="34.9815052593463" lon="137.480801216188">
<ele>213.365681467872</ele>
</trkpt>
<trkpt lat="34.9817496944744" lon="137.480730978472">
<ele>214.107946731371</ele>
</trkpt>
<trkpt lat="34.9821291667817" lon="137.480650833968">
<ele>214.905749932979</ele>
</trkpt>
<trkpt lat="34.9825834994919" lon="137.480556006534">
<ele>215.350958884071</ele>
</trkpt>
<trkpt lat="34.9827891639333" lon="137.48053239057">
<ele>215.38721732299</ele>
</trkpt>
<trkpt lat="34.983040198835" lon="137.480546550238">
<ele>215.312008849745</ele>
</trkpt>
<trkpt lat="34.9832574179711" lon="137.480493107552">
<ele>215.151706238079</ele>
</trkpt>
<trkpt lat="34.983387427799" lon="137.480393015157">
<ele>214.996850148921</ele>
</trkpt>
<trkpt lat="34.9835372788346" lon="137.480193388101">
<ele>214.725476193434</ele>
</trkpt>
<trkpt lat="34.9836129550723" lon="137.48006671935">
<ele>214.54701296304</ele>
</trkpt>
<trkpt lat="34.983732834703" lon="137.479814100408">
<ele>214.186990547629</ele>
</trkpt>
<trkpt lat="34.9839415569718" lon="137.479149272996">
<ele>213.262847632391</ele>
</trkpt>
<trkpt lat="34.9842731593015" lon="137.478493804465">
<ele>212.391549998581</ele>
</trkpt>
<trkpt lat="34.9843981051141" lon="137.478305935563">
<ele>212.175286563827</ele>
</trkpt>
<trkpt lat="34.984503235302" lon="137.478218979648">
<ele>212.053294868148</ele>
</trkpt>
<trkpt lat="34.9846656794738" lon="137.478188868034">
<ele>211.916823195518</ele>
</trkpt>
<trkpt lat="34.9848587752873" lon="137.478243425019">
<ele>211.784548753307</ele>
</trkpt>
<trkpt lat="34.9850085762884" lon="137.478353875165">
<ele>211.695834633811</ele>
</trkpt>
<trkpt lat="34.9850856688326" lon="137.478462809602">
<ele>211.650129782193</ele>
</trkpt>
<trkpt lat="34.9851372103287" lon="137.478604520751">
<ele>211.613049461747</ele>
</trkpt>
<trkpt lat="34.9852516400655" lon="137.479152577803">
<ele>211.563309914382</ele>
</trkpt>
<trkpt lat="34.9852843789138" lon="137.479248540715">
<ele>211.565185075843</ele>
</trkpt>
<trkpt lat="34.985352748576" lon="137.479309026394">
<ele>211.569185740206</ele>
</trkpt>
<trkpt lat="34.9856006015677" lon="137.479325816948">
<ele>211.587726289063</ele>
</trkpt>
<trkpt lat="34.9856768711348" lon="137.479370782584">
<ele>211.594439766098</ele>
</trkpt>
<trkpt lat="34.985854571062" lon="137.479641153115">
<ele>211.606154197199</ele>
</trkpt>
<trkpt lat="34.9859050634975" lon="137.479745375475">
<ele>211.603184299183</ele>
</trkpt>
<trkpt lat="34.985974603259" lon="137.48004586087">
<ele>211.568451388484</ele>
</trkpt>
<trkpt lat="34.9859768087302" lon="137.480331265304">
<ele>211.491260116276</ele>
</trkpt>
<trkpt lat="34.9859400821899" lon="137.480523863909">
<ele>211.406600373622</ele>
</trkpt>
<trkpt lat="34.9858894830069" lon="137.480670155921">
<ele>211.317574453063</ele>
</trkpt>
<trkpt lat="34.9857757273737" lon="137.480810896029">
<ele>211.177816484986</ele>
</trkpt>
<trkpt lat="34.985501229768" lon="137.480923971233">
<ele>210.84918207755</ele>
</trkpt>
<trkpt lat="34.985394376704" lon="137.48099591975">
<ele>210.679282544529</ele>
</trkpt>
<trkpt lat="34.9853568691368" lon="137.481051677548">
<ele>210.590081206775</ele>
</trkpt>
<trkpt lat="34.9853443205261" lon="137.48110756434">
<ele>210.515552306592</ele>
</trkpt>
<trkpt lat="34.9853691673628" lon="137.481229368139">
<ele>210.343081374685</ele>
</trkpt>
<trkpt lat="34.9854717671741" lon="137.48139710092">
<ele>210.033583112463</ele>
</trkpt>
<trkpt lat="34.9856977592705" lon="137.481615002022">
<ele>209.453833140036</ele>
</trkpt>
<trkpt lat="34.9862491528992" lon="137.482001706031">
<ele>208.024052678703</ele>
</trkpt>
<trkpt lat="34.986489880714" lon="137.482065563798">
<ele>207.466655088502</ele>
</trkpt>
<trkpt lat="34.9866251194266" lon="137.482057289178">
<ele>207.169439999109</ele>
</trkpt>
<trkpt lat="34.9867790192782" lon="137.482006178031">
<ele>206.828841175545</ele>
</trkpt>
<trkpt lat="34.9868309544593" lon="137.482018640289">
<ele>206.717745591605</ele>
</trkpt>
<trkpt lat="34.9868666722061" lon="137.482048285242">
<ele>206.628166159614</ele>
</trkpt>
<trkpt lat="34.9869637840781" lon="137.482249015434">
<ele>206.24024710087</ele>
</trkpt>
<trkpt lat="34.9870909022774" lon="137.482658533283">
<ele>205.526372345325</ele>
</trkpt>
<trkpt lat="34.987406773093" lon="137.483270300502">
<ele>204.185811208266</ele>
</trkpt>
<trkpt lat="34.9874780481389" lon="137.483449088467">
<ele>203.737826870308</ele>
</trkpt>
<trkpt lat="34.9875343748505" lon="137.483657010171">
<ele>203.190353030923</ele>
</trkpt>
<trkpt lat="34.9875687272236" lon="137.483869715879">
<ele>202.591953722846</ele>
</trkpt>
<trkpt lat="34.9875807989665" lon="137.484090943953">
<ele>201.92366906245</ele>
</trkpt>
<trkpt lat="34.9875701548331" lon="137.484311792921">
<ele>201.209070108182</ele>
</trkpt>
<trkpt lat="34.9875391413572" lon="137.484528327229">
<ele>200.463477339899</ele>
</trkpt>
<trkpt lat="34.987407886682" lon="137.48497374005">
<ele>198.813544345366</ele>
</trkpt>
<trkpt lat="34.9871538892713" lon="137.485621863562">
<ele>196.493944148832</ele>
</trkpt>
<trkpt lat="34.9871088774824" lon="137.485886226702">
<ele>195.740288528231</ele>
</trkpt>
<trkpt lat="34.9871129695989" lon="137.486103679346">
<ele>195.182432443193</ele>
</trkpt>
<trkpt lat="34.9872644091496" lon="137.486958234616">
<ele>193.224992801263</ele>
</trkpt>
<trkpt lat="34.9873525966583" lon="137.487248106203">
<ele>192.528456166365</ele>
</trkpt>
<trkpt lat="34.9875680000457" lon="137.487705516874">
<ele>191.146955310468</ele>
</trkpt>
<trkpt lat="34.9877687539071" lon="137.488125002247">
<ele>189.508776828293</ele>
</trkpt>
<trkpt lat="34.9879778526099" lon="137.488561936605">
<ele>187.29962608095</ele>
</trkpt>
<trkpt lat="34.9882059934595" lon="137.489067101379">
<ele>184.11699891278</ele>
</trkpt>
<trkpt lat="34.9882784678911" lon="137.48930300693">
<ele>182.538445305103</ele>
</trkpt>
<trkpt lat="34.9882733492007" lon="137.489424900706">
<ele>181.74936277311</ele>
</trkpt>
<trkpt lat="34.9882294225992" lon="137.489624218628">
<ele>180.400626386819</ele>
</trkpt>
<trkpt lat="34.9880725647785" lon="137.490070299101">
<ele>177.320140535479</ele>
</trkpt>
<trkpt lat="34.9879368861261" lon="137.49051656515">
<ele>174.814185154702</ele>
</trkpt>
<trkpt lat="34.9878786529983" lon="137.490708121021">
<ele>174.018430409694</ele>
</trkpt>
<trkpt lat="34.9878009358435" lon="137.490963767037">
<ele>173.300861784394</ele>
</trkpt>
<trkpt lat="34.9877469041833" lon="137.49114156466">
<ele>173.061204556751</ele>
</trkpt>
<trkpt lat="34.9876862410578" lon="137.49131438347">
<ele>173.043398918225</ele>
</trkpt>
<trkpt lat="34.9876840475905" lon="137.491357502772">
<ele>173.058877754201</ele>
</trkpt>
<trkpt lat="34.9876991714906" lon="137.491390361977">
<ele>173.065319237524</ele>
</trkpt>
<trkpt lat="34.9877253646352" lon="137.491406371507">
<ele>173.069564673111</ele>
</trkpt>
<trkpt lat="34.9877609224676" lon="137.491399653111">
<ele>173.07655319651</ele>
</trkpt>
<trkpt lat="34.9878217983397" lon="137.491321994106">
<ele>173.167592587089</ele>
</trkpt>
<trkpt lat="34.9879653975846" lon="137.491054943145">
<ele>173.905713738456</ele>
</trkpt>
<trkpt lat="34.9881146203774" lon="137.490793678901">
<ele>175.219847793075</ele>
</trkpt>
<trkpt lat="34.9883083342574" lon="137.49047000185">
<ele>177.500890616315</ele>
</trkpt>
<trkpt lat="34.9887381971641" lon="137.489724218285">
<ele>183.47536634469</ele>
</trkpt>
<trkpt lat="34.988888071921" lon="137.489464191673">
<ele>185.252915921079</ele>
</trkpt>
<trkpt lat="34.989017721967" lon="137.489261426068">
<ele>186.446112179747</ele>
</trkpt>
<trkpt lat="34.989225269121" lon="137.48909456322">
<ele>187.535791967916</ele>
</trkpt>
<trkpt lat="34.9894282363565" lon="137.489001897437">
<ele>188.217297527088</ele>
</trkpt>
<trkpt lat="34.9897783538061" lon="137.488911663519">
<ele>188.859796926271</ele>
</trkpt>
<trkpt lat="34.9901687394156" lon="137.488821917155">
<ele>189.059721637365</ele>
</trkpt>
<trkpt lat="34.9904305357548" lon="137.48880140616">
<ele>189.000133671698</ele>
</trkpt>
<trkpt lat="34.9909592891462" lon="137.488834883498">
<ele>188.633239540565</ele>
</trkpt>
<trkpt lat="34.9912178809486" lon="137.488940018211">
<ele>188.389704278941</ele>
</trkpt>
<trkpt lat="34.9914322243598" lon="137.489098814973">
<ele>188.175571644278</ele>
</trkpt>
<trkpt lat="34.991560826892" lon="137.489244524022">
<ele>188.05070573642</ele>
</trkpt>
<trkpt lat="34.9916831309707" lon="137.489442048397">
<ele>187.94979804738</ele>
</trkpt>
<trkpt lat="34.9918520006298" lon="137.489800998789">
<ele>187.934446239469</ele>
</trkpt>
<trkpt lat="34.9919840007068" lon="137.490091998585">
<ele>188.098490359764</ele>
</trkpt>
<trkpt lat="34.992160238607" lon="137.490482518053">
<ele>188.584063251872</ele>
</trkpt>
<trkpt lat="34.9924363246199" lon="137.491200944586">
<ele>190.032453647066</ele>
</trkpt>
<trkpt lat="34.992573001599" lon="137.491426513735">
<ele>190.630406672571</ele>
</trkpt>
<trkpt lat="34.9926916566903" lon="137.491537142188">
<ele>191.019992658801</ele>
</trkpt>
<trkpt lat="34.992910751829" lon="137.491666311378">
<ele>191.640704613743</ele>
</trkpt>
<trkpt lat="34.9938124844559" lon="137.491955336391">
<ele>193.912322948787</ele>
</trkpt>
<trkpt lat="34.993945792014" lon="137.491983417367">
<ele>194.278381083273</ele>
</trkpt>
<trkpt lat="34.9940296982639" lon="137.491983752844">
<ele>194.517810096106</ele>
</trkpt>
<trkpt lat="34.9941171212746" lon="137.491958641995">
<ele>194.786676166669</ele>
</trkpt>
<trkpt lat="34.9942627929068" lon="137.491884160667">
<ele>195.292931272833</ele>
</trkpt>
<trkpt lat="34.9943786395036" lon="137.491801273238">
<ele>195.761253341962</ele>
</trkpt>
<trkpt lat="34.9945029269181" lon="137.491632393726">
<ele>196.471321338809</ele>
</trkpt>
<trkpt lat="34.9947144778652" lon="137.491296478792">
<ele>197.9728711111</ele>
</trkpt>
<trkpt lat="34.9947548598185" lon="137.491149215141">
<ele>198.575657519294</ele>
</trkpt>
<trkpt lat="34.9947513558596" lon="137.491002723777">
<ele>199.164444222322</ele>
</trkpt>
<trkpt lat="34.9947273665869" lon="137.490906015342">
<ele>199.578135343466</ele>
</trkpt>
<trkpt lat="34.9945937604415" lon="137.490578468264">
<ele>201.114525049288</ele>
</trkpt>
<trkpt lat="34.9945667149863" lon="137.490446358482">
<ele>201.695577820541</ele>
</trkpt>
<trkpt lat="34.9945631047889" lon="137.490308727502">
<ele>202.283372505775</ele>
</trkpt>
<trkpt lat="34.9945929162258" lon="137.490160227099">
<ele>202.935391081418</ele>
</trkpt>
<trkpt lat="34.9946218563143" lon="137.490091969906">
<ele>203.261323371998</ele>
</trkpt>
<trkpt lat="34.9946994045942" lon="137.489973419922">
<ele>203.901782141591</ele>
</trkpt>
<trkpt lat="34.9948271840626" lon="137.489848995737">
<ele>204.737011454714</ele>
</trkpt>
<trkpt lat="34.9950735549405" lon="137.489684036751">
<ele>206.152224816449</ele>
</trkpt>
<trkpt lat="34.9952763291472" lon="137.489597489999">
<ele>207.218295777687</ele>
</trkpt>
<trkpt lat="34.9956789422081" lon="137.489496588221">
<ele>209.207732149853</ele>
</trkpt>
<trkpt lat="34.9959051086255" lon="137.48946658122">
<ele>210.26070440186</ele>
</trkpt>
<trkpt lat="34.9961499639405" lon="137.489482820211">
<ele>211.325082667798</ele>
</trkpt>
<trkpt lat="34.9963167933627" lon="137.489528166209">
<ele>212.001158428895</ele>
</trkpt>
<trkpt lat="34.9964814268749" lon="137.48959152364">
<ele>212.613506834173</ele>
</trkpt>
<trkpt lat="34.9966807868714" lon="137.489692218781">
<ele>213.258702139712</ele>
</trkpt>
<trkpt lat="34.9968323014061" lon="137.489795314423">
<ele>213.664408284914</ele>
</trkpt>
<trkpt lat="34.9969358964796" lon="137.489888191867">
<ele>213.894567012045</ele>
</trkpt>
<trkpt lat="34.9970942968876" lon="137.490103890331">
<ele>214.151827535638</ele>
</trkpt>
<trkpt lat="34.9972880914165" lon="137.490532211737">
<ele>214.094203211836</ele>
</trkpt>
<trkpt lat="34.9974799824784" lon="137.490982247666">
<ele>213.462019613667</ele>
</trkpt>
<trkpt lat="34.9975685965181" lon="137.49123120704">
<ele>212.944574126678</ele>
</trkpt>
<trkpt lat="34.9976380446654" lon="137.491568674247">
<ele>212.167915838919</ele>
</trkpt>
<trkpt lat="34.9976704888244" lon="137.492148653133">
<ele>210.788014158334</ele>
</trkpt>
<trkpt lat="34.9977129971732" lon="137.49257922932">
<ele>209.865485645105</ele>
</trkpt>
<trkpt lat="34.997811734165" lon="137.492978304976">
<ele>209.199298250058</ele>
</trkpt>
<trkpt lat="34.9978922954031" lon="137.493220886481">
<ele>208.937441449341</ele>
</trkpt>
<trkpt lat="34.9979920413433" lon="137.493385263402">
<ele>208.833620079235</ele>
</trkpt>
<trkpt lat="34.9981411742882" lon="137.493523641096">
<ele>208.833708196128</ele>
</trkpt>
<trkpt lat="34.9983108719221" lon="137.49361558356">
<ele>208.960705033587</ele>
</trkpt>
<trkpt lat="34.9985399360511" lon="137.493703562675">
<ele>209.31667214463</ele>
</trkpt>
<trkpt lat="34.9986821472875" lon="137.493715958612">
<ele>209.627178000583</ele>
</trkpt>
<trkpt lat="34.9988282368761" lon="137.493689275519">
<ele>210.021441911604</ele>
</trkpt>
<trkpt lat="34.999314664774" lon="137.493449657669">
<ele>211.888412935767</ele>
</trkpt>
<trkpt lat="34.9994696622185" lon="137.493398491332">
<ele>212.554646831747</ele>
</trkpt>
<trkpt lat="34.9996598593362" lon="137.493402950181">
<ele>213.362203960459</ele>
</trkpt>
<trkpt lat="35.0001728531987" lon="137.493515743083">
<ele>215.484649992292</ele>
</trkpt>
<trkpt lat="35.0003964119644" lon="137.493498217134">
<ele>216.288198301415</ele>
</trkpt>
<trkpt lat="35.000507474505" lon="137.493443492301">
<ele>216.684000352208</ele>
</trkpt>
<trkpt lat="35.0005544260501" lon="137.493386640257">
<ele>216.890355007417</ele>
</trkpt>
<trkpt lat="35.0007271936054" lon="137.493074534447">
<ele>217.743608478882</ele>
</trkpt>
<trkpt lat="35.0009922855311" lon="137.492648135611">
<ele>218.675002426312</ele>
</trkpt>
<trkpt lat="35.0012809029372" lon="137.492252521287">
<ele>219.363600964966</ele>
</trkpt>
<trkpt lat="35.0014982714535" lon="137.492037174635">
<ele>219.749329032824</ele>
</trkpt>
<trkpt lat="35.0015520121061" lon="137.491917467421">
<ele>219.902351346715</ele>
</trkpt>
<trkpt lat="35.0016349410962" lon="137.491571773238">
<ele>220.330618578424</ele>
</trkpt>
<trkpt lat="35.0017509151566" lon="137.491373338941">
<ele>220.661066383244</ele>
</trkpt>
<trkpt lat="35.0018425418962" lon="137.49129876858">
<ele>220.865492461151</ele>
</trkpt>
<trkpt lat="35.0022488278417" lon="137.491228981246">
<ele>221.778316284642</ele>
</trkpt>
<trkpt lat="35.0025346121056" lon="137.491199185902">
<ele>222.574154744376</ele>
</trkpt>
<trkpt lat="35.0029890196834" lon="137.491311933">
<ele>224.072557482643</ele>
</trkpt>
<trkpt lat="35.0034671905742" lon="137.491468019337">
<ele>225.75285913978</ele>
</trkpt>
<trkpt lat="35.0039747322189" lon="137.491608393289">
<ele>227.275753493168</ele>
</trkpt>
<trkpt lat="35.0040587092127" lon="137.491592359462">
<ele>227.481699624565</ele>
</trkpt>
<trkpt lat="35.0042336760128" lon="137.491521505199">
<ele>227.876007690075</ele>
</trkpt>
<trkpt lat="35.0043364529608" lon="137.491426401352">
<ele>228.111775686245</ele>
</trkpt>
<trkpt lat="35.0045344804396" lon="137.491063002786">
<ele>228.579681743523</ele>
</trkpt>
<trkpt lat="35.004721956071" lon="137.49071063696">
<ele>228.819784660079</ele>
</trkpt>
<trkpt lat="35.0048391607851" lon="137.490534583605">
<ele>228.894568741742</ele>
</trkpt>
<trkpt lat="35.0048598806994" lon="137.490453228423">
<ele>228.917792993253</ele>
</trkpt>
<trkpt lat="35.0048409527838" lon="137.490362607713">
<ele>228.942749899494</ele>
</trkpt>
<trkpt lat="35.0047453395471" lon="137.490157764397">
<ele>229.013000010409</ele>
</trkpt>
<trkpt lat="35.0046518732627" lon="137.490066915798">
<ele>229.073116503213</ele>
</trkpt>
<trkpt lat="35.0044699041336" lon="137.490023779741">
<ele>229.210597102094</ele>
</trkpt>
<trkpt lat="35.0041599460598" lon="137.490026844794">
<ele>229.632005132741</ele>
</trkpt>
<trkpt lat="35.0040309214891" lon="137.49000504783">
<ele>229.905964389708</ele>
</trkpt>
<trkpt lat="35.0037148943111" lon="137.489858658848">
<ele>230.949169280206</ele>
</trkpt>
<trkpt lat="35.0036446998795" lon="137.489801208556">
<ele>231.291763201161</ele>
</trkpt>
<trkpt lat="35.0035928543257" lon="137.489731234652">
<ele>231.634947290598</ele>
</trkpt>
<trkpt lat="35.0035465398413" lon="137.489631244719">
<ele>232.090806674152</ele>
</trkpt>
<trkpt lat="35.00349442767" lon="137.489411558485">
<ele>233.114579608908</ele>
</trkpt>
<trkpt lat="35.0033833292824" lon="137.488899321652">
<ele>235.992386470022</ele>
</trkpt>
<trkpt lat="35.0033428553529" lon="137.488038817794">
<ele>241.240459398062</ele>
</trkpt>
<trkpt lat="35.0033514285728" lon="137.487734285735">
<ele>242.92962567326</ele>
</trkpt>
<trkpt lat="35.0033610730867" lon="137.487430471924">
<ele>244.408908813184</ele>
</trkpt>
<trkpt lat="35.0033930849515" lon="137.487132235559">
<ele>245.633651049502</ele>
</trkpt>
<trkpt lat="35.0034341453034" lon="137.486845235837">
<ele>246.588075196931</ele>
</trkpt>
<trkpt lat="35.0035153924841" lon="137.48657928178">
<ele>247.310091309716</ele>
</trkpt>
<trkpt lat="35.0036563529777" lon="137.486198322859">
<ele>248.071196213374</ele>
</trkpt>
<trkpt lat="35.0038287048192" lon="137.485730478607">
<ele>248.69746614912</ele>
</trkpt>
<trkpt lat="35.0039695476031" lon="137.485218275202">
<ele>249.289261162576</ele>
</trkpt>
<trkpt lat="35.0040599226094" lon="137.484746207069">
<ele>250.029472449319</ele>
</trkpt>
<trkpt lat="35.0041116027788" lon="137.48431477739">
<ele>251.038832032752</ele>
</trkpt>
<trkpt lat="35.00414645985" lon="137.484170976754">
<ele>251.483668007792</ele>
</trkpt>
<trkpt lat="35.0041758157241" lon="137.484123585123">
<ele>251.674752600869</ele>
</trkpt>
<trkpt lat="35.0042257318994" lon="137.484089911977">
<ele>251.909790169359</ele>
</trkpt>
<trkpt lat="35.0042747333542" lon="137.484080870518">
<ele>252.124146309696</ele>
</trkpt>
<trkpt lat="35.0043236449873" lon="137.484096130829">
<ele>252.351084405353</ele>
</trkpt>
<trkpt lat="35.0046617709375" lon="137.484429916108">
<ele>254.66555816666</ele>
</trkpt>
<trkpt lat="35.0048490852765" lon="137.484587313933">
<ele>256.104544902765</ele>
</trkpt>
<trkpt lat="35.0054530554435" lon="137.484970894681">
<ele>260.917774199118</ele>
</trkpt>
<trkpt lat="35.0056241545993" lon="137.485028693604">
<ele>262.184817434973</ele>
</trkpt>
<trkpt lat="35.006033673527" lon="137.48503332728">
<ele>264.916458474511</ele>
</trkpt>
<trkpt lat="35.0064535386684" lon="137.485009203113">
<ele>267.264309680117</ele>
</trkpt>
<trkpt lat="35.0066389852295" lon="137.48492658937">
<ele>268.164911197828</ele>
</trkpt>
<trkpt lat="35.0068970750442" lon="137.484725400205">
<ele>269.277915729061</ele>
</trkpt>
<trkpt lat="35.0069863257139" lon="137.48460775788">
<ele>269.650029349027</ele>
</trkpt>
<trkpt lat="35.0070718127664" lon="137.484444664379">
<ele>270.016512050341</ele>
</trkpt>
<trkpt lat="35.0071469996638" lon="137.48424776987">
<ele>270.324823793971</ele>
</trkpt>
<trkpt lat="35.007195245762" lon="137.484057254118">
<ele>270.520650208709</ele>
</trkpt>
<trkpt lat="35.0072055422923" lon="137.483959779667">
<ele>270.588555882833</ele>
</trkpt>
<trkpt lat="35.0071975234288" lon="137.48385060984">
<ele>270.645754493905</ele>
</trkpt>
<trkpt lat="35.007124257296" lon="137.48353724337">
<ele>270.714966066038</ele>
</trkpt>
<trkpt lat="35.0069686043876" lon="137.483273237449">
<ele>270.690053602993</ele>
</trkpt>
<trkpt lat="35.006861507396" lon="137.483153768889">
<ele>270.665309642683</ele>
</trkpt>
<trkpt lat="35.0067207455306" lon="137.483047320627">
<ele>270.650346272515</ele>
</trkpt>
<trkpt lat="35.0065639669897" lon="137.483004927345">
<ele>270.668185810851</ele>
</trkpt>
<trkpt lat="35.0062404291817" lon="137.48305236381">
<ele>270.871042891693</ele>
</trkpt>
<trkpt lat="35.0061163336121" lon="137.483032773769">
<ele>271.030414708298</ele>
</trkpt>
<trkpt lat="35.0060757274412" lon="137.482994133711">
<ele>271.110692960937</ele>
</trkpt>
<trkpt lat="35.0060468182925" lon="137.482918417298">
<ele>271.232060207788</ele>
</trkpt>
<trkpt lat="35.0060666812229" lon="137.482766768853">
<ele>271.499081075056</ele>
</trkpt>
<trkpt lat="35.0062288279506" lon="137.482422344782">
<ele>272.442940896663</ele>
</trkpt>
<trkpt lat="35.0063816792153" lon="137.482094446045">
<ele>273.663350961389</ele>
</trkpt>
<trkpt lat="35.0064258162852" lon="137.481902778156">
<ele>274.414214097459</ele>
</trkpt>
<trkpt lat="35.0064691598798" lon="137.481541503558">
<ele>275.927232044473</ele>
</trkpt>
<trkpt lat="35.0065144850252" lon="137.481420068258">
<ele>276.516690201159</ele>
</trkpt>
<trkpt lat="35.0065584864801" lon="137.481378279657">
<ele>276.821612530827</ele>
</trkpt>
<trkpt lat="35.0066207291485" lon="137.481357394456">
<ele>277.176789922377</ele>
</trkpt>
<trkpt lat="35.0071765970241" lon="137.481373092065">
<ele>280.269610892633</ele>
</trkpt>
<trkpt lat="35.0072581483243" lon="137.481361251268">
<ele>280.72429569632</ele>
</trkpt>
<trkpt lat="35.007323204434" lon="137.481320695315">
<ele>281.130183584019</ele>
</trkpt>
<trkpt lat="35.0073608588532" lon="137.481249498546">
<ele>281.514511671238</ele>
</trkpt>
<trkpt lat="35.0073824904104" lon="137.481129544177">
<ele>282.064307947725</ele>
</trkpt>
<trkpt lat="35.0073837888613" lon="137.480620255229">
<ele>284.317619529454</ele>
</trkpt>
<trkpt lat="35.0074232559206" lon="137.480462339033">
<ele>285.05204208217</ele>
</trkpt>
<trkpt lat="35.0074811271588" lon="137.480396957771">
<ele>285.479540671179</ele>
</trkpt>
<trkpt lat="35.0076732517578" lon="137.480285033925">
<ele>286.634720824514</ele>
</trkpt>
<trkpt lat="35.0079429601928" lon="137.479902132144">
<ele>288.917200817026</ele>
</trkpt>
<trkpt lat="35.0082710195321" lon="137.479634599775">
<ele>291.173228545431</ele>
</trkpt>
<trkpt lat="35.0083299069912" lon="137.479536398942">
<ele>291.761885730161</ele>
</trkpt>
<trkpt lat="35.0083632915546" lon="137.479370608745">
<ele>292.592512738772</ele>
</trkpt>
<trkpt lat="35.0083514344749" lon="137.479023924268">
<ele>294.324920684766</ele>
</trkpt>
<trkpt lat="35.008318548287" lon="137.478860698983">
<ele>295.188530013941</ele>
</trkpt>
<trkpt lat="35.0082291561314" lon="137.478591990469">
<ele>296.715525811355</ele>
</trkpt>
<trkpt lat="35.0079732194262" lon="137.478009168666">
<ele>300.388033111313</ele>
</trkpt>
<trkpt lat="35.007936087784" lon="137.477825016086">
<ele>301.484469338496</ele>
</trkpt>
<trkpt lat="35.0079359318663" lon="137.47770514947">
<ele>302.176711656637</ele>
</trkpt>
<trkpt lat="35.0079524823805" lon="137.477607620981">
<ele>302.752427012107</ele>
</trkpt>
<trkpt lat="35.0081826931243" lon="137.477017653585">
<ele>306.394693142686</ele>
</trkpt>
<trkpt lat="35.0082193867091" lon="137.476886527467">
<ele>307.108853644913</ele>
</trkpt>
<trkpt lat="35.0082345698102" lon="137.476759600831">
<ele>307.741898644543</ele>
</trkpt>
<trkpt lat="35.0082280531221" lon="137.476679205237">
<ele>308.125242055227</ele>
</trkpt>
<trkpt lat="35.0082068776711" lon="137.476602343723">
<ele>308.496761762042</ele>
</trkpt>
<trkpt lat="35.0081543265047" lon="137.476503374227">
<ele>309.014769580109</ele>
</trkpt>
<trkpt lat="35.0080413833308" lon="137.47640105608">
<ele>309.716947174713</ele>
</trkpt>
<trkpt lat="35.0079165518079" lon="137.476361814961">
<ele>310.300772781558</ele>
</trkpt>
<trkpt lat="35.0074497767522" lon="137.476334781981">
<ele>311.968973891768</ele>
</trkpt>
<trkpt lat="35.0072147839934" lon="137.476320525665">
<ele>312.59497252155</ele>
</trkpt>
<trkpt lat="35.0070906843294" lon="137.47628819965">
<ele>312.893395882447</ele>
</trkpt>
<trkpt lat="35.0067358959667" lon="137.476044254402">
<ele>313.766973999058</ele>
</trkpt>
<trkpt lat="35.0064786707692" lon="137.475791249565">
<ele>314.501850051208</ele>
</trkpt>
<trkpt lat="35.006269178446" lon="137.47564410258">
<ele>315.117253709268</ele>
</trkpt>
<trkpt lat="35.0060438146806" lon="137.475576226933">
<ele>315.793205845354</ele>
</trkpt>
<trkpt lat="35.0056001810344" lon="137.475533665522">
<ele>317.347841279935</ele>
</trkpt>
<trkpt lat="35.0053233236185" lon="137.475492438755">
<ele>318.495592117061</ele>
</trkpt>
<trkpt lat="35.0052422052919" lon="137.475444762699">
<ele>318.890807402944</ele>
</trkpt>
<trkpt lat="35.0051794225308" lon="137.475377801174">
<ele>319.266471206428</ele>
</trkpt>
<trkpt lat="35.0051333193414" lon="137.475289281603">
<ele>319.663051640199</ele>
</trkpt>
<trkpt lat="35.0051076719971" lon="137.475177828359">
<ele>320.109646702513</ele>
</trkpt>
<trkpt lat="35.0051253048254" lon="137.474997098928">
<ele>320.833154096757</ele>
</trkpt>
<trkpt lat="35.0051768429322" lon="137.47488715037">
<ele>321.343339034942</ele>
</trkpt>
<trkpt lat="35.005520676577" lon="137.474495339153">
<ele>323.697850876415</ele>
</trkpt>
<trkpt lat="35.0057000633931" lon="137.474223395363">
<ele>325.121649350288</ele>
</trkpt>
<trkpt lat="35.0057496254726" lon="137.474096687243">
<ele>325.68907497468</ele>
</trkpt>
<trkpt lat="35.0057588635842" lon="137.473995094308">
<ele>326.096565194193</ele>
</trkpt>
<trkpt lat="35.0057483094482" lon="137.473896838917">
<ele>326.488640004231</ele>
</trkpt>
<trkpt lat="35.005524934035" lon="137.473218877274">
<ele>329.29825542391</ele>
</trkpt>
<trkpt lat="35.0055180898282" lon="137.473091206944">
<ele>329.785373897896</ele>
</trkpt>
<trkpt lat="35.0055462185056" lon="137.473005861016">
<ele>330.136894961311</ele>
</trkpt>
<trkpt lat="35.0056831983407" lon="137.472863212738">
<ele>330.977441025824</ele>
</trkpt>
<trkpt lat="35.0061618860755" lon="137.472637102372">
<ele>333.381035519614</ele>
</trkpt>
<trkpt lat="35.0063975694148" lon="137.472482511475">
<ele>334.636018228452</ele>
</trkpt>
<trkpt lat="35.0066437276816" lon="137.472277821399">
<ele>336.007573331315</ele>
</trkpt>
<trkpt lat="35.0067148301705" lon="137.472175675513">
<ele>336.502514994754</ele>
</trkpt>
<trkpt lat="35.006750632058" lon="137.472079638806">
<ele>336.886878546059</ele>
</trkpt>
<trkpt lat="35.0068565199724" lon="137.471109984529">
<ele>340.291173079396</ele>
</trkpt>
<trkpt lat="35.0068482473233" lon="137.470960761303">
<ele>340.818085351546</ele>
</trkpt>
<trkpt lat="35.0067831854642" lon="137.470519740734">
<ele>342.501386505038</ele>
</trkpt>
<trkpt lat="35.0067829633499" lon="137.470270814318">
<ele>343.537837689913</ele>
</trkpt>
<trkpt lat="35.0068437396246" lon="137.469851140272">
<ele>345.521980506488</ele>
</trkpt>
<trkpt lat="35.0069130502523" lon="137.469379840956">
<ele>348.057990211496</ele>
</trkpt>
<trkpt lat="35.0068884195382" lon="137.469043860692">
<ele>349.988902960147</ele>
</trkpt>
<trkpt lat="35.0068510096569" lon="137.468864090842">
<ele>351.077368703063</ele>
</trkpt>
<trkpt lat="35.0067981932255" lon="137.468725348937">
<ele>351.977655987368</ele>
</trkpt>
<trkpt lat="35.0067241806812" lon="137.468592361219">
<ele>352.922747923674</ele>
</trkpt>
<trkpt lat="35.006392720317" lon="137.468122313695">
<ele>356.455837053258</ele>
</trkpt>
<trkpt lat="35.0061330214655" lon="137.467699541765">
<ele>359.254538928036</ele>
</trkpt>
<trkpt lat="35.0059602785225" lon="137.467502512938">
<ele>360.704030766272</ele>
</trkpt>
<trkpt lat="35.0058017029192" lon="137.467358743314">
<ele>361.878514556787</ele>
</trkpt>
<trkpt lat="35.0050261603196" lon="137.466910776506">
<ele>366.74286757826</ele>
</trkpt>
<trkpt lat="35.0048220844534" lon="137.466841767431">
<ele>367.889411955132</ele>
</trkpt>
<trkpt lat="35.0042322707228" lon="137.466703834499">
<ele>370.952162347746</ele>
</trkpt>
<trkpt lat="35.0041537269136" lon="137.466692490558">
<ele>371.329912343514</ele>
</trkpt>
<trkpt lat="35.004090420932" lon="137.466711276612">
<ele>371.637807525477</ele>
</trkpt>
<trkpt lat="35.0035538268851" lon="137.467073507966">
<ele>374.330122737155</ele>
</trkpt>
<trkpt lat="35.0033297932716" lon="137.467130685092">
<ele>375.281688916936</ele>
</trkpt>
<trkpt lat="35.0025614528341" lon="137.467275712653">
<ele>378.654865777362</ele>
</trkpt>
<trkpt lat="35.0017698824095" lon="137.467715981938">
<ele>382.906195100312</ele>
</trkpt>
<trkpt lat="35.0014100816164" lon="137.467803682831">
<ele>384.676563712064</ele>
</trkpt>
<trkpt lat="35.0012562447212" lon="137.467783838287">
<ele>385.385401615339</ele>
</trkpt>
<trkpt lat="35.0011102009727" lon="137.467722561651">
<ele>386.062331308976</ele>
</trkpt>
<trkpt lat="35.0009849000587" lon="137.467610736537">
<ele>386.710174651377</ele>
</trkpt>
<trkpt lat="35.0008917407235" lon="137.467480159611">
<ele>387.266198549345</ele>
</trkpt>
<trkpt lat="35.0008586541463" lon="137.467402395099">
<ele>387.536498098908</ele>
</trkpt>
<trkpt lat="35.0008502084685" lon="137.467293595096">
<ele>387.863090237514</ele>
</trkpt>
<trkpt lat="35.0009019275912" lon="137.466920260571">
<ele>388.891589860574</ele>
</trkpt>
<trkpt lat="35.0008760628125" lon="137.466767055902">
<ele>389.276086586711</ele>
</trkpt>
<trkpt lat="35.0008438358008" lon="137.466677428086">
<ele>389.506284865356</ele>
</trkpt>
<trkpt lat="34.9998275004653" lon="137.46531999878">
<ele>393.232102204498</ele>
</trkpt>
<trkpt lat="34.9994012057979" lon="137.464731890373">
<ele>395.131178140193</ele>
</trkpt>
<trkpt lat="34.9993068595089" lon="137.464562541528">
<ele>395.684960610289</ele>
</trkpt>
<trkpt lat="34.9992745402846" lon="137.464469467546">
<ele>395.967042316789</ele>
</trkpt>
<trkpt lat="34.9992726384918" lon="137.464378947474">
<ele>396.223777626753</ele>
</trkpt>
<trkpt lat="34.9993534070728" lon="137.464059603702">
<ele>397.20351112672</ele>
</trkpt>
<trkpt lat="34.999344245827" lon="137.463980122836">
<ele>397.445220370787</ele>
</trkpt>
<trkpt lat="34.9993049716759" lon="137.463892643182">
<ele>397.748764804445</ele>
</trkpt>
<trkpt lat="34.9992558059045" lon="137.46384521506">
<ele>397.98355385193</ele>
</trkpt>
<trkpt lat="34.9990591812702" lon="137.463719036929">
<ele>398.827198277972</ele>
</trkpt>
<trkpt lat="34.9986385107304" lon="137.463371603201">
<ele>400.832358777535</ele>
</trkpt>
<trkpt lat="34.9981323960284" lon="137.463079959016">
<ele>403.122495074861</ele>
</trkpt>
<trkpt lat="34.9976734635955" lon="137.462742042929">
<ele>405.232456019011</ele>
</trkpt>
<trkpt lat="34.9973518946807" lon="137.462515577735">
<ele>406.493284070168</ele>
</trkpt>
<trkpt lat="34.9970760264107" lon="137.462503721717">
<ele>407.254955950709</ele>
</trkpt>
<trkpt lat="34.9969447958822" lon="137.462544567907">
<ele>407.567233597587</ele>
</trkpt>
<trkpt lat="34.9968213402552" lon="137.462622685346">
<ele>407.844074373923</ele>
</trkpt>
<trkpt lat="34.9966797507126" lon="137.462749292515">
<ele>408.136205787387</ele>
</trkpt>
<trkpt lat="34.99662936769" lon="137.46280692891">
<ele>408.235657687466</ele>
</trkpt>
<trkpt lat="34.9965904915237" lon="137.462889553233">
<ele>408.339612564675</ele>
</trkpt>
<trkpt lat="34.9965750967192" lon="137.463017252951">
<ele>408.468374454565</ele>
</trkpt>
<trkpt lat="34.9966138681352" lon="137.463171255475">
<ele>408.615379360917</ele>
</trkpt>
<trkpt lat="34.9969409165523" lon="137.463594164222">
<ele>409.175611832391</ele>
</trkpt>
<trkpt lat="34.9970225151752" lon="137.463729251389">
<ele>409.40010110824</ele>
</trkpt>
<trkpt lat="34.9970567791889" lon="137.463844057466">
<ele>409.596668169131</ele>
</trkpt>
<trkpt lat="34.9970518355837" lon="137.46400510002">
<ele>409.908278838717</ele>
</trkpt>
<trkpt lat="34.9969911026118" lon="137.464152450801">
<ele>410.296854292854</ele>
</trkpt>
<trkpt lat="34.9969017170559" lon="137.46424427077">
<ele>410.69687512385</ele>
</trkpt>
<trkpt lat="34.9967889673513" lon="137.464291071801">
<ele>411.170039300039</ele>
</trkpt>
<trkpt lat="34.9966941552565" lon="137.464289694396">
<ele>411.596429986074</ele>
</trkpt>
<trkpt lat="34.9966322888909" lon="137.464269553137">
<ele>411.908860137178</ele>
</trkpt>
<trkpt lat="34.9965489973996" lon="137.464213133211">
<ele>412.412977352504</ele>
</trkpt>
<trkpt lat="34.9964810628896" lon="137.464130627017">
<ele>412.965463678058</ele>
</trkpt>
<trkpt lat="34.9963300005215" lon="137.463908750066">
<ele>414.512777968564</ele>
</trkpt>
<trkpt lat="34.996179999343" lon="137.463687497756">
<ele>416.287200774687</ele>
</trkpt>
<trkpt lat="34.9956346852696" lon="137.462837767814">
<ele>423.766946331206</ele>
</trkpt>
<trkpt lat="34.9953743554618" lon="137.462427284933">
<ele>426.797928222939</ele>
</trkpt>
<trkpt lat="34.9952787304638" lon="137.462304139041">
<ele>427.599560466415</ele>
</trkpt>
<trkpt lat="34.9950575491437" lon="137.462185652509">
<ele>428.739492315329</ele>
</trkpt>
<trkpt lat="34.9949805927348" lon="137.462180244986">
<ele>429.037493944632</ele>
</trkpt>
<trkpt lat="34.9949223605982" lon="137.462196003181">
<ele>429.246533976305</ele>
</trkpt>
<trkpt lat="34.9945755434364" lon="137.462378807305">
<ele>430.216899350339</ele>
</trkpt>
<trkpt lat="34.9945103108569" lon="137.46247096838">
<ele>430.395609048797</ele>
</trkpt>
<trkpt lat="34.9942677997479" lon="137.462956311582">
<ele>431.07238124069</ele>
</trkpt>
<trkpt lat="34.9941880791408" lon="137.463068262684">
<ele>431.261540709254</ele>
</trkpt>
<trkpt lat="34.9941252822318" lon="137.463116599005">
<ele>431.389104264555</ele>
</trkpt>
<trkpt lat="34.9936588512974" lon="137.463315221635">
<ele>432.56945145849</ele>
</trkpt>
<trkpt lat="34.9934032447356" lon="137.46342141125">
<ele>433.498451671711</ele>
</trkpt>
<trkpt lat="34.993176838603" lon="137.463497954016">
<ele>434.451948458463</ele>
</trkpt>
<trkpt lat="34.9930749297783" lon="137.46354399741">
<ele>434.929129954701</ele>
</trkpt>
<trkpt lat="34.9927716174767" lon="137.463733545518">
<ele>436.504335127229</ele>
</trkpt>
<trkpt lat="34.9926616543577" lon="137.46374663036">
<ele>437.024926396994</ele>
</trkpt>
<trkpt lat="34.9925450302422" lon="137.463694666255">
<ele>437.602420799528</ele>
</trkpt>
<trkpt lat="34.9924817158158" lon="137.463619870363">
<ele>437.99969706877</ele>
</trkpt>
<trkpt lat="34.9924470891992" lon="137.463533629879">
<ele>438.344872648438</ele>
</trkpt>
<trkpt lat="34.9923751412566" lon="137.463064272573">
<ele>439.837700452034</ele>
</trkpt>
<trkpt lat="34.9923453654536" lon="137.462945715988">
<ele>440.148950176359</ele>
</trkpt>
<trkpt lat="34.9921448887789" lon="137.462613033946">
<ele>440.881916082037</ele>
</trkpt>
<trkpt lat="34.9920865499043" lon="137.462551028455">
<ele>440.977470436409</ele>
</trkpt>
<trkpt lat="34.9920341870981" lon="137.462520652761">
<ele>441.03043758678</ele>
</trkpt>
<trkpt lat="34.9917980067557" lon="137.462478355597">
<ele>441.072581786098</ele>
</trkpt>
<trkpt lat="34.9916534462932" lon="137.462476099948">
<ele>440.95977701678</ele>
</trkpt>
<trkpt lat="34.9914033387737" lon="137.462493333196">
<ele>440.524473745516</ele>
</trkpt>
<trkpt lat="34.9911596100064" lon="137.462510225269">
<ele>439.830878095117</ele>
</trkpt>
<trkpt lat="34.9907301363146" lon="137.46253600123">
<ele>438.107632631326</ele>
</trkpt>
<trkpt lat="34.9900719632593" lon="137.462414589681">
<ele>434.926456491455</ele>
</trkpt>
<trkpt lat="34.9897227696327" lon="137.462159043975">
<ele>433.204051668107</ele>
</trkpt>
<trkpt lat="34.9896060210279" lon="137.46203846362">
<ele>432.665543064359</ele>
</trkpt>
<trkpt lat="34.9892850008372" lon="137.461629997527">
<ele>431.487148119283</ele>
</trkpt>
<trkpt lat="34.9890862339887" lon="137.461377022515">
<ele>431.09840750192</ele>
</trkpt>
<trkpt lat="34.9889049718581" lon="137.461135914425">
<ele>430.946562360081</ele>
</trkpt>
<trkpt lat="34.9887513140015" lon="137.460734198572">
<ele>431.015230613929</ele>
</trkpt>
<trkpt lat="34.9885802406462" lon="137.460267299703">
<ele>431.424326177427</ele>
</trkpt>
<trkpt lat="34.9884022287624" lon="137.459781474071">
<ele>432.211454078374</ele>
</trkpt>
<trkpt lat="34.988259771786" lon="137.459392686677">
<ele>433.143937015404</ele>
</trkpt>
<trkpt lat="34.9881222046883" lon="137.459017251734">
<ele>434.332647029008</ele>
</trkpt>
<trkpt lat="34.9879541279382" lon="137.458553797066">
<ele>436.178089796698</ele>
</trkpt>
<trkpt lat="34.9878648557243" lon="137.457961622786">
<ele>438.743963200729</ele>
</trkpt>
<trkpt lat="34.9877725409883" lon="137.457748324938">
<ele>439.804386667268</ele>
</trkpt>
<trkpt lat="34.987667010928" lon="137.45760331274">
<ele>440.638479164566</ele>
</trkpt>
<trkpt lat="34.9875099929075" lon="137.457490894317">
<ele>441.557976619455</ele>
</trkpt>
<trkpt lat="34.987091305349" lon="137.457363676094">
<ele>443.481134916805</ele>
</trkpt>
<trkpt lat="34.9867407449063" lon="137.457243157363">
<ele>444.788227572251</ele>
</trkpt>
<trkpt lat="34.9865573415405" lon="137.45714941728">
<ele>445.390909542313</ele>
</trkpt>
<trkpt lat="34.9864641664095" lon="137.457079014858">
<ele>445.695578190454</ele>
</trkpt>
<trkpt lat="34.9863395497627" lon="137.456962216381">
<ele>446.102151018539</ele>
</trkpt>
<trkpt lat="34.9861829400621" lon="137.456766905128">
<ele>446.631531627728</ele>
</trkpt>
<trkpt lat="34.985876957547" lon="137.456169839757">
<ele>447.769806380064</ele>
</trkpt>
<trkpt lat="34.985658629993" lon="137.455776553968">
<ele>448.309723436679</ele>
</trkpt>
<trkpt lat="34.9855573945621" lon="137.455501823223">
<ele>448.512866010977</ele>
</trkpt>
<trkpt lat="34.9855157121825" lon="137.455200211431">
<ele>448.586946903693</ele>
</trkpt>
<trkpt lat="34.9856143279678" lon="137.454533473371">
<ele>448.300615381043</ele>
</trkpt>
<trkpt lat="34.9856419878328" lon="137.454209408532">
<ele>448.028722077947</ele>
</trkpt>
<trkpt lat="34.9856424672196" lon="137.453882407091">
<ele>447.775068395487</ele>
</trkpt>
<trkpt lat="34.9855896659503" lon="137.453503019686">
<ele>447.648994077286</ele>
</trkpt>
<trkpt lat="34.9855381013068" lon="137.453145685965">
<ele>447.865360636104</ele>
</trkpt>
<trkpt lat="34.9855074934603" lon="137.453054373126">
<ele>448.003116450804</ele>
</trkpt>
<trkpt lat="34.985448977878" lon="137.452998532165">
<ele>448.165643146833</ele>
</trkpt>
<trkpt lat="34.9853696398728" lon="137.452997758539">
<ele>448.377940907971</ele>
</trkpt>
<trkpt lat="34.9851459696002" lon="137.453069328461">
<ele>449.236065436749</ele>
</trkpt>
<trkpt lat="34.984989025877" lon="137.453135483461">
<ele>450.09448422192</ele>
</trkpt>
<trkpt lat="34.9847627274871" lon="137.453233637548">
<ele>451.709845919422</ele>
</trkpt>
<trkpt lat="34.9845363639794" lon="137.453331819718">
<ele>453.757378612931</ele>
</trkpt>
<trkpt lat="34.9843087219969" lon="137.453427757667">
<ele>456.197539499778</ele>
</trkpt>
<trkpt lat="34.9840110890229" lon="137.453477350155">
<ele>459.662624810614</ele>
</trkpt>
<trkpt lat="34.9838349845027" lon="137.453457798785">
<ele>461.842277544087</ele>
</trkpt>
<trkpt lat="34.9836363575184" lon="137.45336917608">
<ele>464.498673434777</ele>
</trkpt>
<trkpt lat="34.9834677920796" lon="137.453112355225">
<ele>467.821286584359</ele>
</trkpt>
<trkpt lat="34.9832969205174" lon="137.452831904064">
<ele>471.093568252345</ele>
</trkpt>
<trkpt lat="34.9831921991423" lon="137.45272915044">
<ele>472.512218738776</ele>
</trkpt>
<trkpt lat="34.9830981763889" lon="137.452701666689">
<ele>473.463408898811</ele>
</trkpt>
<trkpt lat="34.9829664477972" lon="137.452697334509">
<ele>474.671095741631</ele>
</trkpt>
<trkpt lat="34.9827352764105" lon="137.452725590621">
<ele>476.540419115912</ele>
</trkpt>
<trkpt lat="34.9825336516088" lon="137.452750335387">
<ele>477.911599969146</ele>
</trkpt>
<trkpt lat="34.9824609485974" lon="137.45275051518">
<ele>478.349112592052</ele>
</trkpt>
<trkpt lat="34.9823904157282" lon="137.452728995847">
<ele>478.759517903492</ele>
</trkpt>
<trkpt lat="34.982149699442" lon="137.452623902611">
<ele>480.005937050467</ele>
</trkpt>
<trkpt lat="34.981922432184" lon="137.452525692857">
<ele>480.963253976018</ele>
</trkpt>
<trkpt lat="34.9816446032382" lon="137.452471484628">
<ele>481.91442980906</ele>
</trkpt>
<trkpt lat="34.9811251672807" lon="137.452317926651">
<ele>483.610380108913</ele>
</trkpt>
<trkpt lat="34.98056400017" lon="137.452150997928">
<ele>485.805531970201</ele>
</trkpt>
<trkpt lat="34.9800931170556" lon="137.452012468899">
<ele>488.063636956652</ele>
</trkpt>
<trkpt lat="34.9797990299917" lon="137.451978600028">
<ele>489.531023741804</ele>
</trkpt>
<trkpt lat="34.9794103420676" lon="137.451888149886">
<ele>491.42232856579</ele>
</trkpt>
<trkpt lat="34.9792206577756" lon="137.451882640004">
<ele>492.245398995702</ele>
</trkpt>
<trkpt lat="34.9790577107728" lon="137.451907041565">
<ele>492.896860415841</ele>
</trkpt>
<trkpt lat="34.9786644216919" lon="137.452115869424">
<ele>494.31234234966</ele>
</trkpt>
<trkpt lat="34.9784414800765" lon="137.452189907296">
<ele>494.922057579475</ele>
</trkpt>
<trkpt lat="34.9779594334284" lon="137.452172106758">
<ele>496.000518481927</ele>
</trkpt>
<trkpt lat="34.9774599760093" lon="137.452234399462">
<ele>497.117249523512</ele>
</trkpt>
<trkpt lat="34.9770698975424" lon="137.452273760097">
<ele>498.150811035894</ele>
</trkpt>
<trkpt lat="34.9769365954718" lon="137.452317750042">
<ele>498.564188548053</ele>
</trkpt>
<trkpt lat="34.9765942911156" lon="137.452532033049">
<ele>499.857262182803</ele>
</trkpt>
<trkpt lat="34.97648967121" lon="137.452569803511">
<ele>500.262484671234</ele>
</trkpt>
<trkpt lat="34.9763702702537" lon="137.452589067915">
<ele>500.728572768871</ele>
</trkpt>
<trkpt lat="34.9758118898714" lon="137.452599619249">
<ele>503.094251743471</ele>
</trkpt>
<trkpt lat="34.9755849876466" lon="137.452737317899">
<ele>504.230090475961</ele>
</trkpt>
<trkpt lat="34.9753852711014" lon="137.453032685716">
<ele>505.599508376333</ele>
</trkpt>
<trkpt lat="34.9753326663632" lon="137.453089499305">
<ele>505.893382592863</ele>
</trkpt>
<trkpt lat="34.9750381505121" lon="137.453224367885">
<ele>507.102786390654</ele>
</trkpt>
<trkpt lat="34.9749184775592" lon="137.453255908554">
<ele>507.518364242893</ele>
</trkpt>
<trkpt lat="34.9746222000811" lon="137.4532870142">
<ele>508.373955924455</ele>
</trkpt>
<trkpt lat="34.9741497905206" lon="137.45333671006">
<ele>509.326928490896</ele>
</trkpt>
<trkpt lat="34.9737687704816" lon="137.453458323806">
<ele>509.917617087117</ele>
</trkpt>
<trkpt lat="34.9735703525466" lon="137.453436216556">
<ele>510.239990738887</ele>
</trkpt>
<trkpt lat="34.9732919664406" lon="137.453324965199">
<ele>510.839471234085</ele>
</trkpt>
<trkpt lat="34.9730660508465" lon="137.453151669081">
<ele>511.584198217111</ele>
</trkpt>
<trkpt lat="34.9727971596837" lon="137.452936187567">
<ele>512.780362700545</ele>
</trkpt>
<trkpt lat="34.9727315788048" lon="137.452859050264">
<ele>513.180152990791</ele>
</trkpt>
<trkpt lat="34.9726724917784" lon="137.452741710675">
<ele>513.705352549657</ele>
</trkpt>
<trkpt lat="34.9725504746651" lon="137.452407862588">
<ele>515.241952469905</ele>
</trkpt>
<trkpt lat="34.9723664661015" lon="137.451947477629">
<ele>517.577404919725</ele>
</trkpt>
<trkpt lat="34.9722700381868" lon="137.451470209297">
<ele>519.759799941304</ele>
</trkpt>
<trkpt lat="34.9721931675248" lon="137.451061172869">
<ele>521.402276711581</ele>
</trkpt>
<trkpt lat="34.9720016387768" lon="137.450649089525">
<ele>522.923526397264</ele>
</trkpt>
<trkpt lat="34.9717850852522" lon="137.450211058083">
<ele>524.174494091037</ele>
</trkpt>
<trkpt lat="34.9716016245068" lon="137.449797465635">
<ele>525.056870245893</ele>
</trkpt>
<trkpt lat="34.9715412882554" lon="137.449737060795">
<ele>525.214353929184</ele>
</trkpt>
<trkpt lat="34.9713511657177" lon="137.449607994724">
<ele>525.629699625178</ele>
</trkpt>
<trkpt lat="34.9711223877555" lon="137.449401551946">
<ele>526.146356621547</ele>
</trkpt>
<trkpt lat="34.9709055623666" lon="137.449150961384">
<ele>526.688258083279</ele>
</trkpt>
<trkpt lat="34.9707021487265" lon="137.448826707912">
<ele>527.324869129046</ele>
</trkpt>
<trkpt lat="34.9704997103783" lon="137.448354706204">
<ele>528.214400439167</ele>
</trkpt>
<trkpt lat="34.9701915752342" lon="137.447282186127">
<ele>530.168063906814</ele>
</trkpt>
<trkpt lat="34.9699545399202" lon="137.446138255163">
<ele>531.740932101867</ele>
</trkpt>
<trkpt lat="34.9699431642874" lon="137.446022202326">
<ele>531.852686536214</ele>
</trkpt>
<trkpt lat="34.9700000629257" lon="137.445838302908">
<ele>532.019326628963</ele>
</trkpt>
<trkpt lat="34.9699993512587" lon="137.445706342598">
<ele>532.116521985959</ele>
</trkpt>
<trkpt lat="34.9699534669861" lon="137.445543013841">
<ele>532.225489678479</ele>
</trkpt>
<trkpt lat="34.9698040895668" lon="137.44524461761">
<ele>532.385123019775</ele>
</trkpt>
<trkpt lat="34.9697833765227" lon="137.44504677835">
<ele>532.442800634047</ele>
</trkpt>
<trkpt lat="34.9698856630402" lon="137.444359592881">
<ele>532.503136383067</ele>
</trkpt>
<trkpt lat="34.9698617564562" lon="137.44363184341">
<ele>532.523132319449</ele>
</trkpt>
<trkpt lat="34.9699198175745" lon="137.442987503878">
<ele>532.75354622209</ele>
</trkpt>
<trkpt lat="34.9699357042831" lon="137.442621788448">
<ele>533.026254905277</ele>
</trkpt>
<trkpt lat="34.9699716521962" lon="137.442399198296">
<ele>533.241501040648</ele>
</trkpt>
<trkpt lat="34.9700572563533" lon="137.442176986482">
<ele>533.498446227382</ele>
</trkpt>
<trkpt lat="34.9701525475788" lon="137.442054589319">
<ele>533.679441018318</ele>
</trkpt>
<trkpt lat="34.9702903640035" lon="137.441972983485">
<ele>533.87168703667</ele>
</trkpt>
<trkpt lat="34.9705789610447" lon="137.441865684562">
<ele>534.18183198493</ele>
</trkpt>
<trkpt lat="34.9708013331902" lon="137.441726224682">
<ele>534.324400457942</ele>
</trkpt>
<trkpt lat="34.9710095746264" lon="137.441506483074">
<ele>534.324505663069</ele>
</trkpt>
<trkpt lat="34.9712767077133" lon="137.441196289997">
<ele>534.067269199902</ele>
</trkpt>
<trkpt lat="34.9714019322522" lon="137.440962325609">
<ele>533.79929046002</ele>
</trkpt>
<trkpt lat="34.9714408172793" lon="137.440849679491">
<ele>533.668806222418</ele>
</trkpt>
<trkpt lat="34.9715784711402" lon="137.440145374578">
<ele>533.018006774599</ele>
</trkpt>
<trkpt lat="34.9716215614873" lon="137.439912740251">
<ele>532.945967405951</ele>
</trkpt>
<trkpt lat="34.9716257404395" lon="137.439812642361">
<ele>532.948294572328</ele>
</trkpt>
<trkpt lat="34.9715938886884" lon="137.439251442713">
<ele>533.382562680786</ele>
</trkpt>
<trkpt lat="34.9715720189819" lon="137.43916541902">
<ele>533.522409942998</ele>
</trkpt>
<trkpt lat="34.9715398891554" lon="137.439109361581">
<ele>533.641622600633</ele>
</trkpt>
<trkpt lat="34.9714631812395" lon="137.439055275647">
<ele>533.85354844976</ele>
</trkpt>
<trkpt lat="34.971095406748" lon="137.438926528258">
<ele>535.05197413281</ele>
</trkpt>
<trkpt lat="34.9710029420537" lon="137.438878891439">
<ele>535.437799198805</ele>
</trkpt>
<trkpt lat="34.9709393091396" lon="137.438792294837">
<ele>535.828700100537</ele>
</trkpt>
<trkpt lat="34.9708532797494" lon="137.43852503791">
<ele>536.865517690333</ele>
</trkpt>
<trkpt lat="34.9707808614421" lon="137.438413098348">
<ele>537.416385066862</ele>
</trkpt>
<trkpt lat="34.9707125918158" lon="137.438362937607">
<ele>537.800865734752</ele>
</trkpt>
<trkpt lat="34.9703705191565" lon="137.438222974351">
<ele>539.577938669832</ele>
</trkpt>
<trkpt lat="34.9703066137644" lon="137.438177712636">
<ele>539.944564369612</ele>
</trkpt>
<trkpt lat="34.9702668358717" lon="137.438091661863">
<ele>540.344803681959</ele>
</trkpt>
<trkpt lat="34.9702562863739" lon="137.437876419941">
<ele>541.18573285866</ele>
</trkpt>
<trkpt lat="34.9702285648205" lon="137.437741721805">
<ele>541.705077096733</ele>
</trkpt>
<trkpt lat="34.9701581459293" lon="137.437486283142">
<ele>542.641575643378</ele>
</trkpt>
<trkpt lat="34.9701045613949" lon="137.437412913731">
<ele>542.96199826722</ele>
</trkpt>
<trkpt lat="34.9700140362395" lon="137.437405761981">
<ele>543.301700375486</ele>
</trkpt>
<trkpt lat="34.9696811754875" lon="137.437508528451">
<ele>544.354472981261</ele>
</trkpt>
<trkpt lat="34.9695923606497" lon="137.437575093355">
<ele>544.606936328655</ele>
</trkpt>
<trkpt lat="34.9694368085166" lon="137.437733583772">
<ele>545.01003922054</ele>
</trkpt>
<trkpt lat="34.9693874068755" lon="137.437858298964">
<ele>545.191548363653</ele>
</trkpt>
<trkpt lat="34.9691372247838" lon="137.438763384593">
<ele>546.058705931087</ele>
</trkpt>
<trkpt lat="34.9690058252762" lon="137.439229384542">
<ele>546.832389268146</ele>
</trkpt>
<trkpt lat="34.9689399009289" lon="137.439354999255">
<ele>547.197425857232</ele>
</trkpt>
<trkpt lat="34.9688344404667" lon="137.439509137669">
<ele>547.812193068752</ele>
</trkpt>
<trkpt lat="34.9687032121465" lon="137.439679015836">
<ele>548.72834456928</ele>
</trkpt>
<trkpt lat="34.9685896555059" lon="137.439802913937">
<ele>549.626629639512</ele>
</trkpt>
<trkpt lat="34.968504303926" lon="137.439854906521">
<ele>550.269013891324</ele>
</trkpt>
<trkpt lat="34.9684295099144" lon="137.439872650881">
<ele>550.824978452321</ele>
</trkpt>
<trkpt lat="34.9681855677665" lon="137.439848318066">
<ele>552.864082285581</ele>
</trkpt>
<trkpt lat="34.9680233040611" lon="137.439810050768">
<ele>554.446872298373</ele>
</trkpt>
<trkpt lat="34.9678317010138" lon="137.439709789844">
<ele>556.645465718941</ele>
</trkpt>
<trkpt lat="34.967746860559" lon="137.439717908763">
<ele>557.616084542502</ele>
</trkpt>
<trkpt lat="34.9676994349504" lon="137.439760352159">
<ele>558.291862329283</ele>
</trkpt>
<trkpt lat="34.9676655417682" lon="137.439822028651">
<ele>559.000407810691</ele>
</trkpt>
<trkpt lat="34.9675468464444" lon="137.440245449573">
<ele>563.386761795463</ele>
</trkpt>
<trkpt lat="34.9675006468573" lon="137.440353891183">
<ele>564.594438223501</ele>
</trkpt>
<trkpt lat="34.9674306584457" lon="137.440433276808">
<ele>565.731086015857</ele>
</trkpt>
<trkpt lat="34.9671814448949" lon="137.440659165527">
<ele>569.238388732409</ele>
</trkpt>
<trkpt lat="34.9670872403563" lon="137.440739866273">
<ele>570.439935981091</ele>
</trkpt>
<trkpt lat="34.9670029986707" lon="137.440782248802">
<ele>571.34283438173</ele>
</trkpt>
<trkpt lat="34.9666770055964" lon="137.440893337932">
<ele>574.246077165378</ele>
</trkpt>
<trkpt lat="34.9665095825415" lon="137.440947762646">
<ele>575.430024100885</ele>
</trkpt>
<trkpt lat="34.9664097133422" lon="137.440964746631">
<ele>576.020358182164</ele>
</trkpt>
<trkpt lat="34.9661358296583" lon="137.440940090365">
<ele>577.256494197195</ele>
</trkpt>
<trkpt lat="34.9658765551884" lon="137.440918675118">
<ele>577.952225818848</ele>
</trkpt>
<trkpt lat="34.9657871103802" lon="137.440967456888">
<ele>578.107610741885</ele>
</trkpt>
<trkpt lat="34.9657289400889" lon="137.441094641177">
<ele>578.220586100229</ele>
</trkpt>
<trkpt lat="34.9657212566918" lon="137.44122582006">
<ele>578.258641548221</ele>
</trkpt>
<trkpt lat="34.9657611045061" lon="137.441520507496">
<ele>578.149723931571</ele>
</trkpt>
<trkpt lat="34.965786410066" lon="137.44177228964">
<ele>577.882584556294</ele>
</trkpt>
<trkpt lat="34.9657517866339" lon="137.4423676958">
<ele>576.808254046818</ele>
</trkpt>
<trkpt lat="34.9657309416754" lon="137.442445382975">
<ele>576.622349183918</ele>
</trkpt>
<trkpt lat="34.9656881398561" lon="137.442509606523">
<ele>576.426049900107</ele>
</trkpt>
<trkpt lat="34.9655973609363" lon="137.442579248503">
<ele>576.099522418817</ele>
</trkpt>
<trkpt lat="34.9651698815202" lon="137.442812504936">
<ele>574.433020813461</ele>
</trkpt>
<trkpt lat="34.9650265479196" lon="137.442878753035">
<ele>573.786067106134</ele>
</trkpt>
<trkpt lat="34.9649349017017" lon="137.44289801261">
<ele>573.363069718116</ele>
</trkpt>
<trkpt lat="34.9648199512189" lon="137.442869517105">
<ele>572.790253615231</ele>
</trkpt>
<trkpt lat="34.9644290406208" lon="137.442599208493">
<ele>570.207532159356</ele>
</trkpt>
<trkpt lat="34.9643617213231" lon="137.442596054596">
<ele>569.755123311833</ele>
</trkpt>
<trkpt lat="34.9642939477485" lon="137.442685266068">
<ele>569.050606951014</ele>
</trkpt>
<trkpt lat="34.9642179096892" lon="137.442920131245">
<ele>567.465496310292</ele>
</trkpt>
<trkpt lat="34.9641838532552" lon="137.443059848277">
<ele>566.468160298381</ele>
</trkpt>
<trkpt lat="34.9641597756663" lon="137.443255550478">
<ele>565.016487592457</ele>
</trkpt>
<trkpt lat="34.9641504509553" lon="137.443684165926">
<ele>561.494004938671</ele>
</trkpt>
<trkpt lat="34.9641831652274" lon="137.443958518079">
<ele>558.952706357804</ele>
</trkpt>
<trkpt lat="34.9643288098531" lon="137.444196449529">
<ele>556.027751856852</ele>
</trkpt>
<trkpt lat="34.9645989044961" lon="137.444592153557">
<ele>550.612434013732</ele>
</trkpt>
<trkpt lat="34.9646754099752" lon="137.444764568692">
<ele>548.472143180525</ele>
</trkpt>
<trkpt lat="34.9647983025772" lon="137.445207147217">
<ele>543.35049191693</ele>
</trkpt>
<trkpt lat="34.9648386284355" lon="137.445434589417">
<ele>540.848181936034</ele>
</trkpt>
<trkpt lat="34.9648652829394" lon="137.445948560072">
<ele>535.606457755297</ele>
</trkpt>
<trkpt lat="34.9649104071393" lon="137.446105694452">
<ele>534.035541582056</ele>
</trkpt>
<trkpt lat="34.9650077144674" lon="137.446329587897">
<ele>531.797014282884</ele>
</trkpt>
</trkseg>
<type>cycling</type>
</trk>
</gpx>
