<?xml version='1.0' encoding='UTF-8'?>
<gpx version="1.1"
  creator="GPXmagic"
  xmlns="http://www.topografix.com/GPX/1/1"
  xmlns:rgt="http://www.rgtcycling.com/XML/GpxExtensions/v1"
  xmlns:xsi="http://www.w3.org/2001/XMLSchema-instance" xsi:schemaLocation="http://www.topografix.com/GPX/1/1
  http://www.topografix.com/GPX/1/1/gpx.xsd">
  <metadata>
    <name>Smoothed with GPXmagic</name>
    <author>
      <link href="https://www.stepwiserefinement.co.uk">
        <text>GPXmagic v3</text>
        <type>text/html</type>
      </link>
    </author>
  </metadata>
<trk>  <name>Grand&#32;Prix&#32;Du&#32;Morbihan&#32;Long&#32;Circuit</name>
<trkseg>
<trkpt lat="47.833189999999995" lon="-2.64957"><ele>153.9</ele></trkpt>
<trkpt lat="47.83321015466552" lon="-2.649364537390495"><ele>154.25</ele></trkpt>
<trkpt lat="47.83323516524471" lon="-2.6491646844088144"><ele>154.17</ele></trkpt>
<trkpt lat="47.83331995365065" lon="-2.648556282040986"><ele>153.52</ele></trkpt>
<trkpt lat="47.83336006882159" lon="-2.6482703342876284"><ele>153.55</ele></trkpt>
<trkpt lat="47.83340500736186" lon="-2.64795000538236"><ele>153.45</ele></trkpt>
<trkpt lat="47.83344994535652" lon="-2.647629675910499"><ele>153.62</ele></trkpt>
<trkpt lat="47.83347000665494" lon="-2.6474866714902556"><ele>153.84</ele></trkpt>
<trkpt lat="47.83351166730292" lon="-2.6471898223336554"><ele>154.22</ele></trkpt>
<trkpt lat="47.83355707383494" lon="-2.646868367518281"><ele>154.31</ele></trkpt>
<trkpt lat="47.83359270910699" lon="-2.6466263202178095"><ele>154.74</ele></trkpt>
<trkpt lat="47.833606369514584" lon="-2.6465431208281087"><ele>154.75</ele></trkpt>
<trkpt lat="47.83363498717621" lon="-2.646396197849556"><ele>154.99</ele></trkpt>
<trkpt lat="47.83367356738747" lon="-2.646234488874669"><ele>155.55</ele></trkpt>
<trkpt lat="47.83369695473251" lon="-2.6461511729850185"><ele>155.62</ele></trkpt>
<trkpt lat="47.83372316465193" lon="-2.646068545902211"><ele>155.5</ele></trkpt>
<trkpt lat="47.833752316315156" lon="-2.6459872440560566"><ele>155.35</ele></trkpt>
<trkpt lat="47.83378395254629" lon="-2.645908419062075"><ele>155.19</ele></trkpt>
<trkpt lat="47.83381851080247" lon="-2.6458319824146725"><ele>155.15</ele></trkpt>
<trkpt lat="47.8338573125926" lon="-2.6457563634993315"><ele>155.22</ele></trkpt>
<trkpt lat="47.83390231166668" lon="-2.6456778718848417"><ele>155.19</ele></trkpt>
<trkpt lat="47.83395230041668" lon="-2.6455973339284906"><ele>155.11</ele></trkpt>
<trkpt lat="47.83400408402779" lon="-2.6455192756835384"><ele>155.05</ele></trkpt>
<trkpt lat="47.834055655416684" lon="-2.645448229093461"><ele>155.02</ele></trkpt>
<trkpt lat="47.83410914735255" lon="-2.6453830258613116"><ele>154.87</ele></trkpt>
<trkpt lat="47.834167977914966" lon="-2.64531914459864"><ele>154.65</ele></trkpt>
<trkpt lat="47.83423194353911" lon="-2.645254611225979"><ele>154.47</ele></trkpt>
<trkpt lat="47.8343635029081" lon="-2.645130064360761"><ele>154.21</ele></trkpt>
<trkpt lat="47.83443333333334" lon="-2.6450681258895417"><ele>154.15</ele></trkpt>
<trkpt lat="47.83461358196159" lon="-2.6449167582487068"><ele>153.55</ele></trkpt>
<trkpt lat="47.83483171467764" lon="-2.644738671763939"><ele>153.15</ele></trkpt>
<trkpt lat="47.834989583333325" lon="-2.6446131256325645"><ele>152.75</ele></trkpt>
<trkpt lat="47.835086712962955" lon="-2.644544817432638"><ele>152.55</ele></trkpt>
<trkpt lat="47.83511543981483" lon="-2.644505664448988"><ele>152.45</ele></trkpt>
<trkpt lat="47.83513492884089" lon="-2.6444541529625596"><ele>152.35</ele></trkpt>
<trkpt lat="47.83514799811386" lon="-2.644431114557011"><ele>152.35</ele></trkpt>
<trkpt lat="47.83518204180385" lon="-2.644385584096417"><ele>152.25</ele></trkpt>
<trkpt lat="47.83521838847737" lon="-2.644311947911517"><ele>152.15</ele></trkpt>
<trkpt lat="47.8352624356653" lon="-2.644203442666199"><ele>151.95</ele></trkpt>
<trkpt lat="47.83529612444444" lon="-2.6441273086814707"><ele>151.85</ele></trkpt>
<trkpt lat="47.83539576000001" lon="-2.643914831989472"><ele>151.55</ele></trkpt>
<trkpt lat="47.8354512888889" lon="-2.643800110418876"><ele>151.35</ele></trkpt>
<trkpt lat="47.83550110222223" lon="-2.6437010865027952"><ele>151.15</ele></trkpt>
<trkpt lat="47.835543778710566" lon="-2.643622884713572"><ele>151</ele></trkpt>
<trkpt lat="47.83558281618656" lon="-2.6435597807846993"><ele>150.85</ele></trkpt>
<trkpt lat="47.83562289761317" lon="-2.6435026591458475"><ele>150.67</ele></trkpt>
<trkpt lat="47.835664892784635" lon="-2.6434479126733574"><ele>150.55</ele></trkpt>
<trkpt lat="47.835747866831284" lon="-2.643350874550538"><ele>150.35</ele></trkpt>
<trkpt lat="47.83578671961592" lon="-2.643312056666922"><ele>150.35</ele></trkpt>
<trkpt lat="47.83582781338821" lon="-2.6432776417889157"><ele>150.35</ele></trkpt>
<trkpt lat="47.835878066666666" lon="-2.64324258102875"><ele>150.38</ele></trkpt>
<trkpt lat="47.835941506666664" lon="-2.643203357424879"><ele>150.55</ele></trkpt>
<trkpt lat="47.836151933333326" lon="-2.6430790254674124"><ele>150.85</ele></trkpt>
<trkpt lat="47.836202138600825" lon="-2.6430459701740228"><ele>150.75</ele></trkpt>
<trkpt lat="47.83624275226339" lon="-2.64301489368732"><ele>150.64</ele></trkpt>
<trkpt lat="47.83627939654322" lon="-2.642981000445915"><ele>150.45</ele></trkpt>
<trkpt lat="47.836313942304805" lon="-2.6429422750538882"><ele>150.34</ele></trkpt>
<trkpt lat="47.8363456295503" lon="-2.642898831056243"><ele>150.37</ele></trkpt>
<trkpt lat="47.83637243828706" lon="-2.642853738562987"><ele>150.37</ele></trkpt>
<trkpt lat="47.836395205815506" lon="-2.6428072224535595"><ele>150.4</ele></trkpt>
<trkpt lat="47.83641643018774" lon="-2.6427558839571166"><ele>150.41</ele></trkpt>
<trkpt lat="47.83647248691635" lon="-2.6425982925376967"><ele>150.45</ele></trkpt>
<trkpt lat="47.836560978931004" lon="-2.642334204748047"><ele>150.47</ele></trkpt>
<trkpt lat="47.836700002501956" lon="-2.6419150044164392"><ele>150.46</ele></trkpt>
<trkpt lat="47.83678968053849" lon="-2.641644500290355"><ele>150.15</ele></trkpt>
<trkpt lat="47.836886523696414" lon="-2.641354525831468"><ele>149.85</ele></trkpt>
<trkpt lat="47.83692705053088" lon="-2.641236348936639"><ele>149.75</ele></trkpt>
<trkpt lat="47.83695812532921" lon="-2.6411507300735892"><ele>149.75</ele></trkpt>
<trkpt lat="47.83698135227708" lon="-2.6410949062347946"><ele>149.95</ele></trkpt>
<trkpt lat="47.83700065281054" lon="-2.641059608275819"><ele>150.05</ele></trkpt>
<trkpt lat="47.83702093719395" lon="-2.641034792721514"><ele>150.15</ele></trkpt>
<trkpt lat="47.83704787980408" lon="-2.641013069788439"><ele>150.25</ele></trkpt>
<trkpt lat="47.83708765324959" lon="-2.640989377387172"><ele>150.35</ele></trkpt>
<trkpt lat="47.83714372106482" lon="-2.6409614151326606"><ele>150.55</ele></trkpt>
<trkpt lat="47.83728787905094" lon="-2.6408985852925713"><ele>151.17</ele></trkpt>
<trkpt lat="47.83736102719908" lon="-2.640870474717255"><ele>151.67</ele></trkpt>
<trkpt lat="47.837430503472234" lon="-2.6408467044247668"><ele>152.12</ele></trkpt>
<trkpt lat="47.83755484375" lon="-2.6408081800685186"><ele>152.77</ele></trkpt>
<trkpt lat="47.83760332754629" lon="-2.6407909520346085"><ele>152.96</ele></trkpt>
<trkpt lat="47.83763967592593" lon="-2.640771944492134"><ele>153.07</ele></trkpt>
<trkpt lat="47.83766487590021" lon="-2.640747412475346"><ele>153.1</ele></trkpt>
<trkpt lat="47.837678712062754" lon="-2.6407143764031"><ele>153.14</ele></trkpt>
<trkpt lat="47.83768209297839" lon="-2.6406707500487805"><ele>153.12</ele></trkpt>
<trkpt lat="47.837669468449924" lon="-2.6405407964249576"><ele>153.01</ele></trkpt>
<trkpt lat="47.83766273662552" lon="-2.6404521810380306"><ele>152.95</ele></trkpt>
<trkpt lat="47.83765981481481" lon="-2.6403530521215752"><ele>152.95</ele></trkpt>
<trkpt lat="47.837661893004125" lon="-2.640249972598901"><ele>153.05</ele></trkpt>
<trkpt lat="47.837670082304534" lon="-2.6401481276490464"><ele>153.01</ele></trkpt>
<trkpt lat="47.83768485168725" lon="-2.6400516041228586"><ele>152.77</ele></trkpt>
<trkpt lat="47.83770532576132" lon="-2.639963753666902"><ele>152.55</ele></trkpt>
<trkpt lat="47.83772701119343" lon="-2.6398878399602244"><ele>152.35</ele></trkpt>
<trkpt lat="47.83774242277093" lon="-2.639823542159513"><ele>152.25</ele></trkpt>
<trkpt lat="47.83774217706448" lon="-2.639767657131837"><ele>152.15</ele></trkpt>
<trkpt lat="47.83771968148159" lon="-2.6397130011918906"><ele>152.05</ele></trkpt>
<trkpt lat="47.837673794075144" lon="-2.63965380692791"><ele>151.85</ele></trkpt>
<trkpt lat="47.83761077778328" lon="-2.639588817169556"><ele>151.55</ele></trkpt>
<trkpt lat="47.83754057631556" lon="-2.639521815612341"><ele>151.15</ele></trkpt>
<trkpt lat="47.83739952752143" lon="-2.6393888788593185"><ele>150.65</ele></trkpt>
<trkpt lat="47.83732458835567" lon="-2.6393169227967976"><ele>150.35</ele></trkpt>
<trkpt lat="47.83716416190365" lon="-2.6391611973913762"><ele>150.05</ele></trkpt>
<trkpt lat="47.8368560980973" lon="-2.638861180041189"><ele>149.45</ele></trkpt>
<trkpt lat="47.83670768603995" lon="-2.6387175307994117"><ele>149.25</ele></trkpt>
<trkpt lat="47.83652716319994" lon="-2.638546408089206"><ele>149.15</ele></trkpt>
<trkpt lat="47.836470718519585" lon="-2.6384913045026996"><ele>149.2</ele></trkpt>
<trkpt lat="47.83642020576142" lon="-2.638438061707514"><ele>149.16</ele></trkpt>
<trkpt lat="47.83637675411524" lon="-2.6383861486435656"><ele>149.2</ele></trkpt>
<trkpt lat="47.83633730131174" lon="-2.638331914049784"><ele>149.19</ele></trkpt>
<trkpt lat="47.83629921617799" lon="-2.638273411816598"><ele>148.99</ele></trkpt>
<trkpt lat="47.83622500771605" lon="-2.6381462974000023"><ele>148.22</ele></trkpt>
<trkpt lat="47.83616068244171" lon="-2.6380194605529375"><ele>147.72</ele></trkpt>
<trkpt lat="47.83610389146091" lon="-2.6378878714281266"><ele>147.55</ele></trkpt>
<trkpt lat="47.836049615054876" lon="-2.637748912067219"><ele>147.16</ele></trkpt>
<trkpt lat="47.83598134087793" lon="-2.6375612944704434"><ele>146.51</ele></trkpt>
<trkpt lat="47.83582252743485" lon="-2.637115637334037"><ele>144.65</ele></trkpt>
<trkpt lat="47.83576936556928" lon="-2.6369715103145883"><ele>144.34</ele></trkpt>
<trkpt lat="47.835719999999995" lon="-2.6368449989850262"><ele>143.83</ele></trkpt>
<trkpt lat="47.83567060528165" lon="-2.636727726762295"><ele>143.23</ele></trkpt>
<trkpt lat="47.835617151925334" lon="-2.6366089549464413"><ele>142.76</ele></trkpt>
<trkpt lat="47.83555931586893" lon="-2.6364856666559526"><ele>142.15</ele></trkpt>
<trkpt lat="47.83550031558948" lon="-2.636363514884265"><ele>141.55</ele></trkpt>
<trkpt lat="47.83544288947198" lon="-2.636248621124208"><ele>140.95</ele></trkpt>
<trkpt lat="47.835385417206" lon="-2.6361392335386036"><ele>140.35</ele></trkpt>
<trkpt lat="47.83532251990017" lon="-2.6360258614869947"><ele>139.69</ele></trkpt>
<trkpt lat="47.835249946876125" lon="-2.6358999914025367"><ele>139.25</ele></trkpt>
<trkpt lat="47.835087525722244" lon="-2.6356247888247015"><ele>137.75</ele></trkpt>
<trkpt lat="47.83501097978966" lon="-2.635495986856831"><ele>137.15</ele></trkpt>
<trkpt lat="47.83494000463653" lon="-2.635376652928762"><ele>136.46</ele></trkpt>
<trkpt lat="47.83486901727941" lon="-2.6352573104661796"><ele>135.74</ele></trkpt>
<trkpt lat="47.83479235075751" lon="-2.6351284209734227"><ele>134.82</ele></trkpt>
<trkpt lat="47.83462765939454" lon="-2.6348515485372084"><ele>133.25</ele></trkpt>
<trkpt lat="47.83448000462556" lon="-2.634603319577152"><ele>131.69</ele></trkpt>
<trkpt lat="47.83433261316077" lon="-2.634355425244501"><ele>130.53</ele></trkpt>
<trkpt lat="47.834172457158836" lon="-2.6340842827302966"><ele>129.09</ele></trkpt>
<trkpt lat="47.83410397565827" lon="-2.6339657258947775"><ele>128.71</ele></trkpt>
<trkpt lat="47.83404916720434" lon="-2.633866803276618"><ele>128.21</ele></trkpt>
<trkpt lat="47.834004678951686" lon="-2.6337803103681576"><ele>127.8</ele></trkpt>
<trkpt lat="47.833964799256904" lon="-2.633695788061734"><ele>127.48</ele></trkpt>
<trkpt lat="47.83392571440281" lon="-2.6336071592441677"><ele>127.33</ele></trkpt>
<trkpt lat="47.833888196164004" lon="-2.6335173518780395"><ele>127.01</ele></trkpt>
<trkpt lat="47.833854684928696" lon="-2.633431997613374"><ele>126.75</ele></trkpt>
<trkpt lat="47.83380394227308" lon="-2.633285643134693"><ele>126.54</ele></trkpt>
<trkpt lat="47.83373968781624" lon="-2.6330806240436204"><ele>125.75</ele></trkpt>
<trkpt lat="47.83366838579447" lon="-2.632860594154925"><ele>125</ele></trkpt>
<trkpt lat="47.833573089665904" lon="-2.632569088025523"><ele>123.95</ele></trkpt>
<trkpt lat="47.833485002403386" lon="-2.632299995481067"><ele>122.62</ele></trkpt>
<trkpt lat="47.833442578160486" lon="-2.6321703908230134"><ele>122.24</ele></trkpt>
<trkpt lat="47.83334830783025" lon="-2.6318814137613864"><ele>121.61</ele></trkpt>
<trkpt lat="47.83330110184385" lon="-2.631734599617845"><ele>121.25</ele></trkpt>
<trkpt lat="47.83326009191537" lon="-2.6316030786984967"><ele>120.81</ele></trkpt>
<trkpt lat="47.83322718781624" lon="-2.631490207285638"><ele>120.44</ele></trkpt>
<trkpt lat="47.83320054549404" lon="-2.6313878495183536"><ele>120.14</ele></trkpt>
<trkpt lat="47.833176987980735" lon="-2.6312850812279063"><ele>119.88</ele></trkpt>
<trkpt lat="47.83315457588933" lon="-2.6311767178928664"><ele>119.5</ele></trkpt>
<trkpt lat="47.833133800740185" lon="-2.6310660544047457"><ele>119.17</ele></trkpt>
<trkpt lat="47.83311599288435" lon="-2.63095625610214"><ele>118.78</ele></trkpt>
<trkpt lat="47.83310179851853" lon="-2.6308451509315613"><ele>118.42</ele></trkpt>
<trkpt lat="47.833090472592595" lon="-2.630726399846212"><ele>118</ele></trkpt>
<trkpt lat="47.833081182222216" lon="-2.6305997465324578"><ele>117.75</ele></trkpt>
<trkpt lat="47.83307390370371" lon="-2.6304726621230103"><ele>117.5</ele></trkpt>
<trkpt lat="47.833069442962966" lon="-2.6303524399539073"><ele>117.21</ele></trkpt>
<trkpt lat="47.8330684888889" lon="-2.630237802975349"><ele>116.8</ele></trkpt>
<trkpt lat="47.83307099111112" lon="-2.6301215215432165"><ele>116.51</ele></trkpt>
<trkpt lat="47.83307626666668" lon="-2.6300014356493544"><ele>116.02</ele></trkpt>
<trkpt lat="47.83308369777778" lon="-2.6298837927064254"><ele>115.85</ele></trkpt>
<trkpt lat="47.83309355555556" lon="-2.6297758475471578"><ele>115.75</ele></trkpt>
<trkpt lat="47.83310694074075" lon="-2.629677389814252"><ele>115.65</ele></trkpt>
<trkpt lat="47.8331247837037" lon="-2.6295817261661734"><ele>115.55</ele></trkpt>
<trkpt lat="47.83314668888889" lon="-2.629484409175044"><ele>115.45</ele></trkpt>
<trkpt lat="47.83317146814815" lon="-2.629386086251047"><ele>115.26</ele></trkpt>
<trkpt lat="47.833199118518515" lon="-2.629286990027829"><ele>114.74</ele></trkpt>
<trkpt lat="47.83323156592593" lon="-2.6291819279423674"><ele>114.44</ele></trkpt>
<trkpt lat="47.83327059407408" lon="-2.629064446614835"><ele>114.07</ele></trkpt>
<trkpt lat="47.83335690518519" lon="-2.6288136821293957"><ele>113.55</ele></trkpt>
<trkpt lat="47.83339201037038" lon="-2.628708950072433"><ele>113.41</ele></trkpt>
<trkpt lat="47.8334168325926" lon="-2.628628646171453"><ele>113.17</ele></trkpt>
<trkpt lat="47.83343281185185" lon="-2.6285672475263104"><ele>113.04</ele></trkpt>
<trkpt lat="47.833449998518525" lon="-2.6284630652188135"><ele>112.75</ele></trkpt>
<trkpt lat="47.833454699259256" lon="-2.6284021570587512"><ele>112.65</ele></trkpt>
<trkpt lat="47.83345758962963" lon="-2.628322832605806"><ele>112.65</ele></trkpt>
<trkpt lat="47.833459045925935" lon="-2.628219820746532"><ele>112.63</ele></trkpt>
<trkpt lat="47.83345876592593" lon="-2.6279776785084326"><ele>111.67</ele></trkpt>
<trkpt lat="47.833456789629636" lon="-2.62787074368148"><ele>111.32</ele></trkpt>
<trkpt lat="47.83345276998629" lon="-2.627782651648906"><ele>111.13</ele></trkpt>
<trkpt lat="47.83344602441701" lon="-2.6277063818362767"><ele>110.95</ele></trkpt>
<trkpt lat="47.83343585958848" lon="-2.627631546096408"><ele>110.76</ele></trkpt>
<trkpt lat="47.833422276652946" lon="-2.6275546752961856"><ele>110.51</ele></trkpt>
<trkpt lat="47.83340555593965" lon="-2.6274771007939144"><ele>110.24</ele></trkpt>
<trkpt lat="47.833386824855964" lon="-2.6274039114717453"><ele>109.95</ele></trkpt>
<trkpt lat="47.833366131138554" lon="-2.6273349438494944"><ele>109.64</ele></trkpt>
<trkpt lat="47.833341757421124" lon="-2.6272651880139497"><ele>109.3</ele></trkpt>
<trkpt lat="47.83330993037037" lon="-2.627183845437825"><ele>109.01</ele></trkpt>
<trkpt lat="47.83321856444445" lon="-2.626968816980489"><ele>107.95</ele></trkpt>
<trkpt lat="47.83316643407408" lon="-2.626851664432283"><ele>107.26</ele></trkpt>
<trkpt lat="47.83311641925927" lon="-2.6267449119618225"><ele>106.88</ele></trkpt>
<trkpt lat="47.833068235185195" lon="-2.626650656213703"><ele>106.79</ele></trkpt>
<trkpt lat="47.83301832037038" lon="-2.6265623415991803"><ele>106.72</ele></trkpt>
<trkpt lat="47.832964405555565" lon="-2.6264740514118197"><ele>106.6</ele></trkpt>
<trkpt lat="47.832907637037046" lon="-2.626386194678605"><ele>106.66</ele></trkpt>
<trkpt lat="47.83285027067901" lon="-2.626302243347604"><ele>106.37</ele></trkpt>
<trkpt lat="47.83279332561729" lon="-2.6262241233516592"><ele>105.72</ele></trkpt>
<trkpt lat="47.83273724537037" lon="-2.6261521227414506"><ele>105.11</ele></trkpt>
<trkpt lat="47.83268168209878" lon="-2.6260859867146635"><ele>104.62</ele></trkpt>
<trkpt lat="47.83262412808642" lon="-2.626024264168829"><ele>104.22</ele></trkpt>
<trkpt lat="47.832556875" lon="-2.6259608323457058"><ele>103.9</ele></trkpt>
<trkpt lat="47.832470612568706" lon="-2.625887510101262"><ele>103.41</ele></trkpt>
<trkpt lat="47.83236060399634" lon="-2.625799075973272"><ele>102.64</ele></trkpt>
<trkpt lat="47.83223297197091" lon="-2.6256988982428386"><ele>101.5</ele></trkpt>
<trkpt lat="47.83186989595908" lon="-2.625415726915343"><ele>99.69</ele></trkpt>
<trkpt lat="47.83165138243607" lon="-2.6252424206061247"><ele>98.55</ele></trkpt>
<trkpt lat="47.831415337284874" lon="-2.6250535644282453"><ele>97.64</ele></trkpt>
<trkpt lat="47.831205000955634" lon="-2.6248849933806335"><ele>96.52</ele></trkpt>
<trkpt lat="47.830995362147696" lon="-2.62471696122202"><ele>95.85</ele></trkpt>
<trkpt lat="47.830556944679486" lon="-2.6243652246084803"><ele>93.55</ele></trkpt>
<trkpt lat="47.83052906078647" lon="-2.6243481974071705"><ele>93.45</ele></trkpt>
<trkpt lat="47.83046423611112" lon="-2.624323312985211"><ele>93.33</ele></trkpt>
<trkpt lat="47.830354774305555" lon="-2.6242872973562803"><ele>92.95</ele></trkpt>
<trkpt lat="47.83029845443245" lon="-2.624273500666323"><ele>92.55</ele></trkpt>
<trkpt lat="47.83024436642662" lon="-2.6242655855347174"><ele>92.34</ele></trkpt>
<trkpt lat="47.830190797325116" lon="-2.6242634391055097"><ele>92.05</ele></trkpt>
<trkpt lat="47.83013882887518" lon="-2.624266314424569"><ele>91.75</ele></trkpt>
<trkpt lat="47.83009098079561" lon="-2.6242737615039573"><ele>91.44</ele></trkpt>
<trkpt lat="47.830049729938274" lon="-2.6242853318649737"><ele>91.15</ele></trkpt>
<trkpt lat="47.83001218106997" lon="-2.6243017182760098"><ele>90.95</ele></trkpt>
<trkpt lat="47.829971900720174" lon="-2.6243256819612806"><ele>90.75</ele></trkpt>
<trkpt lat="47.82991854166668" lon="-2.624363125747359"><ele>90.55</ele></trkpt>
<trkpt lat="47.82984307998977" lon="-2.62442005398005"><ele>90.27</ele></trkpt>
<trkpt lat="47.82950000258138" lon="-2.6246863573349986"><ele>89.23</ele></trkpt>
<trkpt lat="47.829386706558275" lon="-2.6247717981690903"><ele>88.84</ele></trkpt>
<trkpt lat="47.82928614589026" lon="-2.6248434389614106"><ele>88.42</ele></trkpt>
<trkpt lat="47.829190820971014" lon="-2.62490563787543"><ele>88.07</ele></trkpt>
<trkpt lat="47.82909124678433" lon="-2.6249653240097373"><ele>87.69</ele></trkpt>
<trkpt lat="47.828984067117325" lon="-2.625026307096162"><ele>87.07</ele></trkpt>
<trkpt lat="47.82866202559198" lon="-2.625204112803687"><ele>86.25</ele></trkpt>
<trkpt lat="47.82844083582422" lon="-2.625325517999847"><ele>85.27</ele></trkpt>
<trkpt lat="47.828244691947724" lon="-2.625432021812295"><ele>84.4</ele></trkpt>
<trkpt lat="47.82812152292429" lon="-2.6254944208300763"><ele>83.8</ele></trkpt>
<trkpt lat="47.82807320732972" lon="-2.6255144902412884"><ele>83.7</ele></trkpt>
<trkpt lat="47.82802514406126" lon="-2.6255293392891907"><ele>83.73</ele></trkpt>
<trkpt lat="47.827975286721625" lon="-2.6255379710763336"><ele>83.59</ele></trkpt>
<trkpt lat="47.8279238271605" lon="-2.6255387448420286"><ele>83.39</ele></trkpt>
<trkpt lat="47.82787086858711" lon="-2.625531376466203"><ele>83.2</ele></trkpt>
<trkpt lat="47.827816828532235" lon="-2.6255162263590157"><ele>82.96</ele></trkpt>
<trkpt lat="47.8277632255144" lon="-2.625494749327708"><ele>82.68</ele></trkpt>
<trkpt lat="47.82770989602194" lon="-2.625466998674782"><ele>82.34</ele></trkpt>
<trkpt lat="47.827653341838136" lon="-2.625430099287095"><ele>82.01</ele></trkpt>
<trkpt lat="47.827585662222226" lon="-2.6253781859663547"><ele>81.51</ele></trkpt>
<trkpt lat="47.82750161777778" lon="-2.6253079723310697"><ele>80.88</ele></trkpt>
<trkpt lat="47.82722192888889" lon="-2.625064585918509"><ele>78.96</ele></trkpt>
<trkpt lat="47.82709215208334" lon="-2.6249541774430525"><ele>77.65</ele></trkpt>
<trkpt lat="47.82703617625" lon="-2.6249099364076947"><ele>77.77</ele></trkpt>
<trkpt lat="47.82697980444445" lon="-2.6248705875684255"><ele>78.25</ele></trkpt>
<trkpt lat="47.82692111555556" lon="-2.6248378087237283"><ele>78.72</ele></trkpt>
<trkpt lat="47.82685885000001" lon="-2.6248125432009184"><ele>78.87</ele></trkpt>
<trkpt lat="47.82679328541668" lon="-2.624793419886992"><ele>78.82</ele></trkpt>
<trkpt lat="47.82672553402777" lon="-2.6247784498950826"><ele>79.01</ele></trkpt>
<trkpt lat="47.82665400208334" lon="-2.6247658765565234"><ele>78.7</ele></trkpt>
<trkpt lat="47.82647514518519" lon="-2.6247425731716993"><ele>77.94</ele></trkpt>
<trkpt lat="47.826258918518526" lon="-2.624720239859055"><ele>77.19</ele></trkpt>
<trkpt lat="47.82616808592593" lon="-2.624712946579914"><ele>76.83</ele></trkpt>
<trkpt lat="47.826098662770924" lon="-2.6247102433687846"><ele>76.52</ele></trkpt>
<trkpt lat="47.826045480109755" lon="-2.6247123915000605"><ele>76.31</ele></trkpt>
<trkpt lat="47.82599946683129" lon="-2.624719296160315"><ele>76.07</ele></trkpt>
<trkpt lat="47.825955567956115" lon="-2.62473052937243"><ele>75.85</ele></trkpt>
<trkpt lat="47.825912608834024" lon="-2.624745824311078"><ele>75.65</ele></trkpt>
<trkpt lat="47.82587238650206" lon="-2.6247644106145076"><ele>75.48</ele></trkpt>
<trkpt lat="47.82583416927298" lon="-2.6247869073973136"><ele>75.33</ele></trkpt>
<trkpt lat="47.825794591056244" lon="-2.6248162644826007"><ele>75.19</ele></trkpt>
<trkpt lat="47.82574719259259" lon="-2.6248576092831284"><ele>74.98</ele></trkpt>
<trkpt lat="47.82568803851852" lon="-2.6249136583433668"><ele>74.74</ele></trkpt>
<trkpt lat="47.82555039851852" lon="-2.6250482183572483"><ele>74.01</ele></trkpt>
<trkpt lat="47.825437168888904" lon="-2.62515400768782"><ele>73.52</ele></trkpt>
<trkpt lat="47.82539197777778" lon="-2.6251914727906107"><ele>73.31</ele></trkpt>
<trkpt lat="47.82530145777777" lon="-2.6252554016907443"><ele>72.98</ele></trkpt>
<trkpt lat="47.825245968888886" lon="-2.625287963272293"><ele>72.79</ele></trkpt>
<trkpt lat="47.825174334814825" lon="-2.6253252449242344"><ele>72.55</ele></trkpt>
<trkpt lat="47.825082149629644" lon="-2.62536979177193"><ele>72.29</ele></trkpt>
<trkpt lat="47.82486816296297" lon="-2.6254702095486033"><ele>71.62</ele></trkpt>
<trkpt lat="47.82477646814815" lon="-2.6255147560327963"><ele>71.24</ele></trkpt>
<trkpt lat="47.824705058052125" lon="-2.6255525993193376"><ele>70.92</ele></trkpt>
<trkpt lat="47.82464860548698" lon="-2.6255870569977127"><ele>70.69</ele></trkpt>
<trkpt lat="47.82459798304528" lon="-2.625622840171279"><ele>70.5</ele></trkpt>
<trkpt lat="47.824500570501954" lon="-2.625701775941879"><ele>70.06</ele></trkpt>
<trkpt lat="47.82441704734805" lon="-2.6257788034487466"><ele>69.66</ele></trkpt>
<trkpt lat="47.82433770847272" lon="-2.6258653135882994"><ele>69.17</ele></trkpt>
<trkpt lat="47.82421703062826" lon="-2.626012029677113"><ele>68.33</ele></trkpt>
<trkpt lat="47.82405736283241" lon="-2.6262108469900913"><ele>67.24</ele></trkpt>
<trkpt lat="47.82391000105932" lon="-2.6263950051921316"><ele>66.37</ele></trkpt>
<trkpt lat="47.823839038216086" lon="-2.6264837194870965"><ele>65.99</ele></trkpt>
<trkpt lat="47.82368141784357" lon="-2.6266813555190542"><ele>65.28</ele></trkpt>
<trkpt lat="47.82360262733606" lon="-2.626781405557918"><ele>64.98</ele></trkpt>
<trkpt lat="47.82353443871139" lon="-2.6268703676144862"><ele>64.69</ele></trkpt>
<trkpt lat="47.823480208472716" lon="-2.6269455220094007"><ele>64.41</ele></trkpt>
<trkpt lat="47.8234372089958" lon="-2.6270116107748605"><ele>64.14</ele></trkpt>
<trkpt lat="47.82340032452844" lon="-2.6270755547323996"><ele>63.9</ele></trkpt>
<trkpt lat="47.823366001821206" lon="-2.6271411732294974"><ele>63.67</ele></trkpt>
<trkpt lat="47.82333338396761" lon="-2.6272087877154444"><ele>63.47</ele></trkpt>
<trkpt lat="47.8233023170936" lon="-2.6272795427591373"><ele>63.31</ele></trkpt>
<trkpt lat="47.823271146137245" lon="-2.627359480097233"><ele>63.15</ele></trkpt>
<trkpt lat="47.82323670626062" lon="-2.627457804583397"><ele>62.94</ele></trkpt>
<trkpt lat="47.823152086063814" lon="-2.6277198242304793"><ele>62.37</ele></trkpt>
<trkpt lat="47.823025002309635" lon="-2.6281250039193615"><ele>61.7</ele></trkpt>
<trkpt lat="47.82289816116669" lon="-2.628529497577591"><ele>60.94</ele></trkpt>
<trkpt lat="47.82281561401097" lon="-2.628785704918112"><ele>60.4</ele></trkpt>
<trkpt lat="47.822784062803905" lon="-2.628875938353817"><ele>60.14</ele></trkpt>
<trkpt lat="47.82275702302627" lon="-2.628943457680425"><ele>59.96</ele></trkpt>
<trkpt lat="47.82273031898006" lon="-2.6289985427895703"><ele>59.8</ele></trkpt>
<trkpt lat="47.82269961035376" lon="-2.629050719069524"><ele>59.64</ele></trkpt>
<trkpt lat="47.82266309028053" lon="-2.6291026780681954"><ele>59.46</ele></trkpt>
<trkpt lat="47.82262032021631" lon="-2.629153541400175"><ele>59.32</ele></trkpt>
<trkpt lat="47.82257265432099" lon="-2.6291999178471404"><ele>59.19</ele></trkpt>
<trkpt lat="47.82252102880659" lon="-2.629240226472893"><ele>59.05</ele></trkpt>
<trkpt lat="47.82246644032922" lon="-2.62927355978694"><ele>58.9</ele></trkpt>
<trkpt lat="47.822410000000005" lon="-2.629299917787594"><ele>58.75</ele></trkpt>
<trkpt lat="47.82235353223595" lon="-2.6293190672785607"><ele>58.57</ele></trkpt>
<trkpt lat="47.82229866941016" lon="-2.6293308710892265"><ele>58.33</ele></trkpt>
<trkpt lat="47.82224578189301" lon="-2.629335699594806"><ele>58.09</ele></trkpt>
<trkpt lat="47.822193978052134" lon="-2.6293344375708365"><ele>57.84</ele></trkpt>
<trkpt lat="47.82214217421126" lon="-2.6293281138226354"><ele>57.57</ele></trkpt>
<trkpt lat="47.82209000000002" lon="-2.6293176542752863"><ele>57.31</ele></trkpt>
<trkpt lat="47.821988973882036" lon="-2.6292882297841946"><ele>56.89</ele></trkpt>
<trkpt lat="47.821942888230446" lon="-2.6292705449341605"><ele>56.73</ele></trkpt>
<trkpt lat="47.821898894375856" lon="-2.6292495098685906"><ele>56.62</ele></trkpt>
<trkpt lat="47.82185257854595" lon="-2.629221145349845"><ele>56.46</ele></trkpt>
<trkpt lat="47.82179649481481" lon="-2.6291798335953116"><ele>56.24</ele></trkpt>
<trkpt lat="47.82172603851851" lon="-2.629122836345095"><ele>55.93</ele></trkpt>
<trkpt lat="47.82156052296296" lon="-2.628984974098468"><ele>55.15</ele></trkpt>
<trkpt lat="47.82148467259258" lon="-2.6289245446522704"><ele>54.8</ele></trkpt>
<trkpt lat="47.82141833613426" lon="-2.6288766123689156"><ele>54.49</ele></trkpt>
<trkpt lat="47.82135702858796" lon="-2.6288383453407116"><ele>54.24</ele></trkpt>
<trkpt lat="47.821296676319434" lon="-2.628805883822303"><ele>54.03</ele></trkpt>
<trkpt lat="47.82123789018519" lon="-2.6287785378088664"><ele>53.81</ele></trkpt>
<trkpt lat="47.82118257451303" lon="-2.628757779600464"><ele>53.6</ele></trkpt>
<trkpt lat="47.82113072359397" lon="-2.6287445584199727"><ele>53.4</ele></trkpt>
<trkpt lat="47.821078999164094" lon="-2.628737734676687"><ele>53.14</ele></trkpt>
<trkpt lat="47.82102592120285" lon="-2.6287356277992227"><ele>52.94</ele></trkpt>
<trkpt lat="47.82097152345765" lon="-2.6287370568461443"><ele>52.76</ele></trkpt>
<trkpt lat="47.82091831868313" lon="-2.62874180020852"><ele>52.59</ele></trkpt>
<trkpt lat="47.820865499862826" lon="-2.6287507592245833"><ele>52.4</ele></trkpt>
<trkpt lat="47.82080835412894" lon="-2.628766453115507"><ele>52.16</ele></trkpt>
<trkpt lat="47.82073784592592" lon="-2.6287922892928126"><ele>51.81</ele></trkpt>
<trkpt lat="47.820648567407396" lon="-2.6288296628131134"><ele>51.41</ele></trkpt>
<trkpt lat="47.82044174518518" lon="-2.628920338368157"><ele>50.54</ele></trkpt>
<trkpt lat="47.82035295703704" lon="-2.628957711514074"><ele>50.17</ele></trkpt>
<trkpt lat="47.82028343451303" lon="-2.6289835541842534"><ele>49.86</ele></trkpt>
<trkpt lat="47.82022778655691" lon="-2.6289993164253582"><ele>49.66</ele></trkpt>
<trkpt lat="47.82017664131686" lon="-2.629008590826605"><ele>49.46</ele></trkpt>
<trkpt lat="47.820067955226335" lon="-2.629017395399977"><ele>49.05</ele></trkpt>
<trkpt lat="47.81994973593966" lon="-2.629017435690048"><ele>48.54</ele></trkpt>
<trkpt lat="47.81983790123458" lon="-2.62900974018803"><ele>48.06</ele></trkpt>
<trkpt lat="47.81973815843623" lon="-2.6289925212676266"><ele>47.69</ele></trkpt>
<trkpt lat="47.81968" lon="-2.6289760413461933"><ele>47.51</ele></trkpt>
<trkpt lat="47.819507217078204" lon="-2.628916025505218"><ele>46.74</ele></trkpt>
<trkpt lat="47.81918840020578" lon="-2.6287992278673715"><ele>45.22</ele></trkpt>
<trkpt lat="47.81906417866942" lon="-2.628757478407207"><ele>44.61</ele></trkpt>
<trkpt lat="47.81902348079562" lon="-2.62874713298723"><ele>44.4</ele></trkpt>
<trkpt lat="47.81894072552813" lon="-2.6287355305260744"><ele>44.04</ele></trkpt>
<trkpt lat="47.81883762567902" lon="-2.6287314574535543"><ele>43.69</ele></trkpt>
<trkpt lat="47.818723520658445" lon="-2.628736425633932"><ele>43.29</ele></trkpt>
<trkpt lat="47.818565561481485" lon="-2.6287557690713244"><ele>42.71</ele></trkpt>
<trkpt lat="47.818365063703716" lon="-2.628786106859629"><ele>41.94</ele></trkpt>
<trkpt lat="47.81821004976682" lon="-2.6288144161261795"><ele>41.38</ele></trkpt>
<trkpt lat="47.8181019033745" lon="-2.6288445577761363"><ele>40.95</ele></trkpt>
<trkpt lat="47.81799798480212" lon="-2.628884888274753"><ele>40.51</ele></trkpt>
<trkpt lat="47.817901518262644" lon="-2.6289336156319547"><ele>40.09</ele></trkpt>
<trkpt lat="47.817851983369586" lon="-2.628965250223092"><ele>39.93</ele></trkpt>
<trkpt lat="47.81779200010938" lon="-2.6290085996094787"><ele>39.78</ele></trkpt>
<trkpt lat="47.81762746697318" lon="-2.6291374513735684"><ele>39.69</ele></trkpt>
<trkpt lat="47.81744391157522" lon="-2.629284690638655"><ele>39.68</ele></trkpt>
<trkpt lat="47.817171435862065" lon="-2.6295036513902215"><ele>39.79</ele></trkpt>
<trkpt lat="47.81699758085012" lon="-2.6296418219292588"><ele>39.82</ele></trkpt>
<trkpt lat="47.81685745349069" lon="-2.6297481160031393"><ele>39.86</ele></trkpt>
<trkpt lat="47.8167881520886" lon="-2.6297967130307853"><ele>39.85</ele></trkpt>
<trkpt lat="47.8167152527788" lon="-2.62984239125526"><ele>39.87</ele></trkpt>
<trkpt lat="47.81663761944455" lon="-2.6298823416641683"><ele>39.91</ele></trkpt>
<trkpt lat="47.81655472222223" lon="-2.6299150812528524"><ele>40.04</ele></trkpt>
<trkpt lat="47.816469947916666" lon="-2.6299413717230107"><ele>40.21</ele></trkpt>
<trkpt lat="47.816336834062085" lon="-2.6299750118692735"><ele>40.45</ele></trkpt>
<trkpt lat="47.81628700102944" lon="-2.6299839763524817"><ele>40.57</ele></trkpt>
<trkpt lat="47.81620770834665" lon="-2.629984687601904"><ele>40.72</ele></trkpt>
<trkpt lat="47.81602608371925" lon="-2.629992006465972"><ele>41.02</ele></trkpt>
<trkpt lat="47.815510000101185" lon="-2.630015000521791"><ele>41.94</ele></trkpt>
<trkpt lat="47.81498179931187" lon="-2.6300384513841775"><ele>42.87</ele></trkpt>
<trkpt lat="47.81473868057174" lon="-2.6300480904565724"><ele>43.44</ele></trkpt>
<trkpt lat="47.81450780751034" lon="-2.6300550356600603"><ele>43.84</ele></trkpt>
<trkpt lat="47.814257033340674" lon="-2.6300612999369126"><ele>44.35</ele></trkpt>
<trkpt lat="47.81403333336056" lon="-2.6300666671135744"><ele>44.81</ele></trkpt>
<trkpt lat="47.81368500003963" lon="-2.6300750005026"><ele>45.07</ele></trkpt>
<trkpt lat="47.81299085822232" lon="-2.6300915366322664"><ele>45.49</ele></trkpt>
<trkpt lat="47.812771474347535" lon="-2.630096191252781"><ele>45.64</ele></trkpt>
<trkpt lat="47.81263512317344" lon="-2.6300970930735432"><ele>45.67</ele></trkpt>
<trkpt lat="47.81253692815526" lon="-2.630090137145128"><ele>45.67</ele></trkpt>
<trkpt lat="47.81248364772667" lon="-2.630079104050776"><ele>45.66</ele></trkpt>
<trkpt lat="47.812425776570365" lon="-2.630060321788465"><ele>45.66</ele></trkpt>
<trkpt lat="47.81236772923097" lon="-2.6300348561550724"><ele>45.68</ele></trkpt>
<trkpt lat="47.81231267403979" lon="-2.630005087304749"><ele>45.71</ele></trkpt>
<trkpt lat="47.812262041109406" lon="-2.6299727277919698"><ele>45.76</ele></trkpt>
<trkpt lat="47.812213535879636" lon="-2.6299372886041037"><ele>45.83</ele></trkpt>
<trkpt lat="47.81211951678241" lon="-2.6298578267899946"><ele>46.03</ele></trkpt>
<trkpt lat="47.812075596814985" lon="-2.6298149510657782"><ele>46.13</ele></trkpt>
<trkpt lat="47.81203320558984" lon="-2.6297684034537037"><ele>46.3</ele></trkpt>
<trkpt lat="47.81198979102365" lon="-2.6297154032840493"><ele>46.49</ele></trkpt>
<trkpt lat="47.81194482713906" lon="-2.629655911669145"><ele>46.7</ele></trkpt>
<trkpt lat="47.81189943597822" lon="-2.6295915763163293"><ele>46.93</ele></trkpt>
<trkpt lat="47.81185672807355" lon="-2.6295263584542417"><ele>47.19</ele></trkpt>
<trkpt lat="47.811818383916325" lon="-2.629461457277239"><ele>47.42</ele></trkpt>
<trkpt lat="47.811785216621494" lon="-2.6293965375868"><ele>47.63</ele></trkpt>
<trkpt lat="47.81175587392015" lon="-2.629328775798549"><ele>47.84</ele></trkpt>
<trkpt lat="47.81172940407399" lon="-2.629258678803491"><ele>48.06</ele></trkpt>
<trkpt lat="47.81168206952317" lon="-2.62911514674143"><ele>48.52</ele></trkpt>
<trkpt lat="47.81165819511866" lon="-2.6290334015595103"><ele>48.74</ele></trkpt>
<trkpt lat="47.81159637163828" lon="-2.628803560870544"><ele>49.36</ele></trkpt>
<trkpt lat="47.8114466724647" lon="-2.628226659238175"><ele>50.56</ele></trkpt>
<trkpt lat="47.81125780452486" lon="-2.6274965558708248"><ele>52.43</ele></trkpt>
<trkpt lat="47.81118888663187" lon="-2.627230153838745"><ele>53</ele></trkpt>
<trkpt lat="47.811112419216556" lon="-2.626934952446799"><ele>53.82</ele></trkpt>
<trkpt lat="47.81104157823017" lon="-2.626664458902773"><ele>54.45</ele></trkpt>
<trkpt lat="47.8109960458963" lon="-2.6265012953692706"><ele>54.88</ele></trkpt>
<trkpt lat="47.81096027030768" lon="-2.6263992618931553"><ele>55.17</ele></trkpt>
<trkpt lat="47.81093727509755" lon="-2.626350491676271"><ele>55.3</ele></trkpt>
<trkpt lat="47.81090584883742" lon="-2.6262975370464865"><ele>55.42</ele></trkpt>
<trkpt lat="47.81086402199074" lon="-2.626239007233232"><ele>55.53</ele></trkpt>
<trkpt lat="47.81081434027779" lon="-2.6261771437751347"><ele>55.68</ele></trkpt>
<trkpt lat="47.81076353587964" lon="-2.6261189291204907"><ele>55.89</ele></trkpt>
<trkpt lat="47.81071790219908" lon="-2.6260714523586595"><ele>56.12</ele></trkpt>
<trkpt lat="47.810679221643525" lon="-2.626037256835696"><ele>56.32</ele></trkpt>
<trkpt lat="47.810644835069446" lon="-2.626013463475368"><ele>56.48</ele></trkpt>
<trkpt lat="47.81057125450105" lon="-2.625980241386992"><ele>56.81</ele></trkpt>
<trkpt lat="47.81047524787886" lon="-2.625952104439928"><ele>57.19</ele></trkpt>
<trkpt lat="47.81036548193891" lon="-2.6259263145604557"><ele>57.58</ele></trkpt>
<trkpt lat="47.81030000001643" lon="-2.625912967990595"><ele>57.83</ele></trkpt>
<trkpt lat="47.81011065848943" lon="-2.625877914462306"><ele>58.32</ele></trkpt>
<trkpt lat="47.809860658541055" lon="-2.625833358271016"><ele>59.13</ele></trkpt>
<trkpt lat="47.80963000014303" lon="-2.625792494688089"><ele>60.02</ele></trkpt>
<trkpt lat="47.80939888904939" lon="-2.6257515678065912"><ele>60.85</ele></trkpt>
<trkpt lat="47.80914111127753" lon="-2.625705919022228"><ele>61.74</ele></trkpt>
<trkpt lat="47.808910000159564" lon="-2.625664992911067"><ele>62.59</ele></trkpt>
<trkpt lat="47.80867888902081" lon="-2.6256240671643485"><ele>63.39</ele></trkpt>
<trkpt lat="47.80819000005746" lon="-2.6255374946731282"><ele>65.03</ele></trkpt>
<trkpt lat="47.80795943590787" lon="-2.625497308028889"><ele>65.79</ele></trkpt>
<trkpt lat="47.80783283439668" lon="-2.625477570851389"><ele>66.16</ele></trkpt>
<trkpt lat="47.80771105629026" lon="-2.6254643411912255"><ele>66.46</ele></trkpt>
<trkpt lat="47.807608012785096" lon="-2.6254659687521933"><ele>66.68</ele></trkpt>
<trkpt lat="47.8075304168661" lon="-2.6254915101390512"><ele>66.98</ele></trkpt>
<trkpt lat="47.807475115344204" lon="-2.625548224553901"><ele>67.32</ele></trkpt>
<trkpt lat="47.80743418439494" lon="-2.6256375161318117"><ele>67.72</ele></trkpt>
<trkpt lat="47.80740051694949" lon="-2.6257521718738412"><ele>68.22</ele></trkpt>
<trkpt lat="47.807370729547515" lon="-2.6258777482789375"><ele>68.77</ele></trkpt>
<trkpt lat="47.807288923437326" lon="-2.6262569742157735"><ele>70.2</ele></trkpt>
<trkpt lat="47.80722967177553" lon="-2.6265305292964527"><ele>71.34</ele></trkpt>
<trkpt lat="47.80719977162486" lon="-2.6266638239964544"><ele>72.06</ele></trkpt>
<trkpt lat="47.80716871611342" lon="-2.6267966463683745"><ele>72.96</ele></trkpt>
<trkpt lat="47.807097121160155" lon="-2.6270881776237633"><ele>74.67</ele></trkpt>
<trkpt lat="47.8070226728442" lon="-2.627384781166252"><ele>76.32</ele></trkpt>
<trkpt lat="47.80698732765874" lon="-2.6275251774620703"><ele>77.13</ele></trkpt>
<trkpt lat="47.80691271225551" lon="-2.6278191664882145"><ele>78.7</ele></trkpt>
<trkpt lat="47.80687492592846" lon="-2.6279630244651893"><ele>79.44</ele></trkpt>
<trkpt lat="47.806839681889855" lon="-2.628088109125843"><ele>80.08</ele></trkpt>
<trkpt lat="47.806806692779396" lon="-2.628190857647426"><ele>80.57</ele></trkpt>
<trkpt lat="47.80677363414523" lon="-2.6282781722820627"><ele>81.03</ele></trkpt>
<trkpt lat="47.806738944475406" lon="-2.628358184831247"><ele>81.42</ele></trkpt>
<trkpt lat="47.80670245856198" lon="-2.6284351078560055"><ele>81.76</ele></trkpt>
<trkpt lat="47.806663270478005" lon="-2.6285118799187095"><ele>82.08</ele></trkpt>
<trkpt lat="47.80661835579035" lon="-2.628594116630381"><ele>82.4</ele></trkpt>
<trkpt lat="47.80650373399132" lon="-2.62879152224252"><ele>83.01</ele></trkpt>
<trkpt lat="47.80632040692222" lon="-2.629099633981514"><ele>83.75</ele></trkpt>
<trkpt lat="47.80619660510243" lon="-2.6293067088958173"><ele>84.1</ele></trkpt>
<trkpt lat="47.80608485060516" lon="-2.6294890543297815"><ele>84.49</ele></trkpt>
<trkpt lat="47.80604317656819" lon="-2.629551754164159"><ele>84.62</ele></trkpt>
<trkpt lat="47.806007484813314" lon="-2.629599277908071"><ele>84.69</ele></trkpt>
<trkpt lat="47.80597136939402" lon="-2.6296402536628976"><ele>84.75</ele></trkpt>
<trkpt lat="47.805931234625156" lon="-2.6296797225393216"><ele>84.82</ele></trkpt>
<trkpt lat="47.80588630184053" lon="-2.6297189497926445"><ele>84.95</ele></trkpt>
<trkpt lat="47.80579259949116" lon="-2.6297897227607"><ele>85.18</ele></trkpt>
<trkpt lat="47.80568166690871" lon="-2.629860210838115"><ele>85.52</ele></trkpt>
<trkpt lat="47.80549286772522" lon="-2.6299697948109486"><ele>85.84</ele></trkpt>
<trkpt lat="47.8052370042971" lon="-2.6301154721768403"><ele>85.97</ele></trkpt>
<trkpt lat="47.80500000216391" lon="-2.630250017936018"><ele>86.36</ele></trkpt>
<trkpt lat="47.804762471685606" lon="-2.630384835970844"><ele>86.97</ele></trkpt>
<trkpt lat="47.80449753369734" lon="-2.630535208478084"><ele>87.95</ele></trkpt>
<trkpt lat="47.80426000295529" lon="-2.630670023904537"><ele>88.88</ele></trkpt>
<trkpt lat="47.80414580539852" lon="-2.630734838574597"><ele>89.42</ele></trkpt>
<trkpt lat="47.80375753344672" lon="-2.6309552063221004"><ele>91.31</ele></trkpt>
<trkpt lat="47.803520002204074" lon="-2.6310900179125345"><ele>92.26</ele></trkpt>
<trkpt lat="47.80340583783762" lon="-2.631154796449394"><ele>92.5</ele></trkpt>
<trkpt lat="47.80315190705494" lon="-2.6312980558126755"><ele>93.05</ele></trkpt>
<trkpt lat="47.80302421890827" lon="-2.631368333889011"><ele>93.37</ele></trkpt>
<trkpt lat="47.80291228699902" lon="-2.631426636961937"><ele>93.64</ele></trkpt>
<trkpt lat="47.80282062524733" lon="-2.6314683358034077"><ele>93.91</ele></trkpt>
<trkpt lat="47.802743603313154" lon="-2.6314945577442796"><ele>94.15</ele></trkpt>
<trkpt lat="47.80267207200229" lon="-2.6315096464925682"><ele>94.36</ele></trkpt>
<trkpt lat="47.802600012213105" lon="-2.6315182077311126"><ele>94.54</ele></trkpt>
<trkpt lat="47.80245260443637" lon="-2.6315264776101146"><ele>95.03</ele></trkpt>
<trkpt lat="47.8022855614758" lon="-2.6315294074132067"><ele>95.79</ele></trkpt>
<trkpt lat="47.80209037480325" lon="-2.631529967408012"><ele>96.57</ele></trkpt>
<trkpt lat="47.801904131838604" lon="-2.631529992592618"><ele>97.12</ele></trkpt>
<trkpt lat="47.801709915546816" lon="-2.631529577772026"><ele>97.47</ele></trkpt>
<trkpt lat="47.80151506518206" lon="-2.6315259925514773"><ele>97.61</ele></trkpt>
<trkpt lat="47.80142298128801" lon="-2.631521270192916"><ele>97.69</ele></trkpt>
<trkpt lat="47.801328729491935" lon="-2.6315140641903754"><ele>97.72</ele></trkpt>
<trkpt lat="47.801133975665266" lon="-2.631494375555861"><ele>97.81</ele></trkpt>
<trkpt lat="47.801039554128934" lon="-2.631482671288653"><ele>97.78</ele></trkpt>
<trkpt lat="47.80094249999999" lon="-2.6314685413533923"><ele>97.71</ele></trkpt>
<trkpt lat="47.80083217678326" lon="-2.631450226732889"><ele>97.58</ele></trkpt>
<trkpt lat="47.80041193072703" lon="-2.6313753689365496"><ele>97.67</ele></trkpt>
<trkpt lat="47.80028665209191" lon="-2.631355813218886"><ele>97.83</ele></trkpt>
<trkpt lat="47.80018729166667" lon="-2.631344999803228"><ele>97.94</ele></trkpt>
<trkpt lat="47.80010919067221" lon="-2.6313435013346584"><ele>98.07</ele></trkpt>
<trkpt lat="47.800042879801666" lon="-2.6313500583698346"><ele>98.14</ele></trkpt>
<trkpt lat="47.79998136831567" lon="-2.6313625413017805"><ele>98.21</ele></trkpt>
<trkpt lat="47.79992218536685" lon="-2.6313793486747032"><ele>98.27</ele></trkpt>
<trkpt lat="47.79986382032936" lon="-2.6314006623240433"><ele>98.28</ele></trkpt>
<trkpt lat="47.7998018750619" lon="-2.6314291675199017"><ele>98.28</ele></trkpt>
<trkpt lat="47.79972951400806" lon="-2.6314685439944743"><ele>98.27</ele></trkpt>
<trkpt lat="47.79964240760721" lon="-2.6315203588908767"><ele>98.24</ele></trkpt>
<trkpt lat="47.79954368084976" lon="-2.631581371294172"><ele>98.27</ele></trkpt>
<trkpt lat="47.799260000470404" lon="-2.631760003934124"><ele>97.59</ele></trkpt>
<trkpt lat="47.799077358065404" lon="-2.6318753799071573"><ele>97.56</ele></trkpt>
<trkpt lat="47.79887879306674" lon="-2.632001188802617"><ele>98.32</ele></trkpt>
<trkpt lat="47.79872541672857" lon="-2.632100209219103"><ele>98.67</ele></trkpt>
<trkpt lat="47.79862037348071" lon="-2.632172977976026"><ele>99.24</ele></trkpt>
<trkpt lat="47.79857141724572" lon="-2.6322103491571633"><ele>99.44</ele></trkpt>
<trkpt lat="47.798521295816755" lon="-2.6322531776691496"><ele>99.64</ele></trkpt>
<trkpt lat="47.79846808327852" lon="-2.6323068211031497"><ele>99.74</ele></trkpt>
<trkpt lat="47.79840819555556" lon="-2.632378233349459"><ele>100.22</ele></trkpt>
<trkpt lat="47.79833828000001" lon="-2.6324714706656054"><ele>101.07</ele></trkpt>
<trkpt lat="47.798261013333345" lon="-2.632580592267563"><ele>101.94</ele></trkpt>
<trkpt lat="47.79818547111111" lon="-2.6326907195411278"><ele>102.54</ele></trkpt>
<trkpt lat="47.79812144" lon="-2.632787388875843"><ele>103.2</ele></trkpt>
<trkpt lat="47.798072315610426" lon="-2.632866599680131"><ele>103.93</ele></trkpt>
<trkpt lat="47.798034946776404" lon="-2.632933424414734"><ele>104.14</ele></trkpt>
<trkpt lat="47.79800490831275" lon="-2.6329931341682564"><ele>104.14</ele></trkpt>
<trkpt lat="47.797965895583" lon="-2.6330804064201883"><ele>104.34</ele></trkpt>
<trkpt lat="47.79795321459234" lon="-2.6331382026159518"><ele>104.54</ele></trkpt>
<trkpt lat="47.7979423881413" lon="-2.633245685464455"><ele>104.78</ele></trkpt>
<trkpt lat="47.79793723259455" lon="-2.633317455348416"><ele>104.94</ele></trkpt>
<trkpt lat="47.797936344106546" lon="-2.633395590843859"><ele>105.04</ele></trkpt>
<trkpt lat="47.79794239634527" lon="-2.6334886451379194"><ele>105.14</ele></trkpt>
<trkpt lat="47.79795697929486" lon="-2.6336093689845064"><ele>105.35</ele></trkpt>
<trkpt lat="47.79797986104895" lon="-2.633764795632901"><ele>105.73</ele></trkpt>
<trkpt lat="47.798008553101994" lon="-2.6339461868178455"><ele>105.74</ele></trkpt>
<trkpt lat="47.79806801596063" lon="-2.6343107093258924"><ele>105.74</ele></trkpt>
<trkpt lat="47.79812199658478" lon="-2.634639283571332"><ele>105.24</ele></trkpt>
<trkpt lat="47.798181744974436" lon="-2.6350038076978803"><ele>104.64</ele></trkpt>
<trkpt lat="47.79823580559801" lon="-2.635340628387973"><ele>104.17</ele></trkpt>
<trkpt lat="47.798253854678606" lon="-2.6354613534245135"><ele>104.14</ele></trkpt>
<trkpt lat="47.79826589086083" lon="-2.6355528798692864"><ele>104.14</ele></trkpt>
<trkpt lat="47.79827368979296" lon="-2.6356272109217316"><ele>104.04</ele></trkpt>
<trkpt lat="47.79828211963795" lon="-2.635761613105125"><ele>103.8</ele></trkpt>
<trkpt lat="47.798283344738934" lon="-2.635834099497552"><ele>103.74</ele></trkpt>
<trkpt lat="47.79828201479322" lon="-2.6359218753238016"><ele>103.48</ele></trkpt>
<trkpt lat="47.79827770093006" lon="-2.6360363252079524"><ele>103.14</ele></trkpt>
<trkpt lat="47.798261296350354" lon="-2.6363533733181264"><ele>102.84</ele></trkpt>
<trkpt lat="47.79824207855608" lon="-2.636695740208316"><ele>102.26</ele></trkpt>
<trkpt lat="47.79822459675479" lon="-2.63700432338293"><ele>101.94</ele></trkpt>
<trkpt lat="47.798205008594934" lon="-2.637350002546204"><ele>101.28</ele></trkpt>
<trkpt lat="47.79818541979809" lon="-2.6376956814419907"><ele>100.44</ele></trkpt>
<trkpt lat="47.79817667444106" lon="-2.6378500022861404"><ele>99.97</ele></trkpt>
<trkpt lat="47.798158536558944" lon="-2.638170414182097"><ele>99.12</ele></trkpt>
<trkpt lat="47.798139163877224" lon="-2.638518553838072"><ele>97.47</ele></trkpt>
<trkpt lat="47.798125903681736" lon="-2.638786458679902"><ele>95.69</ele></trkpt>
<trkpt lat="47.79812122642909" lon="-2.638970170667775"><ele>95.24</ele></trkpt>
<trkpt lat="47.798121596407285" lon="-2.639057512863756"><ele>95.14</ele></trkpt>
<trkpt lat="47.7981246830786" lon="-2.6391469529800817"><ele>95.31</ele></trkpt>
<trkpt lat="47.79813188041455" lon="-2.6392375233370933"><ele>95.34</ele></trkpt>
<trkpt lat="47.798144157037044" lon="-2.639327991529"><ele>95.24</ele></trkpt>
<trkpt lat="47.79816108722223" lon="-2.6394175581472172"><ele>95.14</ele></trkpt>
<trkpt lat="47.79818208981482" lon="-2.6395047386440282"><ele>95.24</ele></trkpt>
<trkpt lat="47.798208263518525" lon="-2.639590799645295"><ele>95.43</ele></trkpt>
<trkpt lat="47.7982424325551" lon="-2.6396815155841"><ele>95.54</ele></trkpt>
<trkpt lat="47.798286406501" lon="-2.6397828568091195"><ele>95.64</ele></trkpt>
<trkpt lat="47.798337663047235" lon="-2.6398930474768614"><ele>95.74</ele></trkpt>
<trkpt lat="47.798442254276154" lon="-2.640108119934756"><ele>96.24</ele></trkpt>
<trkpt lat="47.79849302109462" lon="-2.640208748444932"><ele>96.24</ele></trkpt>
<trkpt lat="47.798612144190514" lon="-2.64043703360547"><ele>96.73</ele></trkpt>
<trkpt lat="47.79888500198584" lon="-2.6409499940759362"><ele>99.4</ele></trkpt>
<trkpt lat="47.799014978042784" lon="-2.6411934926182012"><ele>99.66</ele></trkpt>
<trkpt lat="47.79908737907118" lon="-2.6413276498200426"><ele>99.81</ele></trkpt>
<trkpt lat="47.79915957217405" lon="-2.641457815521683"><ele>100.22</ele></trkpt>
<trkpt lat="47.79922634095226" lon="-2.6415704503729103"><ele>100.98</ele></trkpt>
<trkpt lat="47.799287396094634" lon="-2.6416599985549953"><ele>101.34</ele></trkpt>
<trkpt lat="47.79934793861772" lon="-2.6417312866874263"><ele>101.5</ele></trkpt>
<trkpt lat="47.79941337340379" lon="-2.641793047136041"><ele>101.64</ele></trkpt>
<trkpt lat="47.79948405940527" lon="-2.6418510237637323"><ele>101.54</ele></trkpt>
<trkpt lat="47.79961414282258" lon="-2.641951544073626"><ele>101.44</ele></trkpt>
<trkpt lat="47.79970289766804" lon="-2.6420261622632437"><ele>101.23</ele></trkpt>
<trkpt lat="47.799771897558315" lon="-2.6420971290123356"><ele>101.24</ele></trkpt>
<trkpt lat="47.799801766145414" lon="-2.64213399624765"><ele>100.91</ele></trkpt>
<trkpt lat="47.799827263374496" lon="-2.642171563722742"><ele>100.53</ele></trkpt>
<trkpt lat="47.799849126371754" lon="-2.642210973019312"><ele>100.24</ele></trkpt>
<trkpt lat="47.79988530606997" lon="-2.642297800852837"><ele>99.95</ele></trkpt>
<trkpt lat="47.799899972565164" lon="-2.642345586327122"><ele>99.97</ele></trkpt>
<trkpt lat="47.79991271004801" lon="-2.642401319303944"><ele>99.94</ele></trkpt>
<trkpt lat="47.79992520833333" lon="-2.6424764581009983"><ele>99.76</ele></trkpt>
<trkpt lat="47.79993929612482" lon="-2.6425827542670315"><ele>98.98</ele></trkpt>
<trkpt lat="47.799995081447186" lon="-2.643057105978521"><ele>98.27</ele></trkpt>
<trkpt lat="47.800013956618656" lon="-2.643201427072279"><ele>98.4</ele></trkpt>
<trkpt lat="47.800032083333335" lon="-2.643312916375255"><ele>98.39</ele></trkpt>
<trkpt lat="47.80005102580608" lon="-2.6433958373920126"><ele>98.14</ele></trkpt>
<trkpt lat="47.800072472138396" lon="-2.6434611734811555"><ele>98.24</ele></trkpt>
<trkpt lat="47.80009717464983" lon="-2.643518484818495"><ele>98.39</ele></trkpt>
<trkpt lat="47.80012557788112" lon="-2.6435732180229086"><ele>98.34</ele></trkpt>
<trkpt lat="47.800159652443114" lon="-2.643629756556167"><ele>98.34</ele></trkpt>
<trkpt lat="47.80020427104445" lon="-2.6436947900961436"><ele>98.45</ele></trkpt>
<trkpt lat="47.8002653609174" lon="-2.6437764230117047"><ele>98.75</ele></trkpt>
<trkpt lat="47.80034543620962" lon="-2.6438788503991266"><ele>98.95</ele></trkpt>
<trkpt lat="47.80053725396633" lon="-2.644118917387385"><ele>99.74</ele></trkpt>
<trkpt lat="47.800715001604495" lon="-2.644339992588642"><ele>100.91</ele></trkpt>
<trkpt lat="47.80089310230524" lon="-2.6445615031023184"><ele>101.84</ele></trkpt>
<trkpt lat="47.80109099523348" lon="-2.6448090284416983"><ele>102.24</ele></trkpt>
<trkpt lat="47.8011820332622" lon="-2.64492490654053"><ele>102.44</ele></trkpt>
<trkpt lat="47.80126479211456" lon="-2.645033122003858"><ele>102.14</ele></trkpt>
<trkpt lat="47.80134561354708" lon="-2.645142499246446"><ele>102.17</ele></trkpt>
<trkpt lat="47.80143124222566" lon="-2.645261621256943"><ele>101.77</ele></trkpt>
<trkpt lat="47.801612855550445" lon="-2.6455189108958876"><ele>100.94</ele></trkpt>
<trkpt lat="47.80169706532631" lon="-2.6456388846495122"><ele>100.73</ele></trkpt>
<trkpt lat="47.80177500179948" lon="-2.6457499930256136"><ele>100.5</ele></trkpt>
<trkpt lat="47.80185292395096" lon="-2.645861088011464"><ele>100.18</ele></trkpt>
<trkpt lat="47.80193699177968" lon="-2.6459809256547326"><ele>99.41</ele></trkpt>
<trkpt lat="47.802115930119584" lon="-2.64623562695056"><ele>96.63</ele></trkpt>
<trkpt lat="47.802268021070105" lon="-2.6464502064685305"><ele>94.25</ele></trkpt>
<trkpt lat="47.802405278118535" lon="-2.646639719646386"><ele>93.32</ele></trkpt>
<trkpt lat="47.802553809655784" lon="-2.646842964005499"><ele>93.37</ele></trkpt>
<trkpt lat="47.80262200882393" lon="-2.646937202546066"><ele>93.73</ele></trkpt>
<trkpt lat="47.802683083078705" lon="-2.647023157588253"><ele>94.15</ele></trkpt>
<trkpt lat="47.80274072164352" lon="-2.6471062009403132"><ele>94.64</ele></trkpt>
<trkpt lat="47.802797677152775" lon="-2.647190059544292"><ele>95.29</ele></trkpt>
<trkpt lat="47.802852244074074" lon="-2.6472722514072418"><ele>95.88</ele></trkpt>
<trkpt lat="47.80290124606311" lon="-2.6473487550832786"><ele>96.35</ele></trkpt>
<trkpt lat="47.80294352280523" lon="-2.647418714601132"><ele>96.75</ele></trkpt>
<trkpt lat="47.80298129983283" lon="-2.6474863157071336"><ele>97.09</ele></trkpt>
<trkpt lat="47.803016108003256" lon="-2.647554460235744"><ele>97.42</ele></trkpt>
<trkpt lat="47.803048450895936" lon="-2.6476243755940825"><ele>97.72</ele></trkpt>
<trkpt lat="47.803077654320994" lon="-2.647694999861877"><ele>98.04</ele></trkpt>
<trkpt lat="47.80310381344308" lon="-2.647766200150859"><ele>98.31</ele></trkpt>
<trkpt lat="47.80312700960219" lon="-2.647838141178796"><ele>98.54</ele></trkpt>
<trkpt lat="47.80314687242798" lon="-2.6479115636927375"><ele>98.75</ele></trkpt>
<trkpt lat="47.803162304526744" lon="-2.6479871741434096"><ele>98.96</ele></trkpt>
<trkpt lat="47.80317230452675" lon="-2.6480654389198577"><ele>99.16</ele></trkpt>
<trkpt lat="47.80317687242798" lon="-2.648146172829502"><ele>99.37</ele></trkpt>
<trkpt lat="47.803176975308645" lon="-2.648228559681906"><ele>99.63</ele></trkpt>
<trkpt lat="47.803173436213996" lon="-2.648311687273269"><ele>99.89</ele></trkpt>
<trkpt lat="47.80316569958849" lon="-2.64839500005887"><ele>100.15</ele></trkpt>
<trkpt lat="47.80315249699951" lon="-2.6484769136792825"><ele>100.5</ele></trkpt>
<trkpt lat="47.80313300197384" lon="-2.648555308790666"><ele>100.82</ele></trkpt>
<trkpt lat="47.80310880016447" lon="-2.6486265742904003"><ele>101.06</ele></trkpt>
<trkpt lat="47.803081522669366" lon="-2.6486905250494988"><ele>101.22</ele></trkpt>
<trkpt lat="47.80305108934531" lon="-2.6487503710517237"><ele>101.41</ele></trkpt>
<trkpt lat="47.80301302104969" lon="-2.648815834641136"><ele>101.66</ele></trkpt>
<trkpt lat="47.80296177553653" lon="-2.648896891860233"><ele>102.35</ele></trkpt>
<trkpt lat="47.80281576620325" lon="-2.649117154872803"><ele>104.22</ele></trkpt>
<trkpt lat="47.802656730387696" lon="-2.649353562260552"><ele>105.6</ele></trkpt>
<trkpt lat="47.80251326845354" lon="-2.6495664574938833"><ele>107.26</ele></trkpt>
<trkpt lat="47.80235399151187" lon="-2.6498032942821945"><ele>108.73</ele></trkpt>
<trkpt lat="47.80220590619496" lon="-2.650027287129975"><ele>109.64</ele></trkpt>
<trkpt lat="47.80215177104968" lon="-2.650113543038712"><ele>110.07</ele></trkpt>
<trkpt lat="47.80210898114914" lon="-2.6501873304893473"><ele>110.56</ele></trkpt>
<trkpt lat="47.802071866462214" lon="-2.6502583510725723"><ele>110.92</ele></trkpt>
<trkpt lat="47.802036318168575" lon="-2.6503342290784677"><ele>111.22</ele></trkpt>
<trkpt lat="47.802002379545854" lon="-2.650417586038002"><ele>111.4</ele></trkpt>
<trkpt lat="47.80197176740415" lon="-2.6505091189217316"><ele>111.6</ele></trkpt>
<trkpt lat="47.80194588906035" lon="-2.6506083138583296"><ele>111.84</ele></trkpt>
<trkpt lat="47.801924516460915" lon="-2.6507119353516195"><ele>112.13</ele></trkpt>
<trkpt lat="47.801906892146775" lon="-2.6508164571655426"><ele>112.34</ele></trkpt>
<trkpt lat="47.801892153635116" lon="-2.6509226881050667"><ele>112.52</ele></trkpt>
<trkpt lat="47.80187895833333" lon="-2.6510422919677965"><ele>112.64</ele></trkpt>
<trkpt lat="47.801865655006864" lon="-2.6511910077808727"><ele>112.64</ele></trkpt>
<trkpt lat="47.8018510245199" lon="-2.6513771232872823"><ele>112.54</ele></trkpt>
<trkpt lat="47.8018353909465" lon="-2.651589365269361"><ele>112.64</ele></trkpt>
<trkpt lat="47.80180806241427" lon="-2.651982952173363"><ele>112.84</ele></trkpt>
<trkpt lat="47.801799375" lon="-2.652124166876756"><ele>112.84</ele></trkpt>
<trkpt lat="47.8017941888503" lon="-2.652230811037328"><ele>112.84</ele></trkpt>
<trkpt lat="47.801791264467596" lon="-2.652396825173739"><ele>112.81</ele></trkpt>
<trkpt lat="47.80179297839506" lon="-2.652470844465658"><ele>112.84</ele></trkpt>
<trkpt lat="47.801797525077156" lon="-2.6525385529956518"><ele>112.87</ele></trkpt>
<trkpt lat="47.8018055613426" lon="-2.6525991261079134"><ele>112.94</ele></trkpt>
<trkpt lat="47.80181714409722" lon="-2.6526558245812826"><ele>113.04</ele></trkpt>
<trkpt lat="47.801851622907286" lon="-2.6527787663731317"><ele>113.14</ele></trkpt>
<trkpt lat="47.80190228291459" lon="-2.652935048288619"><ele>113.24</ele></trkpt>
<trkpt lat="47.80196130785143" lon="-2.6531030873571906"><ele>113.14</ele></trkpt>
<trkpt lat="47.8019963896486" lon="-2.653194858922381"><ele>113.04</ele></trkpt>
<trkpt lat="47.80209739157674" lon="-2.6534432631803804"><ele>112.94</ele></trkpt>
<trkpt lat="47.80223053181154" lon="-2.6537629139862275"><ele>112.74</ele></trkpt>
<trkpt lat="47.80261362855766" lon="-2.6546790796300073"><ele>112.64</ele></trkpt>
<trkpt lat="47.802736673196726" lon="-2.6549733197867846"><ele>112.84</ele></trkpt>
<trkpt lat="47.80292680577065" lon="-2.6554286445783"><ele>112.64</ele></trkpt>
<trkpt lat="47.803046312047556" lon="-2.6557199329880605"><ele>111.59</ele></trkpt>
<trkpt lat="47.803087361870375" lon="-2.655825761771064"><ele>111.24</ele></trkpt>
<trkpt lat="47.80311635394151" lon="-2.6559081430601377"><ele>111.1</ele></trkpt>
<trkpt lat="47.80313743482448" lon="-2.6559781539248477"><ele>111.03</ele></trkpt>
<trkpt lat="47.80315424802391" lon="-2.656045416357752"><ele>110.94</ele></trkpt>
<trkpt lat="47.803168280570084" lon="-2.656115463565161"><ele>110.84</ele></trkpt>
<trkpt lat="47.803179768593836" lon="-2.656194530372459"><ele>110.72</ele></trkpt>
<trkpt lat="47.803188782605844" lon="-2.656290705020225"><ele>110.54</ele></trkpt>
<trkpt lat="47.80319598958711" lon="-2.656410099033826"><ele>110.24</ele></trkpt>
<trkpt lat="47.803202121075024" lon="-2.6565484619266133"><ele>109.92</ele></trkpt>
<trkpt lat="47.803212606072215" lon="-2.6568322159145654"><ele>109.44</ele></trkpt>
<trkpt lat="47.803227543297254" lon="-2.6572510308202126"><ele>108.26</ele></trkpt>
<trkpt lat="47.80323801223547" lon="-2.657504485788667"><ele>106.96</ele></trkpt>
<trkpt lat="47.8032433623975" lon="-2.657595735678369"><ele>106.3</ele></trkpt>
<trkpt lat="47.803249627842575" lon="-2.65766876000594"><ele>105.66</ele></trkpt>
<trkpt lat="47.80325807168514" lon="-2.657733938470562"><ele>105.07</ele></trkpt>
<trkpt lat="47.80327090944801" lon="-2.6577991526636855"><ele>104.67</ele></trkpt>
<trkpt lat="47.80329054188772" lon="-2.6578687461350667"><ele>104.27</ele></trkpt>
<trkpt lat="47.803318250699505" lon="-2.6579446654859966"><ele>103.74</ele></trkpt>
<trkpt lat="47.80335220017347" lon="-2.658024779983417"><ele>103.32</ele></trkpt>
<trkpt lat="47.80338975247677" lon="-2.658105714648108"><ele>102.63</ele></trkpt>
<trkpt lat="47.80343025409934" lon="-2.6581869255818114"><ele>101.97</ele></trkpt>
<trkpt lat="47.803478126504665" lon="-2.658276453346876"><ele>101.59</ele></trkpt>
<trkpt lat="47.80353969477091" lon="-2.6583858706188273"><ele>101.1</ele></trkpt>
<trkpt lat="47.8037097958379" lon="-2.658678627280324"><ele>99.94</ele></trkpt>
<trkpt lat="47.803893327211" lon="-2.658991272658898"><ele>99.1</ele></trkpt>
<trkpt lat="47.803976013692285" lon="-2.6591319623536394"><ele>98.54</ele></trkpt>
<trkpt lat="47.804148066014776" lon="-2.6594246950005487"><ele>97.45</ele></trkpt>
<trkpt lat="47.80451202091379" lon="-2.6600439435281493"><ele>94.03</ele></trkpt>
<trkpt lat="47.804684070917666" lon="-2.660336682216402"><ele>91.99</ele></trkpt>
<trkpt lat="47.80487597215155" lon="-2.660663200733407"><ele>90.65</ele></trkpt>
<trkpt lat="47.80496530527957" lon="-2.660815201555677"><ele>90.46</ele></trkpt>
<trkpt lat="47.80504802091187" lon="-2.6609559435239403"><ele>90.39</ele></trkpt>
<trkpt lat="47.80513073626299" lon="-2.661096685940429"><ele>90.53</ele></trkpt>
<trkpt lat="47.80522006859706" lon="-2.661248688253711"><ele>90.9</ele></trkpt>
<trkpt lat="47.80531601798097" lon="-2.661411950580029"><ele>91.36</ele></trkpt>
<trkpt lat="47.80550129916923" lon="-2.6617272174694713"><ele>91.97</ele></trkpt>
<trkpt lat="47.80575568561993" lon="-2.6621597115434463"><ele>92.09</ele></trkpt>
<trkpt lat="47.80585007206949" lon="-2.6623187888190385"><ele>91.45</ele></trkpt>
<trkpt lat="47.80594116536925" lon="-2.662469034544305"><ele>91.32</ele></trkpt>
<trkpt lat="47.80601891956394" lon="-2.6625899924846013"><ele>90.91</ele></trkpt>
<trkpt lat="47.80607875150403" lon="-2.662669370226816"><ele>90.54</ele></trkpt>
<trkpt lat="47.806123470367915" lon="-2.662707358861542"><ele>90.21</ele></trkpt>
<trkpt lat="47.80615952556994" lon="-2.662712335668657"><ele>90.04</ele></trkpt>
<trkpt lat="47.8061932543504" lon="-2.6626951305897193"><ele>89.79</ele></trkpt>
<trkpt lat="47.806229519286596" lon="-2.6626643463678876"><ele>89.5</ele></trkpt>
<trkpt lat="47.80633307111111" lon="-2.6625700346875387"><ele>88.81</ele></trkpt>
<trkpt lat="47.80650025333333" lon="-2.66242567652694"><ele>88.47</ele></trkpt>
<trkpt lat="47.80659078222222" lon="-2.6623497356693377"><ele>88.6</ele></trkpt>
<trkpt lat="47.806669337777784" lon="-2.662286390223199"><ele>88.83</ele></trkpt>
<trkpt lat="47.80673144888888" lon="-2.662240555896339"><ele>89.11</ele></trkpt>
<trkpt lat="47.80678116" lon="-2.6622095068475726"><ele>89.32</ele></trkpt>
<trkpt lat="47.806825253333336" lon="-2.662187533444534"><ele>89.44</ele></trkpt>
<trkpt lat="47.80692095999999" lon="-2.6621535334616744"><ele>89.61</ele></trkpt>
<trkpt lat="47.807069537037336" lon="-2.6621166706265242"><ele>89.88</ele></trkpt>
<trkpt lat="47.80727281037581" lon="-2.662073486220907"><ele>90.54</ele></trkpt>
<trkpt lat="47.80737572519989" lon="-2.6620541121413193"><ele>90.87</ele></trkpt>
<trkpt lat="47.80747839706921" lon="-2.6620373958842"><ele>91.22</ele></trkpt>
<trkpt lat="47.807587111910415" lon="-2.6620222959804702"><ele>91.56</ele></trkpt>
<trkpt lat="47.80770296453461" lon="-2.662007880543653"><ele>91.89</ele></trkpt>
<trkpt lat="47.80826441786794" lon="-2.6619423738674706"><ele>93.11</ele></trkpt>
<trkpt lat="47.808373703021516" lon="-2.66192859372925"><ele>93.34</ele></trkpt>
<trkpt lat="47.80846675706922" lon="-2.661915009150603"><ele>93.51</ele></trkpt>
<trkpt lat="47.808540722346656" lon="-2.6619007909236854"><ele>93.63</ele></trkpt>
<trkpt lat="47.8086015528175" lon="-2.6618844275599067"><ele>93.73</ele></trkpt>
<trkpt lat="47.808657721071505" lon="-2.661864613856224"><ele>93.78</ele></trkpt>
<trkpt lat="47.80876335237509" lon="-2.6618179034848506"><ele>93.9</ele></trkpt>
<trkpt lat="47.80880867284959" lon="-2.661793652429903"><ele>93.93</ele></trkpt>
<trkpt lat="47.80884973254564" lon="-2.6617675586642098"><ele>93.97</ele></trkpt>
<trkpt lat="47.808891656474216" lon="-2.661734983696719"><ele>93.98</ele></trkpt>
<trkpt lat="47.808944166881396" lon="-2.661687501751755"><ele>93.99</ele></trkpt>
<trkpt lat="47.80901597092091" lon="-2.6616172356558088"><ele>93.94</ele></trkpt>
<trkpt lat="47.80922254217287" lon="-2.6614070744049676"><ele>93.59</ele></trkpt>
<trkpt lat="47.80944819428198" lon="-2.6611748952258014"><ele>93.21</ele></trkpt>
<trkpt lat="47.80965181825317" lon="-2.660965101844923"><ele>92.83</ele></trkpt>
<trkpt lat="47.80987799741978" lon="-2.66073181464838"><ele>92.3</ele></trkpt>
<trkpt lat="47.81008913192914" lon="-2.6605121028654537"><ele>91.73</ele></trkpt>
<trkpt lat="47.810167291881385" lon="-2.66042854358494"><ele>91.52</ele></trkpt>
<trkpt lat="47.810230311738266" lon="-2.660358385543284"><ele>91.37</ele></trkpt>
<trkpt lat="47.81034149049361" lon="-2.660225715199368"><ele>91.04</ele></trkpt>
<trkpt lat="47.81044531464352" lon="-2.6600931938985366"><ele>90.66</ele></trkpt>
<trkpt lat="47.81052882844651" lon="-2.6599776741761407"><ele>90.29</ele></trkpt>
<trkpt lat="47.810601198988344" lon="-2.659868686906"><ele>89.89</ele></trkpt>
<trkpt lat="47.810697363254555" lon="-2.659713678327136"><ele>89.22</ele></trkpt>
<trkpt lat="47.810927465726785" lon="-2.6593341307072533"><ele>87.93</ele></trkpt>
<trkpt lat="47.81106802095687" lon="-2.6591060431559885"><ele>87.3</ele></trkpt>
<trkpt lat="47.81119406628888" lon="-2.6589110494752015"><ele>86.75</ele></trkpt>
<trkpt lat="47.81133300391424" lon="-2.6587023542303627"><ele>86.14</ele></trkpt>
<trkpt lat="47.8116125428142" lon="-2.6582852561946435"><ele>84.53</ele></trkpt>
<trkpt lat="47.81175647881235" lon="-2.6580730506938854"><ele>83.13</ele></trkpt>
<trkpt lat="47.811895588525154" lon="-2.6578744466069892"><ele>81.68</ele></trkpt>
<trkpt lat="47.81204456884556" lon="-2.6576664965388015"><ele>80.16</ele></trkpt>
<trkpt lat="47.81218437413034" lon="-2.6574722715984986"><ele>79.06</ele></trkpt>
<trkpt lat="47.812255147362144" lon="-2.657374063930746"><ele>78.68</ele></trkpt>
<trkpt lat="47.81239922700854" lon="-2.657175631559496"><ele>78.18</ele></trkpt>
<trkpt lat="47.81246117352118" lon="-2.657092624909819"><ele>78.05</ele></trkpt>
<trkpt lat="47.812512803048804" lon="-2.6570266836367753"><ele>77.94</ele></trkpt>
<trkpt lat="47.81255771262433" lon="-2.6569734551958626"><ele>77.83</ele></trkpt>
<trkpt lat="47.81264291259435" lon="-2.6568846728226743"><ele>77.61</ele></trkpt>
<trkpt lat="47.81268880296312" lon="-2.6568441943315872"><ele>77.52</ele></trkpt>
<trkpt lat="47.81274235703704" lon="-2.6568030699643086"><ele>77.41</ele></trkpt>
<trkpt lat="47.81280740296297" lon="-2.656758339688612"><ele>77.3</ele></trkpt>
<trkpt lat="47.81288261777778" lon="-2.656710169371218"><ele>77.29</ele></trkpt>
<trkpt lat="47.8129622874074" lon="-2.6566622863917257"><ele>77.29</ele></trkpt>
<trkpt lat="47.81304253481483" lon="-2.6566185367184696"><ele>77.25</ele></trkpt>
<trkpt lat="47.813125635555565" lon="-2.656579376707735"><ele>77.21</ele></trkpt>
<trkpt lat="47.81321674222223" lon="-2.6565423974747575"><ele>77.09</ele></trkpt>
<trkpt lat="47.81331576000001" lon="-2.656506182670971"><ele>76.96</ele></trkpt>
<trkpt lat="47.81341607111112" lon="-2.6564719796652687"><ele>76.84</ele></trkpt>
<trkpt lat="47.813511591111116" lon="-2.6564418655196795"><ele>76.7</ele></trkpt>
<trkpt lat="47.81360327555555" lon="-2.656416059543597"><ele>76.55</ele></trkpt>
<trkpt lat="47.81369670666667" lon="-2.656392834342828"><ele>76.39</ele></trkpt>
<trkpt lat="47.81396745333334" lon="-2.6563319705424258"><ele>76.01</ele></trkpt>
<trkpt lat="47.81409835127315" lon="-2.6562998414319803"><ele>75.76</ele></trkpt>
<trkpt lat="47.81421211370371" lon="-2.656267428977247"><ele>75.64</ele></trkpt>
<trkpt lat="47.814301751666676" lon="-2.656235721357316"><ele>75.56</ele></trkpt>
<trkpt lat="47.81437204270833" lon="-2.6561998037101464"><ele>75.51</ele></trkpt>
<trkpt lat="47.81441152145833" lon="-2.6561734035927484"><ele>75.47</ele></trkpt>
<trkpt lat="47.81452823703704" lon="-2.656082448011229"><ele>75.26</ele></trkpt>
<trkpt lat="47.81468238814815" lon="-2.6559550524685607"><ele>75.11</ele></trkpt>
<trkpt lat="47.814801996990745" lon="-2.655852361092443"><ele>75.09</ele></trkpt>
<trkpt lat="47.814881411805565" lon="-2.6557761829959676"><ele>75.14</ele></trkpt>
<trkpt lat="47.81491711481482" lon="-2.655736405521285"><ele>75.16</ele></trkpt>
<trkpt lat="47.81495318796297" lon="-2.6556903116847956"><ele>75.16</ele></trkpt>
<trkpt lat="47.81499062500001" lon="-2.655635668622771"><ele>75.11</ele></trkpt>
<trkpt lat="47.815065711805566" lon="-2.655510668617266"><ele>75.12</ele></trkpt>
<trkpt lat="47.81509823281035" lon="-2.6554498620315403"><ele>75.23</ele></trkpt>
<trkpt lat="47.815126268861455" lon="-2.655391276714985"><ele>75.38</ele></trkpt>
<trkpt lat="47.815152019032915" lon="-2.655330071824255"><ele>75.56</ele></trkpt>
<trkpt lat="47.81520187982853" lon="-2.6551909122019564"><ele>75.91</ele></trkpt>
<trkpt lat="47.815245760768185" lon="-2.655045094250495"><ele>76.29</ele></trkpt>
<trkpt lat="47.81526439742113" lon="-2.6549721299404485"><ele>76.46</ele></trkpt>
<trkpt lat="47.815282905185185" lon="-2.654889742451603"><ele>76.65</ele></trkpt>
<trkpt lat="47.815324662222224" lon="-2.6546779736599864"><ele>77.16</ele></trkpt>
<trkpt lat="47.81534575703705" lon="-2.6545614447403634"><ele>77.49</ele></trkpt>
<trkpt lat="47.81536388296297" lon="-2.654450986895208"><ele>77.78</ele></trkpt>
<trkpt lat="47.815378272685194" lon="-2.6543460321372128"><ele>77.98</ele></trkpt>
<trkpt lat="47.815389843981485" lon="-2.6542393551139862"><ele>78.14</ele></trkpt>
<trkpt lat="47.81539970972223" lon="-2.6541277972693855"><ele>78.29</ele></trkpt>
<trkpt lat="47.81541405980796" lon="-2.6539202409934073"><ele>78.43</ele></trkpt>
<trkpt lat="47.815418949331274" lon="-2.6537707211288466"><ele>78.49</ele></trkpt>
<trkpt lat="47.81541627786352" lon="-2.65364492973731"><ele>78.45</ele></trkpt>
<trkpt lat="47.81540395147463" lon="-2.653460502162347"><ele>78.38</ele></trkpt>
<trkpt lat="47.81536714677642" lon="-2.6530019844102477"><ele>78</ele></trkpt>
<trkpt lat="47.81535651320303" lon="-2.6528574157448364"><ele>77.72</ele></trkpt>
<trkpt lat="47.815349375000004" lon="-2.6527368748660303"><ele>77.4</ele></trkpt>
<trkpt lat="47.81534573302469" lon="-2.65263366078249"><ele>77.11</ele></trkpt>
<trkpt lat="47.815344922839515" lon="-2.6525366658078475"><ele>76.8</ele></trkpt>
<trkpt lat="47.81534631944445" lon="-2.6524393158835635"><ele>76.48</ele></trkpt>
<trkpt lat="47.81534996141976" lon="-2.652340801710608"><ele>76.23</ele></trkpt>
<trkpt lat="47.815356813271606" lon="-2.652239833886942"><ele>75.97</ele></trkpt>
<trkpt lat="47.815368750000005" lon="-2.652128542069969"><ele>75.71</ele></trkpt>
<trkpt lat="47.81538766289438" lon="-2.6519944733998835"><ele>75.39</ele></trkpt>
<trkpt lat="47.81541399862826" lon="-2.6518305358879655"><ele>74.92</ele></trkpt>
<trkpt lat="47.81544548868313" lon="-2.651644854413499"><ele>74.36</ele></trkpt>
<trkpt lat="47.815506983882024" lon="-2.651294133959431"><ele>73.26</ele></trkpt>
<trkpt lat="47.81555359503601" lon="-2.651042638323257"><ele>72.33</ele></trkpt>
<trkpt lat="47.81559841242285" lon="-2.650822005531088"><ele>71.44</ele></trkpt>
<trkpt lat="47.81562185442388" lon="-2.650714876813297"><ele>70.99</ele></trkpt>
<trkpt lat="47.81564453703705" lon="-2.6506204254374124"><ele>70.55</ele></trkpt>
<trkpt lat="47.8156660468107" lon="-2.6505438367279868"><ele>70.15</ele></trkpt>
<trkpt lat="47.81568765239197" lon="-2.6504813886697587"><ele>69.81</ele></trkpt>
<trkpt lat="47.815710368870036" lon="-2.650428827997036"><ele>69.49</ele></trkpt>
<trkpt lat="47.815734767446855" lon="-2.6503830613109294"><ele>69.18</ele></trkpt>
<trkpt lat="47.81576039094651" lon="-2.6503435185857493"><ele>68.89</ele></trkpt>
<trkpt lat="47.81581364197531" lon="-2.650276687301183"><ele>68.38</ele></trkpt>
<trkpt lat="47.81587171467764" lon="-2.650221371793203"><ele>67.91</ele></trkpt>
<trkpt lat="47.8159053223594" lon="-2.650199842294845"><ele>67.67</ele></trkpt>
<trkpt lat="47.81594312757201" lon="-2.650183127610072"><ele>67.41</ele></trkpt>
<trkpt lat="47.815984901298876" lon="-2.650170865513373"><ele>67.15</ele></trkpt>
<trkpt lat="47.81602979906121" lon="-2.6501625810384124"><ele>66.91</ele></trkpt>
<trkpt lat="47.816075711484054" lon="-2.650158239460686"><ele>66.68</ele></trkpt>
<trkpt lat="47.81612139831962" lon="-2.6501586256697935"><ele>66.48</ele></trkpt>
<trkpt lat="47.81616705139747" lon="-2.650165030387799"><ele>66.31</ele></trkpt>
<trkpt lat="47.816214646990744" lon="-2.6501780670488935"><ele>66.14</ele></trkpt>
<trkpt lat="47.81626384548611" lon="-2.6501963193463465"><ele>65.99</ele></trkpt>
<trkpt lat="47.816352293917184" lon="-2.6502372971667354"><ele>65.77</ele></trkpt>
<trkpt lat="47.816386792695475" lon="-2.6502579586164963"><ele>65.7</ele></trkpt>
<trkpt lat="47.816417949459876" lon="-2.650281891653015"><ele>65.63</ele></trkpt>
<trkpt lat="47.81644887752915" lon="-2.650312006514224"><ele>65.56</ele></trkpt>
<trkpt lat="47.81648101701818" lon="-2.6503499068583136"><ele>65.48</ele></trkpt>
<trkpt lat="47.81651281121398" lon="-2.650393590367177"><ele>65.42</ele></trkpt>
<trkpt lat="47.81654377229082" lon="-2.6504425786101278"><ele>65.36</ele></trkpt>
<trkpt lat="47.8165751808985" lon="-2.6505002087118816"><ele>65.34</ele></trkpt>
<trkpt lat="47.81661229166667" lon="-2.6505774991311606"><ele>65.35</ele></trkpt>
<trkpt lat="47.816660716735264" lon="-2.6506863086042394"><ele>65.41</ele></trkpt>
<trkpt lat="47.81672312328532" lon="-2.6508311674875022"><ele>65.42</ele></trkpt>
<trkpt lat="47.81686832390261" lon="-2.651171723013895"><ele>65.24</ele></trkpt>
<trkpt lat="47.816933000685886" lon="-2.6513211233528367"><ele>65.07</ele></trkpt>
<trkpt lat="47.816986041666674" lon="-2.6514391656829916"><ele>64.9</ele></trkpt>
<trkpt lat="47.81703048104939" lon="-2.6515313788025585"><ele>64.76</ele></trkpt>
<trkpt lat="47.81707170666667" lon="-2.651609572243743"><ele>64.58</ele></trkpt>
<trkpt lat="47.817113623518516" lon="-2.651682813483673"><ele>64.39</ele></trkpt>
<trkpt lat="47.817157418209874" lon="-2.6517535528090193"><ele>64.23</ele></trkpt>
<trkpt lat="47.81720475388888" lon="-2.6518227024527796"><ele>64.04</ele></trkpt>
<trkpt lat="47.81725815915788" lon="-2.6518921393820127"><ele>63.86</ele></trkpt>
<trkpt lat="47.817319805249184" lon="-2.651965007341474"><ele>63.7</ele></trkpt>
<trkpt lat="47.81745418205275" lon="-2.652113184024707"><ele>63.42</ele></trkpt>
<trkpt lat="47.81758107886838" lon="-2.652247556543277"><ele>63.24</ele></trkpt>
<trkpt lat="47.81765065627231" lon="-2.6523193266155602"><ele>63.14</ele></trkpt>
<trkpt lat="47.81783653574008" lon="-2.652507965061217"><ele>62.73</ele></trkpt>
<trkpt lat="47.81806768152587" lon="-2.652740949399988"><ele>61.7</ele></trkpt>
<trkpt lat="47.81827361701816" lon="-2.6529482910869695"><ele>60.79</ele></trkpt>
<trkpt lat="47.818463942441014" lon="-2.653139899539367"><ele>59.84</ele></trkpt>
<trkpt lat="47.818689539535484" lon="-2.6533668302430464"><ele>58.92</ele></trkpt>
<trkpt lat="47.81891167045445" lon="-2.6535887940283525"><ele>58.07</ele></trkpt>
<trkpt lat="47.81900377587997" lon="-2.6536791947831198"><ele>57.6</ele></trkpt>
<trkpt lat="47.81908714315328" lon="-2.653759115130062"><ele>57.07</ele></trkpt>
<trkpt lat="47.8191709653696" lon="-2.6538373332203498"><ele>56.47</ele></trkpt>
<trkpt lat="47.81936185830925" lon="-2.6540109086173236"><ele>55.05</ele></trkpt>
<trkpt lat="47.81994377885161" lon="-2.6545336759447635"><ele>50.98</ele></trkpt>
<trkpt lat="47.82013735533632" lon="-2.6547056844019234"><ele>49.76</ele></trkpt>
<trkpt lat="47.820213958451035" lon="-2.6547718735734676"><ele>49.2</ele></trkpt>
<trkpt lat="47.820349587853734" lon="-2.6548823397856625"><ele>48.22</ele></trkpt>
<trkpt lat="47.820498999486674" lon="-2.654995975163418"><ele>46.89</ele></trkpt>
<trkpt lat="47.820577968107095" lon="-2.6550532584069333"><ele>46.26</ele></trkpt>
<trkpt lat="47.82080660300927" lon="-2.655211339388621"><ele>44.71</ele></trkpt>
<trkpt lat="47.82086427404836" lon="-2.6552538662827585"><ele>44.43</ele></trkpt>
<trkpt lat="47.82090738683128" lon="-2.6552908134853612"><ele>44.25</ele></trkpt>
<trkpt lat="47.820941334876544" lon="-2.655327832008576"><ele>44.08</ele></trkpt>
<trkpt lat="47.820973229595346" lon="-2.6553717558113243"><ele>43.95</ele></trkpt>
<trkpt lat="47.821047736625516" lon="-2.6554899998018517"><ele>43.74</ele></trkpt>
<trkpt lat="47.82109111111111" lon="-2.65555341544548"><ele>43.64</ele></trkpt>
<trkpt lat="47.821136337448564" lon="-2.6556084360555423"><ele>43.59</ele></trkpt>
<trkpt lat="47.821179526748985" lon="-2.655650617171131"><ele>43.59</ele></trkpt>
<trkpt lat="47.82121522890947" lon="-2.655679656139493"><ele>43.55</ele></trkpt>
<trkpt lat="47.821256731563956" lon="-2.655703107195728"><ele>43.52</ele></trkpt>
<trkpt lat="47.82128907225842" lon="-2.655692437034615"><ele>43.45</ele></trkpt>
<trkpt lat="47.8213118768826" lon="-2.655675725196565"><ele>43.42</ele></trkpt>
<trkpt lat="47.82134065212022" lon="-2.6556458088195054"><ele>43.37</ele></trkpt>
<trkpt lat="47.821378934996844" lon="-2.6555954320977877"><ele>43.25238672941311</ele></trkpt>
<trkpt lat="47.82142922329426" lon="-2.6555212438707017"><ele>43.08942339473981</ele></trkpt>
<trkpt lat="47.82148948495455" lon="-2.655428575635836"><ele>42.89</ele></trkpt>
<trkpt lat="47.821614935587185" lon="-2.6552322341181323"><ele>42.72</ele></trkpt>
<trkpt lat="47.82173692659991" lon="-2.655040568704337"><ele>42.87</ele></trkpt>
<trkpt lat="47.821861666257234" lon="-2.6548449075931115"><ele>43.38</ele></trkpt>
<trkpt lat="47.82195458622858" lon="-2.654700877280311"><ele>44.48</ele></trkpt>
<trkpt lat="47.82202089177831" lon="-2.6546046555551066"><ele>45.41</ele></trkpt>
<trkpt lat="47.82208905699603" lon="-2.654522662199243"><ele>46.28</ele></trkpt>
<trkpt lat="47.82212354423868" lon="-2.6544893545349564"><ele>46.69</ele></trkpt>
<trkpt lat="47.82215893689986" lon="-2.654460974093534"><ele>47.1</ele></trkpt>
<trkpt lat="47.82219954561043" lon="-2.654434461014308"><ele>47.55</ele></trkpt>
<trkpt lat="47.82225458333334" lon="-2.654403958844687"><ele>48.16</ele></trkpt>
<trkpt lat="47.822332901234574" lon="-2.654364417840804"><ele>49.01</ele></trkpt>
<trkpt lat="47.82256000000002" lon="-2.654255196731801"><ele>51.39</ele></trkpt>
<trkpt lat="47.82286541666667" lon="-2.65411020882988"><ele>54.67</ele></trkpt>
<trkpt lat="47.82295841563786" lon="-2.6540658265990427"><ele>55.84</ele></trkpt>
<trkpt lat="47.823020498971196" lon="-2.6540415903907983"><ele>56.63</ele></trkpt>
<trkpt lat="47.82305740226337" lon="-2.6540348499597486"><ele>57.02</ele></trkpt>
<trkpt lat="47.82310833333333" lon="-2.6540324999465916"><ele>57.58</ele></trkpt>
<trkpt lat="47.82318088734568" lon="-2.654034811271645"><ele>58.34</ele></trkpt>
<trkpt lat="47.823277600308636" lon="-2.6540411658124"><ele>59.35</ele></trkpt>
<trkpt lat="47.823507283950626" lon="-2.654058110267681"><ele>61.37</ele></trkpt>
<trkpt lat="47.823611658950625" lon="-2.654063329819157"><ele>62.06</ele></trkpt>
<trkpt lat="47.82369979166667" lon="-2.6540633333393773"><ele>62.61</ele></trkpt>
<trkpt lat="47.82377677126201" lon="-2.654057122865439"><ele>63.1</ele></trkpt>
<trkpt lat="47.82385061814129" lon="-2.654044893858083"><ele>63.61</ele></trkpt>
<trkpt lat="47.82392568415638" lon="-2.654027850020437"><ele>64.12</ele></trkpt>
<trkpt lat="47.82400191443758" lon="-2.6540071470709536"><ele>64.63</ele></trkpt>
<trkpt lat="47.82407973422498" lon="-2.6539824318401277"><ele>65.13</ele></trkpt>
<trkpt lat="47.82416479166667" lon="-2.6539508340116735"><ele>65.66</ele></trkpt>
<trkpt lat="47.824266478909465" lon="-2.6539083772384813"><ele>66.34</ele></trkpt>
<trkpt lat="47.82439048868312" lon="-2.653853281568836"><ele>67.19</ele></trkpt>
<trkpt lat="47.824531612654326" lon="-2.6537889264591366"><ele>68.27</ele></trkpt>
<trkpt lat="47.82492958333332" lon="-2.6536062510863467"><ele>71.97</ele></trkpt>
<trkpt lat="47.825169188957474" lon="-2.6534984930981595"><ele>74</ele></trkpt>
<trkpt lat="47.8254250222908" lon="-2.6533860315747773"><ele>75.78</ele></trkpt>
<trkpt lat="47.82553867626886" lon="-2.6533382012597"><ele>76.38</ele></trkpt>
<trkpt lat="47.82563708333333" lon="-2.653299792250701"><ele>76.94</ele></trkpt>
<trkpt lat="47.82572698645405" lon="-2.653268749585726"><ele>77.46</ele></trkpt>
<trkpt lat="47.82581705161179" lon="-2.6532415110185585"><ele>78.03</ele></trkpt>
<trkpt lat="47.82591063528807" lon="-2.653215831128722"><ele>78.68</ele></trkpt>
<trkpt lat="47.82609905435529" lon="-2.6531691507206627"><ele>79.8</ele></trkpt>
<trkpt lat="47.82619645833333" lon="-2.6531479170514736"><ele>80.27</ele></trkpt>
<trkpt lat="47.82630735853909" lon="-2.653125925551388"><ele>80.81</ele></trkpt>
<trkpt lat="47.826727888374485" lon="-2.653048301338102"><ele>82.59</ele></trkpt>
<trkpt lat="47.82685288323045" lon="-2.65302361071174"><ele>83.29</ele></trkpt>
<trkpt lat="47.826951666666666" lon="-2.653001042002817"><ele>83.9</ele></trkpt>
<trkpt lat="47.82702966306584" lon="-2.6529783980066846"><ele>84.36</ele></trkpt>
<trkpt lat="47.827097389403285" lon="-2.65295296953112"><ele>84.72</ele></trkpt>
<trkpt lat="47.827163040123445" lon="-2.6529228844415766"><ele>85.08</ele></trkpt>
<trkpt lat="47.82722809927983" lon="-2.652887580843561"><ele>85.47</ele></trkpt>
<trkpt lat="47.8272911779842" lon="-2.652846744740778"><ele>85.85</ele></trkpt>
<trkpt lat="47.827350738176065" lon="-2.6528004283500968"><ele>86.22</ele></trkpt>
<trkpt lat="47.827406535531885" lon="-2.6527501969126703"><ele>86.59</ele></trkpt>
<trkpt lat="47.82745924910473" lon="-2.652697488141811"><ele>86.96</ele></trkpt>
<trkpt lat="47.82751139953819" lon="-2.6526410222281815"><ele>87.35</ele></trkpt>
<trkpt lat="47.82756958414461" lon="-2.652573493427421"><ele>87.83</ele></trkpt>
<trkpt lat="47.827641762536615" lon="-2.6524856318071413"><ele>88.51</ele></trkpt>
<trkpt lat="47.82773232087277" lon="-2.6523727461990525"><ele>89.51</ele></trkpt>
<trkpt lat="47.82794456110532" lon="-2.652104971834343"><ele>91.89</ele></trkpt>
<trkpt lat="47.828140007248486" lon="-2.651857527219025"><ele>93.78</ele></trkpt>
<trkpt lat="47.82833581100023" lon="-2.6516095691433432"><ele>95.43</ele></trkpt>
<trkpt lat="47.82855420699505" lon="-2.6513329983132885"><ele>96.87</ele></trkpt>
<trkpt lat="47.828750009854666" lon="-2.6510850362798815"><ele>97.68</ele></trkpt>
<trkpt lat="47.8288441455586" lon="-2.6509658230978483"><ele>98.04</ele></trkpt>
<trkpt lat="47.82916420608137" lon="-2.650560495045425"><ele>99.39</ele></trkpt>
<trkpt lat="47.82926587216987" lon="-2.650431742737308"><ele>99.86</ele></trkpt>
<trkpt lat="47.829360007272314" lon="-2.650312527189757"><ele>100.36</ele></trkpt>
<trkpt lat="47.82945410016223" lon="-2.6501933680134027"><ele>100.9</ele></trkpt>
<trkpt lat="47.829555345589775" lon="-2.6500651822846097"><ele>101.57</ele></trkpt>
<trkpt lat="47.82976579824914" lon="-2.649799333947759"><ele>103.42</ele></trkpt>
<trkpt lat="47.82991895914775" lon="-2.6496090141525652"><ele>105.14</ele></trkpt>
<trkpt lat="47.82996647069871" lon="-2.6495531612414913"><ele>105.74</ele></trkpt>
<trkpt lat="47.8300031414235" lon="-2.6495135998069186"><ele>106.19</ele></trkpt>
<trkpt lat="47.830069037215885" lon="-2.6494547709792777"><ele>106.97</ele></trkpt>
<trkpt lat="47.83010204303909" lon="-2.6494316103520617"><ele>107.34</ele></trkpt>
<trkpt lat="47.8301672702332" lon="-2.649398477395923"><ele>108.05</ele></trkpt>
<trkpt lat="47.830235" lon="-2.6493769547537185"><ele>108.8</ele></trkpt>
<trkpt lat="47.83030503429355" lon="-2.6493677391987647"><ele>109.61</ele></trkpt>
<trkpt lat="47.830341388477365" lon="-2.649370345213906"><ele>110.04</ele></trkpt>
<trkpt lat="47.83037846145405" lon="-2.6493782601825995"><ele>110.45</ele></trkpt>
<trkpt lat="47.83041424060357" lon="-2.649391407602274"><ele>110.87</ele></trkpt>
<trkpt lat="47.830448681481485" lon="-2.64941218595479"><ele>111.28</ele></trkpt>
<trkpt lat="47.83048620740741" lon="-2.6494467490947513"><ele>111.77</ele></trkpt>
<trkpt lat="47.83053430628755" lon="-2.64950273188888"><ele>112.41</ele></trkpt>
<trkpt lat="47.830597300027236" lon="-2.6495831320194014"><ele>113.36</ele></trkpt>
<trkpt lat="47.83074913528743" lon="-2.6497840821062932"><ele>115.79</ele></trkpt>
<trkpt lat="47.830895972704475" lon="-2.6499783998717223"><ele>117.77</ele></trkpt>
<trkpt lat="47.831063453778754" lon="-2.6501962730709168"><ele>119.79</ele></trkpt>
<trkpt lat="47.83144333748526" lon="-2.650686650947232"><ele>123.03</ele></trkpt>
<trkpt lat="47.83162416093928" lon="-2.6509199002747974"><ele>124.95</ele></trkpt>
<trkpt lat="47.83182584819572" lon="-2.651180064901364"><ele>127.33</ele></trkpt>
<trkpt lat="47.83200667084893" lon="-2.651413317652788"><ele>129.36</ele></trkpt>
<trkpt lat="47.83218713129776" lon="-2.6516461413183166"><ele>131.68</ele></trkpt>
<trkpt lat="47.83238260559968" lon="-2.65189891150084"><ele>134.21</ele></trkpt>
<trkpt lat="47.83253006993129" lon="-2.6520924280413363"><ele>136.1</ele></trkpt>
<trkpt lat="47.832623811022636" lon="-2.65222290393622"><ele>137.31</ele></trkpt>
<trkpt lat="47.832708650838875" lon="-2.6523509810361827"><ele>138.24</ele></trkpt>
<trkpt lat="47.832753495299336" lon="-2.6524227440716888"><ele>138.72</ele></trkpt>
<trkpt lat="47.83284868055556" lon="-2.6525836801666722"><ele>139.44</ele></trkpt>
<trkpt lat="47.832935289566194" lon="-2.6527365243104466"><ele>140.56</ele></trkpt>
<trkpt lat="47.833034339206115" lon="-2.6529139502698946"><ele>141.65</ele></trkpt>
<trkpt lat="47.83306721171982" lon="-2.65296684937272"><ele>142.04</ele></trkpt>
<trkpt lat="47.83310156378601" lon="-2.653014526640071"><ele>142.45</ele></trkpt>
<trkpt lat="47.8331383127572" lon="-2.653054938178342"><ele>142.78</ele></trkpt>
<trkpt lat="47.83317790123458" lon="-2.6530863991026323"><ele>143.13</ele></trkpt>
<trkpt lat="47.833219218107004" lon="-2.653108353857907"><ele>143.5</ele></trkpt>
<trkpt lat="47.833259775377236" lon="-2.6531207792944227"><ele>143.85</ele></trkpt>
<trkpt lat="47.83329757030178" lon="-2.653123798865865"><ele>144.18</ele></trkpt>
<trkpt lat="47.83333255658437" lon="-2.653118083864129"><ele>144.56</ele></trkpt>
<trkpt lat="47.833365408093286" lon="-2.653104849136419"><ele>144.92</ele></trkpt>
<trkpt lat="47.83339603737998" lon="-2.653085402982665"><ele>145.25</ele></trkpt>
<trkpt lat="47.83342310185186" lon="-2.653059398184609"><ele>145.57</ele></trkpt>
<trkpt lat="47.833445529513895" lon="-2.6530262702912104"><ele>145.87</ele></trkpt>
<trkpt lat="47.833462630208345" lon="-2.652985824685281"><ele>146.13</ele></trkpt>
<trkpt lat="47.83347439525464" lon="-2.6529396962017064"><ele>146.34</ele></trkpt>
<trkpt lat="47.83348081018519" lon="-2.6528858333352052"><ele>146.48</ele></trkpt>
<trkpt lat="47.833482393690474" lon="-2.6528198147890136"><ele>146.56</ele></trkpt>
<trkpt lat="47.8334799880026" lon="-2.6527367360519025"><ele>146.74</ele></trkpt>
<trkpt lat="47.83346817964514" lon="-2.652538422863208"><ele>147.05</ele></trkpt>
<trkpt lat="47.83344958392232" lon="-2.6523212494002637"><ele>147.45</ele></trkpt>
<trkpt lat="47.833435301202435" lon="-2.6521834608931396"><ele>147.55</ele></trkpt>
<trkpt lat="47.83339451411634" lon="-2.651816772578778"><ele>148.35</ele></trkpt>
<trkpt lat="47.833309952817295" lon="-2.6510741219437195"><ele>150.1</ele></trkpt>
<trkpt lat="47.833265589219224" lon="-2.650682881119305"><ele>151.35</ele></trkpt>
<trkpt lat="47.833243787909446" lon="-2.650486040941482"><ele>151.93</ele></trkpt>
<trkpt lat="47.83322562870586" lon="-2.6503132902927224"><ele>152.35</ele></trkpt>
<trkpt lat="47.83321250058898" lon="-2.6501714577524464"><ele>152.75</ele></trkpt>
<trkpt lat="47.83320391658598" lon="-2.650046641516334"><ele>153.15</ele></trkpt>
<trkpt lat="47.83319829570737" lon="-2.649913206315723"><ele>153.55</ele></trkpt>
<trkpt lat="47.833189999999995" lon="-2.64956"><ele>153.93</ele></trkpt>
</trkseg>
</trk></gpx>
