<?xml version='1.0' encoding='UTF-8'?>
<gpx version="1.1"
  creator="GPXmagic"
  xmlns="http://www.topografix.com/GPX/1/1"
  xmlns:rgt="http://www.rgtcycling.com/XML/GpxExtensions/v1"
  xmlns:xsi="http://www.w3.org/2001/XMLSchema-instance" xsi:schemaLocation="http://www.topografix.com/GPX/1/1
  http://www.topografix.com/GPX/1/1/gpx.xsd">
  <metadata>
    <name>Smoothed with GPXmagic</name>
    <author>
      <link href="https://www.stepwiserefinement.co.uk">
        <text>GPXmagic v3</text>
        <type>text/html</type>
      </link>
    </author>
  </metadata>
<trk>  <name>Jamaica&amp;#32;International&amp;#32;Cycling&amp;#32;Classic&amp;#32;Stage&amp;#32;3</name>
<trkseg>
<trkpt lat="18.5218214196896" lon="-77.8388619584352"><ele>10.3339071191301</ele></trkpt>
<trkpt lat="18.5218665854429" lon="-77.8382879762281"><ele>11.0554309749444</ele></trkpt>
<trkpt lat="18.5219201536897" lon="-77.8376071888932"><ele>12.8205675229524</ele></trkpt>
<trkpt lat="18.5219713477506" lon="-77.8369565453064"><ele>14.1302787194683</ele></trkpt>
<trkpt lat="18.522012643915996" lon="-77.8364316772604"><ele>14.0628219150542</ele></trkpt>
<trkpt lat="18.5220615621354" lon="-77.83580990962179"><ele>12.4198502776467</ele></trkpt>
<trkpt lat="18.522102222561898" lon="-77.83529483999268"><ele>12.6207501028144</ele></trkpt>
<trkpt lat="18.5221313025721" lon="-77.8349376835953"><ele>12.4197195053669</ele></trkpt>
<trkpt lat="18.5222010925708" lon="-77.8341651498855"><ele>13.2266999525011</ele></trkpt>
<trkpt lat="18.522268559359397" lon="-77.833429776257"><ele>12.2851237808873</ele></trkpt>
<trkpt lat="18.5223128664852" lon="-77.8329468249922"><ele>12.0222961538444</ele></trkpt>
<trkpt lat="18.5223671865308" lon="-77.8323546634527"><ele>10.6027217560042</ele></trkpt>
<trkpt lat="18.5224344260627" lon="-77.8315806637672"><ele>9.66447488290432</ele></trkpt>
<trkpt lat="18.522458345709797" lon="-77.8312353684869"><ele>9.81159068828865</ele></trkpt>
<trkpt lat="18.5224884099159" lon="-77.8309478130101"><ele>10.4642636926914</ele></trkpt>
<trkpt lat="18.5225986660574" lon="-77.8303098822312"><ele>11.7666580637481</ele></trkpt>
<trkpt lat="18.5226589520404" lon="-77.8299893884418"><ele>12.5783923869437</ele></trkpt>
<trkpt lat="18.522703047011202" lon="-77.829795706787"><ele>12.8180428982804</ele></trkpt>
<trkpt lat="18.5228001332054" lon="-77.8294269569922"><ele>12.0809463742353</ele></trkpt>
<trkpt lat="18.522864590882" lon="-77.8292010937781"><ele>11.8584459885416</ele></trkpt>
<trkpt lat="18.5229796224801" lon="-77.82884182593341"><ele>11.8489755421277</ele></trkpt>
<trkpt lat="18.5232899312857" lon="-77.82791021565221"><ele>10.9345875233048</ele></trkpt>
<trkpt lat="18.523400895162602" lon="-77.8275771906274"><ele>10.8390949158661</ele></trkpt>
<trkpt lat="18.5235514027242" lon="-77.82711172748901"><ele>9.11636242768174</ele></trkpt>
<trkpt lat="18.523665249325497" lon="-77.8266883504641"><ele>7.96811961039406</ele></trkpt>
<trkpt lat="18.5237338527815" lon="-77.8263818654612"><ele>7.94700911499291</ele></trkpt>
<trkpt lat="18.5237695871516" lon="-77.826184453945"><ele>7.94588232693393</ele></trkpt>
<trkpt lat="18.5237943318144" lon="-77.8260022960283"><ele>7.7453969608252</ele></trkpt>
<trkpt lat="18.5238192393305" lon="-77.8256440572693"><ele>6.81962428798272</ele></trkpt>
<trkpt lat="18.5238293785649" lon="-77.8252659063384"><ele>6.09509904685199</ele></trkpt>
<trkpt lat="18.5238189367792" lon="-77.825034179289"><ele>5.90830031911455</ele></trkpt>
<trkpt lat="18.5237842676817" lon="-77.8246588269355"><ele>5.73282439168267</ele></trkpt>
<trkpt lat="18.5237507912585" lon="-77.8244449396586"><ele>5.55872048291686</ele></trkpt>
<trkpt lat="18.523699506188404" lon="-77.8242026383525"><ele>5.35387272839579</ele></trkpt>
<trkpt lat="18.523568973516504" lon="-77.823633994438"><ele>5.33477346029749</ele></trkpt>
<trkpt lat="18.5234778087359" lon="-77.8232679977558"><ele>5.09961660185069</ele></trkpt>
<trkpt lat="18.5234456334211" lon="-77.82316483722049"><ele>5.07410960105513</ele></trkpt>
<trkpt lat="18.5233633805158" lon="-77.8229532385447"><ele>5.11751493909498</ele></trkpt>
<trkpt lat="18.5230711914646" lon="-77.8223034158293"><ele>4.84007255444748</ele></trkpt>
<trkpt lat="18.522877998256" lon="-77.82189027304"><ele>5.494544706316</ele></trkpt>
<trkpt lat="18.5227641431031" lon="-77.8216848967672"><ele>5.96712388983192</ele></trkpt>
<trkpt lat="18.52258210785" lon="-77.8213902799783"><ele>6.91955604280006</ele></trkpt>
<trkpt lat="18.5222151101542" lon="-77.8208194185348"><ele>8.0791232119328</ele></trkpt>
<trkpt lat="18.5216693287675" lon="-77.81997218786532"><ele>10.6589876725364</ele></trkpt>
<trkpt lat="18.5213947078725" lon="-77.8195423862443"><ele>11.6578603140671</ele></trkpt>
<trkpt lat="18.5212266813474" lon="-77.81925990422532"><ele>12.1003993494289</ele></trkpt>
<trkpt lat="18.5210223382888" lon="-77.818883894304"><ele>12.7960308170912</ele></trkpt>
<trkpt lat="18.5208803705819" lon="-77.8185897536312"><ele>13.7589942188915</ele></trkpt>
<trkpt lat="18.520745268814398" lon="-77.8182908130338"><ele>14.460918360455</ele></trkpt>
<trkpt lat="18.5206255634666" lon="-77.81799534502352"><ele>15.0999185210337</ele></trkpt>
<trkpt lat="18.520517283777302" lon="-77.8177088212723"><ele>15.5731022557857</ele></trkpt>
<trkpt lat="18.520430433237" lon="-77.8174496488239"><ele>15.9924602013013</ele></trkpt>
<trkpt lat="18.520350416857" lon="-77.8171830660676"><ele>16.6334873306987</ele></trkpt>
<trkpt lat="18.5202991336315" lon="-77.81698371516248"><ele>17.2452025319059</ele></trkpt>
<trkpt lat="18.5202180198541" lon="-77.8166390375909"><ele>18.6050144580642</ele></trkpt>
<trkpt lat="18.5201514785399" lon="-77.81628549416182"><ele>19.7163250066079</ele></trkpt>
<trkpt lat="18.5201156780293" lon="-77.8160329485633"><ele>19.8494955807638</ele></trkpt>
<trkpt lat="18.520072124688497" lon="-77.8155499379009"><ele>19.3019714377096</ele></trkpt>
<trkpt lat="18.5200574204449" lon="-77.8153651912925"><ele>19.3808910730906</ele></trkpt>
<trkpt lat="18.519986065523497" lon="-77.814464292235"><ele>20.9188511053035</ele></trkpt>
<trkpt lat="18.5199555922639" lon="-77.81407933492441"><ele>21.9607354880689</ele></trkpt>
<trkpt lat="18.5199355739618" lon="-77.81382645900518"><ele>21.9999436996351</ele></trkpt>
<trkpt lat="18.5198812942483" lon="-77.8131408010347"><ele>19.9288818424844</ele></trkpt>
<trkpt lat="18.5198336204901" lon="-77.8125386169041"><ele>19.1192198726372</ele></trkpt>
<trkpt lat="18.5197422448052" lon="-77.81138448558501"><ele>15.6592723409705</ele></trkpt>
<trkpt lat="18.5196958031912" lon="-77.8107979344688"><ele>12.1832918407976</ele></trkpt>
<trkpt lat="18.5196571760926" lon="-77.8103100961675"><ele>9.97724402956698</ele></trkpt>
<trkpt lat="18.5196130431746" lon="-77.80975274416491"><ele>8.73845126827152</ele></trkpt>
<trkpt lat="18.5195465719328" lon="-77.8089133191715"><ele>5.73320343591781</ele></trkpt>
<trkpt lat="18.5195183996325" lon="-77.8085575623372"><ele>5.00344000150599</ele></trkpt>
<trkpt lat="18.5194797666366" lon="-77.80806972503659"><ele>5.18113513011813</ele></trkpt>
<trkpt lat="18.5194333149544" lon="-77.80748317573182"><ele>4.51477183913744</ele></trkpt>
<trkpt lat="18.51935868524" lon="-77.8065408705644"><ele>4.59372847889025</ele></trkpt>
<trkpt lat="18.5192706856461" lon="-77.805429828957"><ele>5.7542535830668</ele></trkpt>
<trkpt lat="18.5192401370784" lon="-77.8050441579652"><ele>6.88195517562108</ele></trkpt>
<trkpt lat="18.5191925386099" lon="-77.8044437485307"><ele>9.50346509302856</ele></trkpt>
<trkpt lat="18.5191439627592" lon="-77.80386285080472"><ele>10.6967757376733</ele></trkpt>
<trkpt lat="18.519112275933402" lon="-77.8035984434164"><ele>11.4568761600268</ele></trkpt>
<trkpt lat="18.5190549065619" lon="-77.8032223883227"><ele>12.9186837279174</ele></trkpt>
<trkpt lat="18.5189486071735" lon="-77.80263639294041"><ele>15.2716619744374</ele></trkpt>
<trkpt lat="18.5188809222263" lon="-77.8023411456782"><ele>16.4670721570614</ele></trkpt>
<trkpt lat="18.518676248451197" lon="-77.8015787076925"><ele>18.8720787195096</ele></trkpt>
<trkpt lat="18.5186159796293" lon="-77.8013821645697"><ele>19.4495466585095</ele></trkpt>
<trkpt lat="18.5185360546788" lon="-77.80115941247789"><ele>19.8927732692062</ele></trkpt>
<trkpt lat="18.518248924743602" lon="-77.8004118328419"><ele>20.1069240596183</ele></trkpt>
<trkpt lat="18.5179622614744" lon="-77.7996684965862"><ele>19.2919872190211</ele></trkpt>
<trkpt lat="18.5177084520926" lon="-77.7990103607423"><ele>17.3010327400174</ele></trkpt>
<trkpt lat="18.5174282355239" lon="-77.7982837587302"><ele>15.083910535979</ele></trkpt>
<trkpt lat="18.517196673790203" lon="-77.7976833267686"><ele>12.9120327115223</ele></trkpt>
<trkpt lat="18.5171050694494" lon="-77.7974455273271"><ele>12.4619800657446</ele></trkpt>
<trkpt lat="18.5170041948785" lon="-77.7971792439979"><ele>12.7073717610156</ele></trkpt>
<trkpt lat="18.5169252582421" lon="-77.79694919464569"><ele>13.3019596335379</ele></trkpt>
<trkpt lat="18.5168678917483" lon="-77.796734994909"><ele>13.8953000545947</ele></trkpt>
<trkpt lat="18.5167913107684" lon="-77.7963916817369"><ele>13.9181001745337</ele></trkpt>
<trkpt lat="18.5167241373219" lon="-77.7960814801164"><ele>12.8733094158556</ele></trkpt>
<trkpt lat="18.5166510769654" lon="-77.7957440107495"><ele>12.4981266785706</ele></trkpt>
<trkpt lat="18.5165605089669" lon="-77.7953246926508"><ele>13.5882038206374</ele></trkpt>
<trkpt lat="18.516482666658504" lon="-77.7949276892424"><ele>13.404770728574</ele></trkpt>
<trkpt lat="18.5164134922723" lon="-77.7944424673056"><ele>12.9154279056714</ele></trkpt>
<trkpt lat="18.5163614598013" lon="-77.7940464915114"><ele>13.7360922756248</ele></trkpt>
<trkpt lat="18.5163414992263" lon="-77.7938497425766"><ele>14.0423323572612</ele></trkpt>
<trkpt lat="18.5163099180342" lon="-77.7934483675843"><ele>13.7833627210547</ele></trkpt>
<trkpt lat="18.516288862220904" lon="-77.79306951740269"><ele>13.9145152330582</ele></trkpt>
<trkpt lat="18.5162750891219" lon="-77.79251952377878"><ele>12.8434958731796</ele></trkpt>
<trkpt lat="18.5162739251541" lon="-77.7922958966882"><ele>12.7964429426669</ele></trkpt>
<trkpt lat="18.5162832672016" lon="-77.79173815263279"><ele>12.9800183849921</ele></trkpt>
<trkpt lat="18.516294001721096" lon="-77.7912321316357"><ele>13.5589246600303</ele></trkpt>
<trkpt lat="18.5163041049459" lon="-77.790757309029"><ele>15.0604236414297</ele></trkpt>
<trkpt lat="18.5163150218603" lon="-77.7902428615074"><ele>17.2366345885633</ele></trkpt>
<trkpt lat="18.5163239333598" lon="-77.7897291495033"><ele>17.9553294917562</ele></trkpt>
<trkpt lat="18.5163173139784" lon="-77.789424774478"><ele>17.7444640492705</ele></trkpt>
<trkpt lat="18.516268085525898" lon="-77.78879700107932"><ele>17.3440252774441</ele></trkpt>
<trkpt lat="18.516187984980597" lon="-77.78782462155961"><ele>18.3482505745487</ele></trkpt>
<trkpt lat="18.5161757623992" lon="-77.7876235124458"><ele>18.3850353170469</ele></trkpt>
<trkpt lat="18.516170285063396" lon="-77.7873078761011"><ele>18.0892414229522</ele></trkpt>
<trkpt lat="18.5161714070964" lon="-77.7865887541899"><ele>19.0488072694558</ele></trkpt>
<trkpt lat="18.5161780757828" lon="-77.7863688740404"><ele>19.015890636226</ele></trkpt>
<trkpt lat="18.516192938094395" lon="-77.7861557003738"><ele>18.6640543540921</ele></trkpt>
<trkpt lat="18.516262379893604" lon="-77.7853435747509"><ele>15.5477014537701</ele></trkpt>
<trkpt lat="18.5163050008" lon="-77.7847405427423"><ele>13.8202046807516</ele></trkpt>
<trkpt lat="18.5163477161012" lon="-77.7840895587486"><ele>11.313097671895</ele></trkpt>
<trkpt lat="18.51640503731" lon="-77.78315564615941"><ele>8.55746253261847</ele></trkpt>
<trkpt lat="18.5164865746447" lon="-77.7818250930994"><ele>5.32546933161611</ele></trkpt>
<trkpt lat="18.5165302932232" lon="-77.78109116324421"><ele>4.65423003778675</ele></trkpt>
<trkpt lat="18.5165410702893" lon="-77.7808046857271"><ele>4.53311893264355</ele></trkpt>
<trkpt lat="18.5165388684067" lon="-77.7805526560423"><ele>4.81802187231447</ele></trkpt>
<trkpt lat="18.5165230149621" lon="-77.7801632583157"><ele>5.20223952931923</ele></trkpt>
<trkpt lat="18.5164888595089" lon="-77.7797649807619"><ele>5.70159517163329</ele></trkpt>
<trkpt lat="18.5164304476129" lon="-77.7792454121573"><ele>6.78932209940847</ele></trkpt>
<trkpt lat="18.5164046066284" lon="-77.7790467851851"><ele>6.91950279643959</ele></trkpt>
<trkpt lat="18.5163722612992" lon="-77.7788651281782"><ele>6.95034729583567</ele></trkpt>
<trkpt lat="18.5163229062598" lon="-77.7786412785529"><ele>6.86413480378955</ele></trkpt>
<trkpt lat="18.516176832264303" lon="-77.7780142487793"><ele>5.38971841203922</ele></trkpt>
<trkpt lat="18.5159881013773" lon="-77.77720869247578"><ele>5.12836799155785</ele></trkpt>
<trkpt lat="18.5158754448762" lon="-77.7767736751148"><ele>5.79604950294446</ele></trkpt>
<trkpt lat="18.515540036898596" lon="-77.7755851095911"><ele>10.3374286828024</ele></trkpt>
<trkpt lat="18.5154741122792" lon="-77.775351902041"><ele>10.6370217182796</ele></trkpt>
<trkpt lat="18.5153702897499" lon="-77.7749846330669"><ele>10.263624148422</ele></trkpt>
<trkpt lat="18.5153097154216" lon="-77.7747703615612"><ele>11.0099329339232</ele></trkpt>
<trkpt lat="18.5151693452812" lon="-77.7742769426903"><ele>16.6196421351985</ele></trkpt>
<trkpt lat="18.5150669647422" lon="-77.77393420949241"><ele>19.0175701687453</ele></trkpt>
<trkpt lat="18.514885035904403" lon="-77.7733432880035"><ele>21.3488787514381</ele></trkpt>
<trkpt lat="18.5147333935302" lon="-77.7728515991224"><ele>21.8944399164413</ele></trkpt>
<trkpt lat="18.5145512988064" lon="-77.77225928382448"><ele>23.3342582563405</ele></trkpt>
<trkpt lat="18.5144584227821" lon="-77.7719385882585"><ele>23.4424355408917</ele></trkpt>
<trkpt lat="18.514320045494" lon="-77.7714051733149"><ele>23.454275423096</ele></trkpt>
<trkpt lat="18.5142101741169" lon="-77.7709771726139"><ele>24.2137730326835</ele></trkpt>
<trkpt lat="18.5140752105638" lon="-77.7704748585404"><ele>25.9051658670588</ele></trkpt>
<trkpt lat="18.5139755144799" lon="-77.7701141509636"><ele>26.2668024473886</ele></trkpt>
<trkpt lat="18.5137831941249" lon="-77.7694200082376"><ele>25.4543408423594</ele></trkpt>
<trkpt lat="18.5136557761122" lon="-77.76896013223448"><ele>25.3177832919215</ele></trkpt>
<trkpt lat="18.513509630577598" lon="-77.7684326700341"><ele>26.0724030363841</ele></trkpt>
<trkpt lat="18.5133613093971" lon="-77.767895836927"><ele>25.9967285266229</ele></trkpt>
<trkpt lat="18.513278996315897" lon="-77.767582427419"><ele>25.6351328647154</ele></trkpt>
<trkpt lat="18.513195185100397" lon="-77.7672200141838"><ele>25.3873443585027</ele></trkpt>
<trkpt lat="18.513053682973098" lon="-77.766573141001"><ele>23.6735632430419</ele></trkpt>
<trkpt lat="18.512871280228996" lon="-77.7656509662389"><ele>21.9261265588963</ele></trkpt>
<trkpt lat="18.512729407958" lon="-77.76493113011401"><ele>19.4012309300204</ele></trkpt>
<trkpt lat="18.512526046174198" lon="-77.7638993336432"><ele>16.0271519576408</ele></trkpt>
<trkpt lat="18.5124217043042" lon="-77.7633699457063"><ele>15.6436740183343</ele></trkpt>
<trkpt lat="18.5123311178402" lon="-77.762910351653"><ele>14.6452475626602</ele></trkpt>
<trkpt lat="18.5121814995136" lon="-77.76215209920649"><ele>12.1644307980839</ele></trkpt>
<trkpt lat="18.5121287892729" lon="-77.7618888474634"><ele>11.9843566455157</ele></trkpt>
<trkpt lat="18.5120348696385" lon="-77.7614342096376"><ele>12.2657688867989</ele></trkpt>
<trkpt lat="18.5119777150583" lon="-77.7611599341212"><ele>11.914429753928</ele></trkpt>
<trkpt lat="18.5118459163062" lon="-77.7605224674331"><ele>9.87336710840346</ele></trkpt>
<trkpt lat="18.5117993730638" lon="-77.7602709267739"><ele>9.11879890811852</ele></trkpt>
<trkpt lat="18.5117660223707" lon="-77.7600370776538"><ele>8.19876161748131</ele></trkpt>
<trkpt lat="18.511736464684404" lon="-77.759787621956"><ele>7.66450144629967</ele></trkpt>
<trkpt lat="18.5116561444494" lon="-77.759083163033"><ele>8.18974556672399</ele></trkpt>
<trkpt lat="18.511630002570495" lon="-77.7588533323661"><ele>7.96146528943366</ele></trkpt>
<trkpt lat="18.5115764399462" lon="-77.7583743419709"><ele>6.68927098026473</ele></trkpt>
<trkpt lat="18.511555333796995" lon="-77.7581488189988"><ele>6.07756490900217</ele></trkpt>
<trkpt lat="18.5115295938878" lon="-77.7576624049326"><ele>4.67541673068562</ele></trkpt>
<trkpt lat="18.5115163403867" lon="-77.75734699551941"><ele>4.56326731070357</ele></trkpt>
<trkpt lat="18.511492486928702" lon="-77.7567126146535"><ele>6.80860168087146</ele></trkpt>
<trkpt lat="18.5114882841022" lon="-77.75646643651551"><ele>6.89249858408609</ele></trkpt>
<trkpt lat="18.511480765980796" lon="-77.7556253759675"><ele>5.99584093157306</ele></trkpt>
<trkpt lat="18.5114743364729" lon="-77.7548344407125"><ele>3.64384018953325</ele></trkpt>
<trkpt lat="18.511478456722703" lon="-77.7543826273071"><ele>3.09060652972773</ele></trkpt>
<trkpt lat="18.5114945190762" lon="-77.7542060194247"><ele>3.02621824004265</ele></trkpt>
<trkpt lat="18.5115392726" lon="-77.75392795749922"><ele>2.84655027558194</ele></trkpt>
<trkpt lat="18.511582979812" lon="-77.753734039653"><ele>2.87993196990724</ele></trkpt>
<trkpt lat="18.5116412686874" lon="-77.75351515189149"><ele>3.05876143418975</ele></trkpt>
<trkpt lat="18.5117037495989" lon="-77.7533157131978"><ele>3.06012907884006</ele></trkpt>
<trkpt lat="18.511848094353002" lon="-77.752931240362"><ele>2.05590681290058</ele></trkpt>
<trkpt lat="18.5119061138152" lon="-77.7527605028241"><ele>1.67197274616765</ele></trkpt>
<trkpt lat="18.5120009115235" lon="-77.7524374331446"><ele>1.4969016065328</ele></trkpt>
<trkpt lat="18.5120692148431" lon="-77.7521436368614"><ele>0.404995818858637</ele></trkpt>
<trkpt lat="18.512103888834" lon="-77.7519247982283"><ele>-0.0126898607274483</ele></trkpt>
<trkpt lat="18.512130340077" lon="-77.7517044421414"><ele>-0.0989758673973577</ele></trkpt>
<trkpt lat="18.512139501593605" lon="-77.7515083626735"><ele>-0.12283158521039</ele></trkpt>
<trkpt lat="18.5121341317827" lon="-77.7512803821553"><ele>-0.101794060363648</ele></trkpt>
<trkpt lat="18.512122241935" lon="-77.7510556667567"><ele>0.394778113583145</ele></trkpt>
<trkpt lat="18.5120947975516" lon="-77.7507787421926"><ele>1.9417612404212</ele></trkpt>
<trkpt lat="18.5120232107697" lon="-77.7502598532046"><ele>2.55894814683845</ele></trkpt>
<trkpt lat="18.5119401411837" lon="-77.7497067174858"><ele>2.56631322930304</ele></trkpt>
<trkpt lat="18.511823462431" lon="-77.7490138862878"><ele>1.49117874901231</ele></trkpt>
<trkpt lat="18.5117628471031" lon="-77.74862304885129"><ele>1.36644520037845</ele></trkpt>
<trkpt lat="18.5117040911783" lon="-77.7481482339707"><ele>1.91749823954367</ele></trkpt>
<trkpt lat="18.5116052019804" lon="-77.7473198530866"><ele>2.33842666020371</ele></trkpt>
<trkpt lat="18.511552232747505" lon="-77.7468032128482"><ele>1.74357160555752</ele></trkpt>
<trkpt lat="18.5115246430287" lon="-77.7462549127155"><ele>1.80208702023492</ele></trkpt>
<trkpt lat="18.51151856261" lon="-77.7460076969033"><ele>1.71193886510521</ele></trkpt>
<trkpt lat="18.511522470988705" lon="-77.7458022667098"><ele>1.60733700441402</ele></trkpt>
<trkpt lat="18.5115456952004" lon="-77.74543281517009"><ele>1.61133470705083</ele></trkpt>
<trkpt lat="18.5115683996541" lon="-77.7451952265694"><ele>1.62803203377047</ele></trkpt>
<trkpt lat="18.5116029194166" lon="-77.7449467432761"><ele>1.57766708720462</ele></trkpt>
<trkpt lat="18.5117248086034" lon="-77.74416086274532"><ele>1.5686388493738</ele></trkpt>
<trkpt lat="18.5118338472907" lon="-77.7433891760663"><ele>1.89943734094342</ele></trkpt>
<trkpt lat="18.511885875788398" lon="-77.7429787127884"><ele>1.87809537777161</ele></trkpt>
<trkpt lat="18.511893453348602" lon="-77.7428730671591"><ele>1.79747568590128</ele></trkpt>
<trkpt lat="18.5118924427895" lon="-77.74267710373428"><ele>1.63252163018947</ele></trkpt>
<trkpt lat="18.5118691834665" lon="-77.7423560294268"><ele>1.5334992611567</ele></trkpt>
<trkpt lat="18.511834565306696" lon="-77.74194601797268"><ele>1.65179017755783</ele></trkpt>
<trkpt lat="18.5118049773235" lon="-77.741678836573"><ele>1.79334457411788</ele></trkpt>
<trkpt lat="18.5117706863428" lon="-77.7414390791181"><ele>1.93572987339384</ele></trkpt>
<trkpt lat="18.5116709124305" lon="-77.7407814191281"><ele>1.61138157457039</ele></trkpt>
<trkpt lat="18.511545396031796" lon="-77.73995757914021"><ele>1.72072173781424</ele></trkpt>
<trkpt lat="18.511416925992204" lon="-77.73911437518541"><ele>2.05896028421406</ele></trkpt>
<trkpt lat="18.5112302356146" lon="-77.7378890979807"><ele>1.44529076877506</ele></trkpt>
<trkpt lat="18.5110919952961" lon="-77.7369798622799"><ele>1.91145772023176</ele></trkpt>
<trkpt lat="18.511010606705" lon="-77.7364390249301"><ele>1.76269712942551</ele></trkpt>
<trkpt lat="18.5109234302801" lon="-77.7358651381579"><ele>1.99117733308652</ele></trkpt>
<trkpt lat="18.5108394655352" lon="-77.7353645395392"><ele>2.19093082520639</ele></trkpt>
<trkpt lat="18.510762599098996" lon="-77.7349640843252"><ele>2.14409059043073</ele></trkpt>
<trkpt lat="18.510701540316095" lon="-77.73471435200162"><ele>2.14469578400065</ele></trkpt>
<trkpt lat="18.510590963701905" lon="-77.7343123624392"><ele>2.39419394955026</ele></trkpt>
<trkpt lat="18.5105240743198" lon="-77.7340949869575"><ele>2.40417607575621</ele></trkpt>
<trkpt lat="18.5103331997156" lon="-77.733528927373"><ele>2.25294071886425</ele></trkpt>
<trkpt lat="18.5101632689971" lon="-77.732963543472"><ele>3.25698534096964</ele></trkpt>
<trkpt lat="18.5101115786998" lon="-77.7327657803761"><ele>3.56063137191812</ele></trkpt>
<trkpt lat="18.510011731652" lon="-77.73231723758211"><ele>3.98084978171338</ele></trkpt>
<trkpt lat="18.5099694287834" lon="-77.7320938332311"><ele>3.99254757709369</ele></trkpt>
<trkpt lat="18.5098462066153" lon="-77.73135318270961"><ele>4.07704956233811</ele></trkpt>
<trkpt lat="18.509634739168497" lon="-77.7300681239086"><ele>3.40068673061322</ele></trkpt>
<trkpt lat="18.5095487059134" lon="-77.7296157443417"><ele>3.58844043750322</ele></trkpt>
<trkpt lat="18.5094836232853" lon="-77.7293389955881"><ele>3.82665966865493</ele></trkpt>
<trkpt lat="18.5093221549705" lon="-77.7286803249343"><ele>3.99877169681648</ele></trkpt>
<trkpt lat="18.5091745755157" lon="-77.72807954167578"><ele>3.03654683797465</ele></trkpt>
<trkpt lat="18.509021884670897" lon="-77.7274579632999"><ele>3.02774326392451</ele></trkpt>
<trkpt lat="18.508806865548497" lon="-77.7265826728879"><ele>2.41882437454982</ele></trkpt>
<trkpt lat="18.5085670757127" lon="-77.7256068877662"><ele>2.92430405754329</ele></trkpt>
<trkpt lat="18.508445238585104" lon="-77.7251196822509"><ele>2.79193622813862</ele></trkpt>
<trkpt lat="18.508238362869" lon="-77.7243465520206"><ele>2.97122273350533</ele></trkpt>
<trkpt lat="18.5079789871496" lon="-77.72339099527818"><ele>2.18271581260396</ele></trkpt>
<trkpt lat="18.50781411673" lon="-77.7228067707193"><ele>2.55782095060837</ele></trkpt>
<trkpt lat="18.5074933598985" lon="-77.7216788718454"><ele>2.90548549585526</ele></trkpt>
<trkpt lat="18.507302179732704" lon="-77.72100665987269"><ele>2.51988180841253</ele></trkpt>
<trkpt lat="18.5070063757088" lon="-77.7199665964656"><ele>2.72069912496427</ele></trkpt>
<trkpt lat="18.5067907892752" lon="-77.7192085958865"><ele>2.21236273347905</ele></trkpt>
<trkpt lat="18.5064098806426" lon="-77.7178693580153"><ele>2.02822508914351</ele></trkpt>
<trkpt lat="18.5062389521158" lon="-77.7172684036044"><ele>1.75270048623766</ele></trkpt>
<trkpt lat="18.5060710863336" lon="-77.7166782305096"><ele>1.96802674719048</ele></trkpt>
<trkpt lat="18.5058697616166" lon="-77.7159774297264"><ele>1.83030502987087</ele></trkpt>
<trkpt lat="18.5057817303299" lon="-77.715705771142"><ele>1.95663125142582</ele></trkpt>
<trkpt lat="18.505686174686502" lon="-77.7154686798599"><ele>1.9065521712657</ele></trkpt>
<trkpt lat="18.5055716807938" lon="-77.7152151353354"><ele>1.79441204158124</ele></trkpt>
<trkpt lat="18.5054666619354" lon="-77.71499710406871"><ele>1.68649976110027</ele></trkpt>
<trkpt lat="18.505294217676" lon="-77.7146751962805"><ele>1.54851265189284</ele></trkpt>
<trkpt lat="18.5051674305111" lon="-77.7144546584228"><ele>1.53972713952526</ele></trkpt>
<trkpt lat="18.5050406665285" lon="-77.7142560167103"><ele>1.58898055994672</ele></trkpt>
<trkpt lat="18.5048791359757" lon="-77.7140250845377"><ele>1.744172790829</ele></trkpt>
<trkpt lat="18.504711109982402" lon="-77.7137949353057"><ele>1.81813593199121</ele></trkpt>
<trkpt lat="18.504469364333495" lon="-77.7134924200903"><ele>1.69135747953691</ele></trkpt>
<trkpt lat="18.5042787560618" lon="-77.7132701050773"><ele>1.49907346491731</ele></trkpt>
<trkpt lat="18.5041046400045" lon="-77.71307936949232"><ele>1.20612183134211</ele></trkpt>
<trkpt lat="18.5038195449678" lon="-77.7128057107063"><ele>1.04356998019605</ele></trkpt>
<trkpt lat="18.5036167721016" lon="-77.71262365436789"><ele>0.203004659166572</ele></trkpt>
<trkpt lat="18.5034333008342" lon="-77.7124699843462"><ele>-0.039649107896579</ele></trkpt>
<trkpt lat="18.5027114571389" lon="-77.7119127737971"><ele>0.109504659511456</ele></trkpt>
<trkpt lat="18.5024896198304" lon="-77.711740856536"><ele>0.979519793357811</ele></trkpt>
<trkpt lat="18.5022973081241" lon="-77.7115830826862"><ele>1.27876467050775</ele></trkpt>
<trkpt lat="18.5021154149378" lon="-77.7114161785437"><ele>1.19933782728388</ele></trkpt>
<trkpt lat="18.5017609720921" lon="-77.7110633634286"><ele>1.21419061666878</ele></trkpt>
<trkpt lat="18.5016349044607" lon="-77.7109242889647"><ele>1.13075237973172</ele></trkpt>
<trkpt lat="18.5014480481278" lon="-77.7107048042839"><ele>1.1478100522177</ele></trkpt>
<trkpt lat="18.501117011606997" lon="-77.7102930670715"><ele>1.31466626901344</ele></trkpt>
<trkpt lat="18.5009924911211" lon="-77.7101292801665"><ele>1.16629321581979</ele></trkpt>
<trkpt lat="18.5007992946012" lon="-77.709849264825"><ele>0.706974462941688</ele></trkpt>
<trkpt lat="18.500500442536" lon="-77.70939625253858"><ele>0.52137793066954</ele></trkpt>
<trkpt lat="18.5003013366185" lon="-77.7090936160872"><ele>1.03112299597794</ele></trkpt>
<trkpt lat="18.500060814878" lon="-77.7087280204294"><ele>0.483984274462152</ele></trkpt>
<trkpt lat="18.4998225177796" lon="-77.7083658098218"><ele>1.38618755666063</ele></trkpt>
<trkpt lat="18.499607468549804" lon="-77.7080389368446"><ele>1.43191984349393</ele></trkpt>
<trkpt lat="18.4991936959312" lon="-77.7074098037116"><ele>0.828986554663024</ele></trkpt>
<trkpt lat="18.4990094779164" lon="-77.7071280931398"><ele>0.065831160041881</ele></trkpt>
<trkpt lat="18.498723275879097" lon="-77.7066758940254"><ele>1.33002529593939</ele></trkpt>
<trkpt lat="18.4983659044062" lon="-77.70610549693012"><ele>-0.0165620849445991</ele></trkpt>
<trkpt lat="18.4981036611988" lon="-77.7056968086433"><ele>-0.0252653083649862</ele></trkpt>
<trkpt lat="18.4979353547949" lon="-77.7054396965983"><ele>0.393917492644924</ele></trkpt>
<trkpt lat="18.497706243781" lon="-77.7050884008061"><ele>1.92013634556494</ele></trkpt>
<trkpt lat="18.4972381278427" lon="-77.7043449131336"><ele>2.37504976971562</ele></trkpt>
<trkpt lat="18.4971239111952" lon="-77.7041539609906"><ele>2.47126301707822</ele></trkpt>
<trkpt lat="18.4970282282538" lon="-77.7039729447469"><ele>2.41946478295852</ele></trkpt>
<trkpt lat="18.4967889818067" lon="-77.7034724401723"><ele>2.12228200646063</ele></trkpt>
<trkpt lat="18.496529076086798" lon="-77.7029325819892"><ele>2.32483381708222</ele></trkpt>
<trkpt lat="18.4963728243916" lon="-77.7026155032381"><ele>2.31774288617618</ele></trkpt>
<trkpt lat="18.496265133648" lon="-77.7024151228612"><ele>2.37425066224724</ele></trkpt>
<trkpt lat="18.4960768350136" lon="-77.7020876511484"><ele>2.70315956556989</ele></trkpt>
<trkpt lat="18.4958926677882" lon="-77.7017852381658"><ele>2.59480315229401</ele></trkpt>
<trkpt lat="18.495729126072998" lon="-77.7015446135722"><ele>1.93286347363041</ele></trkpt>
<trkpt lat="18.4954006518191" lon="-77.7010909033721"><ele>1.44979023938646</ele></trkpt>
<trkpt lat="18.495190998444" lon="-77.7008220349794"><ele>1.75956212147393</ele></trkpt>
<trkpt lat="18.4950069366863" lon="-77.7006001440302"><ele>2.17779094339981</ele></trkpt>
<trkpt lat="18.494915534123102" lon="-77.70050521484748"><ele>2.34757884178039</ele></trkpt>
<trkpt lat="18.494748083772997" lon="-77.7003573938707"><ele>2.53821274392642</ele></trkpt>
<trkpt lat="18.494537031515996" lon="-77.7001980003518"><ele>2.58292007751215</ele></trkpt>
<trkpt lat="18.494300969810105" lon="-77.7000506579889"><ele>2.55522587903225</ele></trkpt>
<trkpt lat="18.4937150988143" lon="-77.6997287713065"><ele>2.53655594187283</ele></trkpt>
<trkpt lat="18.4934547824433" lon="-77.6995796444818"><ele>2.27591144050138</ele></trkpt>
<trkpt lat="18.4932839642756" lon="-77.69947039729"><ele>2.06915386431075</ele></trkpt>
<trkpt lat="18.492944969308798" lon="-77.6992401641281"><ele>1.95803791192851</ele></trkpt>
<trkpt lat="18.4928023252288" lon="-77.6991309111689"><ele>1.8957746315035</ele></trkpt>
<trkpt lat="18.4926567750439" lon="-77.6989960484285"><ele>1.83254937456139</ele></trkpt>
<trkpt lat="18.492392928481095" lon="-77.6987047496505"><ele>2.07002314134697</ele></trkpt>
<trkpt lat="18.4922443141031" lon="-77.6985233988613"><ele>1.99005009423044</ele></trkpt>
<trkpt lat="18.4921177139118" lon="-77.6983404800962"><ele>1.83692490144072</ele></trkpt>
<trkpt lat="18.492016378651698" lon="-77.6981598638844"><ele>1.8189495085957</ele></trkpt>
<trkpt lat="18.491781450475496" lon="-77.6977041943512"><ele>1.64549800503897</ele></trkpt>
<trkpt lat="18.4916723315374" lon="-77.6974764290414"><ele>1.63698552029434</ele></trkpt>
<trkpt lat="18.4913050049509" lon="-77.6966861057197"><ele>2.21804096749867</ele></trkpt>
<trkpt lat="18.4909783603296" lon="-77.69598200438952"><ele>2.20232830211552</ele></trkpt>
<trkpt lat="18.490714234038897" lon="-77.6954126608142"><ele>2.90386337420466</ele></trkpt>
<trkpt lat="18.4904873846613" lon="-77.69492178916511"><ele>2.44199196865073</ele></trkpt>
<trkpt lat="18.4902898165044" lon="-77.6944646754352"><ele>2.34905621950139</ele></trkpt>
<trkpt lat="18.4902254356229" lon="-77.6942871446305"><ele>2.68384567109548</ele></trkpt>
<trkpt lat="18.490171404381304" lon="-77.6941012258255"><ele>3.10772709128506</ele></trkpt>
<trkpt lat="18.4901014280697" lon="-77.69379461698512"><ele>3.16597108992814</ele></trkpt>
<trkpt lat="18.4900781950805" lon="-77.6936140991147"><ele>2.93558030709853</ele></trkpt>
<trkpt lat="18.4900673932197" lon="-77.69336213423908"><ele>2.57043773980692</ele></trkpt>
<trkpt lat="18.4900546845804" lon="-77.692548431038"><ele>1.50588993199325</ele></trkpt>
<trkpt lat="18.4900432569516" lon="-77.6922255705579"><ele>1.45866362616155</ele></trkpt>
<trkpt lat="18.4900258113946" lon="-77.6920614718121"><ele>1.43856405478881</ele></trkpt>
<trkpt lat="18.4899819811698" lon="-77.6918067166867"><ele>1.29099146375705</ele></trkpt>
<trkpt lat="18.4899421527324" lon="-77.6916515860103"><ele>1.17311753611384</ele></trkpt>
<trkpt lat="18.4898550804081" lon="-77.6913925750809"><ele>1.09868845987044</ele></trkpt>
<trkpt lat="18.489783771868503" lon="-77.6912160010933"><ele>1.15897012840777</ele></trkpt>
<trkpt lat="18.4896654815885" lon="-77.6909694037866"><ele>1.21247856562104</ele></trkpt>
<trkpt lat="18.4895486344995" lon="-77.69076866073989"><ele>1.17848727460502</ele></trkpt>
<trkpt lat="18.4894057652736" lon="-77.6905578302967"><ele>1.20152083166082</ele></trkpt>
<trkpt lat="18.4889615884857" lon="-77.6899369775652"><ele>1.25185558445962</ele></trkpt>
<trkpt lat="18.4887316112922" lon="-77.68960731442712"><ele>1.38457272765689</ele></trkpt>
<trkpt lat="18.4882504692422" lon="-77.6888602660725"><ele>2.14195346365464</ele></trkpt>
<trkpt lat="18.4879782421827" lon="-77.6884029452395"><ele>2.29958106370152</ele></trkpt>
<trkpt lat="18.487867823303695" lon="-77.68820655349259"><ele>2.26853130880343</ele></trkpt>
<trkpt lat="18.4876838083195" lon="-77.6878548484675"><ele>2.0619948214812</ele></trkpt>
<trkpt lat="18.487363794227402" lon="-77.6872281556701"><ele>2.03288709933404</ele></trkpt>
<trkpt lat="18.4871525337524" lon="-77.6868070037893"><ele>2.18854644283251</ele></trkpt>
<trkpt lat="18.4869761952845" lon="-77.68641892112309"><ele>2.32810880879909</ele></trkpt>
<trkpt lat="18.4868099524024" lon="-77.68600356866479"><ele>2.79883994288103</ele></trkpt>
<trkpt lat="18.4866018041056" lon="-77.6854293904124"><ele>2.87184785585185</ele></trkpt>
<trkpt lat="18.4863899788954" lon="-77.6847842819022"><ele>3.62154333007504</ele></trkpt>
<trkpt lat="18.486306198066103" lon="-77.68451343733491"><ele>3.77545644018965</ele></trkpt>
<trkpt lat="18.4860817384493" lon="-77.6836772363262"><ele>4.03444480488754</ele></trkpt>
<trkpt lat="18.4859175595631" lon="-77.6830566935959"><ele>3.17105703075334</ele></trkpt>
<trkpt lat="18.4857560797578" lon="-77.6824367127664"><ele>2.89901369676138</ele></trkpt>
<trkpt lat="18.485717408761" lon="-77.6822600158689"><ele>2.75299051712948</ele></trkpt>
<trkpt lat="18.4856621315723" lon="-77.6819349823229"><ele>2.39866111836361</ele></trkpt>
<trkpt lat="18.485621423054" lon="-77.6817405460193"><ele>2.43677520072664</ele></trkpt>
<trkpt lat="18.4855300841997" lon="-77.6813585230314"><ele>2.88496760531781</ele></trkpt>
<trkpt lat="18.4852509439959" lon="-77.680214807818"><ele>3.43604571644946</ele></trkpt>
<trkpt lat="18.4851004755103" lon="-77.6796022857493"><ele>3.10829950170674</ele></trkpt>
<trkpt lat="18.4850032208186" lon="-77.67924597270428"><ele>3.23593603156514</ele></trkpt>
<trkpt lat="18.4849371689939" lon="-77.67904580251431"><ele>3.17458219196462</ele></trkpt>
<trkpt lat="18.4847596977676" lon="-77.678537649884"><ele>2.61164483402835</ele></trkpt>
<trkpt lat="18.4846078428407" lon="-77.67813814722498"><ele>2.34600192198484</ele></trkpt>
<trkpt lat="18.4844365116345" lon="-77.67774983189469"><ele>2.01702798438062</ele></trkpt>
<trkpt lat="18.4841149164717" lon="-77.6771084246544"><ele>1.8268827990531</ele></trkpt>
<trkpt lat="18.4839710904894" lon="-77.6768432913854"><ele>2.17091977459961</ele></trkpt>
<trkpt lat="18.4838642241281" lon="-77.6766697277604"><ele>2.35099530647737</ele></trkpt>
<trkpt lat="18.4835368482699" lon="-77.6761617368414"><ele>2.79556590103257</ele></trkpt>
<trkpt lat="18.483362216688" lon="-77.675909913092"><ele>3.27251301645246</ele></trkpt>
<trkpt lat="18.4831622111983" lon="-77.6756385588082"><ele>3.50346254451799</ele></trkpt>
<trkpt lat="18.4828935206262" lon="-77.6752797384605"><ele>2.97536110476212</ele></trkpt>
<trkpt lat="18.482753247029002" lon="-77.67510749484829"><ele>2.69835217364266</ele></trkpt>
<trkpt lat="18.4824231768394" lon="-77.6747484817808"><ele>2.2768724887907</ele></trkpt>
<trkpt lat="18.4822002507328" lon="-77.6745207490171"><ele>3.0707308019937</ele></trkpt>
<trkpt lat="18.481989215232705" lon="-77.674313430711"><ele>4.16953916262879</ele></trkpt>
<trkpt lat="18.4817192477727" lon="-77.6740595398302"><ele>4.68374443346583</ele></trkpt>
<trkpt lat="18.4814341219487" lon="-77.6737962671854"><ele>4.06368413573823</ele></trkpt>
<trkpt lat="18.4810361730673" lon="-77.6734401712613"><ele>2.40009302537664</ele></trkpt>
<trkpt lat="18.4808051410764" lon="-77.6732348862558"><ele>2.00427411983991</ele></trkpt>
<trkpt lat="18.4802817622196" lon="-77.67276992961911"><ele>1.79060779272427</ele></trkpt>
<trkpt lat="18.4796465058507" lon="-77.67220553137142"><ele>2.45195394016153</ele></trkpt>
<trkpt lat="18.4793705433523" lon="-77.6719575820171"><ele>2.44124943197655</ele></trkpt>
<trkpt lat="18.4791080930967" lon="-77.67169730639179"><ele>2.32117529257683</ele></trkpt>
<trkpt lat="18.4787775981022" lon="-77.6713470269741"><ele>2.27637440282851</ele></trkpt>
<trkpt lat="18.478580411307" lon="-77.6711278175379"><ele>2.20172654231794</ele></trkpt>
<trkpt lat="18.478379304048897" lon="-77.6708823923429"><ele>2.18110622613004</ele></trkpt>
<trkpt lat="18.4780086274245" lon="-77.67041548802361"><ele>2.24084351730636</ele></trkpt>
<trkpt lat="18.4777799273074" lon="-77.6700839205436"><ele>2.21250585045068</ele></trkpt>
<trkpt lat="18.4775993575994" lon="-77.6697989856755"><ele>2.35810111503247</ele></trkpt>
<trkpt lat="18.4774154105027" lon="-77.6694796153968"><ele>2.43041017732737</ele></trkpt>
<trkpt lat="18.4772393087742" lon="-77.669152678108"><ele>2.16111743880918</ele></trkpt>
<trkpt lat="18.4771421724935" lon="-77.66894918181"><ele>2.01412652564195</ele></trkpt>
<trkpt lat="18.4769532781039" lon="-77.6685159266068"><ele>2.07185533602583</ele></trkpt>
<trkpt lat="18.4768253772986" lon="-77.6681845516493"><ele>2.04082829903047</ele></trkpt>
<trkpt lat="18.4767401075118" lon="-77.6679494131894"><ele>1.86123323620212</ele></trkpt>
<trkpt lat="18.476633633494" lon="-77.6676155820607"><ele>1.78951065073055</ele></trkpt>
<trkpt lat="18.4764932818167" lon="-77.6671109864547"><ele>2.24602864038795</ele></trkpt>
<trkpt lat="18.4764006405859" lon="-77.6667099417489"><ele>2.44689364672157</ele></trkpt>
<trkpt lat="18.4763204479898" lon="-77.6663078203787"><ele>2.60948119872276</ele></trkpt>
<trkpt lat="18.4762707033935" lon="-77.6659299017241"><ele>2.39990391049059</ele></trkpt>
<trkpt lat="18.4762441767174" lon="-77.66566862926038"><ele>2.06973168731508</ele></trkpt>
<trkpt lat="18.4762258121628" lon="-77.66542714496438"><ele>1.89119002343362</ele></trkpt>
<trkpt lat="18.4762002342084" lon="-77.6648467151752"><ele>1.61405391346172</ele></trkpt>
<trkpt lat="18.4762013177622" lon="-77.6645848305026"><ele>1.67067164372301</ele></trkpt>
<trkpt lat="18.4762140641965" lon="-77.6642827229597"><ele>2.11857514077857</ele></trkpt>
<trkpt lat="18.476244372509" lon="-77.663711881085"><ele>3.53852867308274</ele></trkpt>
<trkpt lat="18.4763188216197" lon="-77.6623313735766"><ele>4.15036250805673</ele></trkpt>
<trkpt lat="18.4763785950681" lon="-77.6612228600247"><ele>5.87701698127263</ele></trkpt>
<trkpt lat="18.4764184805091" lon="-77.6604831081167"><ele>6.75832771624418</ele></trkpt>
<trkpt lat="18.4764329872151" lon="-77.6602140395332"><ele>6.72136706071553</ele></trkpt>
<trkpt lat="18.476472868749003" lon="-77.65947428653699"><ele>5.94102926646864</ele></trkpt>
<trkpt lat="18.4765036737273" lon="-77.6588951764488"><ele>4.11877196887788</ele></trkpt>
<trkpt lat="18.476511093221795" lon="-77.65874298512918"><ele>4.12325414120011</ele></trkpt>
<trkpt lat="18.4765246017595" lon="-77.6582757964912"><ele>5.21495593230517</ele></trkpt>
<trkpt lat="18.4765234659565" lon="-77.6578472583732"><ele>5.39997064226966</ele></trkpt>
<trkpt lat="18.4765084698678" lon="-77.6574918807298"><ele>5.72647107853096</ele></trkpt>
<trkpt lat="18.4764937159531" lon="-77.6572672645041"><ele>5.90657534691596</ele></trkpt>
<trkpt lat="18.476454358019" lon="-77.656879788702"><ele>6.17026489664037</ele></trkpt>
<trkpt lat="18.4764203609642" lon="-77.6566057098494"><ele>6.26649171316919</ele></trkpt>
<trkpt lat="18.476382169874803" lon="-77.6563736946295"><ele>6.19861828099763</ele></trkpt>
<trkpt lat="18.4763296710105" lon="-77.6561212312856"><ele>5.68909707300492</ele></trkpt>
<trkpt lat="18.4762281545805" lon="-77.65569098998299"><ele>3.28376404936773</ele></trkpt>
<trkpt lat="18.4761464599196" lon="-77.65539602412711"><ele>2.89251018195108</ele></trkpt>
<trkpt lat="18.476031621307804" lon="-77.6549946406112"><ele>4.41787836019632</ele></trkpt>
<trkpt lat="18.475928865884196" lon="-77.6546828681315"><ele>5.1039145527482</ele></trkpt>
<trkpt lat="18.4758366844291" lon="-77.6544571664252"><ele>5.54365364642686</ele></trkpt>
<trkpt lat="18.4756918160233" lon="-77.6541215629231"><ele>6.14861454198742</ele></trkpt>
<trkpt lat="18.4754886217986" lon="-77.6536654370188"><ele>6.1685977345215</ele></trkpt>
<trkpt lat="18.4753823665679" lon="-77.65345613078601"><ele>5.94628927402884</ele></trkpt>
<trkpt lat="18.4752133161972" lon="-77.6531505607039"><ele>5.42342829311829</ele></trkpt>
<trkpt lat="18.4749300307498" lon="-77.65267314653279"><ele>4.1881865717693</ele></trkpt>
<trkpt lat="18.474215305727903" lon="-77.6514913527659"><ele>2.52446265508747</ele></trkpt>
<trkpt lat="18.4738448964876" lon="-77.6509002053002"><ele>1.61001807786839</ele></trkpt>
<trkpt lat="18.4736969404213" lon="-77.65063095877879"><ele>1.43598928050465</ele></trkpt>
<trkpt lat="18.473393002025198" lon="-77.650057810309"><ele>1.28995456613183</ele></trkpt>
<trkpt lat="18.4732183177165" lon="-77.6497041812927"><ele>1.2410003071298</ele></trkpt>
<trkpt lat="18.4731117938202" lon="-77.6494395288191"><ele>1.45065475597627</ele></trkpt>
<trkpt lat="18.4730086702209" lon="-77.64915319111418"><ele>1.69933110571508</ele></trkpt>
<trkpt lat="18.4729080331997" lon="-77.6488418463346"><ele>1.77167038877906</ele></trkpt>
<trkpt lat="18.4728528708286" lon="-77.6486387745876"><ele>1.87120138905984</ele></trkpt>
<trkpt lat="18.4727591773734" lon="-77.6482380785094"><ele>2.62548983609348</ele></trkpt>
<trkpt lat="18.4726922904795" lon="-77.6479296767639"><ele>3.96670257309503</ele></trkpt>
<trkpt lat="18.472633037729" lon="-77.64761312970448"><ele>5.51559694434776</ele></trkpt>
<trkpt lat="18.4725901306017" lon="-77.6470441111052"><ele>6.96856907277759</ele></trkpt>
<trkpt lat="18.4725864119322" lon="-77.6468255859812"><ele>7.08455820329738</ele></trkpt>
<trkpt lat="18.4725994849141" lon="-77.6462607747489"><ele>7.40873471079437</ele></trkpt>
<trkpt lat="18.4726139865368" lon="-77.6459122800198"><ele>7.31291983511552</ele></trkpt>
<trkpt lat="18.4726354008762" lon="-77.64569069579031"><ele>7.3834411953021</ele></trkpt>
<trkpt lat="18.4726682055296" lon="-77.6454491474358"><ele>7.56349755532453</ele></trkpt>
<trkpt lat="18.4727278168928" lon="-77.6451126401408"><ele>7.21794203677842</ele></trkpt>
<trkpt lat="18.4728780880012" lon="-77.6444183967732"><ele>5.5371638798253</ele></trkpt>
<trkpt lat="18.4729335298658" lon="-77.6441936914353"><ele>5.30793869582351</ele></trkpt>
<trkpt lat="18.4730331675438" lon="-77.6439059615826"><ele>5.10432505360251</ele></trkpt>
<trkpt lat="18.4732583642371" lon="-77.6433611532334"><ele>5.10139842466122</ele></trkpt>
<trkpt lat="18.4733398249932" lon="-77.64318790649"><ele>5.21521847020862</ele></trkpt>
<trkpt lat="18.4734380763145" lon="-77.6430051414094"><ele>5.17619299608358</ele></trkpt>
<trkpt lat="18.4736896126624" lon="-77.6425611033434"><ele>4.77074868104299</ele></trkpt>
<trkpt lat="18.4738455257359" lon="-77.6423040222948"><ele>4.80298181305119</ele></trkpt>
<trkpt lat="18.474029735561803" lon="-77.6420359803034"><ele>4.79235948023026</ele></trkpt>
<trkpt lat="18.4744119963653" lon="-77.6414971739651"><ele>3.33226527022456</ele></trkpt>
<trkpt lat="18.4749777286179" lon="-77.6407012867896"><ele>2.68850950635356</ele></trkpt>
<trkpt lat="18.4754280354988" lon="-77.6400677760622"><ele>3.17761982232404</ele></trkpt>
<trkpt lat="18.4758419819339" lon="-77.639485413082"><ele>3.0753403690994</ele></trkpt>
<trkpt lat="18.4763159093699" lon="-77.6388186590864"><ele>3.56885619612649</ele></trkpt>
<trkpt lat="18.4771047912652" lon="-77.63770878961348"><ele>4.68136603110021</ele></trkpt>
<trkpt lat="18.477453898954" lon="-77.6372176468473"><ele>4.29341804695424</ele></trkpt>
<trkpt lat="18.4777018881141" lon="-77.6368690188952"><ele>4.3584452059593</ele></trkpt>
<trkpt lat="18.478009999216" lon="-77.6364399127205"><ele>4.06477123184182</ele></trkpt>
<trkpt lat="18.478607725493802" lon="-77.6356203659305"><ele>4.52792815613596</ele></trkpt>
<trkpt lat="18.4787466679221" lon="-77.63543000315909"><ele>5.02433967354781</ele></trkpt>
<trkpt lat="18.4791611365254" lon="-77.6348587890218"><ele>7.44488020445383</ele></trkpt>
<trkpt lat="18.4794088489596" lon="-77.63450058937622"><ele>8.65926510922139</ele></trkpt>
<trkpt lat="18.4797408204291" lon="-77.63401349934"><ele>9.02257513308651</ele></trkpt>
<trkpt lat="18.479918524553" lon="-77.6337389472331"><ele>8.96944531413561</ele></trkpt>
<trkpt lat="18.48007626281" lon="-77.6334754517556"><ele>9.22192664521268</ele></trkpt>
<trkpt lat="18.480160233807798" lon="-77.633318435298"><ele>9.5030099001188</ele></trkpt>
<trkpt lat="18.4803032331308" lon="-77.6330205799689"><ele>10.0507540219959</ele></trkpt>
<trkpt lat="18.480424903888" lon="-77.6327395471498"><ele>10.4083005042892</ele></trkpt>
<trkpt lat="18.4805867098557" lon="-77.63231764049148"><ele>10.2451431554495</ele></trkpt>
<trkpt lat="18.4806917530999" lon="-77.6320641363911"><ele>10.5075419901781</ele></trkpt>
<trkpt lat="18.4808257454481" lon="-77.6316991430299"><ele>10.6831626808181</ele></trkpt>
<trkpt lat="18.4809461384262" lon="-77.6313624245878"><ele>10.3434323063312</ele></trkpt>
<trkpt lat="18.4812792696512" lon="-77.6304291497319"><ele>8.68656979422643</ele></trkpt>
<trkpt lat="18.481468715333197" lon="-77.6298984041394"><ele>7.35415564463983</ele></trkpt>
<trkpt lat="18.4816786303309" lon="-77.6293103045658"><ele>4.19910684886789</ele></trkpt>
<trkpt lat="18.4818033220063" lon="-77.6289609645569"><ele>2.92870304162429</ele></trkpt>
<trkpt lat="18.481900029752598" lon="-77.628690023944"><ele>2.47741502394064</ele></trkpt>
<trkpt lat="18.4822182788106" lon="-77.6277983931634"><ele>1.78180572579935</ele></trkpt>
<trkpt lat="18.482569933340997" lon="-77.6268131534444"><ele>1.98015498835104</ele></trkpt>
<trkpt lat="18.4827426022696" lon="-77.6263293755589"><ele>2.45256271814243</ele></trkpt>
<trkpt lat="18.4830995571509" lon="-77.6253261736804"><ele>2.84110662496996</ele></trkpt>
<trkpt lat="18.4834352471198" lon="-77.6243327714805"><ele>3.39139857990322</ele></trkpt>
<trkpt lat="18.4834916386728" lon="-77.6241275829377"><ele>3.58091590850749</ele></trkpt>
<trkpt lat="18.4835368905443" lon="-77.6238906989749"><ele>3.8809063971041</ele></trkpt>
<trkpt lat="18.4835956096194" lon="-77.6234833511307"><ele>4.1138827410732</ele></trkpt>
<trkpt lat="18.483612011949" lon="-77.6232803503665"><ele>4.18377648708508</ele></trkpt>
<trkpt lat="18.4836136419763" lon="-77.6230778733168"><ele>4.43223445347272</ele></trkpt>
<trkpt lat="18.4836066712134" lon="-77.6228709639175"><ele>4.75115892328675</ele></trkpt>
<trkpt lat="18.4835801178343" lon="-77.6225719850903"><ele>5.13472250787542</ele></trkpt>
<trkpt lat="18.4835266654681" lon="-77.6221729294693"><ele>5.74250878144001</ele></trkpt>
<trkpt lat="18.4834180066458" lon="-77.6214959981635"><ele>5.31243568759871</ele></trkpt>
<trkpt lat="18.4833584710985" lon="-77.62112884912588"><ele>6.64970350758219</ele></trkpt>
<trkpt lat="18.4832426073198" lon="-77.620414343937"><ele>10.9199390611175</ele></trkpt>
<trkpt lat="18.4831741525031" lon="-77.6199922066199"><ele>12.1763580670139</ele></trkpt>
<trkpt lat="18.4830220064621" lon="-77.6190539964805"><ele>13.7979520628035</ele></trkpt>
<trkpt lat="18.4828993319116" lon="-77.61828583532251"><ele>13.9980788569295</ele></trkpt>
<trkpt lat="18.482836686264797" lon="-77.6178446322452"><ele>13.6727738757187</ele></trkpt>
<trkpt lat="18.4827646099645" lon="-77.6174847893946"><ele>12.961530532545</ele></trkpt>
<trkpt lat="18.4827077961891" lon="-77.61722093798942"><ele>12.1596863658302</ele></trkpt>
<trkpt lat="18.482642013372896" lon="-77.6169587840502"><ele>11.0608654764643</ele></trkpt>
<trkpt lat="18.4825693469095" lon="-77.6167305475839"><ele>10.0538233334622</ele></trkpt>
<trkpt lat="18.4824591370534" lon="-77.61647111403421"><ele>9.03698268412152</ele></trkpt>
<trkpt lat="18.4821192009761" lon="-77.6157552731507"><ele>5.68266189588107</ele></trkpt>
<trkpt lat="18.4817942651395" lon="-77.6150730304227"><ele>3.42153080933964</ele></trkpt>
<trkpt lat="18.4816223194831" lon="-77.61468919250152"><ele>2.984597149056</ele></trkpt>
<trkpt lat="18.4815280126342" lon="-77.61443146304592"><ele>2.70820816782745</ele></trkpt>
<trkpt lat="18.4814564736715" lon="-77.6142020685708"><ele>2.79099434347371</ele></trkpt>
<trkpt lat="18.4814010840338" lon="-77.6139811111394"><ele>3.04701748494605</ele></trkpt>
<trkpt lat="18.481296115497" lon="-77.6134439823972"><ele>3.23267697951646</ele></trkpt>
<trkpt lat="18.4812148089343" lon="-77.6129900517529"><ele>2.96207161412344</ele></trkpt>
<trkpt lat="18.4811308944427" lon="-77.61247770587059"><ele>3.0022693588738</ele></trkpt>
<trkpt lat="18.481000416777096" lon="-77.6116719782667"><ele>3.82393151654208</ele></trkpt>
<trkpt lat="18.480905191970102" lon="-77.6110899468707"><ele>3.64157625107716</ele></trkpt>
<trkpt lat="18.4807591592931" lon="-77.6102623103042"><ele>4.17310782211132</ele></trkpt>
<trkpt lat="18.4807255211039" lon="-77.6100021795854"><ele>4.38252348294459</ele></trkpt>
<trkpt lat="18.480682354066705" lon="-77.6094416892848"><ele>5.50116278919286</ele></trkpt>
<trkpt lat="18.4806750520002" lon="-77.6092081795943"><ele>5.84617181974478</ele></trkpt>
<trkpt lat="18.480691820840804" lon="-77.6089576314274"><ele>6.13022100812557</ele></trkpt>
<trkpt lat="18.4807429538875" lon="-77.6086365026622"><ele>6.75268122383207</ele></trkpt>
<trkpt lat="18.4807989615029" lon="-77.6084028995548"><ele>7.66136262939729</ele></trkpt>
<trkpt lat="18.4808629058258" lon="-77.6082182226063"><ele>8.48501004605153</ele></trkpt>
<trkpt lat="18.4809836053804" lon="-77.6079388967167"><ele>9.18149998107294</ele></trkpt>
<trkpt lat="18.481325204176297" lon="-77.6072190558797"><ele>8.35557054612269</ele></trkpt>
<trkpt lat="18.481597754494" lon="-77.6066369411146"><ele>8.86731178628696</ele></trkpt>
<trkpt lat="18.4816855595157" lon="-77.6064150588541"><ele>8.60538638185093</ele></trkpt>
<trkpt lat="18.4817563933225" lon="-77.6061912375555"><ele>8.12435649797217</ele></trkpt>
<trkpt lat="18.481828923140696" lon="-77.6058644478357"><ele>7.37960750447846</ele></trkpt>
<trkpt lat="18.4818612759133" lon="-77.6056015179269"><ele>6.9129710540674</ele></trkpt>
<trkpt lat="18.4818934714748" lon="-77.6051775070691"><ele>6.65153204873065</ele></trkpt>
<trkpt lat="18.4819588691312" lon="-77.60427403749559"><ele>7.22557654531945</ele></trkpt>
<trkpt lat="18.4819820348738" lon="-77.60403459672472"><ele>7.19661578421487</ele></trkpt>
<trkpt lat="18.4820325919767" lon="-77.6037504202141"><ele>7.01146210183442</ele></trkpt>
<trkpt lat="18.4821049223384" lon="-77.6034513109278"><ele>6.83816001504003</ele></trkpt>
<trkpt lat="18.4821790204691" lon="-77.6032179488423"><ele>6.66367737598583</ele></trkpt>
<trkpt lat="18.4822759246071" lon="-77.6029953233122"><ele>6.41040911890013</ele></trkpt>
<trkpt lat="18.4823919901538" lon="-77.6027772213939"><ele>6.19558738054977</ele></trkpt>
<trkpt lat="18.4825402765676" lon="-77.6025507691722"><ele>5.83391229716623</ele></trkpt>
<trkpt lat="18.482760890466597" lon="-77.6022450259979"><ele>5.11293262417602</ele></trkpt>
<trkpt lat="18.4829828631515" lon="-77.60195926752431"><ele>5.03047548269618</ele></trkpt>
<trkpt lat="18.4833918948688" lon="-77.6014742953606"><ele>6.43451261529855</ele></trkpt>
<trkpt lat="18.483493032935304" lon="-77.6013401035394"><ele>6.53031729434702</ele></trkpt>
<trkpt lat="18.4836339223504" lon="-77.6011285377462"><ele>6.47496234528459</ele></trkpt>
<trkpt lat="18.4837166867184" lon="-77.60098200693429"><ele>6.55266982166478</ele></trkpt>
<trkpt lat="18.4838352142908" lon="-77.6007406394388"><ele>6.96019363001184</ele></trkpt>
<trkpt lat="18.4839560901075" lon="-77.6004258672444"><ele>7.92382496670243</ele></trkpt>
<trkpt lat="18.4840334400041" lon="-77.600154299247"><ele>8.98808912891336</ele></trkpt>
<trkpt lat="18.484073638465805" lon="-77.5999656333938"><ele>9.59631081802853</ele></trkpt>
<trkpt lat="18.4841030949898" lon="-77.5997695579042"><ele>10.1360847616543</ele></trkpt>
<trkpt lat="18.4841206448809" lon="-77.5995704643243"><ele>10.7167815818985</ele></trkpt>
<trkpt lat="18.4841235495489" lon="-77.599378702599"><ele>11.3002836217656</ele></trkpt>
<trkpt lat="18.4841099461702" lon="-77.59912538082382"><ele>12.0647184064173</ele></trkpt>
<trkpt lat="18.4840753047609" lon="-77.5988589519827"><ele>12.9067054843676</ele></trkpt>
<trkpt lat="18.4840433420228" lon="-77.5986937178883"><ele>13.3527824448083</ele></trkpt>
<trkpt lat="18.4839734460446" lon="-77.5984398355737"><ele>13.7776444614317</ele></trkpt>
<trkpt lat="18.4839213650721" lon="-77.5982831420613"><ele>14.0424098867934</ele></trkpt>
<trkpt lat="18.4838249812702" lon="-77.5980389279201"><ele>14.7350534944318</ele></trkpt>
<trkpt lat="18.4837200069439" lon="-77.5978292153949"><ele>15.5624534639093</ele></trkpt>
<trkpt lat="18.4835940134149" lon="-77.5976274093525"><ele>16.7222778178233</ele></trkpt>
<trkpt lat="18.483448654195403" lon="-77.59742021912798"><ele>18.5565170248108</ele></trkpt>
<trkpt lat="18.4832795236445" lon="-77.5972136020114"><ele>21.3174156724484</ele></trkpt>
<trkpt lat="18.4831446246451" lon="-77.5970812944288"><ele>23.6694958720097</ele></trkpt>
<trkpt lat="18.4828877975359" lon="-77.5968607108277"><ele>27.3766452341566</ele></trkpt>
<trkpt lat="18.4826817353117" lon="-77.5967152668433"><ele>28.0660083359569</ele></trkpt>
<trkpt lat="18.4824764549089" lon="-77.5965972631545"><ele>27.5643341002729</ele></trkpt>
<trkpt lat="18.4822644521025" lon="-77.5964846941128"><ele>27.5438752466218</ele></trkpt>
<trkpt lat="18.481712087707002" lon="-77.59619219351579"><ele>30.4575036713214</ele></trkpt>
<trkpt lat="18.4811236405999" lon="-77.5958805837506"><ele>32.8374055750012</ele></trkpt>
<trkpt lat="18.4807211779111" lon="-77.5956674627125"><ele>33.3923754789065</ele></trkpt>
<trkpt lat="18.480294562276804" lon="-77.5954415528692"><ele>32.6985730791614</ele></trkpt>
<trkpt lat="18.4797469737635" lon="-77.5951515849533"><ele>33.1179865784384</ele></trkpt>
<trkpt lat="18.4793182923359" lon="-77.5949245839681"><ele>33.034341756947</ele></trkpt>
<trkpt lat="18.4788416550364" lon="-77.59467219053879"><ele>31.949223940375</ele></trkpt>
<trkpt lat="18.4784498035197" lon="-77.594464691267"><ele>31.7068767962368</ele></trkpt>
<trkpt lat="18.4781372074184" lon="-77.5942990400962"><ele>32.2809981270347</ele></trkpt>
<trkpt lat="18.4777676910979" lon="-77.5940970842584"><ele>31.4962017953217</ele></trkpt>
<trkpt lat="18.4775855270252" lon="-77.5939795104891"><ele>31.2907397358443</ele></trkpt>
<trkpt lat="18.4774997583848" lon="-77.5939140932333"><ele>31.5654225464526</ele></trkpt>
<trkpt lat="18.477304228332503" lon="-77.5937486154131"><ele>33.3429996636934</ele></trkpt>
<trkpt lat="18.4771101090688" lon="-77.5935744876762"><ele>35.9069573129817</ele></trkpt>
<trkpt lat="18.476958584492802" lon="-77.5934280356948"><ele>37.7291297450497</ele></trkpt>
<trkpt lat="18.476807181476495" lon="-77.59326856141179"><ele>39.115729683539</ele></trkpt>
<trkpt lat="18.4766529255514" lon="-77.5931012195094"><ele>39.8586167078704</ele></trkpt>
<trkpt lat="18.4765000415635" lon="-77.5929346840002"><ele>39.5694162555721</ele></trkpt>
<trkpt lat="18.4762662218201" lon="-77.5926722869593"><ele>37.2921250403291</ele></trkpt>
<trkpt lat="18.4760813686053" lon="-77.5924299981978"><ele>35.3920299477685</ele></trkpt>
<trkpt lat="18.475922444871" lon="-77.5921919709612"><ele>33.4973967255636</ele></trkpt>
<trkpt lat="18.4757768062341" lon="-77.5919425863017"><ele>31.9112583458596</ele></trkpt>
<trkpt lat="18.475685370779996" lon="-77.5917685566011"><ele>31.336510640373</ele></trkpt>
<trkpt lat="18.4754877838944" lon="-77.5913385963698"><ele>30.920649810644</ele></trkpt>
<trkpt lat="18.4754033734724" lon="-77.5911230735954"><ele>30.1815429091345</ele></trkpt>
<trkpt lat="18.4752851644678" lon="-77.5907817002764"><ele>27.9608184901606</ele></trkpt>
<trkpt lat="18.4752011581234" lon="-77.590491650702"><ele>26.1891946531454</ele></trkpt>
<trkpt lat="18.4751392585616" lon="-77.590239985618"><ele>25.3838984156513</ele></trkpt>
<trkpt lat="18.4750863721063" lon="-77.5899413020661"><ele>24.7686136329434</ele></trkpt>
<trkpt lat="18.4750638235883" lon="-77.5896354173755"><ele>24.0468369701649</ele></trkpt>
<trkpt lat="18.4750605445661" lon="-77.5893222413192"><ele>23.1121142906295</ele></trkpt>
<trkpt lat="18.475063422814703" lon="-77.58909087203908"><ele>22.4492590720508</ele></trkpt>
<trkpt lat="18.4750739321773" lon="-77.5888794677327"><ele>22.0681675447636</ele></trkpt>
<trkpt lat="18.475117263052" lon="-77.5883587575347"><ele>21.7328559608402</ele></trkpt>
<trkpt lat="18.4751371767334" lon="-77.5880258381661"><ele>21.515026753888</ele></trkpt>
<trkpt lat="18.4751714296548" lon="-77.58711141353199"><ele>20.1076206356125</ele></trkpt>
<trkpt lat="18.4751764040258" lon="-77.5868684820241"><ele>19.8049761281998</ele></trkpt>
<trkpt lat="18.4751694803228" lon="-77.5866891098481"><ele>19.7320984945285</ele></trkpt>
<trkpt lat="18.4751446650991" lon="-77.5864854918607"><ele>19.9004963749647</ele></trkpt>
<trkpt lat="18.475104454413895" lon="-77.5862826212717"><ele>20.4682368307566</ele></trkpt>
<trkpt lat="18.475012795303" lon="-77.5859559809321"><ele>21.9233892082486</ele></trkpt>
<trkpt lat="18.474948944562" lon="-77.5857883355128"><ele>22.570017345958</ele></trkpt>
<trkpt lat="18.4748668594906" lon="-77.5856034801633"><ele>22.8004827883418</ele></trkpt>
<trkpt lat="18.4747853016154" lon="-77.58544320425"><ele>22.7195827127112</ele></trkpt>
<trkpt lat="18.4746436538817" lon="-77.585214609521"><ele>22.8793432196135</ele></trkpt>
<trkpt lat="18.474540031885" lon="-77.585072350396"><ele>23.1100764653777</ele></trkpt>
<trkpt lat="18.474213456896" lon="-77.58468875455871"><ele>23.4897625555612</ele></trkpt>
<trkpt lat="18.4739592060753" lon="-77.58439292421511"><ele>24.9995438540718</ele></trkpt>
<trkpt lat="18.4738485969871" lon="-77.5842550229953"><ele>26.1732873543974</ele></trkpt>
<trkpt lat="18.4736453170217" lon="-77.5839866555332"><ele>28.9423128618955</ele></trkpt>
<trkpt lat="18.4734141720569" lon="-77.5836719157642"><ele>32.4236808769978</ele></trkpt>
<trkpt lat="18.4732255726455" lon="-77.5834042335231"><ele>35.786428442112</ele></trkpt>
<trkpt lat="18.4730558411203" lon="-77.5831399453937"><ele>39.2021640920879</ele></trkpt>
<trkpt lat="18.4729487924262" lon="-77.5829605179864"><ele>41.3143967803356</ele></trkpt>
<trkpt lat="18.4728057380155" lon="-77.5826946838421"><ele>44.0619048908033</ele></trkpt>
<trkpt lat="18.472715099479505" lon="-77.5825107291883"><ele>46.108516725848</ele></trkpt>
<trkpt lat="18.472636002708395" lon="-77.5823325747815"><ele>48.2673285737527</ele></trkpt>
<trkpt lat="18.4723719542641" lon="-77.5816796743659"><ele>56.2486376425493</ele></trkpt>
<trkpt lat="18.472311533430105" lon="-77.5815138411213"><ele>58.0909195269205</ele></trkpt>
<trkpt lat="18.4722204669118" lon="-77.5812149239837"><ele>60.8712392478135</ele></trkpt>
<trkpt lat="18.472161057638004" lon="-77.5810020920415"><ele>62.8702476516098</ele></trkpt>
<trkpt lat="18.4720990518214" lon="-77.5807467018805"><ele>65.4624257419563</ele></trkpt>
<trkpt lat="18.4720590476869" lon="-77.5805565874627"><ele>67.188806693886</ele></trkpt>
<trkpt lat="18.472004238481" lon="-77.5802707259667"><ele>68.9340123477943</ele></trkpt>
<trkpt lat="18.4719518986807" lon="-77.5799565513082"><ele>70.5840346604012</ele></trkpt>
<trkpt lat="18.4719060716554" lon="-77.5795340921286"><ele>73.4706055599834</ele></trkpt>
<trkpt lat="18.471889983038004" lon="-77.57922413599019"><ele>76.0580451468291</ele></trkpt>
<trkpt lat="18.4718830988195" lon="-77.5784802925034"><ele>83.0496653067459</ele></trkpt>
<trkpt lat="18.4718947277133" lon="-77.57819122389361"><ele>85.6656978810444</ele></trkpt>
<trkpt lat="18.4719166269781" lon="-77.5779454625659"><ele>87.6444225085522</ele></trkpt>
<trkpt lat="18.4719414631053" lon="-77.577693350071"><ele>89.00059900014</ele></trkpt>
<trkpt lat="18.4720010275913" lon="-77.5770956026449"><ele>91.1725206959547</ele></trkpt>
<trkpt lat="18.472056721215996" lon="-77.5765367448703"><ele>92.5615842972593</ele></trkpt>
<trkpt lat="18.4721470993396" lon="-77.5756326705471"><ele>96.5337121515219</ele></trkpt>
<trkpt lat="18.4721832473327" lon="-77.5752991889801"><ele>97.1998801250244</ele></trkpt>
<trkpt lat="18.472226759608798" lon="-77.5749392884149"><ele>96.7720987412087</ele></trkpt>
<trkpt lat="18.4722806309239" lon="-77.5745016971207"><ele>95.0985663580073</ele></trkpt>
<trkpt lat="18.4724096296996" lon="-77.5734741171605"><ele>89.8226561618087</ele></trkpt>
<trkpt lat="18.4724420844142" lon="-77.5732723317526"><ele>88.6199369438069</ele></trkpt>
<trkpt lat="18.4725452738573" lon="-77.5727326657643"><ele>84.9244147908077</ele></trkpt>
<trkpt lat="18.4726596512082" lon="-77.5720423827396"><ele>80.7784891039804</ele></trkpt>
<trkpt lat="18.4727066478539" lon="-77.5717357589283"><ele>78.290849110378</ele></trkpt>
<trkpt lat="18.47272910286" lon="-77.5715090681688"><ele>76.2158333157281</ele></trkpt>
<trkpt lat="18.4727354557316" lon="-77.5712764622792"><ele>74.0746044830107</ele></trkpt>
<trkpt lat="18.4727253953474" lon="-77.57103704021162"><ele>72.1888388254671</ele></trkpt>
<trkpt lat="18.4726918944849" lon="-77.5707456152411"><ele>70.1064895038062</ele></trkpt>
<trkpt lat="18.4726332332429" lon="-77.57031628104689"><ele>66.433195928433</ele></trkpt>
<trkpt lat="18.4726029682838" lon="-77.5700877806746"><ele>64.9417952472731</ele></trkpt>
<trkpt lat="18.4725792160595" lon="-77.5698731423452"><ele>64.16158857732</ele></trkpt>
<trkpt lat="18.4725542873629" lon="-77.5695333939669"><ele>63.463928223246</ele></trkpt>
<trkpt lat="18.4725469369985" lon="-77.5693209306825"><ele>63.0281378412706</ele></trkpt>
<trkpt lat="18.4725528529701" lon="-77.5689113988731"><ele>61.9409500427337</ele></trkpt>
<trkpt lat="18.4725716772873" lon="-77.5682394081476"><ele>61.3694253559559</ele></trkpt>
<trkpt lat="18.472579436475595" lon="-77.5679567873221"><ele>59.974226220035</ele></trkpt>
<trkpt lat="18.4725863254068" lon="-77.567607489659"><ele>57.2883150945045</ele></trkpt>
<trkpt lat="18.4725861672011" lon="-77.5673451605601"><ele>55.8248091238088</ele></trkpt>
<trkpt lat="18.4725828154691" lon="-77.56705605449478"><ele>54.9439802832315</ele></trkpt>
<trkpt lat="18.4725648452072" lon="-77.566401073533"><ele>54.5663751958308</ele></trkpt>
<trkpt lat="18.472548818123396" lon="-77.56602411972162"><ele>55.0974160318848</ele></trkpt>
<trkpt lat="18.4725367996129" lon="-77.5658240137695"><ele>55.830424591733</ele></trkpt>
<trkpt lat="18.4724904116343" lon="-77.5651755565227"><ele>58.5524968229719</ele></trkpt>
<trkpt lat="18.472454076708797" lon="-77.56475417651889"><ele>59.5836343555487</ele></trkpt>
<trkpt lat="18.4723964005966" lon="-77.5642064339335"><ele>60.2407387147924</ele></trkpt>
<trkpt lat="18.4723715261813" lon="-77.5639019212018"><ele>61.0409424991017</ele></trkpt>
<trkpt lat="18.4723552651447" lon="-77.56360480406052"><ele>61.4542060212947</ele></trkpt>
<trkpt lat="18.472341303472998" lon="-77.5631723416732"><ele>61.2516938838864</ele></trkpt>
<trkpt lat="18.4723267360158" lon="-77.5625826444893"><ele>59.938793404593</ele></trkpt>
<trkpt lat="18.4723077131679" lon="-77.5618081233637"><ele>59.0248328768754</ele></trkpt>
<trkpt lat="18.4722887326969" lon="-77.5610403790269"><ele>57.2419903613581</ele></trkpt>
<trkpt lat="18.472279544664" lon="-77.5607251301749"><ele>57.3984146015151</ele></trkpt>
<trkpt lat="18.4722632201247" lon="-77.5604810314786"><ele>57.9934513266322</ele></trkpt>
<trkpt lat="18.4722457069445" lon="-77.5603451520188"><ele>58.51607088203</ele></trkpt>
<trkpt lat="18.4721942296623" lon="-77.5600543488379"><ele>60.0581122370674</ele></trkpt>
<trkpt lat="18.472151059137698" lon="-77.55985672159312"><ele>60.6701157159839</ele></trkpt>
<trkpt lat="18.4720962198267" lon="-77.559647576338"><ele>60.339842611594</ele></trkpt>
<trkpt lat="18.4720369198526" lon="-77.5594451401463"><ele>59.475923305164</ele></trkpt>
<trkpt lat="18.4719717722525" lon="-77.5592535510838"><ele>58.7722079149793</ele></trkpt>
<trkpt lat="18.4717919921143" lon="-77.5587757558444"><ele>57.9646472715593</ele></trkpt>
<trkpt lat="18.4717415949115" lon="-77.55862066161562"><ele>57.942246598858</ele></trkpt>
<trkpt lat="18.4717104726706" lon="-77.5584907464235"><ele>58.0047837148764</ele></trkpt>
<trkpt lat="18.4716745748679" lon="-77.558288249256"><ele>58.2145692872844</ele></trkpt>
<trkpt lat="18.4716327942505" lon="-77.5579572751276"><ele>59.0120796367581</ele></trkpt>
<trkpt lat="18.471637519964" lon="-77.5577140418148"><ele>59.8171925453382</ele></trkpt>
<trkpt lat="18.4716645060776" lon="-77.55751442452531"><ele>60.508627128611</ele></trkpt>
<trkpt lat="18.4717264857481" lon="-77.5572295940542"><ele>61.3960947551382</ele></trkpt>
<trkpt lat="18.4717889673227" lon="-77.557005154936"><ele>62.0269968324996</ele></trkpt>
<trkpt lat="18.4719517461506" lon="-77.5564361169029"><ele>64.6548362244587</ele></trkpt>
<trkpt lat="18.472113272276896" lon="-77.5558721365861"><ele>66.4549675639546</ele></trkpt>
<trkpt lat="18.472244091638096" lon="-77.5554127506527"><ele>68.6903946770554</ele></trkpt>
<trkpt lat="18.4723106218041" lon="-77.5551511123101"><ele>69.5588774131355</ele></trkpt>
<trkpt lat="18.4723334905305" lon="-77.5550247384829"><ele>69.8148743871236</ele></trkpt>
<trkpt lat="18.4723549909976" lon="-77.5547443906026"><ele>70.5023286842682</ele></trkpt>
<trkpt lat="18.4723501706987" lon="-77.5545440039777"><ele>71.0717115874981</ele></trkpt>
<trkpt lat="18.4723162494018" lon="-77.5542775928076"><ele>71.2851062446571</ele></trkpt>
<trkpt lat="18.4722851393367" lon="-77.5541495928095"><ele>70.9733539841971</ele></trkpt>
<trkpt lat="18.4722242405339" lon="-77.5539759232224"><ele>70.1622926380414</ele></trkpt>
<trkpt lat="18.4720738219525" lon="-77.5536555416421"><ele>68.252397530211</ele></trkpt>
<trkpt lat="18.4717861723271" lon="-77.5530744968689"><ele>65.4888203777647</ele></trkpt>
<trkpt lat="18.4716931056619" lon="-77.5528835090201"><ele>65.3861530154865</ele></trkpt>
<trkpt lat="18.471593592521195" lon="-77.55264618449449"><ele>66.1447800121285</ele></trkpt>
<trkpt lat="18.4715409799042" lon="-77.552463656897"><ele>66.66278390181</ele></trkpt>
<trkpt lat="18.4715079114178" lon="-77.5522733426564"><ele>66.862343350344</ele></trkpt>
<trkpt lat="18.471491608426" lon="-77.5520494099645"><ele>66.8288389278639</ele></trkpt>
<trkpt lat="18.4714908178978" lon="-77.5518836961252"><ele>66.6336412365117</ele></trkpt>
<trkpt lat="18.471506905824803" lon="-77.5517102907734"><ele>66.1908917162109</ele></trkpt>
<trkpt lat="18.4715457017795" lon="-77.5514739298801"><ele>65.1291520089774</ele></trkpt>
<trkpt lat="18.471625873670202" lon="-77.5510331534654"><ele>62.4762822708622</ele></trkpt>
<trkpt lat="18.4716971749256" lon="-77.5506414730432"><ele>60.9696288249962</ele></trkpt>
<trkpt lat="18.4717417682142" lon="-77.5503722777886"><ele>60.648001942353</ele></trkpt>
<trkpt lat="18.4717751554986" lon="-77.55007444038971"><ele>60.1486343866013</ele></trkpt>
<trkpt lat="18.471804122152005" lon="-77.5495536437906"><ele>59.7837848808763</ele></trkpt>
<trkpt lat="18.471811142866695" lon="-77.5492301102871"><ele>60.0883101569243</ele></trkpt>
<trkpt lat="18.4718150013938" lon="-77.54872512706291"><ele>60.745775019304</ele></trkpt>
<trkpt lat="18.4718195590079" lon="-77.54821862188749"><ele>60.5281209428698</ele></trkpt>
<trkpt lat="18.4718269233731" lon="-77.547983467022"><ele>60.5651548057595</ele></trkpt>
<trkpt lat="18.4718435571401" lon="-77.5477539935573"><ele>60.4128833727892</ele></trkpt>
<trkpt lat="18.4718806144153" lon="-77.54739074955678"><ele>59.7993256198849</ele></trkpt>
<trkpt lat="18.4719198771925" lon="-77.54714207024531"><ele>59.5276882375977</ele></trkpt>
<trkpt lat="18.4719711629981" lon="-77.5469111049927"><ele>59.3766377920604</ele></trkpt>
<trkpt lat="18.472023135789595" lon="-77.5467293270762"><ele>59.4151318880792</ele></trkpt>
<trkpt lat="18.4721207387302" lon="-77.54645683547551"><ele>59.8538163490759</ele></trkpt>
<trkpt lat="18.4721412387893" lon="-77.5463281913546"><ele>60.2275766170503</ele></trkpt>
<trkpt lat="18.4720928268867" lon="-77.5462138465051"><ele>60.6965181173341</ele></trkpt>
<trkpt lat="18.4719371077828" lon="-77.546058207326"><ele>61.8352737627577</ele></trkpt>
<trkpt lat="18.471239161607496" lon="-77.54546081998699"><ele>67.1792346957023</ele></trkpt>
<trkpt lat="18.4708114881214" lon="-77.5450956512645"><ele>72.2665787083815</ele></trkpt>
<trkpt lat="18.4706381310519" lon="-77.544941579794"><ele>73.8314751837549</ele></trkpt>
<trkpt lat="18.4705417315467" lon="-77.5448384509819"><ele>74.5160962568472</ele></trkpt>
<trkpt lat="18.4704482690282" lon="-77.5447057782022"><ele>75.3015445235456</ele></trkpt>
<trkpt lat="18.470359917049997" lon="-77.54453030046838"><ele>76.4217651423692</ele></trkpt>
<trkpt lat="18.4702565595033" lon="-77.54424860292978"><ele>78.5664172791842</ele></trkpt>
<trkpt lat="18.4702081960095" lon="-77.54407677855"><ele>79.80248436281</ele></trkpt>
<trkpt lat="18.4701754880364" lon="-77.5438523794988"><ele>80.5105499286022</ele></trkpt>
<trkpt lat="18.4701703651929" lon="-77.5437101335065"><ele>80.288182604802</ele></trkpt>
<trkpt lat="18.4701871186487" lon="-77.5434123155844"><ele>79.0491572447145</ele></trkpt>
<trkpt lat="18.4702131745551" lon="-77.5430889037098"><ele>78.9851978927412</ele></trkpt>
<trkpt lat="18.470258643597898" lon="-77.542531644221"><ele>80.5695479364864</ele></trkpt>
<trkpt lat="18.4703032635056" lon="-77.54199446616651"><ele>83.4084615931059</ele></trkpt>
<trkpt lat="18.4703303390889" lon="-77.5417623859299"><ele>84.5337849083887</ele></trkpt>
<trkpt lat="18.470394554068296" lon="-77.5414973020343"><ele>85.6193812759357</ele></trkpt>
<trkpt lat="18.4705495856754" lon="-77.5409832063127"><ele>87.1428508152169</ele></trkpt>
<trkpt lat="18.4707481280261" lon="-77.5403313213676"><ele>90.981836808195</ele></trkpt>
<trkpt lat="18.4709413758611" lon="-77.5396896597543"><ele>93.6275251801295</ele></trkpt>
<trkpt lat="18.470982227537704" lon="-77.5395089186842"><ele>94.0298418013234</ele></trkpt>
<trkpt lat="18.4709903612451" lon="-77.5393523312263"><ele>94.1758393305826</ele></trkpt>
<trkpt lat="18.4709681000786" lon="-77.5392067338376"><ele>94.3085361854221</ele></trkpt>
<trkpt lat="18.4709238710023" lon="-77.539064653263"><ele>94.7709458245472</ele></trkpt>
<trkpt lat="18.4708549855587" lon="-77.5388732943981"><ele>96.88173364930448</ele></trkpt>
<trkpt lat="18.4707817800103" lon="-77.5386995777569"><ele>99.49578578380643</ele></trkpt>
<trkpt lat="18.4706837503267" lon="-77.5385105083579"><ele>102.64962941785524</ele></trkpt>
<trkpt lat="18.4705582549621" lon="-77.5382879922182"><ele>106.18270811059807</ele></trkpt>
<trkpt lat="18.4704450003942" lon="-77.5380899995118"><ele>108.82709700179814</ele></trkpt>
<trkpt lat="18.470148473677195" lon="-77.5375776583196"><ele>114.43828980469465</ele></trkpt>
<trkpt lat="18.4700117093591" lon="-77.5373724509953"><ele>116.90676345000253</ele></trkpt>
<trkpt lat="18.4699051297334" lon="-77.5372355919979"><ele>118.614823333337</ele></trkpt>
<trkpt lat="18.469720119102004" lon="-77.5370276425374"><ele>120.364692377985</ele></trkpt>
<trkpt lat="18.4695981141685" lon="-77.5369096673684"><ele>121.115941182119</ele></trkpt>
<trkpt lat="18.4694905368244" lon="-77.5368238758486"><ele>121.654484833464</ele></trkpt>
<trkpt lat="18.4693399208175" lon="-77.5367350582233"><ele>122.332918850929</ele></trkpt>
<trkpt lat="18.4692379971643" lon="-77.5366962762868"><ele>122.769693303128</ele></trkpt>
<trkpt lat="18.469136683828598" lon="-77.5366763542449"><ele>123.21257194769</ele></trkpt>
<trkpt lat="18.4689229744986" lon="-77.5366796892426"><ele>124.312687913711</ele></trkpt>
<trkpt lat="18.4684163425416" lon="-77.5367411579489"><ele>127.132679144107</ele></trkpt>
<trkpt lat="18.468291129124" lon="-77.5367499871669"><ele>127.508242082166</ele></trkpt>
<trkpt lat="18.468212065597402" lon="-77.5367420815493"><ele>127.706481182617</ele></trkpt>
<trkpt lat="18.4681426284815" lon="-77.5367143880704"><ele>127.870547905099</ele></trkpt>
<trkpt lat="18.4680678272148" lon="-77.5366501362317"><ele>128.040464705941</ele></trkpt>
<trkpt lat="18.468005616562795" lon="-77.5365628198948"><ele>128.137517280147</ele></trkpt>
<trkpt lat="18.4679651854898" lon="-77.536465458262"><ele>128.109099975154</ele></trkpt>
<trkpt lat="18.4679355249155" lon="-77.53627721635182"><ele>127.713214247387</ele></trkpt>
<trkpt lat="18.4679317655595" lon="-77.5359574666628"><ele>126.636058998956</ele></trkpt>
<trkpt lat="18.4679397257958" lon="-77.5357857749921"><ele>125.823590249404</ele></trkpt>
<trkpt lat="18.4679687249758" lon="-77.5356114949966"><ele>124.669532602107</ele></trkpt>
<trkpt lat="18.4680701714781" lon="-77.5352386056123"><ele>122.10547409204</ele></trkpt>
<trkpt lat="18.4680961562332" lon="-77.5350595709312"><ele>120.920912472829</ele></trkpt>
<trkpt lat="18.4680972710211" lon="-77.5349512924455"><ele>120.256285481297</ele></trkpt>
<trkpt lat="18.4680778334926" lon="-77.5346573138105"><ele>118.687826494378</ele></trkpt>
<trkpt lat="18.4680257153052" lon="-77.5341381873439"><ele>116.389992160047</ele></trkpt>
<trkpt lat="18.4679960277219" lon="-77.5338912392268"><ele>114.95745169016</ele></trkpt>
<trkpt lat="18.467963325976" lon="-77.53358231311311"><ele>112.669529121048</ele></trkpt>
<trkpt lat="18.4679637355009" lon="-77.5334716626832"><ele>111.834615640326</ele></trkpt>
<trkpt lat="18.467987842002604" lon="-77.53331095033259"><ele>110.644760464302</ele></trkpt>
<trkpt lat="18.4680411209687" lon="-77.5330931433607"><ele>109.203454842153</ele></trkpt>
<trkpt lat="18.4680936326925" lon="-77.5329371218693"><ele>108.321790982967</ele></trkpt>
<trkpt lat="18.4682707777193" lon="-77.5325299662448"><ele>106.104618129692</ele></trkpt>
<trkpt lat="18.4684200885243" lon="-77.53222572631998"><ele>104.883847616861</ele></trkpt>
<trkpt lat="18.4685696427699" lon="-77.5319370889509"><ele>103.553233868516</ele></trkpt>
<trkpt lat="18.4688935198002" lon="-77.5313417662536"><ele>101.541284057242</ele></trkpt>
<trkpt lat="18.4690031794904" lon="-77.5311241858188"><ele>100.862733908688</ele></trkpt>
<trkpt lat="18.4690440389538" lon="-77.5310161504385"><ele>100.504078906738</ele></trkpt>
<trkpt lat="18.4690873064874" lon="-77.5308521256306"><ele>100.024087846314</ele></trkpt>
<trkpt lat="18.469111485937297" lon="-77.5306744334503"><ele>99.8402734657067</ele></trkpt>
<trkpt lat="18.4691026732541" lon="-77.5304164847219"><ele>100.233667895238</ele></trkpt>
<trkpt lat="18.469076664524" lon="-77.5302523207277"><ele>100.47228160169</ele></trkpt>
<trkpt lat="18.468995237798904" lon="-77.5298417374913"><ele>100.187287857201</ele></trkpt>
<trkpt lat="18.4689522920413" lon="-77.52963088351848"><ele>100.627341946668</ele></trkpt>
<trkpt lat="18.4688837609874" lon="-77.5293261176969"><ele>101.716409847872</ele></trkpt>
<trkpt lat="18.4687675430592" lon="-77.52892275354678"><ele>102.793934544463</ele></trkpt>
<trkpt lat="18.4686968229013" lon="-77.5287217320572"><ele>103.369619944477</ele></trkpt>
<trkpt lat="18.468573279731398" lon="-77.52840434644"><ele>104.149243990627</ele></trkpt>
<trkpt lat="18.4684668521833" lon="-77.5281558836388"><ele>104.479774585208</ele></trkpt>
<trkpt lat="18.4683934698678" lon="-77.52800647998822"><ele>104.59116598672</ele></trkpt>
<trkpt lat="18.468326129996395" lon="-77.5278970020831"><ele>104.646987234935</ele></trkpt>
<trkpt lat="18.4682575495934" lon="-77.5278104350962"><ele>104.680052721837</ele></trkpt>
<trkpt lat="18.4681042905059" lon="-77.5276606688823"><ele>104.841058840562</ele></trkpt>
<trkpt lat="18.4679868118651" lon="-77.5275591154194"><ele>105.219521349668</ele></trkpt>
<trkpt lat="18.4677547414328" lon="-77.52739240209858"><ele>106.560112095483</ele></trkpt>
<trkpt lat="18.4676567657651" lon="-77.5273084191054"><ele>107.037577798928</ele></trkpt>
<trkpt lat="18.467535280567" lon="-77.5271743055515"><ele>107.527142757667</ele></trkpt>
<trkpt lat="18.4674458409418" lon="-77.5270279912457"><ele>107.733574959269</ele></trkpt>
<trkpt lat="18.4673610936398" lon="-77.52679296334811"><ele>107.279108178889</ele></trkpt>
<trkpt lat="18.4673306031432" lon="-77.5266562616491"><ele>106.811358400439</ele></trkpt>
<trkpt lat="18.467290159523202" lon="-77.5264102910889"><ele>106.184599971831</ele></trkpt>
<trkpt lat="18.4672549016301" lon="-77.526017537713"><ele>105.805118095472</ele></trkpt>
<trkpt lat="18.4672693599485" lon="-77.5258412029517"><ele>106.041676568116</ele></trkpt>
<trkpt lat="18.4673082434499" lon="-77.5257505133428"><ele>106.331766180027</ele></trkpt>
<trkpt lat="18.467428468638" lon="-77.5255824183261"><ele>107.13335500286</ele></trkpt>
<trkpt lat="18.467508046263603" lon="-77.5255137074835"><ele>107.57127398235</ele></trkpt>
<trkpt lat="18.4676151800741" lon="-77.5254547133333"><ele>108.078876924292</ele></trkpt>
<trkpt lat="18.4677446084333" lon="-77.5254491418495"><ele>108.554423556225</ele></trkpt>
<trkpt lat="18.4678447732106" lon="-77.5255136629989"><ele>108.878850279782</ele></trkpt>
<trkpt lat="18.4681455485234" lon="-77.5258187139251"><ele>109.724741093881</ele></trkpt>
<trkpt lat="18.4682181451872" lon="-77.5258835990896"><ele>109.840028104469</ele></trkpt>
<trkpt lat="18.4684486326516" lon="-77.52606574793941"><ele>109.831405707062</ele></trkpt>
<trkpt lat="18.4685987985581" lon="-77.5261634784939"><ele>109.799939858543</ele></trkpt>
<trkpt lat="18.4689215003891" lon="-77.5263377408118"><ele>109.808160384891</ele></trkpt>
<trkpt lat="18.469127986582" lon="-77.526431707378"><ele>109.667371225404</ele></trkpt>
<trkpt lat="18.469542236952297" lon="-77.5266113004034"><ele>108.949750744499</ele></trkpt>
<trkpt lat="18.4702355848306" lon="-77.5269103674915"><ele>106.981829963406</ele></trkpt>
<trkpt lat="18.4707032751565" lon="-77.5271120904582"><ele>106.83123810771</ele></trkpt>
<trkpt lat="18.4711851796094" lon="-77.52731994546339"><ele>108.333006742312</ele></trkpt>
<trkpt lat="18.4714023749319" lon="-77.5274136265447"><ele>107.26576299876</ele></trkpt>
<trkpt lat="18.4718778286413" lon="-77.5276187302704"><ele>101.7645664221</ele></trkpt>
<trkpt lat="18.4720276722799" lon="-77.527683422154"><ele>101.00733007798</ele></trkpt>
<trkpt lat="18.4724126082878" lon="-77.5278539297923"><ele>100.750525275856</ele></trkpt>
<trkpt lat="18.472613822176104" lon="-77.5279553749545"><ele>99.3134011729119</ele></trkpt>
<trkpt lat="18.4730250932255" lon="-77.5281947597995"><ele>94.7753874158168</ele></trkpt>
<trkpt lat="18.4734418094597" lon="-77.5284578014971"><ele>90.8554052797154</ele></trkpt>
<trkpt lat="18.473686798637104" lon="-77.5286371242217"><ele>89.5766423237595</ele></trkpt>
<trkpt lat="18.4739951579631" lon="-77.5288968191935"><ele>88.7385507012242</ele></trkpt>
<trkpt lat="18.4741717292715" lon="-77.5290587093505"><ele>87.9363158300515</ele></trkpt>
<trkpt lat="18.4743210095008" lon="-77.5292163405789"><ele>86.8306486538082</ele></trkpt>
<trkpt lat="18.4745437958492" lon="-77.5294756758475"><ele>85.0224463199216</ele></trkpt>
<trkpt lat="18.474663924829496" lon="-77.5296247190731"><ele>84.1695140120409</ele></trkpt>
<trkpt lat="18.474861985948095" lon="-77.5298867752763"><ele>82.6710424323514</ele></trkpt>
<trkpt lat="18.4749813561833" lon="-77.5300590623284"><ele>81.6015615690649</ele></trkpt>
<trkpt lat="18.4751747480593" lon="-77.5303810532548"><ele>79.753016177226</ele></trkpt>
<trkpt lat="18.4753075354121" lon="-77.53061798838328"><ele>78.1219506790618</ele></trkpt>
<trkpt lat="18.4754175542831" lon="-77.530831918731"><ele>76.7112593003298</ele></trkpt>
<trkpt lat="18.4755921250704" lon="-77.5312096092133"><ele>75.2344992339985</ele></trkpt>
<trkpt lat="18.4756863942436" lon="-77.5314393376511"><ele>74.9133559559611</ele></trkpt>
<trkpt lat="18.4757615830134" lon="-77.5316669221241"><ele>74.1523881263873</ele></trkpt>
<trkpt lat="18.475834847001295" lon="-77.53192451958199"><ele>72.9715940326999</ele></trkpt>
<trkpt lat="18.4758935473007" lon="-77.5321590190087"><ele>71.9709956612449</ele></trkpt>
<trkpt lat="18.4759436770667" lon="-77.5324074969789"><ele>70.9035703685545</ele></trkpt>
<trkpt lat="18.476015916060398" lon="-77.532828543534"><ele>68.6928974472149</ele></trkpt>
<trkpt lat="18.476050193343198" lon="-77.5330763622815"><ele>66.977886514247</ele></trkpt>
<trkpt lat="18.476097710773796" lon="-77.5335138610648"><ele>63.9056548808351</ele></trkpt>
<trkpt lat="18.476185535427604" lon="-77.5343706066633"><ele>58.4711479497898</ele></trkpt>
<trkpt lat="18.4762791562737" lon="-77.5352845166364"><ele>53.1935850935753</ele></trkpt>
<trkpt lat="18.476318902118" lon="-77.5356725220281"><ele>52.0965916628909</ele></trkpt>
<trkpt lat="18.476388858490104" lon="-77.5363554708629"><ele>52.1982266703534</ele></trkpt>
<trkpt lat="18.4764571395735" lon="-77.537028423618"><ele>53.5455992831854</ele></trkpt>
<trkpt lat="18.4764992097784" lon="-77.5374742826446"><ele>54.0245663970078</ele></trkpt>
<trkpt lat="18.4765201332554" lon="-77.5377005565482"><ele>54.7229334456933</ele></trkpt>
<trkpt lat="18.4765683237003" lon="-77.5382494430742"><ele>57.430157524276</ele></trkpt>
<trkpt lat="18.4766019972637" lon="-77.53881617196198"><ele>59.7753731408783</ele></trkpt>
<trkpt lat="18.4766091199493" lon="-77.539080165753"><ele>61.5931967398306</ele></trkpt>
<trkpt lat="18.4766026547296" lon="-77.5394453079167"><ele>64.7323334254614</ele></trkpt>
<trkpt lat="18.4765739765101" lon="-77.5398316599055"><ele>68.4991697390843</ele></trkpt>
<trkpt lat="18.4765441244626" lon="-77.5401217047925"><ele>71.0093523125443</ele></trkpt>
<trkpt lat="18.4765013048083" lon="-77.5403803128287"><ele>72.7727704270573</ele></trkpt>
<trkpt lat="18.4763984887051" lon="-77.5408161023592"><ele>74.7795328529784</ele></trkpt>
<trkpt lat="18.4763215948713" lon="-77.5410958594686"><ele>76.2215317197614</ele></trkpt>
<trkpt lat="18.4762320704705" lon="-77.5413691482467"><ele>77.4288805926359</ele></trkpt>
<trkpt lat="18.476064829502" lon="-77.5418352001682"><ele>78.3777860559547</ele></trkpt>
<trkpt lat="18.4760142221324" lon="-77.5419520601545"><ele>78.5532423843571</ele></trkpt>
</trkseg>
</trk></gpx>
