<?xml version="1.0" encoding="utf-8"?>
<gpx xmlns:xsd="http://www.w3.org/2001/XMLSchema" xmlns:xsi="http://www.w3.org/2001/XMLSchema-instance" version="1.1" creator="Geo::Gpx" xsi:schemaLocation="http://www.topografix.com/GPX/1/1 http://www.topografix.com/GPX/1/1/gpx.xsd" xmlns="http://www.topografix.com/GPX/1/1">
<metadata>
<name>Kampioenschap van Vlaanderen</name>
<author>
<link href="https://www.strava.com/athletes/462432">
</link>
<name>Ryan Yates</name>
</author>
<time>2026-09-18T18:51:13Z</time>
<keywords>processGPX</keywords>
<copyright>2020 https://www.openstreetmap.org/copyright</copyright>
<link href="https://www.strava.com/routes/3536093774567331226">
</link>
<bounds maxlat="51.0267692889958" maxlon="3.27025983610105" minlat="50.9938870331398" minlon="3.20625550397136" />
</metadata>
<trk>
<link href="https://www.strava.com/routes/3536093774567331226">
</link>
<name>Kampioenschap van Vlaanderen</name>
<trkseg>
<trkpt lat="51.0015716821613" lon="3.2147821005086">
<ele>33.757717234995</ele>
</trkpt>
<trkpt lat="51.0016938198646" lon="3.21342787099059">
<ele>34.1828365911096</ele>
</trkpt>
<trkpt lat="51.001805004226" lon="3.21252500285572">
<ele>34.9114738138905</ele>
</trkpt>
<trkpt lat="51.001929074489" lon="3.21150984651523">
<ele>36.0197167675905</ele>
</trkpt>
<trkpt lat="51.0020089826327" lon="3.21048592285743">
<ele>36.7235842889962</ele>
</trkpt>
<trkpt lat="51.0020158302956" lon="3.20991054254191">
<ele>36.821625786873</ele>
</trkpt>
<trkpt lat="51.0019075932416" lon="3.20920924337059">
<ele>36.7589866897129</ele>
</trkpt>
<trkpt lat="51.0019128679489" lon="3.20911763895988">
<ele>36.8724573564182</ele>
</trkpt>
<trkpt lat="51.0019412683506" lon="3.20905824681465">
<ele>37.0075872127478</ele>
</trkpt>
<trkpt lat="51.0020260485063" lon="3.20900552345538">
<ele>37.364508211903</ele>
</trkpt>
<trkpt lat="51.0024676747856" lon="3.20883586491697">
<ele>39.5871865310685</ele>
</trkpt>
<trkpt lat="51.0025186656285" lon="3.20882868207842">
<ele>39.7412135112165</ele>
</trkpt>
<trkpt lat="51.0025563583625" lon="3.20885827565349">
<ele>39.8336781105301</ele>
</trkpt>
<trkpt lat="51.0025826640396" lon="3.20898544913133">
<ele>39.9496494119798</ele>
</trkpt>
<trkpt lat="51.0026035965372" lon="3.20967913730257">
<ele>39.7444326114033</ele>
</trkpt>
<trkpt lat="51.0026879744175" lon="3.21020763550422">
<ele>39.6221113680395</ele>
</trkpt>
<trkpt lat="51.0027836756683" lon="3.21066836565072">
<ele>39.9372186043891</ele>
</trkpt>
<trkpt lat="51.0028227493821" lon="3.21073130092919">
<ele>40.0541654409168</ele>
</trkpt>
<trkpt lat="51.0028698866017" lon="3.21073416961358">
<ele>40.1601850108267</ele>
</trkpt>
<trkpt lat="51.0042114920927" lon="3.20933224341517">
<ele>43.8305501003879</ele>
</trkpt>
<trkpt lat="51.0047392634214" lon="3.20894131359683">
<ele>44.5993212497908</ele>
</trkpt>
<trkpt lat="51.0052475015542" lon="3.20860167683445">
<ele>45.1717770900047</ele>
</trkpt>
<trkpt lat="51.0058275017643" lon="3.20821501134292">
<ele>45.3064541636503</ele>
</trkpt>
<trkpt lat="51.0064806761874" lon="3.20777782593658">
<ele>45.0962360025422</ele>
</trkpt>
<trkpt lat="51.0067988060474" lon="3.20751873718487">
<ele>44.7243277987054</ele>
</trkpt>
<trkpt lat="51.0072817818081" lon="3.20702739682291">
<ele>43.8615664474728</ele>
</trkpt>
<trkpt lat="51.0076910310559" lon="3.20661298605719">
<ele>43.5769463102685</ele>
</trkpt>
<trkpt lat="51.0079305448213" lon="3.20643457668601">
<ele>43.581778881729</ele>
</trkpt>
<trkpt lat="51.0082388770174" lon="3.20629931234692">
<ele>43.4734589624188</ele>
</trkpt>
<trkpt lat="51.0085031473797" lon="3.20625550397136">
<ele>43.3478049151891</ele>
</trkpt>
<trkpt lat="51.0086294310705" lon="3.20625953096436">
<ele>43.3129595663921</ele>
</trkpt>
<trkpt lat="51.0090250129571" lon="3.20630233980954">
<ele>43.2116445034503</ele>
</trkpt>
<trkpt lat="51.0097034096505" lon="3.2064138471494">
<ele>42.7335102820497</ele>
</trkpt>
<trkpt lat="51.0113609103067" lon="3.2066863267845">
<ele>40.3879848589806</ele>
</trkpt>
<trkpt lat="51.0122650012653" lon="3.20683496088394">
<ele>39.5295156654978</ele>
</trkpt>
<trkpt lat="51.0131690920669" lon="3.20698360029366">
<ele>38.3722492979755</ele>
</trkpt>
<trkpt lat="51.0146005688507" lon="3.20721895685057">
<ele>37.4812818914653</ele>
</trkpt>
<trkpt lat="51.0161649999056" lon="3.20746999877454">
<ele>36.7140017042123</ele>
</trkpt>
<trkpt lat="51.0184940005748" lon="3.20785598310291">
<ele>34.4366889319145</ele>
</trkpt>
<trkpt lat="51.0208092512353" lon="3.20824894959755">
<ele>33.8101255169115</ele>
</trkpt>
<trkpt lat="51.0210623387399" lon="3.20830747759867">
<ele>33.6348313124053</ele>
</trkpt>
<trkpt lat="51.0211188134752" lon="3.20837354998057">
<ele>33.5358404129683</ele>
</trkpt>
<trkpt lat="51.0211565115058" lon="3.20848939145577">
<ele>33.3886425917879</ele>
</trkpt>
<trkpt lat="51.0212123589469" lon="3.20878917336787">
<ele>32.9803736197551</ele>
</trkpt>
<trkpt lat="51.0212166157612" lon="3.20900613415961">
<ele>32.7255744262488</ele>
</trkpt>
<trkpt lat="51.021188301678" lon="3.20916609195316">
<ele>32.5617247504857</ele>
</trkpt>
<trkpt lat="51.0209642300744" lon="3.21008022047405">
<ele>31.7797931114805</ele>
</trkpt>
<trkpt lat="51.0209353734556" lon="3.21028084537208">
<ele>31.5659597668297</ele>
</trkpt>
<trkpt lat="51.020937543523" lon="3.21049452058171">
<ele>31.242888305103</ele>
</trkpt>
<trkpt lat="51.0209772490215" lon="3.21084073321104">
<ele>30.7565588755184</ele>
</trkpt>
<trkpt lat="51.0210628218921" lon="3.211439724393">
<ele>30.2049124531267</ele>
</trkpt>
<trkpt lat="51.0212218440872" lon="3.21253972608325">
<ele>29.667055026232</ele>
</trkpt>
<trkpt lat="51.021472031392" lon="3.21356619971818">
<ele>30.0629928149668</ele>
</trkpt>
<trkpt lat="51.0215570039242" lon="3.21404599646085">
<ele>30.6110504346291</ele>
</trkpt>
<trkpt lat="51.0217090127504" lon="3.2150219898475">
<ele>32.1749523717523</ele>
</trkpt>
<trkpt lat="51.021880262215" lon="3.21612159316314">
<ele>34.6734837659162</ele>
</trkpt>
<trkpt lat="51.0220555070282" lon="3.21724449132028">
<ele>36.9952300310514</ele>
</trkpt>
<trkpt lat="51.0220855894308" lon="3.21738045154325">
<ele>37.2513616202174</ele>
</trkpt>
<trkpt lat="51.0222215674583" lon="3.21781339495708">
<ele>37.9744171785131</ele>
</trkpt>
<trkpt lat="51.0222318862887" lon="3.218271784296">
<ele>38.4816238697118</ele>
</trkpt>
<trkpt lat="51.0222862500534" lon="3.21887374977605">
<ele>38.9793001954808</ele>
</trkpt>
<trkpt lat="51.0223309800547" lon="3.21930954349899">
<ele>39.2530352347196</ele>
</trkpt>
<trkpt lat="51.0224057422684" lon="3.21978938238953">
<ele>39.3976702403389</ele>
</trkpt>
<trkpt lat="51.0225906292178" lon="3.22041761813593">
<ele>39.5706119591621</ele>
</trkpt>
<trkpt lat="51.0232433401653" lon="3.222199987607">
<ele>40.4537669747729</ele>
</trkpt>
<trkpt lat="51.0235691168856" lon="3.22309077510579">
<ele>40.6111748391118</ele>
</trkpt>
<trkpt lat="51.0237910606594" lon="3.22380940107218">
<ele>40.5389615711422</ele>
</trkpt>
<trkpt lat="51.0240134144605" lon="3.22441151141035">
<ele>40.6119178190939</ele>
</trkpt>
<trkpt lat="51.024048329571" lon="3.2245518856156">
<ele>40.6176008958603</ele>
</trkpt>
<trkpt lat="51.0241230840059" lon="3.22508981672543">
<ele>40.5891571723098</ele>
</trkpt>
<trkpt lat="51.0241847762782" lon="3.22533845971836">
<ele>40.5867213718184</ele>
</trkpt>
<trkpt lat="51.024455715991" lon="3.22607733196716">
<ele>40.6613143549845</ele>
</trkpt>
<trkpt lat="51.0245959594953" lon="3.22653994251043">
<ele>40.7162787250971</ele>
</trkpt>
<trkpt lat="51.0253403279407" lon="3.22795756184406">
<ele>40.484483963629</ele>
</trkpt>
<trkpt lat="51.0259393732346" lon="3.22889428073102">
<ele>39.5790986738974</ele>
</trkpt>
<trkpt lat="51.0262227983458" lon="3.22949591812455">
<ele>39.3712138173359</ele>
</trkpt>
<trkpt lat="51.0264459134375" lon="3.22981339244839">
<ele>39.4926662212256</ele>
</trkpt>
<trkpt lat="51.0266601858337" lon="3.23018118300033">
<ele>39.8683656448609</ele>
</trkpt>
<trkpt lat="51.026726403267" lon="3.23036239184209">
<ele>40.1081295961126</ele>
</trkpt>
<trkpt lat="51.0267692889958" lon="3.23054521722941">
<ele>40.3732482723954</ele>
</trkpt>
<trkpt lat="51.0267466966513" lon="3.23062180709518">
<ele>40.4698462477286</ele>
</trkpt>
<trkpt lat="51.0266744118647" lon="3.2306518825936">
<ele>40.5773296778197</ele>
</trkpt>
<trkpt lat="51.0259757386266" lon="3.23068995792885">
<ele>40.6946757359628</ele>
</trkpt>
<trkpt lat="51.0235752711949" lon="3.23083547166436">
<ele>40.136926990617</ele>
</trkpt>
<trkpt lat="51.0230115791448" lon="3.23094065549096">
<ele>40.0404089330556</ele>
</trkpt>
<trkpt lat="51.0205971685776" lon="3.2316323670496">
<ele>39.8632170957767</ele>
</trkpt>
<trkpt lat="51.0191183344154" lon="3.23205668562386">
<ele>40.0326864252816</ele>
</trkpt>
<trkpt lat="51.0183391119461" lon="3.23228043222196">
<ele>40.5102816245843</ele>
</trkpt>
<trkpt lat="51.0173947926144" lon="3.23256439061146">
<ele>40.7139118692972</ele>
</trkpt>
<trkpt lat="51.014922801286" lon="3.23330808481286">
<ele>42.0538963365792</ele>
</trkpt>
<trkpt lat="51.0144213637448" lon="3.23343241595871">
<ele>42.2905462107911</ele>
</trkpt>
<trkpt lat="51.0141973395102" lon="3.23351989842938">
<ele>42.3990182432419</ele>
</trkpt>
<trkpt lat="51.013540833587" lon="3.23370000594934">
<ele>42.742076979502</ele>
</trkpt>
<trkpt lat="51.0123326391059" lon="3.23402155371161">
<ele>44.1824514704367</ele>
</trkpt>
<trkpt lat="51.0121000000652" lon="3.23411000063633">
<ele>44.3703886734213</ele>
</trkpt>
<trkpt lat="51.0118691379859" lon="3.23419859444693">
<ele>44.4668003618576</ele>
</trkpt>
<trkpt lat="51.0113496476024" lon="3.23433118376607">
<ele>44.5641432659016</ele>
</trkpt>
<trkpt lat="51.0108131014305" lon="3.2344668737619">
<ele>44.2926115349193</ele>
</trkpt>
<trkpt lat="51.0107329445498" lon="3.23451122893661">
<ele>44.2220927854</ele>
</trkpt>
<trkpt lat="51.010706293184" lon="3.23460148060438">
<ele>44.1711057611978</ele>
</trkpt>
<trkpt lat="51.0107168483922" lon="3.23474258953324">
<ele>44.1154331486686</ele>
</trkpt>
<trkpt lat="51.0109224631265" lon="3.23574743263354">
<ele>44.136796463032</ele>
</trkpt>
<trkpt lat="51.010996605006" lon="3.23610597910271">
<ele>44.3192157194385</ele>
</trkpt>
<trkpt lat="51.0112355785211" lon="3.23726168864145">
<ele>45.5641177541794</ele>
</trkpt>
<trkpt lat="51.0115461209788" lon="3.2387636230285">
<ele>45.8419815005992</ele>
</trkpt>
<trkpt lat="51.0117849877049" lon="3.23991897032912">
<ele>45.7761997593241</ele>
</trkpt>
<trkpt lat="51.0125254013715" lon="3.24350062299711">
<ele>44.8253808760791</ele>
</trkpt>
<trkpt lat="51.0127642205834" lon="3.2446560195076">
<ele>44.6716203013554</ele>
</trkpt>
<trkpt lat="51.0130746694356" lon="3.24615805228527">
<ele>44.8557431824779</ele>
</trkpt>
<trkpt lat="51.013576120327" lon="3.24858445737827">
<ele>44.7251398609279</ele>
</trkpt>
<trkpt lat="51.013850559263" lon="3.24997721814825">
<ele>44.1715607845287</ele>
</trkpt>
<trkpt lat="51.0140096671403" lon="3.25078950738645">
<ele>43.6378169359992</ele>
</trkpt>
<trkpt lat="51.0141332887146" lon="3.25150863239699">
<ele>42.6409417742402</ele>
</trkpt>
<trkpt lat="51.0142394698984" lon="3.25246079966523">
<ele>41.6854591780953</ele>
</trkpt>
<trkpt lat="51.0143350055615" lon="3.25361999773359">
<ele>40.9835689188796</ele>
</trkpt>
<trkpt lat="51.0144554553184" lon="3.25501637017123">
<ele>39.0901306906742</ele>
</trkpt>
<trkpt lat="51.0145706608048" lon="3.25607854119225">
<ele>37.8974840332425</ele>
</trkpt>
<trkpt lat="51.0146959736804" lon="3.25691810163309">
<ele>36.9349204576421</ele>
</trkpt>
<trkpt lat="51.0146962108434" lon="3.25701731056419">
<ele>36.7923788520693</ele>
</trkpt>
<trkpt lat="51.0146763448088" lon="3.25708798444626">
<ele>36.6744630760671</ele>
</trkpt>
<trkpt lat="51.0144727337578" lon="3.25746342053559">
<ele>35.9778062671094</ele>
</trkpt>
<trkpt lat="51.0142913041496" lon="3.25791682283717">
<ele>35.5495005847576</ele>
</trkpt>
<trkpt lat="51.0142279813895" lon="3.25798513381477">
<ele>35.4528345391966</ele>
</trkpt>
<trkpt lat="51.0141475872953" lon="3.25800813687936">
<ele>35.3426197872043</ele>
</trkpt>
<trkpt lat="51.0133707386434" lon="3.25800000799856">
<ele>34.2148227262692</ele>
</trkpt>
<trkpt lat="51.0117854545205" lon="3.2579809074225">
<ele>31.4414573161314</ele>
</trkpt>
<trkpt lat="51.0108799999635" lon="3.25796999855601">
<ele>30.5339709738688</ele>
</trkpt>
<trkpt lat="51.010049999954" lon="3.25795999909281">
<ele>29.9646362603931</ele>
</trkpt>
<trkpt lat="51.0092202182751" lon="3.25794985739083">
<ele>29.6168111262987</ele>
</trkpt>
<trkpt lat="51.006689064991" lon="3.25789041263331">
<ele>29.3149729896663</ele>
</trkpt>
<trkpt lat="51.0054768929027" lon="3.25789832261363">
<ele>28.551219198061</ele>
</trkpt>
<trkpt lat="51.004162675386" lon="3.25786832529182">
<ele>27.4084744468151</ele>
</trkpt>
<trkpt lat="51.0033824443606" lon="3.25785116434101">
<ele>27.1234411670975</ele>
</trkpt>
<trkpt lat="51.0030651374643" lon="3.25788822422895">
<ele>26.9181628447968</ele>
</trkpt>
<trkpt lat="51.0026712258172" lon="3.25806193192265">
<ele>26.5656613608039</ele>
</trkpt>
<trkpt lat="51.0013414552715" lon="3.25907216500495">
<ele>25.4894647675911</ele>
</trkpt>
<trkpt lat="51.0003201639604" lon="3.26017114931825">
<ele>24.9665686836825</ele>
</trkpt>
<trkpt lat="50.9996600039193" lon="3.26096853487821">
<ele>24.859052119841</ele>
</trkpt>
<trkpt lat="50.9988800019939" lon="3.26191222971151">
<ele>25.2893717558307</ele>
</trkpt>
<trkpt lat="50.9986439315022" lon="3.26221464314586">
<ele>25.5446137735391</ele>
</trkpt>
<trkpt lat="50.9980280027043" lon="3.26314400957567">
<ele>26.8387353679231</ele>
</trkpt>
<trkpt lat="50.9975798076919" lon="3.26382142952555">
<ele>28.0542696042285</ele>
</trkpt>
<trkpt lat="50.9970332990185" lon="3.26471415495289">
<ele>29.6174732129478</ele>
</trkpt>
<trkpt lat="50.9969971228111" lon="3.26479087351447">
<ele>29.7303146541339</ele>
</trkpt>
<trkpt lat="50.9969861695376" lon="3.2648653070926">
<ele>29.8179330778644</ele>
</trkpt>
<trkpt lat="50.9970015541968" lon="3.26496398396983">
<ele>29.9291032378665</ele>
</trkpt>
<trkpt lat="50.9970363147105" lon="3.26504984713046">
<ele>30.0346163651338</ele>
</trkpt>
<trkpt lat="50.9974960353508" lon="3.26578162281091">
<ele>30.9876810014419</ele>
</trkpt>
<trkpt lat="50.9980221043851" lon="3.26661600868682">
<ele>31.8556813098886</ele>
</trkpt>
<trkpt lat="50.9981282461866" lon="3.26681220804891">
<ele>32.0511518782864</ele>
</trkpt>
<trkpt lat="50.9981785759285" lon="3.26694124452023">
<ele>32.2038133122535</ele>
</trkpt>
<trkpt lat="50.998200353614" lon="3.2670557496105">
<ele>32.321293732866</ele>
</trkpt>
<trkpt lat="50.9982032213932" lon="3.26723809732238">
<ele>32.4499273324096</ele>
</trkpt>
<trkpt lat="50.9980976070348" lon="3.26823824259518">
<ele>32.579465891399</ele>
</trkpt>
<trkpt lat="50.9980945032172" lon="3.26859460248732">
<ele>32.4532314817828</ele>
</trkpt>
<trkpt lat="50.9980825441646" lon="3.26868452298603">
<ele>32.3896486864512</ele>
</trkpt>
<trkpt lat="50.9980217143089" lon="3.26878079606507">
<ele>32.274717213939</ele>
</trkpt>
<trkpt lat="50.9978607493235" lon="3.26884973159607">
<ele>32.0535963539702</ele>
</trkpt>
<trkpt lat="50.9977673178151" lon="3.26886848542413">
<ele>31.9710291685266</ele>
</trkpt>
<trkpt lat="50.9975575824429" lon="3.26886327761911">
<ele>31.8913522394286</ele>
</trkpt>
<trkpt lat="50.9973792137707" lon="3.26899347711983">
<ele>31.7369325199309</ele>
</trkpt>
<trkpt lat="50.9964855970943" lon="3.26957430463112">
<ele>30.3710980127437</ele>
</trkpt>
<trkpt lat="50.9960703956577" lon="3.26991134124745">
<ele>29.8828176752267</ele>
</trkpt>
<trkpt lat="50.9956890521767" lon="3.27022776662477">
<ele>29.6266771695131</ele>
</trkpt>
<trkpt lat="50.9956264687351" lon="3.27025983610105">
<ele>29.5827799889469</ele>
</trkpt>
<trkpt lat="50.9955787753924" lon="3.27025086774258">
<ele>29.5454753685315</ele>
</trkpt>
<trkpt lat="50.9955041756371" lon="3.27015521443259">
<ele>29.4600651650049</ele>
</trkpt>
<trkpt lat="50.9951660147224" lon="3.26947204034496">
<ele>29.0773149050692</ele>
</trkpt>
<trkpt lat="50.9949713270603" lon="3.26907797651268">
<ele>29.5531580856995</ele>
</trkpt>
<trkpt lat="50.9947702402039" lon="3.26866696182863">
<ele>30.3667707782452</ele>
</trkpt>
<trkpt lat="50.9946365652081" lon="3.26820124731064">
<ele>31.6996292934229</ele>
</trkpt>
<trkpt lat="50.9946130720293" lon="3.26803258973025">
<ele>32.0015352582405</ele>
</trkpt>
<trkpt lat="50.994603336356" lon="3.26784590297539">
<ele>32.195614206859</ele>
</trkpt>
<trkpt lat="50.9944900816577" lon="3.26763770661472">
<ele>32.3749015862121</ele>
</trkpt>
<trkpt lat="50.99438833142" lon="3.2670521847876">
<ele>32.743345370261</ele>
</trkpt>
<trkpt lat="50.9943187690444" lon="3.26682969644583">
<ele>32.8125500016073</ele>
</trkpt>
<trkpt lat="50.9942912749165" lon="3.26662575015053">
<ele>32.7688991422582</ele>
</trkpt>
<trkpt lat="50.994279664698" lon="3.26632046782581">
<ele>32.5248586558865</ele>
</trkpt>
<trkpt lat="50.9941904144955" lon="3.26556872743746">
<ele>31.5192408834188</ele>
</trkpt>
<trkpt lat="50.9940726782278" lon="3.26429032786245">
<ele>29.8169495882698</ele>
</trkpt>
<trkpt lat="50.9939768872736" lon="3.26324560972147">
<ele>29.2812848991812</ele>
</trkpt>
<trkpt lat="50.9938894599221" lon="3.26228940328723">
<ele>29.2590006492945</ele>
</trkpt>
<trkpt lat="50.9938870331398" lon="3.26213497530257">
<ele>29.2177113840121</ele>
</trkpt>
<trkpt lat="50.9939414839214" lon="3.26193990768826">
<ele>29.094848796039</ele>
</trkpt>
<trkpt lat="50.9942936087379" lon="3.26123886592524">
<ele>28.245983219723</ele>
</trkpt>
<trkpt lat="50.9952232061146" lon="3.25939289915626">
<ele>25.1075691558952</ele>
</trkpt>
<trkpt lat="50.9954380642665" lon="3.25893184281911">
<ele>24.1819902682115</ele>
</trkpt>
<trkpt lat="50.9956466685536" lon="3.25845555998436">
<ele>23.680860936497</ele>
</trkpt>
<trkpt lat="50.9958966696416" lon="3.25787889550906">
<ele>23.3910006388158</ele>
</trkpt>
<trkpt lat="50.9962293634212" lon="3.25710839345305">
<ele>23.2999550863292</ele>
</trkpt>
<trkpt lat="50.9964389744322" lon="3.25653014517424">
<ele>23.510319178973</ele>
</trkpt>
<trkpt lat="50.9965713234388" lon="3.25611200282919">
<ele>23.7724040355018</ele>
</trkpt>
<trkpt lat="50.9970360044386" lon="3.25502012406804">
<ele>24.2841046874722</ele>
</trkpt>
<trkpt lat="50.9972498774209" lon="3.25456742002243">
<ele>24.4769243307084</ele>
</trkpt>
<trkpt lat="50.9972918339492" lon="3.25443235583193">
<ele>24.5080390408862</ele>
</trkpt>
<trkpt lat="50.997313879798" lon="3.25426465579922">
<ele>24.5160490940953</ele>
</trkpt>
<trkpt lat="50.9973025679407" lon="3.25410991019825">
<ele>24.4931356145864</ele>
</trkpt>
<trkpt lat="50.9972640748382" lon="3.25391304725572">
<ele>24.429241863894</ele>
</trkpt>
<trkpt lat="50.9969758500484" lon="3.25313550710257">
<ele>23.9632846484693</ele>
</trkpt>
<trkpt lat="50.9968139376601" lon="3.2529044262911">
<ele>23.6290365192384</ele>
</trkpt>
<trkpt lat="50.9964327629546" lon="3.25249527266741">
<ele>23.3487515479125</ele>
</trkpt>
<trkpt lat="50.9962934583219" lon="3.25225669686996">
<ele>23.2957468172177</ele>
</trkpt>
<trkpt lat="50.996206205154" lon="3.25200653345606">
<ele>23.3012250533878</ele>
</trkpt>
<trkpt lat="50.9961300243287" lon="3.25123524130867">
<ele>23.6239309567578</ele>
</trkpt>
<trkpt lat="50.9960619232487" lon="3.25040037215852">
<ele>24.5059932899746</ele>
</trkpt>
<trkpt lat="50.9960734956929" lon="3.25028849106946">
<ele>24.5849008892937</ele>
</trkpt>
<trkpt lat="50.9961036247688" lon="3.25018794478979">
<ele>24.6354258819045</ele>
</trkpt>
<trkpt lat="50.9962622423628" lon="3.24987632816955">
<ele>24.6617181793574</ele>
</trkpt>
<trkpt lat="50.9962987638377" lon="3.24976149386745">
<ele>24.6623602941603</ele>
</trkpt>
<trkpt lat="50.9963039228856" lon="3.24959844224212">
<ele>24.6797518781636</ele>
</trkpt>
<trkpt lat="50.9962767435333" lon="3.24906068405057">
<ele>24.8346669219969</ele>
</trkpt>
<trkpt lat="50.9961892264714" lon="3.24854206310242">
<ele>25.1265718211792</ele>
</trkpt>
<trkpt lat="50.9956604200711" lon="3.24624155940659">
<ele>27.1465732709638</ele>
</trkpt>
<trkpt lat="50.9956290216133" lon="3.24600810291048">
<ele>27.2659492139595</ele>
</trkpt>
<trkpt lat="50.9956616267457" lon="3.2458769994725">
<ele>27.3064519248893</ele>
</trkpt>
<trkpt lat="50.9960170847676" lon="3.24486553552448">
<ele>27.4888660601784</ele>
</trkpt>
<trkpt lat="50.996870153036" lon="3.24244086707799">
<ele>28.4484881617533</ele>
</trkpt>
<trkpt lat="50.9971804498758" lon="3.2416205254485">
<ele>29.0625070727604</ele>
</trkpt>
<trkpt lat="50.9976792337131" lon="3.24042017969673">
<ele>30.0330992335121</ele>
</trkpt>
<trkpt lat="50.9980395650179" lon="3.23945764955395">
<ele>30.6962148542727</ele>
</trkpt>
<trkpt lat="50.9982582817755" lon="3.23873857513242">
<ele>31.2079956409373</ele>
</trkpt>
<trkpt lat="50.9984067690961" lon="3.2380032353791">
<ele>31.7703140360282</ele>
</trkpt>
<trkpt lat="50.9984706642791" lon="3.23741724870461">
<ele>32.279958967617</ele>
</trkpt>
<trkpt lat="50.9984586943962" lon="3.2373316234586">
<ele>32.3568593042923</ele>
</trkpt>
<trkpt lat="50.9984034478485" lon="3.23716232962897">
<ele>32.5203395718228</ele>
</trkpt>
<trkpt lat="50.9983974553898" lon="3.23704119223696">
<ele>32.6112824109844</ele>
</trkpt>
<trkpt lat="50.9985089047731" lon="3.23673525582744">
<ele>32.7690134030045</ele>
</trkpt>
<trkpt lat="50.9985797273246" lon="3.23618702524575">
<ele>32.8620188337599</ele>
</trkpt>
<trkpt lat="50.9986307689475" lon="3.23460276976155">
<ele>33.0431387540546</ele>
</trkpt>
<trkpt lat="50.9986815314532" lon="3.23395705901952">
<ele>32.8396147544357</ele>
</trkpt>
<trkpt lat="50.9987250692702" lon="3.23363716449863">
<ele>32.7558877804408</ele>
</trkpt>
<trkpt lat="50.9989059337587" lon="3.23264111855419">
<ele>32.3024627096786</ele>
</trkpt>
<trkpt lat="50.9991340817027" lon="3.23141889622209">
<ele>31.2844237942819</ele>
</trkpt>
<trkpt lat="50.9992994728909" lon="3.23053039215658">
<ele>31.090768904157</ele>
</trkpt>
<trkpt lat="50.9994910550426" lon="3.22936970074886">
<ele>30.7061206406695</ele>
</trkpt>
<trkpt lat="50.9996808268496" lon="3.22828818763055">
<ele>29.9075360070395</ele>
</trkpt>
<trkpt lat="50.9998514307266" lon="3.22743285903487">
<ele>29.1332210553799</ele>
</trkpt>
<trkpt lat="50.9999789194154" lon="3.2267912537958">
<ele>28.9425725522265</ele>
</trkpt>
<trkpt lat="51.0001088252714" lon="3.22595837529732">
<ele>28.6463084964843</ele>
</trkpt>
<trkpt lat="51.0002100122797" lon="3.22482061159022">
<ele>28.6394102995903</ele>
</trkpt>
<trkpt lat="51.0003300132113" lon="3.22345333920419">
<ele>29.2080254366025</ele>
</trkpt>
<trkpt lat="51.00043953895" lon="3.22220049297126">
<ele>29.3943788616866</ele>
</trkpt>
<trkpt lat="51.0005350315932" lon="3.22078465614714">
<ele>29.5067328751361</ele>
</trkpt>
<trkpt lat="51.0006355473238" lon="3.21932522808065">
<ele>29.864092076948</ele>
</trkpt>
<trkpt lat="51.0006753237648" lon="3.21911139701961">
<ele>29.9646433218942</ele>
</trkpt>
<trkpt lat="51.0011971443225" lon="3.21741143089085">
<ele>31.4390583842218</ele>
</trkpt>
<trkpt lat="51.0014867112323" lon="3.21639579168103">
<ele>32.9144579460461</ele>
</trkpt>
<trkpt lat="51.001537032839" lon="3.21610244960213">
<ele>33.1491848135035</ele>
</trkpt>
<trkpt lat="51.0015684837405" lon="3.21580287851435">
<ele>33.2970583107652</ele>
</trkpt>
<trkpt lat="51.0015700271831" lon="3.21489375742732">
<ele>33.7154950141221</ele>
</trkpt>
</trkseg>
<type>cycling</type>
</trk>
</gpx>
