<?xml version="1.0" encoding="UTF-8"?>
<gpx version="1.1" creator="BikeTerra" xmlns="http://www.topografix.com/GPX/1/1" xmlns:biketerra="https://biketerra.com/xmlns/gpx/1">
    <metadata>
        <name>Oberösterreich Rundfahrt</name>
        <extensions>
            <biketerra:version>2.0.0</biketerra:version>
            <biketerra:isLoop>true</biketerra:isLoop>
            <biketerra:defaultSurface>asphalt</biketerra:defaultSurface>
        </extensions>
    </metadata>
    <trk>
        <name>Oberösterreich Rundfahrt</name>
        <trkseg>
            <trkpt lat="48.336628" lon="13.360473"><ele>344.06</ele></trkpt>
            <trkpt lat="48.336503" lon="13.360271"><ele>345.87</ele></trkpt>
            <trkpt lat="48.336448" lon="13.360104"><ele>346.7</ele></trkpt>
            <trkpt lat="48.336449" lon="13.359614"><ele>347.89</ele></trkpt>
            <trkpt lat="48.336293" lon="13.359513"><ele>348.26</ele></trkpt>
            <trkpt lat="48.3361702" lon="13.3594638"><ele>348.45</ele></trkpt>
            <trkpt lat="48.3360473" lon="13.3594147"><ele>348.59</ele></trkpt>
            <trkpt lat="48.3359245" lon="13.3593655"><ele>348.69</ele></trkpt>
            <trkpt lat="48.3358017" lon="13.3593163"><ele>348.77</ele></trkpt>
            <trkpt lat="48.3356788" lon="13.3592672"><ele>348.85</ele></trkpt>
            <trkpt lat="48.335556" lon="13.359218"><ele>348.94</ele></trkpt>
            <trkpt lat="48.335199" lon="13.358955"><ele>349.27</ele></trkpt>
            <trkpt lat="48.335125" lon="13.358922"><ele>349.33</ele></trkpt>
            <trkpt lat="48.335091" lon="13.358937"><ele>349.35</ele></trkpt>
            <trkpt lat="48.33461" lon="13.359499"><ele>349.31</ele></trkpt>
            <trkpt lat="48.3344445" lon="13.3596542"><ele>349.08</ele></trkpt>
            <trkpt lat="48.334279" lon="13.3598093"><ele>348.74</ele></trkpt>
            <trkpt lat="48.3341135" lon="13.3599645"><ele>348.36</ele></trkpt>
            <trkpt lat="48.333948" lon="13.3601197"><ele>347.95</ele></trkpt>
            <trkpt lat="48.3337825" lon="13.3602748"><ele>347.55</ele></trkpt>
            <trkpt lat="48.333617" lon="13.36043"><ele>347.17</ele></trkpt>
            <trkpt lat="48.3335145" lon="13.360481"><ele>347</ele></trkpt>
            <trkpt lat="48.3334159" lon="13.3605219"><ele>346.86</ele></trkpt>
            <trkpt lat="48.3333674" lon="13.3605218"><ele>346.82</ele></trkpt>
            <trkpt lat="48.3332759" lon="13.3604761"><ele>346.75</ele></trkpt>
            <trkpt lat="48.3332371" lon="13.3604325"><ele>346.74</ele></trkpt>
            <trkpt lat="48.3332052" lon="13.3603775"><ele>346.74</ele></trkpt>
            <trkpt lat="48.3330793" lon="13.3601063"><ele>346.84</ele></trkpt>
            <trkpt lat="48.332932" lon="13.359789"><ele>347.13</ele></trkpt>
            <trkpt lat="48.3328392" lon="13.3596015"><ele>347.34</ele></trkpt>
            <trkpt lat="48.3327463" lon="13.359414"><ele>347.56</ele></trkpt>
            <trkpt lat="48.3326535" lon="13.3592265"><ele>347.79</ele></trkpt>
            <trkpt lat="48.3325607" lon="13.359039"><ele>348.01</ele></trkpt>
            <trkpt lat="48.3324678" lon="13.3588515"><ele>348.23</ele></trkpt>
            <trkpt lat="48.332375" lon="13.358664"><ele>348.45</ele></trkpt>
            <trkpt lat="48.3322822" lon="13.3584765"><ele>348.66</ele></trkpt>
            <trkpt lat="48.3321893" lon="13.358289"><ele>348.86</ele></trkpt>
            <trkpt lat="48.3320965" lon="13.3581015"><ele>349.06</ele></trkpt>
            <trkpt lat="48.3320037" lon="13.357914"><ele>349.24</ele></trkpt>
            <trkpt lat="48.3319108" lon="13.3577265"><ele>349.4</ele></trkpt>
            <trkpt lat="48.331818" lon="13.357539"><ele>349.54</ele></trkpt>
            <trkpt lat="48.331405" lon="13.356749"><ele>349.86</ele></trkpt>
            <trkpt lat="48.331329" lon="13.3565951"><ele>349.85</ele></trkpt>
            <trkpt lat="48.331253" lon="13.3564413"><ele>349.8</ele></trkpt>
            <trkpt lat="48.331177" lon="13.3562874"><ele>349.72</ele></trkpt>
            <trkpt lat="48.331101" lon="13.3561335"><ele>349.63</ele></trkpt>
            <trkpt lat="48.331025" lon="13.3559796"><ele>349.53</ele></trkpt>
            <trkpt lat="48.330949" lon="13.3558258"><ele>349.42</ele></trkpt>
            <trkpt lat="48.330873" lon="13.3556719"><ele>349.28</ele></trkpt>
            <trkpt lat="48.330797" lon="13.355518"><ele>349.11</ele></trkpt>
            <trkpt lat="48.330695" lon="13.355341"><ele>348.86</ele></trkpt>
            <trkpt lat="48.330606" lon="13.355225"><ele>348.64</ele></trkpt>
            <trkpt lat="48.330503" lon="13.355133"><ele>348.41</ele></trkpt>
            <trkpt lat="48.330395" lon="13.355074"><ele>348.19</ele></trkpt>
            <trkpt lat="48.33024" lon="13.355022"><ele>347.87</ele></trkpt>
            <trkpt lat="48.329827" lon="13.354934"><ele>346.92</ele></trkpt>
            <trkpt lat="48.329508" lon="13.354805"><ele>345.87</ele></trkpt>
            <trkpt lat="48.329245" lon="13.354607"><ele>344.99</ele></trkpt>
            <trkpt lat="48.329144" lon="13.354501"><ele>344.67</ele></trkpt>
            <trkpt lat="48.329059" lon="13.35437"><ele>344.39</ele></trkpt>
            <trkpt lat="48.329003" lon="13.354224"><ele>344.19</ele></trkpt>
            <trkpt lat="48.32898" lon="13.354084"><ele>344.05</ele></trkpt>
            <trkpt lat="48.32898" lon="13.353935"><ele>343.96</ele></trkpt>
            <trkpt lat="48.328994" lon="13.353809"><ele>343.9</ele></trkpt>
            <trkpt lat="48.3290734" lon="13.353408"><ele>343.79</ele></trkpt>
            <trkpt lat="48.3291528" lon="13.353007"><ele>343.71</ele></trkpt>
            <trkpt lat="48.3292322" lon="13.352606"><ele>343.6</ele></trkpt>
            <trkpt lat="48.3293116" lon="13.352205"><ele>343.41</ele></trkpt>
            <trkpt lat="48.329391" lon="13.351804"><ele>343.05</ele></trkpt>
            <trkpt lat="48.329483" lon="13.35114"><ele>341.91</ele></trkpt>
            <trkpt lat="48.329518" lon="13.350748"><ele>340.68</ele></trkpt>
            <trkpt lat="48.329599" lon="13.349254"><ele>334.21</ele></trkpt>
            <trkpt lat="48.32959" lon="13.348729"><ele>332.35</ele></trkpt>
            <trkpt lat="48.329559" lon="13.348479"><ele>331.51</ele></trkpt>
            <trkpt lat="48.329437" lon="13.347927"><ele>329.42</ele></trkpt>
            <trkpt lat="48.329276" lon="13.347521"><ele>327.69</ele></trkpt>
            <trkpt lat="48.32914" lon="13.347312"><ele>326.73</ele></trkpt>
            <trkpt lat="48.328991" lon="13.34716"><ele>325.96</ele></trkpt>
            <trkpt lat="48.328115" lon="13.346436"><ele>322.49</ele></trkpt>
            <trkpt lat="48.327926" lon="13.346229"><ele>321.61</ele></trkpt>
            <trkpt lat="48.3277604" lon="13.3459562"><ele>321.07</ele></trkpt>
            <trkpt lat="48.3275948" lon="13.3456833"><ele>320.85</ele></trkpt>
            <trkpt lat="48.3274293" lon="13.3454105"><ele>320.71</ele></trkpt>
            <trkpt lat="48.3272637" lon="13.3451377"><ele>320.61</ele></trkpt>
            <trkpt lat="48.3270981" lon="13.3448648"><ele>320.53</ele></trkpt>
            <trkpt lat="48.3269325" lon="13.344592"><ele>320.45</ele></trkpt>
            <trkpt lat="48.3267669" lon="13.3443192"><ele>320.37</ele></trkpt>
            <trkpt lat="48.3266013" lon="13.3440463"><ele>320.29</ele></trkpt>
            <trkpt lat="48.3264358" lon="13.3437735"><ele>320.21</ele></trkpt>
            <trkpt lat="48.3262702" lon="13.3435007"><ele>320.14</ele></trkpt>
            <trkpt lat="48.3261046" lon="13.3432278"><ele>320.11</ele></trkpt>
            <trkpt lat="48.325939" lon="13.342955"><ele>320.18</ele></trkpt>
            <trkpt lat="48.325834" lon="13.342827"><ele>320.29</ele></trkpt>
            <trkpt lat="48.325621" lon="13.342673"><ele>320.54</ele></trkpt>
            <trkpt lat="48.324866" lon="13.342444"><ele>321.84</ele></trkpt>
            <trkpt lat="48.324657" lon="13.342367"><ele>323.08</ele></trkpt>
            <trkpt lat="48.324476" lon="13.342258"><ele>324.15</ele></trkpt>
            <trkpt lat="48.32428" lon="13.342084"><ele>325.15</ele></trkpt>
            <trkpt lat="48.32412" lon="13.34189"><ele>326.03</ele></trkpt>
            <trkpt lat="48.323983" lon="13.341651"><ele>326.81</ele></trkpt>
            <trkpt lat="48.323846" lon="13.341361"><ele>327.36</ele></trkpt>
            <trkpt lat="48.323512" lon="13.340228"><ele>327.38</ele></trkpt>
            <trkpt lat="48.323433" lon="13.340035"><ele>327.43</ele></trkpt>
            <trkpt lat="48.323331" lon="13.33985"><ele>327.57</ele></trkpt>
            <trkpt lat="48.323085" lon="13.339531"><ele>328.14</ele></trkpt>
            <trkpt lat="48.322945" lon="13.339269"><ele>328.84</ele></trkpt>
            <trkpt lat="48.322809" lon="13.338841"><ele>330.28</ele></trkpt>
            <trkpt lat="48.322766" lon="13.338645"><ele>331.02</ele></trkpt>
            <trkpt lat="48.322701" lon="13.338157"><ele>333.14</ele></trkpt>
            <trkpt lat="48.322695" lon="13.337826"><ele>335.03</ele></trkpt>
            <trkpt lat="48.322712" lon="13.337541"><ele>336.82</ele></trkpt>
            <trkpt lat="48.322757" lon="13.337221"><ele>338.83</ele></trkpt>
            <trkpt lat="48.322881" lon="13.336673"><ele>342.56</ele></trkpt>
            <trkpt lat="48.322919" lon="13.336429"><ele>344.22</ele></trkpt>
            <trkpt lat="48.322896" lon="13.336154"><ele>346.01</ele></trkpt>
            <trkpt lat="48.322846" lon="13.336039"><ele>346.88</ele></trkpt>
            <trkpt lat="48.322544" lon="13.335745"><ele>350.03</ele></trkpt>
            <trkpt lat="48.322193" lon="13.335485"><ele>352.36</ele></trkpt>
            <trkpt lat="48.32134" lon="13.335329"><ele>354.25</ele></trkpt>
            <trkpt lat="48.321113" lon="13.335268"><ele>354.39</ele></trkpt>
            <trkpt lat="48.320918" lon="13.335138"><ele>354.37</ele></trkpt>
            <trkpt lat="48.320816" lon="13.335036"><ele>354.36</ele></trkpt>
            <trkpt lat="48.320741" lon="13.334916"><ele>354.34</ele></trkpt>
            <trkpt lat="48.32066" lon="13.334735"><ele>354.3</ele></trkpt>
            <trkpt lat="48.320456" lon="13.334152"><ele>353.89</ele></trkpt>
            <trkpt lat="48.320155" lon="13.333731"><ele>352.91</ele></trkpt>
            <trkpt lat="48.32011" lon="13.333581"><ele>352.66</ele></trkpt>
            <trkpt lat="48.320087" lon="13.3334"><ele>352.46</ele></trkpt>
            <trkpt lat="48.320094" lon="13.33321"><ele>352.33</ele></trkpt>
            <trkpt lat="48.3201351" lon="13.332905"><ele>352.34</ele></trkpt>
            <trkpt lat="48.3201763" lon="13.3326"><ele>352.57</ele></trkpt>
            <trkpt lat="48.3202174" lon="13.332295"><ele>352.94</ele></trkpt>
            <trkpt lat="48.3202586" lon="13.33199"><ele>353.4</ele></trkpt>
            <trkpt lat="48.3202997" lon="13.331685"><ele>353.87</ele></trkpt>
            <trkpt lat="48.3203409" lon="13.33138"><ele>354.29</ele></trkpt>
            <trkpt lat="48.320382" lon="13.331075"><ele>354.6</ele></trkpt>
            <trkpt lat="48.320406" lon="13.330853"><ele>354.7</ele></trkpt>
            <trkpt lat="48.320389" lon="13.330514"><ele>354.6</ele></trkpt>
            <trkpt lat="48.32035" lon="13.330336"><ele>354.38</ele></trkpt>
            <trkpt lat="48.320089" lon="13.329677"><ele>352.9</ele></trkpt>
            <trkpt lat="48.319851" lon="13.329232"><ele>351.58</ele></trkpt>
            <trkpt lat="48.319707" lon="13.329008"><ele>350.96</ele></trkpt>
            <trkpt lat="48.319506" lon="13.328767"><ele>350.43</ele></trkpt>
            <trkpt lat="48.319336" lon="13.328635"><ele>350.26</ele></trkpt>
            <trkpt lat="48.318855" lon="13.328348"><ele>350.62</ele></trkpt>
            <trkpt lat="48.317955" lon="13.327872"><ele>353.01</ele></trkpt>
            <trkpt lat="48.317453" lon="13.327497"><ele>354.63</ele></trkpt>
            <trkpt lat="48.3172318" lon="13.3272861"><ele>355.14</ele></trkpt>
            <trkpt lat="48.3170105" lon="13.3270753"><ele>355.47</ele></trkpt>
            <trkpt lat="48.3167893" lon="13.3268644"><ele>355.72</ele></trkpt>
            <trkpt lat="48.316568" lon="13.3266535"><ele>355.93</ele></trkpt>
            <trkpt lat="48.3163468" lon="13.3264426"><ele>356.15</ele></trkpt>
            <trkpt lat="48.3161255" lon="13.3262318"><ele>356.36</ele></trkpt>
            <trkpt lat="48.3159043" lon="13.3260209"><ele>356.55</ele></trkpt>
            <trkpt lat="48.315683" lon="13.32581"><ele>356.69</ele></trkpt>
            <trkpt lat="48.31553" lon="13.32569"><ele>356.72</ele></trkpt>
            <trkpt lat="48.314973" lon="13.325358"><ele>356.48</ele></trkpt>
            <trkpt lat="48.314737" lon="13.325181"><ele>356.07</ele></trkpt>
            <trkpt lat="48.314507" lon="13.324959"><ele>355.57</ele></trkpt>
            <trkpt lat="48.314327" lon="13.3247476"><ele>355.55</ele></trkpt>
            <trkpt lat="48.314266" lon="13.324716"><ele>355.56</ele></trkpt>
            <trkpt lat="48.3142048" lon="13.3247474"><ele>355.56</ele></trkpt>
            <trkpt lat="48.3141437" lon="13.3248188"><ele>355.51</ele></trkpt>
            <trkpt lat="48.313532" lon="13.325533"><ele>354.49</ele></trkpt>
            <trkpt lat="48.313501" lon="13.325609"><ele>354.45</ele></trkpt>
            <trkpt lat="48.313469" lon="13.32588"><ele>354.38</ele></trkpt>
            <trkpt lat="48.313377" lon="13.326201"><ele>354.47</ele></trkpt>
            <trkpt lat="48.313211" lon="13.326353"><ele>354.61</ele></trkpt>
            <trkpt lat="48.312591" lon="13.326816"><ele>355.08</ele></trkpt>
            <trkpt lat="48.3123455" lon="13.3269405"><ele>354.97</ele></trkpt>
            <trkpt lat="48.3121" lon="13.327065"><ele>354.62</ele></trkpt>
            <trkpt lat="48.3118545" lon="13.3271895"><ele>354.12</ele></trkpt>
            <trkpt lat="48.311609" lon="13.327314"><ele>353.54</ele></trkpt>
            <trkpt lat="48.3113635" lon="13.3274385"><ele>352.95</ele></trkpt>
            <trkpt lat="48.311118" lon="13.327563"><ele>352.36</ele></trkpt>
            <trkpt lat="48.3108725" lon="13.3276875"><ele>351.83</ele></trkpt>
            <trkpt lat="48.310627" lon="13.327812"><ele>351.39</ele></trkpt>
            <trkpt lat="48.3103815" lon="13.3279365"><ele>351.13</ele></trkpt>
            <trkpt lat="48.310136" lon="13.328061"><ele>351.24</ele></trkpt>
            <trkpt lat="48.309031" lon="13.328607"><ele>353.94</ele></trkpt>
            <trkpt lat="48.308758" lon="13.328724"><ele>354.62</ele></trkpt>
            <trkpt lat="48.308233" lon="13.328891"><ele>355.67</ele></trkpt>
            <trkpt lat="48.307328" lon="13.329025"><ele>356.61</ele></trkpt>
            <trkpt lat="48.30705" lon="13.329089"><ele>356.64</ele></trkpt>
            <trkpt lat="48.30689" lon="13.329138"><ele>356.54</ele></trkpt>
            <trkpt lat="48.30643" lon="13.329335"><ele>355.96</ele></trkpt>
            <trkpt lat="48.306205" lon="13.329457"><ele>355.56</ele></trkpt>
            <trkpt lat="48.305957" lon="13.329623"><ele>355.05</ele></trkpt>
            <trkpt lat="48.304494" lon="13.330722"><ele>352.15</ele></trkpt>
            <trkpt lat="48.304206" lon="13.330919"><ele>351.69</ele></trkpt>
            <trkpt lat="48.303946" lon="13.331074"><ele>351.31</ele></trkpt>
            <trkpt lat="48.303366" lon="13.331358"><ele>350.52</ele></trkpt>
            <trkpt lat="48.303095" lon="13.331466"><ele>350.08</ele></trkpt>
            <trkpt lat="48.302482" lon="13.331647"><ele>349.24</ele></trkpt>
            <trkpt lat="48.300757" lon="13.331947"><ele>353.05</ele></trkpt>
            <trkpt lat="48.300222" lon="13.33201"><ele>354.38</ele></trkpt>
            <trkpt lat="48.299552" lon="13.332035"><ele>355.35</ele></trkpt>
            <trkpt lat="48.297247" lon="13.331937"><ele>354.97</ele></trkpt>
            <trkpt lat="48.297022" lon="13.332947"><ele>353.34</ele></trkpt>
            <trkpt lat="48.296852" lon="13.333613"><ele>352.19</ele></trkpt>
            <trkpt lat="48.296683" lon="13.334157"><ele>351.6</ele></trkpt>
            <trkpt lat="48.296249" lon="13.335445"><ele>352.12</ele></trkpt>
            <trkpt lat="48.2959981" lon="13.3361615"><ele>352.8</ele></trkpt>
            <trkpt lat="48.2957473" lon="13.336878"><ele>353.64</ele></trkpt>
            <trkpt lat="48.2954964" lon="13.3375945"><ele>354.53</ele></trkpt>
            <trkpt lat="48.2952455" lon="13.338311"><ele>355.43</ele></trkpt>
            <trkpt lat="48.2949946" lon="13.3390275"><ele>356.32</ele></trkpt>
            <trkpt lat="48.2947437" lon="13.339744"><ele>357.2</ele></trkpt>
            <trkpt lat="48.2944929" lon="13.3404605"><ele>358.03</ele></trkpt>
            <trkpt lat="48.294242" lon="13.341177"><ele>358.65</ele></trkpt>
            <trkpt lat="48.294506" lon="13.341684"><ele>358.88</ele></trkpt>
            <trkpt lat="48.294564" lon="13.341843"><ele>358.91</ele></trkpt>
            <trkpt lat="48.294599" lon="13.342003"><ele>358.92</ele></trkpt>
            <trkpt lat="48.294612" lon="13.342205"><ele>358.92</ele></trkpt>
            <trkpt lat="48.29458" lon="13.343295"><ele>358.85</ele></trkpt>
            <trkpt lat="48.294584" lon="13.34365"><ele>358.86</ele></trkpt>
            <trkpt lat="48.294633" lon="13.344243"><ele>358.88</ele></trkpt>
            <trkpt lat="48.294846" lon="13.345337"><ele>358.76</ele></trkpt>
            <trkpt lat="48.29489" lon="13.345671"><ele>358.65</ele></trkpt>
            <trkpt lat="48.294967" lon="13.346752"><ele>358.12</ele></trkpt>
            <trkpt lat="48.295" lon="13.347103"><ele>357.9</ele></trkpt>
            <trkpt lat="48.29505" lon="13.347426"><ele>357.68</ele></trkpt>
            <trkpt lat="48.295145" lon="13.347848"><ele>357.31</ele></trkpt>
            <trkpt lat="48.295252" lon="13.348203"><ele>356.94</ele></trkpt>
            <trkpt lat="48.295406" lon="13.348622"><ele>356.51</ele></trkpt>
            <trkpt lat="48.295586" lon="13.349014"><ele>356.18</ele></trkpt>
            <trkpt lat="48.295731" lon="13.349285"><ele>356.03</ele></trkpt>
            <trkpt lat="48.29597" lon="13.349667"><ele>355.98</ele></trkpt>
            <trkpt lat="48.29639" lon="13.350282"><ele>356.47</ele></trkpt>
            <trkpt lat="48.296495" lon="13.350529"><ele>356.62</ele></trkpt>
            <trkpt lat="48.29664" lon="13.351065"><ele>356.85</ele></trkpt>
            <trkpt lat="48.296697" lon="13.351201"><ele>356.9</ele></trkpt>
            <trkpt lat="48.296762" lon="13.351295"><ele>356.95</ele></trkpt>
            <trkpt lat="48.296853" lon="13.351345"><ele>357</ele></trkpt>
            <trkpt lat="48.296972" lon="13.351365"><ele>357.09</ele></trkpt>
            <trkpt lat="48.297309" lon="13.351362"><ele>357.49</ele></trkpt>
            <trkpt lat="48.297539" lon="13.351397"><ele>357.86</ele></trkpt>
            <trkpt lat="48.297809" lon="13.351522"><ele>358.37</ele></trkpt>
            <trkpt lat="48.298068" lon="13.351742"><ele>358.9</ele></trkpt>
            <trkpt lat="48.29831" lon="13.352083"><ele>359.38</ele></trkpt>
            <trkpt lat="48.2984823" lon="13.3523787"><ele>359.68</ele></trkpt>
            <trkpt lat="48.2986547" lon="13.3526743"><ele>359.92</ele></trkpt>
            <trkpt lat="48.298827" lon="13.35297"><ele>360.14</ele></trkpt>
            <trkpt lat="48.2989993" lon="13.3532657"><ele>360.32</ele></trkpt>
            <trkpt lat="48.2991717" lon="13.3535613"><ele>360.47</ele></trkpt>
            <trkpt lat="48.299344" lon="13.353857"><ele>360.55</ele></trkpt>
            <trkpt lat="48.299517" lon="13.354116"><ele>360.54</ele></trkpt>
            <trkpt lat="48.299685" lon="13.354325"><ele>360.48</ele></trkpt>
            <trkpt lat="48.299882" lon="13.354531"><ele>360.39</ele></trkpt>
            <trkpt lat="48.300646" lon="13.355193"><ele>360.12</ele></trkpt>
            <trkpt lat="48.300783" lon="13.355338"><ele>360.09</ele></trkpt>
            <trkpt lat="48.300914" lon="13.35551"><ele>360.06</ele></trkpt>
            <trkpt lat="48.301111" lon="13.355824"><ele>360.05</ele></trkpt>
            <trkpt lat="48.30126" lon="13.356184"><ele>360.08</ele></trkpt>
            <trkpt lat="48.30134" lon="13.356449"><ele>360.14</ele></trkpt>
            <trkpt lat="48.301446" lon="13.357027"><ele>360.41</ele></trkpt>
            <trkpt lat="48.3014836" lon="13.3573732"><ele>360.61</ele></trkpt>
            <trkpt lat="48.3015211" lon="13.3577194"><ele>360.83</ele></trkpt>
            <trkpt lat="48.3015587" lon="13.3580657"><ele>361.07</ele></trkpt>
            <trkpt lat="48.3015962" lon="13.3584119"><ele>361.3</ele></trkpt>
            <trkpt lat="48.3016338" lon="13.3587581"><ele>361.52</ele></trkpt>
            <trkpt lat="48.3016713" lon="13.3591043"><ele>361.69</ele></trkpt>
            <trkpt lat="48.3017089" lon="13.3594506"><ele>361.78</ele></trkpt>
            <trkpt lat="48.3017464" lon="13.3597968"><ele>361.75</ele></trkpt>
            <trkpt lat="48.301784" lon="13.360143"><ele>361.53</ele></trkpt>
            <trkpt lat="48.301842" lon="13.360531"><ele>361.23</ele></trkpt>
            <trkpt lat="48.301905" lon="13.360838"><ele>361.27</ele></trkpt>
            <trkpt lat="48.30227" lon="13.362226"><ele>363.01</ele></trkpt>
            <trkpt lat="48.302365" lon="13.362529"><ele>363.86</ele></trkpt>
            <trkpt lat="48.302488" lon="13.362852"><ele>365.32</ele></trkpt>
            <trkpt lat="48.302583" lon="13.363072"><ele>366.68</ele></trkpt>
            <trkpt lat="48.302695" lon="13.363279"><ele>368.3</ele></trkpt>
            <trkpt lat="48.302933" lon="13.363639"><ele>371.8</ele></trkpt>
            <trkpt lat="48.303258" lon="13.364066"><ele>376.29</ele></trkpt>
            <trkpt lat="48.30331" lon="13.364146"><ele>377.01</ele></trkpt>
            <trkpt lat="48.303391" lon="13.364334"><ele>378.3</ele></trkpt>
            <trkpt lat="48.30342" lon="13.364512"><ele>379.18</ele></trkpt>
            <trkpt lat="48.303418" lon="13.364898"><ele>380.41</ele></trkpt>
            <trkpt lat="48.30346" lon="13.365327"><ele>380.91</ele></trkpt>
            <trkpt lat="48.303465" lon="13.365511"><ele>380.95</ele></trkpt>
            <trkpt lat="48.303678" lon="13.36551"><ele>380.9</ele></trkpt>
            <trkpt lat="48.304008" lon="13.365593"><ele>380.47</ele></trkpt>
            <trkpt lat="48.304367" lon="13.365603"><ele>379.5</ele></trkpt>
            <trkpt lat="48.305466" lon="13.365373"><ele>374.87</ele></trkpt>
            <trkpt lat="48.306638" lon="13.365017"><ele>369.42</ele></trkpt>
            <trkpt lat="48.306825" lon="13.364986"><ele>368.72</ele></trkpt>
            <trkpt lat="48.307592" lon="13.364946"><ele>366.57</ele></trkpt>
            <trkpt lat="48.307953" lon="13.364902"><ele>365.55</ele></trkpt>
            <trkpt lat="48.308159" lon="13.364854"><ele>364.88</ele></trkpt>
            <trkpt lat="48.308283" lon="13.364803"><ele>364.41</ele></trkpt>
            <trkpt lat="48.308771" lon="13.364525"><ele>362.37</ele></trkpt>
            <trkpt lat="48.309974" lon="13.364029"><ele>358.53</ele></trkpt>
            <trkpt lat="48.310198" lon="13.363912"><ele>358.09</ele></trkpt>
            <trkpt lat="48.310512" lon="13.363682"><ele>357.59</ele></trkpt>
            <trkpt lat="48.310868" lon="13.363324"><ele>356.97</ele></trkpt>
            <trkpt lat="48.31102" lon="13.363137"><ele>356.68</ele></trkpt>
            <trkpt lat="48.311152" lon="13.362957"><ele>356.42</ele></trkpt>
            <trkpt lat="48.3112983" lon="13.3627247"><ele>356.09</ele></trkpt>
            <trkpt lat="48.3114446" lon="13.3624924"><ele>355.75</ele></trkpt>
            <trkpt lat="48.3115909" lon="13.3622601"><ele>355.4</ele></trkpt>
            <trkpt lat="48.3117371" lon="13.3620279"><ele>355.06</ele></trkpt>
            <trkpt lat="48.3118834" lon="13.3617956"><ele>354.72</ele></trkpt>
            <trkpt lat="48.3120297" lon="13.3615633"><ele>354.38</ele></trkpt>
            <trkpt lat="48.312176" lon="13.361331"><ele>354.05</ele></trkpt>
            <trkpt lat="48.312697" lon="13.360566"><ele>352.88</ele></trkpt>
            <trkpt lat="48.312795" lon="13.360472"><ele>352.69</ele></trkpt>
            <trkpt lat="48.31288" lon="13.360426"><ele>352.54</ele></trkpt>
            <trkpt lat="48.313059" lon="13.36038"><ele>352.25</ele></trkpt>
            <trkpt lat="48.31375" lon="13.360336"><ele>351.4</ele></trkpt>
            <trkpt lat="48.313854" lon="13.360303"><ele>351.29</ele></trkpt>
            <trkpt lat="48.314068" lon="13.360188"><ele>351.07</ele></trkpt>
            <trkpt lat="48.314259" lon="13.360014"><ele>350.83</ele></trkpt>
            <trkpt lat="48.314348" lon="13.359901"><ele>350.68</ele></trkpt>
            <trkpt lat="48.314585" lon="13.359493"><ele>350.17</ele></trkpt>
            <trkpt lat="48.314667" lon="13.359375"><ele>350</ele></trkpt>
            <trkpt lat="48.314941" lon="13.359075"><ele>349.57</ele></trkpt>
            <trkpt lat="48.315007" lon="13.35898"><ele>349.49</ele></trkpt>
            <trkpt lat="48.315045" lon="13.35888"><ele>349.44</ele></trkpt>
            <trkpt lat="48.315129" lon="13.358832"><ele>349.42</ele></trkpt>
            <trkpt lat="48.315225" lon="13.358821"><ele>349.43</ele></trkpt>
            <trkpt lat="48.315575" lon="13.359326"><ele>349.86</ele></trkpt>
            <trkpt lat="48.315628" lon="13.359367"><ele>349.93</ele></trkpt>
            <trkpt lat="48.316332" lon="13.359246"><ele>350.67</ele></trkpt>
            <trkpt lat="48.31733" lon="13.358862"><ele>351.24</ele></trkpt>
            <trkpt lat="48.318033" lon="13.358634"><ele>350.59</ele></trkpt>
            <trkpt lat="48.318674" lon="13.358383"><ele>349.39</ele></trkpt>
            <trkpt lat="48.318881" lon="13.358325"><ele>349.17</ele></trkpt>
            <trkpt lat="48.318953" lon="13.359374"><ele>349.09</ele></trkpt>
            <trkpt lat="48.318975" lon="13.360019"><ele>349.21</ele></trkpt>
            <trkpt lat="48.31894" lon="13.362335"><ele>350.27</ele></trkpt>
            <trkpt lat="48.318945" lon="13.362597"><ele>350.44</ele></trkpt>
            <trkpt lat="48.318966" lon="13.362807"><ele>350.59</ele></trkpt>
            <trkpt lat="48.319006" lon="13.362984"><ele>350.72</ele></trkpt>
            <trkpt lat="48.319064" lon="13.363135"><ele>350.82</ele></trkpt>
            <trkpt lat="48.319147" lon="13.363278"><ele>350.91</ele></trkpt>
            <trkpt lat="48.319428" lon="13.363578"><ele>351.03</ele></trkpt>
            <trkpt lat="48.3196072" lon="13.3637422"><ele>351.04</ele></trkpt>
            <trkpt lat="48.3197865" lon="13.3639065"><ele>351.03</ele></trkpt>
            <trkpt lat="48.3199657" lon="13.3640707"><ele>351.02</ele></trkpt>
            <trkpt lat="48.3201449" lon="13.3642349"><ele>351.01</ele></trkpt>
            <trkpt lat="48.3203242" lon="13.3643992"><ele>351</ele></trkpt>
            <trkpt lat="48.3205034" lon="13.3645634"><ele>351</ele></trkpt>
            <trkpt lat="48.3206826" lon="13.3647276"><ele>351</ele></trkpt>
            <trkpt lat="48.3208618" lon="13.3648918"><ele>350.99</ele></trkpt>
            <trkpt lat="48.3210411" lon="13.3650561"><ele>350.99</ele></trkpt>
            <trkpt lat="48.3212203" lon="13.3652203"><ele>350.97</ele></trkpt>
            <trkpt lat="48.3213995" lon="13.3653845"><ele>350.94</ele></trkpt>
            <trkpt lat="48.3215788" lon="13.3655488"><ele>350.88</ele></trkpt>
            <trkpt lat="48.321758" lon="13.365713"><ele>350.8</ele></trkpt>
            <trkpt lat="48.322283" lon="13.366088"><ele>350.57</ele></trkpt>
            <trkpt lat="48.322468" lon="13.366267"><ele>350.58</ele></trkpt>
            <trkpt lat="48.322567" lon="13.366425"><ele>350.63</ele></trkpt>
            <trkpt lat="48.322664" lon="13.366652"><ele>350.73</ele></trkpt>
            <trkpt lat="48.3227368" lon="13.3668608"><ele>350.83</ele></trkpt>
            <trkpt lat="48.3228096" lon="13.3670696"><ele>350.95</ele></trkpt>
            <trkpt lat="48.3228824" lon="13.3672784"><ele>351.09</ele></trkpt>
            <trkpt lat="48.3229552" lon="13.3674872"><ele>351.25</ele></trkpt>
            <trkpt lat="48.323028" lon="13.367696"><ele>351.43</ele></trkpt>
            <trkpt lat="48.323153" lon="13.368014"><ele>351.75</ele></trkpt>
            <trkpt lat="48.323243" lon="13.368183"><ele>351.95</ele></trkpt>
            <trkpt lat="48.323336" lon="13.368314"><ele>352.12</ele></trkpt>
            <trkpt lat="48.323458" lon="13.368439"><ele>352.3</ele></trkpt>
            <trkpt lat="48.323941" lon="13.36877"><ele>352.76</ele></trkpt>
            <trkpt lat="48.324085" lon="13.368892"><ele>352.83</ele></trkpt>
            <trkpt lat="48.324202" lon="13.369024"><ele>352.83</ele></trkpt>
            <trkpt lat="48.324299" lon="13.369172"><ele>352.79</ele></trkpt>
            <trkpt lat="48.324375" lon="13.369343"><ele>352.71</ele></trkpt>
            <trkpt lat="48.324495" lon="13.369795"><ele>352.43</ele></trkpt>
            <trkpt lat="48.324539" lon="13.370137"><ele>352.22</ele></trkpt>
            <trkpt lat="48.324625" lon="13.371134"><ele>351.86</ele></trkpt>
            <trkpt lat="48.324661" lon="13.371363"><ele>351.84</ele></trkpt>
            <trkpt lat="48.324746" lon="13.371581"><ele>351.87</ele></trkpt>
            <trkpt lat="48.324921" lon="13.371909"><ele>352.01</ele></trkpt>
            <trkpt lat="48.324952" lon="13.37204"><ele>352.08</ele></trkpt>
            <trkpt lat="48.325031" lon="13.372853"><ele>352.57</ele></trkpt>
            <trkpt lat="48.3250559" lon="13.373185"><ele>352.78</ele></trkpt>
            <trkpt lat="48.3250807" lon="13.373517"><ele>352.98</ele></trkpt>
            <trkpt lat="48.3251056" lon="13.373849"><ele>353.17</ele></trkpt>
            <trkpt lat="48.3251304" lon="13.374181"><ele>353.35</ele></trkpt>
            <trkpt lat="48.3251553" lon="13.374513"><ele>353.53</ele></trkpt>
            <trkpt lat="48.3251801" lon="13.374845"><ele>353.68</ele></trkpt>
            <trkpt lat="48.325205" lon="13.375177"><ele>353.78</ele></trkpt>
            <trkpt lat="48.325244" lon="13.375508"><ele>353.84</ele></trkpt>
            <trkpt lat="48.32528" lon="13.375672"><ele>353.87</ele></trkpt>
            <trkpt lat="48.325336" lon="13.375835"><ele>353.91</ele></trkpt>
            <trkpt lat="48.325589" lon="13.376408"><ele>354.16</ele></trkpt>
            <trkpt lat="48.325759" lon="13.37699"><ele>354.57</ele></trkpt>
            <trkpt lat="48.3259" lon="13.377388"><ele>354.69</ele></trkpt>
            <trkpt lat="48.326323" lon="13.378728"><ele>354.88</ele></trkpt>
            <trkpt lat="48.327153" lon="13.380709"><ele>354.83</ele></trkpt>
            <trkpt lat="48.327265" lon="13.380944"><ele>354.79</ele></trkpt>
            <trkpt lat="48.327347" lon="13.381073"><ele>354.77</ele></trkpt>
            <trkpt lat="48.327541" lon="13.381279"><ele>354.7</ele></trkpt>
            <trkpt lat="48.327904" lon="13.381517"><ele>354.6</ele></trkpt>
            <trkpt lat="48.328193" lon="13.381784"><ele>354.62</ele></trkpt>
            <trkpt lat="48.328586" lon="13.382258"><ele>354.83</ele></trkpt>
            <trkpt lat="48.328807" lon="13.382664"><ele>354.96</ele></trkpt>
            <trkpt lat="48.329678" lon="13.384804"><ele>355.18</ele></trkpt>
            <trkpt lat="48.329802" lon="13.385229"><ele>355.16</ele></trkpt>
            <trkpt lat="48.330048" lon="13.386495"><ele>355.03</ele></trkpt>
            <trkpt lat="48.3302" lon="13.386996"><ele>355.01</ele></trkpt>
            <trkpt lat="48.3303623" lon="13.3874397"><ele>354.99</ele></trkpt>
            <trkpt lat="48.3305247" lon="13.3878833"><ele>354.97</ele></trkpt>
            <trkpt lat="48.330687" lon="13.388327"><ele>354.95</ele></trkpt>
            <trkpt lat="48.3308493" lon="13.3887707"><ele>354.92</ele></trkpt>
            <trkpt lat="48.3310117" lon="13.3892143"><ele>354.89</ele></trkpt>
            <trkpt lat="48.331174" lon="13.389658"><ele>354.84</ele></trkpt>
            <trkpt lat="48.331327" lon="13.389999"><ele>354.77</ele></trkpt>
            <trkpt lat="48.331453" lon="13.390176"><ele>354.71</ele></trkpt>
            <trkpt lat="48.331587" lon="13.390324"><ele>354.63</ele></trkpt>
            <trkpt lat="48.332346" lon="13.391108"><ele>353.99</ele></trkpt>
            <trkpt lat="48.332863" lon="13.391617"><ele>353.52</ele></trkpt>
            <trkpt lat="48.333062" lon="13.391775"><ele>353.34</ele></trkpt>
            <trkpt lat="48.333264" lon="13.391896"><ele>353.16</ele></trkpt>
            <trkpt lat="48.3335408" lon="13.3920092"><ele>352.92</ele></trkpt>
            <trkpt lat="48.3338177" lon="13.3921223"><ele>352.69</ele></trkpt>
            <trkpt lat="48.3340945" lon="13.3922355"><ele>352.48</ele></trkpt>
            <trkpt lat="48.3343713" lon="13.3923487"><ele>352.27</ele></trkpt>
            <trkpt lat="48.3346482" lon="13.3924618"><ele>352.08</ele></trkpt>
            <trkpt lat="48.334925" lon="13.392575"><ele>351.88</ele></trkpt>
            <trkpt lat="48.335108" lon="13.392675"><ele>351.73</ele></trkpt>
            <trkpt lat="48.335368" lon="13.392871"><ele>351.48</ele></trkpt>
            <trkpt lat="48.335966" lon="13.393407"><ele>350.73</ele></trkpt>
            <trkpt lat="48.336112" lon="13.393572"><ele>350.55</ele></trkpt>
            <trkpt lat="48.336572" lon="13.394335"><ele>350.14</ele></trkpt>
            <trkpt lat="48.336821" lon="13.394707"><ele>350.26</ele></trkpt>
            <trkpt lat="48.337076" lon="13.394567"><ele>350.57</ele></trkpt>
            <trkpt lat="48.337186" lon="13.394443"><ele>350.76</ele></trkpt>
            <trkpt lat="48.337282" lon="13.394301"><ele>350.96</ele></trkpt>
            <trkpt lat="48.337538" lon="13.393801"><ele>351.53</ele></trkpt>
            <trkpt lat="48.337633" lon="13.393655"><ele>351.68</ele></trkpt>
            <trkpt lat="48.338285" lon="13.392903"><ele>352.22</ele></trkpt>
            <trkpt lat="48.33849" lon="13.392592"><ele>352.25</ele></trkpt>
            <trkpt lat="48.33886" lon="13.391874"><ele>351.97</ele></trkpt>
            <trkpt lat="48.339482" lon="13.390795"><ele>351.44</ele></trkpt>
            <trkpt lat="48.339754" lon="13.390223"><ele>351.15</ele></trkpt>
            <trkpt lat="48.340147" lon="13.389226"><ele>350.66</ele></trkpt>
            <trkpt lat="48.340281" lon="13.388845"><ele>350.47</ele></trkpt>
            <trkpt lat="48.340422" lon="13.388373"><ele>350.29</ele></trkpt>
            <trkpt lat="48.3409" lon="13.386578"><ele>350.04</ele></trkpt>
            <trkpt lat="48.341097" lon="13.385402"><ele>350.05</ele></trkpt>
            <trkpt lat="48.341237" lon="13.384664"><ele>350.16</ele></trkpt>
            <trkpt lat="48.341302" lon="13.384348"><ele>350.25</ele></trkpt>
            <trkpt lat="48.341342" lon="13.384256"><ele>350.28</ele></trkpt>
            <trkpt lat="48.34135" lon="13.38375"><ele>350.46</ele></trkpt>
            <trkpt lat="48.341328" lon="13.381051"><ele>351.1</ele></trkpt>
            <trkpt lat="48.341361" lon="13.380345"><ele>351.19</ele></trkpt>
            <trkpt lat="48.341497" lon="13.378889"><ele>350.85</ele></trkpt>
            <trkpt lat="48.34154" lon="13.377449"><ele>350.25</ele></trkpt>
            <trkpt lat="48.341537" lon="13.377001"><ele>350.04</ele></trkpt>
            <trkpt lat="48.341446" lon="13.375493"><ele>349.33</ele></trkpt>
            <trkpt lat="48.341454" lon="13.375368"><ele>349.27</ele></trkpt>
            <trkpt lat="48.34137" lon="13.375136"><ele>349.13</ele></trkpt>
            <trkpt lat="48.341225" lon="13.374826"><ele>348.95</ele></trkpt>
            <trkpt lat="48.340642" lon="13.373341"><ele>348.49</ele></trkpt>
            <trkpt lat="48.340306" lon="13.372692"><ele>348.7</ele></trkpt>
            <trkpt lat="48.339809" lon="13.371858"><ele>349.25</ele></trkpt>
            <trkpt lat="48.3396124" lon="13.3715389"><ele>349.4</ele></trkpt>
            <trkpt lat="48.3394159" lon="13.3712199"><ele>349.48</ele></trkpt>
            <trkpt lat="48.3392193" lon="13.3709008"><ele>349.54</ele></trkpt>
            <trkpt lat="48.3390227" lon="13.3705817"><ele>349.58</ele></trkpt>
            <trkpt lat="48.3388261" lon="13.3702626"><ele>349.63</ele></trkpt>
            <trkpt lat="48.3386296" lon="13.3699436"><ele>349.67</ele></trkpt>
            <trkpt lat="48.338433" lon="13.3696245"><ele>349.71</ele></trkpt>
            <trkpt lat="48.3382364" lon="13.3693054"><ele>349.75</ele></trkpt>
            <trkpt lat="48.3380399" lon="13.3689864"><ele>349.79</ele></trkpt>
            <trkpt lat="48.3378433" lon="13.3686673"><ele>349.83</ele></trkpt>
            <trkpt lat="48.3376467" lon="13.3683482"><ele>349.87</ele></trkpt>
            <trkpt lat="48.3374501" lon="13.3680291"><ele>349.91</ele></trkpt>
            <trkpt lat="48.3372536" lon="13.3677101"><ele>349.94</ele></trkpt>
            <trkpt lat="48.337057" lon="13.367391"><ele>349.96</ele></trkpt>
            <trkpt lat="48.336853" lon="13.367135"><ele>349.96</ele></trkpt>
            <trkpt lat="48.336647" lon="13.366968"><ele>349.93</ele></trkpt>
            <trkpt lat="48.336534" lon="13.366585"><ele>349.85</ele></trkpt>
            <trkpt lat="48.336487" lon="13.366474"><ele>349.82</ele></trkpt>
            <trkpt lat="48.3363323" lon="13.366222"><ele>349.71</ele></trkpt>
            <trkpt lat="48.3361777" lon="13.36597"><ele>349.58</ele></trkpt>
            <trkpt lat="48.336023" lon="13.365718"><ele>349.44</ele></trkpt>
            <trkpt lat="48.3358683" lon="13.365466"><ele>349.28</ele></trkpt>
            <trkpt lat="48.3357137" lon="13.365214"><ele>349.11</ele></trkpt>
            <trkpt lat="48.335559" lon="13.364962"><ele>348.89</ele></trkpt>
            <trkpt lat="48.335623" lon="13.364868"><ele>348.79</ele></trkpt>
            <trkpt lat="48.335818" lon="13.364492"><ele>348.45</ele></trkpt>
            <trkpt lat="48.335857" lon="13.364319"><ele>348.34</ele></trkpt>
            <trkpt lat="48.335861" lon="13.363992"><ele>348.08</ele></trkpt>
            <trkpt lat="48.335782" lon="13.363416"><ele>347.27</ele></trkpt>
            <trkpt lat="48.335776" lon="13.363242"><ele>346.9</ele></trkpt>
            <trkpt lat="48.335794" lon="13.363142"><ele>346.64</ele></trkpt>
            <trkpt lat="48.335944" lon="13.362897"><ele>345.62</ele></trkpt>
            <trkpt lat="48.336127" lon="13.362694"><ele>344.18</ele></trkpt>
            <trkpt lat="48.336258" lon="13.3625"><ele>342.64</ele></trkpt>
            <trkpt lat="48.336516" lon="13.361944"><ele>338.52</ele></trkpt>
            <trkpt lat="48.336688" lon="13.361715"><ele>337.19</ele></trkpt>
            <trkpt lat="48.336784" lon="13.361557"><ele>336.96</ele></trkpt>
            <trkpt lat="48.336885" lon="13.361138"><ele>338.05</ele></trkpt>
            <trkpt lat="48.336902" lon="13.360982"><ele>338.89</ele></trkpt>
            <trkpt lat="48.336894" lon="13.360908"><ele>339.36</ele></trkpt>
            <trkpt lat="48.336839" lon="13.360774"><ele>340.5</ele></trkpt>
            <trkpt lat="48.336628" lon="13.360473"><ele>344.06</ele></trkpt>
        </trkseg>
    </trk>
</gpx>
