<?xml version="1.0" encoding="UTF-8"?>
<gpx version="1.1" creator="BikeTerra" xmlns="http://www.topografix.com/GPX/1/1" xmlns:biketerra="https://biketerra.com/xmlns/gpx/1">
    <metadata>
        <name>Renewi Stage 2 Short</name>
        <extensions>
            <biketerra:version>2.0.0</biketerra:version>
            <biketerra:isLoop>false</biketerra:isLoop>
            <biketerra:defaultSurface>asphalt</biketerra:defaultSurface>
        </extensions>
    </metadata>
    <trk>
        <name>Renewi Stage 2 Short</name>
        <trkseg>
            <trkpt lat="50.769325" lon="3.886487"><ele>62.77</ele></trkpt>
            <trkpt lat="50.769606" lon="3.88643"><ele>62.08</ele></trkpt>
            <trkpt lat="50.770003" lon="3.886351"><ele>60.57</ele></trkpt>
            <trkpt lat="50.770558" lon="3.886343"><ele>57.92</ele></trkpt>
            <trkpt lat="50.770728" lon="3.886339"><ele>57.25</ele></trkpt>
            <trkpt lat="50.770849" lon="3.886313"><ele>56.96</ele></trkpt>
            <trkpt lat="50.770944" lon="3.886264"><ele>56.79</ele></trkpt>
            <trkpt lat="50.771047" lon="3.886137"><ele>56.46</ele></trkpt>
            <trkpt lat="50.771095" lon="3.886005"><ele>56.08</ele></trkpt>
            <trkpt lat="50.771111" lon="3.885902"><ele>55.79</ele></trkpt>
            <trkpt lat="50.771096" lon="3.885682"><ele>55.16</ele></trkpt>
            <trkpt lat="50.771049" lon="3.885551"><ele>54.75</ele></trkpt>
            <trkpt lat="50.770994" lon="3.885466"><ele>54.42</ele></trkpt>
            <trkpt lat="50.770919" lon="3.885403"><ele>54.06</ele></trkpt>
            <trkpt lat="50.770836" lon="3.885374"><ele>53.72</ele></trkpt>
            <trkpt lat="50.770647" lon="3.885386"><ele>53.12</ele></trkpt>
            <trkpt lat="50.770275" lon="3.885451"><ele>52.28</ele></trkpt>
            <trkpt lat="50.769902" lon="3.885515"><ele>51.45</ele></trkpt>
            <trkpt lat="50.768528" lon="3.885725"><ele>48.79</ele></trkpt>
            <trkpt lat="50.768162" lon="3.885758"><ele>48.25</ele></trkpt>
            <trkpt lat="50.767856" lon="3.885706"><ele>47.4</ele></trkpt>
            <trkpt lat="50.767461" lon="3.885535"><ele>46.14</ele></trkpt>
            <trkpt lat="50.767115" lon="3.885275"><ele>45.4</ele></trkpt>
            <trkpt lat="50.766907" lon="3.885098"><ele>44.79</ele></trkpt>
            <trkpt lat="50.7667" lon="3.88492"><ele>44.19</ele></trkpt>
            <trkpt lat="50.766364" lon="3.884632"><ele>43.45</ele></trkpt>
            <trkpt lat="50.766282" lon="3.884561"><ele>43.18</ele></trkpt>
            <trkpt lat="50.76602" lon="3.884288"><ele>41.84</ele></trkpt>
            <trkpt lat="50.765834" lon="3.884013"><ele>41.02</ele></trkpt>
            <trkpt lat="50.765649" lon="3.883737"><ele>40.19</ele></trkpt>
            <trkpt lat="50.765467" lon="3.883455"><ele>39.07</ele></trkpt>
            <trkpt lat="50.765196" lon="3.883031"><ele>37.4</ele></trkpt>
            <trkpt lat="50.76511" lon="3.882898"><ele>36.95</ele></trkpt>
            <trkpt lat="50.764855" lon="3.882499"><ele>35.59</ele></trkpt>
            <trkpt lat="50.764738" lon="3.882326"><ele>34.78</ele></trkpt>
            <trkpt lat="50.764638" lon="3.882235"><ele>34.07</ele></trkpt>
            <trkpt lat="50.764535" lon="3.88218"><ele>33.48</ele></trkpt>
            <trkpt lat="50.764259" lon="3.882049"><ele>32.22</ele></trkpt>
            <trkpt lat="50.764075" lon="3.881959"><ele>31.55</ele></trkpt>
            <trkpt lat="50.763999" lon="3.8819"><ele>31.26</ele></trkpt>
            <trkpt lat="50.763903" lon="3.881786"><ele>30.84</ele></trkpt>
            <trkpt lat="50.763852" lon="3.88168"><ele>30.48</ele></trkpt>
            <trkpt lat="50.763836" lon="3.881537"><ele>30.05</ele></trkpt>
            <trkpt lat="50.763857" lon="3.881403"><ele>29.64</ele></trkpt>
            <trkpt lat="50.763911" lon="3.881264"><ele>29.23</ele></trkpt>
            <trkpt lat="50.763978" lon="3.881165"><ele>28.88</ele></trkpt>
            <trkpt lat="50.764061" lon="3.881094"><ele>28.49</ele></trkpt>
            <trkpt lat="50.7642" lon="3.881057"><ele>27.85</ele></trkpt>
            <trkpt lat="50.764306" lon="3.881106"><ele>27.39</ele></trkpt>
            <trkpt lat="50.764492" lon="3.881274"><ele>26.68</ele></trkpt>
            <trkpt lat="50.764622" lon="3.881335"><ele>26.36</ele></trkpt>
            <trkpt lat="50.764738" lon="3.881348"><ele>26.14</ele></trkpt>
            <trkpt lat="50.764845" lon="3.88133"><ele>25.95</ele></trkpt>
            <trkpt lat="50.765031" lon="3.881232"><ele>25.45</ele></trkpt>
            <trkpt lat="50.765115" lon="3.881134"><ele>25.09</ele></trkpt>
            <trkpt lat="50.765362" lon="3.880685"><ele>23.73</ele></trkpt>
            <trkpt lat="50.76556" lon="3.880381"><ele>23.16</ele></trkpt>
            <trkpt lat="50.765666" lon="3.880262"><ele>23.05</ele></trkpt>
            <trkpt lat="50.765981" lon="3.879903"><ele>22.73</ele></trkpt>
            <trkpt lat="50.766297" lon="3.879545"><ele>22.41</ele></trkpt>
            <trkpt lat="50.766413" lon="3.879439"><ele>22.17</ele></trkpt>
            <trkpt lat="50.766761" lon="3.879124"><ele>21.45</ele></trkpt>
            <trkpt lat="50.767031" lon="3.878967"><ele>21.13</ele></trkpt>
            <trkpt lat="50.767257" lon="3.8789"><ele>20.77</ele></trkpt>
            <trkpt lat="50.76757" lon="3.878865"><ele>20.24</ele></trkpt>
            <trkpt lat="50.767831" lon="3.878922"><ele>19.86</ele></trkpt>
            <trkpt lat="50.768222" lon="3.879009"><ele>19.29</ele></trkpt>
            <trkpt lat="50.768352" lon="3.879037"><ele>19.1</ele></trkpt>
            <trkpt lat="50.768507" lon="3.879033"><ele>18.85</ele></trkpt>
            <trkpt lat="50.768653" lon="3.878995"><ele>18.65</ele></trkpt>
            <trkpt lat="50.768783" lon="3.878931"><ele>18.49</ele></trkpt>
            <trkpt lat="50.768907" lon="3.878838"><ele>18.36</ele></trkpt>
            <trkpt lat="50.769052" lon="3.878679"><ele>18.21</ele></trkpt>
            <trkpt lat="50.76918" lon="3.878482"><ele>18.09</ele></trkpt>
            <trkpt lat="50.769454" lon="3.877796"><ele>17.71</ele></trkpt>
            <trkpt lat="50.769595" lon="3.877402"><ele>17.94</ele></trkpt>
            <trkpt lat="50.769766" lon="3.876901"><ele>18.64</ele></trkpt>
            <trkpt lat="50.769879" lon="3.876567"><ele>19.11</ele></trkpt>
            <trkpt lat="50.769927" lon="3.876493"><ele>19.22</ele></trkpt>
            <trkpt lat="50.769993" lon="3.876509"><ele>19.31</ele></trkpt>
            <trkpt lat="50.770188" lon="3.876662"><ele>19.52</ele></trkpt>
            <trkpt lat="50.770382" lon="3.876816"><ele>19.73</ele></trkpt>
            <trkpt lat="50.770854" lon="3.87718"><ele>19.74</ele></trkpt>
            <trkpt lat="50.771226" lon="3.877437"><ele>19.5</ele></trkpt>
            <trkpt lat="50.771656" lon="3.877676"><ele>19.16</ele></trkpt>
            <trkpt lat="50.771722" lon="3.877739"><ele>19.07</ele></trkpt>
            <trkpt lat="50.771738" lon="3.8778"><ele>18.99</ele></trkpt>
            <trkpt lat="50.771733" lon="3.877964"><ele>18.78</ele></trkpt>
            <trkpt lat="50.771717" lon="3.878182"><ele>18.46</ele></trkpt>
            <trkpt lat="50.771671" lon="3.878834"><ele>17.48</ele></trkpt>
            <trkpt lat="50.771648" lon="3.879264"><ele>17.23</ele></trkpt>
            <trkpt lat="50.771618" lon="3.879835"><ele>17.39</ele></trkpt>
            <trkpt lat="50.771602" lon="3.880015"><ele>17.54</ele></trkpt>
            <trkpt lat="50.771557" lon="3.880557"><ele>18.01</ele></trkpt>
            <trkpt lat="50.771532" lon="3.880845"><ele>18.46</ele></trkpt>
            <trkpt lat="50.771522" lon="3.880992"><ele>18.92</ele></trkpt>
            <trkpt lat="50.771526" lon="3.881263"><ele>20.36</ele></trkpt>
            <trkpt lat="50.771532" lon="3.881536"><ele>22.21</ele></trkpt>
            <trkpt lat="50.771538" lon="3.881906"><ele>25</ele></trkpt>
            <trkpt lat="50.771514" lon="3.882207"><ele>27.13</ele></trkpt>
            <trkpt lat="50.771447" lon="3.882443"><ele>28.24</ele></trkpt>
            <trkpt lat="50.771316" lon="3.882835"><ele>29.35</ele></trkpt>
            <trkpt lat="50.771316" lon="3.882942"><ele>29.59</ele></trkpt>
            <trkpt lat="50.77135" lon="3.882994"><ele>29.76</ele></trkpt>
            <trkpt lat="50.771595" lon="3.883187"><ele>31.01</ele></trkpt>
            <trkpt lat="50.771648" lon="3.883253"><ele>31.48</ele></trkpt>
            <trkpt lat="50.77167" lon="3.883322"><ele>31.88</ele></trkpt>
            <trkpt lat="50.771665" lon="3.883619"><ele>33.73</ele></trkpt>
            <trkpt lat="50.771645" lon="3.884048"><ele>36.76</ele></trkpt>
            <trkpt lat="50.771626" lon="3.884477"><ele>39.8</ele></trkpt>
            <trkpt lat="50.771654" lon="3.884585"><ele>40.56</ele></trkpt>
            <trkpt lat="50.771715" lon="3.884631"><ele>41.13</ele></trkpt>
            <trkpt lat="50.771859" lon="3.88469"><ele>42.26</ele></trkpt>
            <trkpt lat="50.772225" lon="3.884879"><ele>44.76</ele></trkpt>
            <trkpt lat="50.772347" lon="3.884941"><ele>45.6</ele></trkpt>
            <trkpt lat="50.772476" lon="3.88502"><ele>46.68</ele></trkpt>
            <trkpt lat="50.772522" lon="3.885092"><ele>47.31</ele></trkpt>
            <trkpt lat="50.772587" lon="3.885293"><ele>48.72</ele></trkpt>
            <trkpt lat="50.772637" lon="3.885379"><ele>49.31</ele></trkpt>
            <trkpt lat="50.772913" lon="3.885722"><ele>51.19</ele></trkpt>
            <trkpt lat="50.77305" lon="3.885891"><ele>52.35</ele></trkpt>
            <trkpt lat="50.773116" lon="3.885971"><ele>53.12</ele></trkpt>
            <trkpt lat="50.773321" lon="3.886222"><ele>55.99</ele></trkpt>
            <trkpt lat="50.773414" lon="3.886334"><ele>57.08</ele></trkpt>
            <trkpt lat="50.773567" lon="3.886448"><ele>58.12</ele></trkpt>
            <trkpt lat="50.77375" lon="3.886658"><ele>59.2</ele></trkpt>
            <trkpt lat="50.7738322" lon="3.8867676"><ele>59.94</ele></trkpt>
            <trkpt lat="50.7738254" lon="3.8869071"><ele>60.59</ele></trkpt>
            <trkpt lat="50.773681" lon="3.887042"><ele>62.08</ele></trkpt>
            <trkpt lat="50.773576" lon="3.887178"><ele>62.87</ele></trkpt>
            <trkpt lat="50.773502" lon="3.88732"><ele>63.4</ele></trkpt>
            <trkpt lat="50.773442" lon="3.88752"><ele>64.22</ele></trkpt>
            <trkpt lat="50.773362" lon="3.88765"><ele>65.24</ele></trkpt>
            <trkpt lat="50.773165" lon="3.887818"><ele>67.79</ele></trkpt>
            <trkpt lat="50.773059" lon="3.887885"><ele>68.93</ele></trkpt>
            <trkpt lat="50.772741" lon="3.887877"><ele>71.67</ele></trkpt>
            <trkpt lat="50.772617" lon="3.887899"><ele>73.02</ele></trkpt>
            <trkpt lat="50.772562" lon="3.887961"><ele>73.87</ele></trkpt>
            <trkpt lat="50.772418" lon="3.888282"><ele>77.28</ele></trkpt>
            <trkpt lat="50.77235" lon="3.88838"><ele>78.45</ele></trkpt>
            <trkpt lat="50.77228" lon="3.888385"><ele>79.31</ele></trkpt>
            <trkpt lat="50.772005" lon="3.888229"><ele>82.72</ele></trkpt>
            <trkpt lat="50.771772" lon="3.888132"><ele>84.93</ele></trkpt>
            <trkpt lat="50.771683" lon="3.888132"><ele>85.89</ele></trkpt>
            <trkpt lat="50.771629" lon="3.888164"><ele>86.61</ele></trkpt>
            <trkpt lat="50.771593" lon="3.888224"><ele>87.35</ele></trkpt>
            <trkpt lat="50.77156" lon="3.888337"><ele>88.6</ele></trkpt>
            <trkpt lat="50.771477" lon="3.888657"><ele>92.43</ele></trkpt>
            <trkpt lat="50.771447" lon="3.888842"><ele>94.35</ele></trkpt>
            <trkpt lat="50.771481" lon="3.888948"><ele>95.47</ele></trkpt>
            <trkpt lat="50.771586" lon="3.889032"><ele>97.12</ele></trkpt>
            <trkpt lat="50.771739" lon="3.889182"><ele>98.91</ele></trkpt>
            <trkpt lat="50.771847" lon="3.889322"><ele>100.07</ele></trkpt>
            <trkpt lat="50.772106" lon="3.88952"><ele>102.01</ele></trkpt>
            <trkpt lat="50.772116" lon="3.889607"><ele>102.4</ele></trkpt>
            <trkpt lat="50.772067" lon="3.889783"><ele>103.51</ele></trkpt>
            <trkpt lat="50.772068" lon="3.889906"><ele>104.35</ele></trkpt>
            <trkpt lat="50.772097" lon="3.889979"><ele>104.98</ele></trkpt>
            <trkpt lat="50.772201" lon="3.890092"><ele>106.37</ele></trkpt>
            <trkpt lat="50.772243" lon="3.8902"><ele>107.05</ele></trkpt>
            <trkpt lat="50.772298" lon="3.890448"><ele>107.71</ele></trkpt>
            <trkpt lat="50.772336" lon="3.89062"><ele>107.71</ele></trkpt>
            <trkpt lat="50.772373" lon="3.890727"><ele>107.52</ele></trkpt>
            <trkpt lat="50.772446" lon="3.890837"><ele>107.03</ele></trkpt>
            <trkpt lat="50.772541" lon="3.890947"><ele>106.2</ele></trkpt>
            <trkpt lat="50.772603" lon="3.890997"><ele>105.63</ele></trkpt>
            <trkpt lat="50.772679" lon="3.891004"><ele>105.02</ele></trkpt>
            <trkpt lat="50.772755" lon="3.890961"><ele>104.45</ele></trkpt>
            <trkpt lat="50.772828" lon="3.890886"><ele>103.96</ele></trkpt>
            <trkpt lat="50.773058" lon="3.890525"><ele>102.47</ele></trkpt>
            <trkpt lat="50.77312" lon="3.89052"><ele>102.21</ele></trkpt>
            <trkpt lat="50.773272" lon="3.890877"><ele>100.61</ele></trkpt>
            <trkpt lat="50.773438" lon="3.891154"><ele>99.25</ele></trkpt>
            <trkpt lat="50.77354" lon="3.89132"><ele>98.26</ele></trkpt>
            <trkpt lat="50.773816" lon="3.891649"><ele>95.28</ele></trkpt>
            <trkpt lat="50.774158" lon="3.891944"><ele>90.74</ele></trkpt>
            <trkpt lat="50.774192" lon="3.892017"><ele>90.26</ele></trkpt>
            <trkpt lat="50.7742" lon="3.89221"><ele>89.6</ele></trkpt>
            <trkpt lat="50.7742" lon="3.892354"><ele>89.34</ele></trkpt>
            <trkpt lat="50.774203" lon="3.892948"><ele>88.83</ele></trkpt>
            <trkpt lat="50.774186" lon="3.893036"><ele>88.81</ele></trkpt>
            <trkpt lat="50.774016" lon="3.893206"><ele>88.88</ele></trkpt>
            <trkpt lat="50.773516" lon="3.893728"><ele>89.56</ele></trkpt>
            <trkpt lat="50.773436" lon="3.89381"><ele>89.53</ele></trkpt>
            <trkpt lat="50.77335" lon="3.893872"><ele>89.38</ele></trkpt>
            <trkpt lat="50.77318" lon="3.893963"><ele>88.81</ele></trkpt>
            <trkpt lat="50.772956" lon="3.894081"><ele>87.7</ele></trkpt>
            <trkpt lat="50.772782" lon="3.89416"><ele>86.67</ele></trkpt>
            <trkpt lat="50.772362" lon="3.894357"><ele>83.73</ele></trkpt>
            <trkpt lat="50.77215" lon="3.894555"><ele>81.73</ele></trkpt>
            <trkpt lat="50.771941" lon="3.894795"><ele>79.36</ele></trkpt>
            <trkpt lat="50.771731" lon="3.895034"><ele>77</ele></trkpt>
            <trkpt lat="50.771627" lon="3.895154"><ele>75.81</ele></trkpt>
            <trkpt lat="50.77148" lon="3.895322"><ele>74.44</ele></trkpt>
            <trkpt lat="50.771323" lon="3.895502"><ele>73.57</ele></trkpt>
            <trkpt lat="50.770934" lon="3.895948"><ele>72.14</ele></trkpt>
            <trkpt lat="50.770778" lon="3.896127"><ele>71.33</ele></trkpt>
            <trkpt lat="50.770623" lon="3.896305"><ele>70.04</ele></trkpt>
            <trkpt lat="50.770233" lon="3.896752"><ele>66.21</ele></trkpt>
            <trkpt lat="50.770078" lon="3.89693"><ele>64.83</ele></trkpt>
            <trkpt lat="50.769922" lon="3.897109"><ele>63.78</ele></trkpt>
            <trkpt lat="50.769377" lon="3.897734"><ele>60.61</ele></trkpt>
            <trkpt lat="50.768832" lon="3.898359"><ele>56.83</ele></trkpt>
            <trkpt lat="50.768598" lon="3.898626"><ele>55.5</ele></trkpt>
            <trkpt lat="50.768298" lon="3.898971"><ele>54.46</ele></trkpt>
            <trkpt lat="50.768097" lon="3.8992"><ele>53.76</ele></trkpt>
            <trkpt lat="50.767897" lon="3.89943"><ele>53.06</ele></trkpt>
            <trkpt lat="50.767677" lon="3.899683"><ele>52.43</ele></trkpt>
            <trkpt lat="50.767566" lon="3.899809"><ele>52.12</ele></trkpt>
            <trkpt lat="50.767346" lon="3.900062"><ele>51.49</ele></trkpt>
            <trkpt lat="50.767125" lon="3.900315"><ele>50.87</ele></trkpt>
            <trkpt lat="50.766794" lon="3.900694"><ele>49.93</ele></trkpt>
            <trkpt lat="50.766573" lon="3.900947"><ele>49.3</ele></trkpt>
            <trkpt lat="50.765973" lon="3.901636"><ele>48.51</ele></trkpt>
            <trkpt lat="50.765772" lon="3.901865"><ele>48.18</ele></trkpt>
            <trkpt lat="50.765172" lon="3.902554"><ele>46.98</ele></trkpt>
            <trkpt lat="50.764756" lon="3.90303"><ele>46.32</ele></trkpt>
            <trkpt lat="50.764549" lon="3.903268"><ele>46</ele></trkpt>
            <trkpt lat="50.764326" lon="3.903522"><ele>45.71</ele></trkpt>
            <trkpt lat="50.764104" lon="3.903777"><ele>45.42</ele></trkpt>
            <trkpt lat="50.763992" lon="3.903904"><ele>45.28</ele></trkpt>
            <trkpt lat="50.76377" lon="3.904159"><ele>44.99</ele></trkpt>
            <trkpt lat="50.763432" lon="3.904494"><ele>44.53</ele></trkpt>
            <trkpt lat="50.763293" lon="3.904585"><ele>44.38</ele></trkpt>
            <trkpt lat="50.763266" lon="3.904676"><ele>44.32</ele></trkpt>
            <trkpt lat="50.763296" lon="3.904764"><ele>44.23</ele></trkpt>
            <trkpt lat="50.763877" lon="3.905749"><ele>42.12</ele></trkpt>
            <trkpt lat="50.764205" lon="3.906313"><ele>41.27</ele></trkpt>
            <trkpt lat="50.764452" lon="3.906736"><ele>40.64</ele></trkpt>
            <trkpt lat="50.764617" lon="3.907018"><ele>40.47</ele></trkpt>
            <trkpt lat="50.764863" lon="3.907442"><ele>40.21</ele></trkpt>
            <trkpt lat="50.765028" lon="3.907724"><ele>40.03</ele></trkpt>
            <trkpt lat="50.765193" lon="3.908006"><ele>40.03</ele></trkpt>
            <trkpt lat="50.765439" lon="3.90843"><ele>40.03</ele></trkpt>
            <trkpt lat="50.765604" lon="3.908712"><ele>40.02</ele></trkpt>
            <trkpt lat="50.765769" lon="3.908994"><ele>40.31</ele></trkpt>
            <trkpt lat="50.766015" lon="3.909418"><ele>40.74</ele></trkpt>
            <trkpt lat="50.76618" lon="3.9097"><ele>41.03</ele></trkpt>
            <trkpt lat="50.766344" lon="3.909988"><ele>41.67</ele></trkpt>
            <trkpt lat="50.766591" lon="3.91042"><ele>42.63</ele></trkpt>
            <trkpt lat="50.766846" lon="3.910865"><ele>43.56</ele></trkpt>
            <trkpt lat="50.766935" lon="3.911022"><ele>43.84</ele></trkpt>
            <trkpt lat="50.767114" lon="3.911335"><ele>44.41</ele></trkpt>
            <trkpt lat="50.767294" lon="3.911649"><ele>44.98</ele></trkpt>
            <trkpt lat="50.767473" lon="3.911962"><ele>45.55</ele></trkpt>
            <trkpt lat="50.767652" lon="3.912276"><ele>46.13</ele></trkpt>
            <trkpt lat="50.767844" lon="3.912612"><ele>46.49</ele></trkpt>
            <trkpt lat="50.768121" lon="3.913097"><ele>46.78</ele></trkpt>
            <trkpt lat="50.768398" lon="3.913581"><ele>47.08</ele></trkpt>
            <trkpt lat="50.768675" lon="3.914066"><ele>47.37</ele></trkpt>
            <trkpt lat="50.768917" lon="3.914503"><ele>47.89</ele></trkpt>
            <trkpt lat="50.768967" lon="3.914671"><ele>47.89</ele></trkpt>
            <trkpt lat="50.768971" lon="3.91483"><ele>47.79</ele></trkpt>
            <trkpt lat="50.768937" lon="3.915246"><ele>47.27</ele></trkpt>
            <trkpt lat="50.768919" lon="3.915454"><ele>47.01</ele></trkpt>
            <trkpt lat="50.768885" lon="3.915869"><ele>46.49</ele></trkpt>
            <trkpt lat="50.7688" lon="3.916941"><ele>44.81</ele></trkpt>
            <trkpt lat="50.768833" lon="3.917043"><ele>44.6</ele></trkpt>
            <trkpt lat="50.769053" lon="3.917281"><ele>43.73</ele></trkpt>
            <trkpt lat="50.769072" lon="3.91734"><ele>43.58</ele></trkpt>
            <trkpt lat="50.769077" lon="3.917461"><ele>43.27</ele></trkpt>
            <trkpt lat="50.769016" lon="3.917726"><ele>42.48</ele></trkpt>
            <trkpt lat="50.768888" lon="3.918001"><ele>41.48</ele></trkpt>
            <trkpt lat="50.768626" lon="3.91845"><ele>40.14</ele></trkpt>
            <trkpt lat="50.76845" lon="3.918749"><ele>39.25</ele></trkpt>
            <trkpt lat="50.768363" lon="3.918899"><ele>38.8</ele></trkpt>
            <trkpt lat="50.768293" lon="3.919092"><ele>38.31</ele></trkpt>
            <trkpt lat="50.768203" lon="3.9195"><ele>37.81</ele></trkpt>
            <trkpt lat="50.768149" lon="3.91965"><ele>37.56</ele></trkpt>
            <trkpt lat="50.767968" lon="3.919954"><ele>37.03</ele></trkpt>
            <trkpt lat="50.767878" lon="3.92009"><ele>36.87</ele></trkpt>
            <trkpt lat="50.767696" lon="3.920361"><ele>36.55</ele></trkpt>
            <trkpt lat="50.767515" lon="3.920633"><ele>36.24</ele></trkpt>
            <trkpt lat="50.767423" lon="3.920808"><ele>36.03</ele></trkpt>
            <trkpt lat="50.767397" lon="3.920902"><ele>35.99</ele></trkpt>
            <trkpt lat="50.767396" lon="3.920969"><ele>35.98</ele></trkpt>
            <trkpt lat="50.767445" lon="3.921254"><ele>36.11</ele></trkpt>
            <trkpt lat="50.76755" lon="3.921822"><ele>36.62</ele></trkpt>
            <trkpt lat="50.767619" lon="3.922201"><ele>36.96</ele></trkpt>
            <trkpt lat="50.767687" lon="3.922575"><ele>37.9</ele></trkpt>
            <trkpt lat="50.76772" lon="3.922763"><ele>38.37</ele></trkpt>
            <trkpt lat="50.767788" lon="3.923137"><ele>39.31</ele></trkpt>
            <trkpt lat="50.767855" lon="3.923511"><ele>40.25</ele></trkpt>
            <trkpt lat="50.767856" lon="3.923899"><ele>40.99</ele></trkpt>
            <trkpt lat="50.767819" lon="3.924259"><ele>41.54</ele></trkpt>
            <trkpt lat="50.767781" lon="3.924619"><ele>42.09</ele></trkpt>
            <trkpt lat="50.767731" lon="3.925499"><ele>43.97</ele></trkpt>
            <trkpt lat="50.767771" lon="3.926301"><ele>46.71</ele></trkpt>
            <trkpt lat="50.76779" lon="3.926702"><ele>48.08</ele></trkpt>
            <trkpt lat="50.767801" lon="3.926912"><ele>48.64</ele></trkpt>
            <trkpt lat="50.767832" lon="3.927543"><ele>50.32</ele></trkpt>
            <trkpt lat="50.767843" lon="3.927753"><ele>50.88</ele></trkpt>
            <trkpt lat="50.767863" lon="3.928169"><ele>51.89</ele></trkpt>
            <trkpt lat="50.767874" lon="3.928377"><ele>52.39</ele></trkpt>
            <trkpt lat="50.767894" lon="3.928793"><ele>53.4</ele></trkpt>
            <trkpt lat="50.767915" lon="3.929209"><ele>54.41</ele></trkpt>
            <trkpt lat="50.767926" lon="3.929417"><ele>54.91</ele></trkpt>
            <trkpt lat="50.767946" lon="3.929833"><ele>55.92</ele></trkpt>
            <trkpt lat="50.767978" lon="3.930457"><ele>57.43</ele></trkpt>
            <trkpt lat="50.768023" lon="3.931359"><ele>59.3</ele></trkpt>
            <trkpt lat="50.768083" lon="3.932576"><ele>61.59</ele></trkpt>
            <trkpt lat="50.768102" lon="3.932774"><ele>62.17</ele></trkpt>
            <trkpt lat="50.768136" lon="3.932975"><ele>62.89</ele></trkpt>
            <trkpt lat="50.768193" lon="3.933301"><ele>64.31</ele></trkpt>
            <trkpt lat="50.768385" lon="3.934063"><ele>67.24</ele></trkpt>
            <trkpt lat="50.768449" lon="3.934318"><ele>68.53</ele></trkpt>
            <trkpt lat="50.76848" lon="3.934463"><ele>69.51</ele></trkpt>
            <trkpt lat="50.76857" lon="3.934893"><ele>72.89</ele></trkpt>
            <trkpt lat="50.768658" lon="3.935413"><ele>76.54</ele></trkpt>
            <trkpt lat="50.768689" lon="3.935767"><ele>79.14</ele></trkpt>
            <trkpt lat="50.768688" lon="3.935898"><ele>80.05</ele></trkpt>
            <trkpt lat="50.76867" lon="3.93716"><ele>88.42</ele></trkpt>
            <trkpt lat="50.768652" lon="3.938421"><ele>96.36</ele></trkpt>
            <trkpt lat="50.768674" lon="3.939192"><ele>101.79</ele></trkpt>
            <trkpt lat="50.768681" lon="3.939351"><ele>102.6</ele></trkpt>
            <trkpt lat="50.768697" lon="3.939502"><ele>103.07</ele></trkpt>
            <trkpt lat="50.768714" lon="3.939655"><ele>103.3</ele></trkpt>
            <trkpt lat="50.768783" lon="3.940262"><ele>103.63</ele></trkpt>
            <trkpt lat="50.768819" lon="3.940541"><ele>103.52</ele></trkpt>
            <trkpt lat="50.768907" lon="3.940837"><ele>102.95</ele></trkpt>
            <trkpt lat="50.769023" lon="3.941137"><ele>102.07</ele></trkpt>
            <trkpt lat="50.769377" lon="3.941729"><ele>99.6</ele></trkpt>
            <trkpt lat="50.769466" lon="3.941877"><ele>98.99</ele></trkpt>
            <trkpt lat="50.769588" lon="3.942142"><ele>98.11</ele></trkpt>
            <trkpt lat="50.769668" lon="3.942461"><ele>97.47</ele></trkpt>
            <trkpt lat="50.76978" lon="3.943144"><ele>96.19</ele></trkpt>
            <trkpt lat="50.769848" lon="3.943468"><ele>95.81</ele></trkpt>
            <trkpt lat="50.769962" lon="3.943795"><ele>95.44</ele></trkpt>
            <trkpt lat="50.770036" lon="3.943965"><ele>95.24</ele></trkpt>
            <trkpt lat="50.770328" lon="3.944648"><ele>94.47</ele></trkpt>
            <trkpt lat="50.770445" lon="3.944896"><ele>94.31</ele></trkpt>
            <trkpt lat="50.77059" lon="3.94515"><ele>94.25</ele></trkpt>
            <trkpt lat="50.770675" lon="3.945284"><ele>94.23</ele></trkpt>
            <trkpt lat="50.770816" lon="3.945442"><ele>94.2</ele></trkpt>
            <trkpt lat="50.771051" lon="3.945626"><ele>94.14</ele></trkpt>
            <trkpt lat="50.77156" lon="3.94587"><ele>94.05</ele></trkpt>
            <trkpt lat="50.771815" lon="3.945991"><ele>94.01</ele></trkpt>
            <trkpt lat="50.772197" lon="3.946174"><ele>93.94</ele></trkpt>
            <trkpt lat="50.772619" lon="3.946442"><ele>94.23</ele></trkpt>
            <trkpt lat="50.772989" lon="3.946743"><ele>94.55</ele></trkpt>
            <trkpt lat="50.773287" lon="3.947049"><ele>94.43</ele></trkpt>
            <trkpt lat="50.773435" lon="3.947217"><ele>94.22</ele></trkpt>
            <trkpt lat="50.773648" lon="3.947484"><ele>93.76</ele></trkpt>
            <trkpt lat="50.773805" lon="3.947715"><ele>93.41</ele></trkpt>
            <trkpt lat="50.774057" lon="3.948123"><ele>93.02</ele></trkpt>
            <trkpt lat="50.774268" lon="3.948662"><ele>92.34</ele></trkpt>
            <trkpt lat="50.774548" lon="3.949382"><ele>91.44</ele></trkpt>
            <trkpt lat="50.774689" lon="3.949741"><ele>90.99</ele></trkpt>
            <trkpt lat="50.774829" lon="3.950101"><ele>90.54</ele></trkpt>
            <trkpt lat="50.774935" lon="3.950469"><ele>90.09</ele></trkpt>
            <trkpt lat="50.774989" lon="3.950652"><ele>89.87</ele></trkpt>
            <trkpt lat="50.775095" lon="3.95102"><ele>89.42</ele></trkpt>
            <trkpt lat="50.775365" lon="3.951949"><ele>88.89</ele></trkpt>
            <trkpt lat="50.775489" lon="3.952282"><ele>88.65</ele></trkpt>
            <trkpt lat="50.775753" lon="3.952764"><ele>88.38</ele></trkpt>
            <trkpt lat="50.776028" lon="3.953187"><ele>88.04</ele></trkpt>
            <trkpt lat="50.776211" lon="3.95347"><ele>87.81</ele></trkpt>
            <trkpt lat="50.776578" lon="3.953971"><ele>87.29</ele></trkpt>
            <trkpt lat="50.776693" lon="3.954177"><ele>87.14</ele></trkpt>
            <trkpt lat="50.776836" lon="3.954524"><ele>86.87</ele></trkpt>
            <trkpt lat="50.776877" lon="3.954661"><ele>86.8</ele></trkpt>
            <trkpt lat="50.776969" lon="3.95498"><ele>86.75</ele></trkpt>
            <trkpt lat="50.77706" lon="3.9553"><ele>86.7</ele></trkpt>
            <trkpt lat="50.777282" lon="3.956072"><ele>86.97</ele></trkpt>
            <trkpt lat="50.777361" lon="3.956292"><ele>86.93</ele></trkpt>
            <trkpt lat="50.777513" lon="3.956657"><ele>86.59</ele></trkpt>
            <trkpt lat="50.777723" lon="3.95714"><ele>85.9</ele></trkpt>
            <trkpt lat="50.777794" lon="3.957301"><ele>85.67</ele></trkpt>
            <trkpt lat="50.777894" lon="3.95756"><ele>85.12</ele></trkpt>
            <trkpt lat="50.778159" lon="3.95834"><ele>82.98</ele></trkpt>
            <trkpt lat="50.778399" lon="3.959172"><ele>81.15</ele></trkpt>
            <trkpt lat="50.778468" lon="3.959555"><ele>80.61</ele></trkpt>
            <trkpt lat="50.778606" lon="3.960322"><ele>79.51</ele></trkpt>
            <trkpt lat="50.778641" lon="3.960514"><ele>79.24</ele></trkpt>
            <trkpt lat="50.778751" lon="3.960853"><ele>78.58</ele></trkpt>
            <trkpt lat="50.778833" lon="3.961012"><ele>78.16</ele></trkpt>
            <trkpt lat="50.779082" lon="3.961489"><ele>76.87</ele></trkpt>
            <trkpt lat="50.779159" lon="3.961632"><ele>76.72</ele></trkpt>
            <trkpt lat="50.779391" lon="3.96206"><ele>76.24</ele></trkpt>
            <trkpt lat="50.779651" lon="3.96247"><ele>75.82</ele></trkpt>
            <trkpt lat="50.780131" lon="3.9631"><ele>75.11</ele></trkpt>
            <trkpt lat="50.780422" lon="3.963466"><ele>74.51</ele></trkpt>
            <trkpt lat="50.780644" lon="3.963742"><ele>73.88</ele></trkpt>
            <trkpt lat="50.780941" lon="3.964115"><ele>72.75</ele></trkpt>
            <trkpt lat="50.781047" lon="3.964288"><ele>72.26</ele></trkpt>
            <trkpt lat="50.781219" lon="3.964641"><ele>71.4</ele></trkpt>
            <trkpt lat="50.781273" lon="3.964804"><ele>71.09</ele></trkpt>
            <trkpt lat="50.781383" lon="3.965129"><ele>70.48</ele></trkpt>
            <trkpt lat="50.781437" lon="3.965292"><ele>70.17</ele></trkpt>
            <trkpt lat="50.781531" lon="3.965561"><ele>69.4</ele></trkpt>
            <trkpt lat="50.781554" lon="3.965596"><ele>69.21</ele></trkpt>
            <trkpt lat="50.781607" lon="3.965612"><ele>68.87</ele></trkpt>
            <trkpt lat="50.781809" lon="3.965523"><ele>67.28</ele></trkpt>
            <trkpt lat="50.782127" lon="3.96549"><ele>64.89</ele></trkpt>
            <trkpt lat="50.782568" lon="3.965469"><ele>61.93</ele></trkpt>
            <trkpt lat="50.782968" lon="3.965399"><ele>59.03</ele></trkpt>
            <trkpt lat="50.783356" lon="3.965249"><ele>56.35</ele></trkpt>
            <trkpt lat="50.783502" lon="3.965149"><ele>55.35</ele></trkpt>
            <trkpt lat="50.783842" lon="3.964818"><ele>52.85</ele></trkpt>
            <trkpt lat="50.784238" lon="3.964427"><ele>50.26</ele></trkpt>
            <trkpt lat="50.784292" lon="3.964349"><ele>49.87</ele></trkpt>
            <trkpt lat="50.784319" lon="3.964248"><ele>49.5</ele></trkpt>
            <trkpt lat="50.784326" lon="3.96405"><ele>48.88</ele></trkpt>
            <trkpt lat="50.784307" lon="3.963872"><ele>48.35</ele></trkpt>
            <trkpt lat="50.784259" lon="3.963675"><ele>47.55</ele></trkpt>
            <trkpt lat="50.784122" lon="3.9633"><ele>45.25</ele></trkpt>
            <trkpt lat="50.783985" lon="3.962966"><ele>43.69</ele></trkpt>
            <trkpt lat="50.783963" lon="3.96284"><ele>43.28</ele></trkpt>
            <trkpt lat="50.783978" lon="3.962728"><ele>42.91</ele></trkpt>
            <trkpt lat="50.784033" lon="3.962635"><ele>42.49</ele></trkpt>
            <trkpt lat="50.7841" lon="3.96257"><ele>42.02</ele></trkpt>
            <trkpt lat="50.784488" lon="3.962226"><ele>38.82</ele></trkpt>
            <trkpt lat="50.784783" lon="3.961857"><ele>36.29</ele></trkpt>
            <trkpt lat="50.784952" lon="3.961673"><ele>35.47</ele></trkpt>
            <trkpt lat="50.785203" lon="3.9614"><ele>34.59</ele></trkpt>
            <trkpt lat="50.785401" lon="3.961103"><ele>33.91</ele></trkpt>
            <trkpt lat="50.785503" lon="3.961042"><ele>33.65</ele></trkpt>
            <trkpt lat="50.785936" lon="3.960911"><ele>32.64</ele></trkpt>
            <trkpt lat="50.786439" lon="3.96076"><ele>31.09</ele></trkpt>
            <trkpt lat="50.7869" lon="3.960596"><ele>29.93</ele></trkpt>
            <trkpt lat="50.787619" lon="3.960569"><ele>28.45</ele></trkpt>
            <trkpt lat="50.787912" lon="3.960521"><ele>27.93</ele></trkpt>
            <trkpt lat="50.78833" lon="3.960514"><ele>27.24</ele></trkpt>
            <trkpt lat="50.788608" lon="3.960508"><ele>26.79</ele></trkpt>
            <trkpt lat="50.788803" lon="3.960468"><ele>26.59</ele></trkpt>
            <trkpt lat="50.789038" lon="3.96039"><ele>26.19</ele></trkpt>
            <trkpt lat="50.789647" lon="3.960118"><ele>25.11</ele></trkpt>
            <trkpt lat="50.789911" lon="3.960009"><ele>24.79</ele></trkpt>
            <trkpt lat="50.790298" lon="3.959873"><ele>24.64</ele></trkpt>
            <trkpt lat="50.790397" lon="3.959814"><ele>24.62</ele></trkpt>
            <trkpt lat="50.790474" lon="3.959696"><ele>24.59</ele></trkpt>
            <trkpt lat="50.790623" lon="3.959236"><ele>24.65</ele></trkpt>
            <trkpt lat="50.790721" lon="3.959078"><ele>24.88</ele></trkpt>
            <trkpt lat="50.790835" lon="3.959017"><ele>25.17</ele></trkpt>
            <trkpt lat="50.79156" lon="3.958801"><ele>27</ele></trkpt>
            <trkpt lat="50.791586" lon="3.958759"><ele>27.06</ele></trkpt>
            <trkpt lat="50.791592" lon="3.958701"><ele>27.12</ele></trkpt>
            <trkpt lat="50.791517" lon="3.95841"><ele>27.43</ele></trkpt>
            <trkpt lat="50.791394" lon="3.95808"><ele>27.84</ele></trkpt>
            <trkpt lat="50.791257" lon="3.95776"><ele>28.49</ele></trkpt>
            <trkpt lat="50.791185" lon="3.95755"><ele>28.91</ele></trkpt>
            <trkpt lat="50.791147" lon="3.95741"><ele>29.15</ele></trkpt>
            <trkpt lat="50.791159" lon="3.957322"><ele>29.27</ele></trkpt>
            <trkpt lat="50.791383" lon="3.95702"><ele>29.58</ele></trkpt>
            <trkpt lat="50.791601" lon="3.956747"><ele>29.59</ele></trkpt>
            <trkpt lat="50.791779" lon="3.956541"><ele>29.35</ele></trkpt>
            <trkpt lat="50.791956" lon="3.956334"><ele>29.11</ele></trkpt>
            <trkpt lat="50.792133" lon="3.956084"><ele>28.6</ele></trkpt>
            <trkpt lat="50.792209" lon="3.95595"><ele>28.26</ele></trkpt>
            <trkpt lat="50.79244" lon="3.955548"><ele>27.23</ele></trkpt>
            <trkpt lat="50.792759" lon="3.95489"><ele>26.5</ele></trkpt>
            <trkpt lat="50.793055" lon="3.954175"><ele>25.64</ele></trkpt>
            <trkpt lat="50.793346" lon="3.95347"><ele>23.88</ele></trkpt>
            <trkpt lat="50.793445" lon="3.953293"><ele>23.22</ele></trkpt>
            <trkpt lat="50.79354" lon="3.953148"><ele>22.59</ele></trkpt>
            <trkpt lat="50.793924" lon="3.952567"><ele>20.07</ele></trkpt>
            <trkpt lat="50.794097" lon="3.952304"><ele>19.22</ele></trkpt>
            <trkpt lat="50.794358" lon="3.95191"><ele>17.94</ele></trkpt>
            <trkpt lat="50.794439" lon="3.951805"><ele>17.71</ele></trkpt>
            <trkpt lat="50.794554" lon="3.951696"><ele>17.51</ele></trkpt>
            <trkpt lat="50.794911" lon="3.951414"><ele>16.67</ele></trkpt>
            <trkpt lat="50.794932" lon="3.951333"><ele>16.55</ele></trkpt>
            <trkpt lat="50.794954" lon="3.950821"><ele>16.09</ele></trkpt>
            <trkpt lat="50.794975" lon="3.95071"><ele>16.01</ele></trkpt>
            <trkpt lat="50.795061" lon="3.950459"><ele>15.84</ele></trkpt>
            <trkpt lat="50.79509" lon="3.950118"><ele>15.75</ele></trkpt>
            <trkpt lat="50.79508" lon="3.949592"><ele>15.62</ele></trkpt>
            <trkpt lat="50.794925" lon="3.948653"><ele>15.67</ele></trkpt>
            <trkpt lat="50.794859" lon="3.948261"><ele>15.81</ele></trkpt>
            <trkpt lat="50.794825" lon="3.948065"><ele>15.88</ele></trkpt>
            <trkpt lat="50.794759" lon="3.947672"><ele>16.03</ele></trkpt>
            <trkpt lat="50.794609" lon="3.947107"><ele>16.01</ele></trkpt>
            <trkpt lat="50.79456" lon="3.946919"><ele>16</ele></trkpt>
            <trkpt lat="50.79431" lon="3.945978"><ele>15.97</ele></trkpt>
            <trkpt lat="50.79408" lon="3.944999"><ele>15.7</ele></trkpt>
            <trkpt lat="50.794033" lon="3.944803"><ele>15.65</ele></trkpt>
            <trkpt lat="50.793895" lon="3.944216"><ele>15.49</ele></trkpt>
            <trkpt lat="50.793811" lon="3.943855"><ele>15.48</ele></trkpt>
            <trkpt lat="50.793768" lon="3.943675"><ele>15.47</ele></trkpt>
            <trkpt lat="50.793642" lon="3.943135"><ele>15.46</ele></trkpt>
            <trkpt lat="50.79355" lon="3.942633"><ele>15.51</ele></trkpt>
            <trkpt lat="50.793508" lon="3.94227"><ele>15.49</ele></trkpt>
            <trkpt lat="50.793467" lon="3.941906"><ele>15.47</ele></trkpt>
            <trkpt lat="50.79343" lon="3.94172"><ele>15.49</ele></trkpt>
            <trkpt lat="50.793352" lon="3.941424"><ele>15.54</ele></trkpt>
            <trkpt lat="50.793136" lon="3.940747"><ele>15.74</ele></trkpt>
            <trkpt lat="50.793029" lon="3.940408"><ele>15.83</ele></trkpt>
            <trkpt lat="50.792844" lon="3.939829"><ele>16.08</ele></trkpt>
            <trkpt lat="50.792783" lon="3.939636"><ele>16.17</ele></trkpt>
            <trkpt lat="50.792598" lon="3.939057"><ele>16.42</ele></trkpt>
            <trkpt lat="50.792291" lon="3.938091"><ele>16.83</ele></trkpt>
            <trkpt lat="50.792172" lon="3.93772"><ele>16.94</ele></trkpt>
            <trkpt lat="50.792116" lon="3.937542"><ele>16.96</ele></trkpt>
            <trkpt lat="50.791888" lon="3.936829"><ele>17.04</ele></trkpt>
            <trkpt lat="50.791832" lon="3.936651"><ele>17.06</ele></trkpt>
            <trkpt lat="50.79179" lon="3.936482"><ele>17.07</ele></trkpt>
            <trkpt lat="50.791775" lon="3.93627"><ele>17.03</ele></trkpt>
            <trkpt lat="50.791746" lon="3.935844"><ele>16.96</ele></trkpt>
            <trkpt lat="50.791735" lon="3.935417"><ele>16.74</ele></trkpt>
            <trkpt lat="50.791725" lon="3.934989"><ele>16.52</ele></trkpt>
            <trkpt lat="50.791719" lon="3.934776"><ele>16.41</ele></trkpt>
            <trkpt lat="50.791708" lon="3.934348"><ele>16.19</ele></trkpt>
            <trkpt lat="50.791698" lon="3.933921"><ele>15.97</ele></trkpt>
            <trkpt lat="50.791692" lon="3.933707"><ele>15.86</ele></trkpt>
            <trkpt lat="50.791682" lon="3.933279"><ele>15.64</ele></trkpt>
            <trkpt lat="50.791676" lon="3.933066"><ele>15.53</ele></trkpt>
            <trkpt lat="50.791665" lon="3.932628"><ele>15.44</ele></trkpt>
            <trkpt lat="50.791654" lon="3.93219"><ele>15.34</ele></trkpt>
            <trkpt lat="50.791643" lon="3.931752"><ele>15.25</ele></trkpt>
            <trkpt lat="50.791633" lon="3.931314"><ele>15.16</ele></trkpt>
            <trkpt lat="50.791622" lon="3.930876"><ele>15.06</ele></trkpt>
            <trkpt lat="50.791611" lon="3.930438"><ele>14.97</ele></trkpt>
            <trkpt lat="50.791623" lon="3.930022"><ele>14.8</ele></trkpt>
            <trkpt lat="50.791636" lon="3.929605"><ele>14.64</ele></trkpt>
            <trkpt lat="50.791643" lon="3.929397"><ele>14.55</ele></trkpt>
            <trkpt lat="50.791662" lon="3.929204"><ele>14.56</ele></trkpt>
            <trkpt lat="50.791782" lon="3.928042"><ele>14.59</ele></trkpt>
            <trkpt lat="50.791784" lon="3.927731"><ele>14.6</ele></trkpt>
            <trkpt lat="50.791727" lon="3.927468"><ele>14.58</ele></trkpt>
            <trkpt lat="50.791668" lon="3.927297"><ele>14.58</ele></trkpt>
            <trkpt lat="50.791551" lon="3.926954"><ele>14.59</ele></trkpt>
            <trkpt lat="50.791357" lon="3.926473"><ele>14.79</ele></trkpt>
            <trkpt lat="50.791127" lon="3.926077"><ele>14.98</ele></trkpt>
            <trkpt lat="50.790804" lon="3.925593"><ele>15.03</ele></trkpt>
            <trkpt lat="50.790675" lon="3.925318"><ele>15.02</ele></trkpt>
            <trkpt lat="50.790383" lon="3.924618"><ele>14.97</ele></trkpt>
            <trkpt lat="50.790311" lon="3.924442"><ele>14.96</ele></trkpt>
            <trkpt lat="50.790165" lon="3.924092"><ele>14.94</ele></trkpt>
            <trkpt lat="50.790008" lon="3.923783"><ele>14.97</ele></trkpt>
            <trkpt lat="50.789646" lon="3.923286"><ele>14.95</ele></trkpt>
            <trkpt lat="50.789441" lon="3.923052"><ele>14.97</ele></trkpt>
            <trkpt lat="50.789216" lon="3.922833"><ele>15.05</ele></trkpt>
            <trkpt lat="50.78899" lon="3.922615"><ele>15.13</ele></trkpt>
            <trkpt lat="50.788765" lon="3.922396"><ele>15.21</ele></trkpt>
            <trkpt lat="50.788427" lon="3.922068"><ele>15.33</ele></trkpt>
            <trkpt lat="50.788202" lon="3.921849"><ele>15.42</ele></trkpt>
            <trkpt lat="50.787902" lon="3.921407"><ele>15.53</ele></trkpt>
            <trkpt lat="50.787751" lon="3.921076"><ele>15.74</ele></trkpt>
            <trkpt lat="50.78745" lon="3.920413"><ele>16.15</ele></trkpt>
            <trkpt lat="50.787352" lon="3.920257"><ele>16.31</ele></trkpt>
            <trkpt lat="50.786867" lon="3.919478"><ele>17.12</ele></trkpt>
            <trkpt lat="50.786436" lon="3.918737"><ele>18.2</ele></trkpt>
            <trkpt lat="50.786109" lon="3.918168"><ele>19.2</ele></trkpt>
            <trkpt lat="50.785863" lon="3.917742"><ele>19.95</ele></trkpt>
            <trkpt lat="50.785792" lon="3.917545"><ele>20.21</ele></trkpt>
            <trkpt lat="50.785668" lon="3.917"><ele>21.14</ele></trkpt>
            <trkpt lat="50.785496" lon="3.916462"><ele>22.17</ele></trkpt>
            <trkpt lat="50.784986" lon="3.915448"><ele>25.19</ele></trkpt>
            <trkpt lat="50.784762" lon="3.915044"><ele>25.94</ele></trkpt>
            <trkpt lat="50.784688" lon="3.914927"><ele>26.36</ele></trkpt>
            <trkpt lat="50.784596" lon="3.91478"><ele>27.12</ele></trkpt>
            <trkpt lat="50.784224" lon="3.914194"><ele>30.18</ele></trkpt>
            <trkpt lat="50.783666" lon="3.913314"><ele>34.76</ele></trkpt>
            <trkpt lat="50.783481" lon="3.91302"><ele>36.28</ele></trkpt>
            <trkpt lat="50.783199" lon="3.912536"><ele>38.64</ele></trkpt>
            <trkpt lat="50.783128" lon="3.912398"><ele>39.26</ele></trkpt>
            <trkpt lat="50.782917" lon="3.911983"><ele>41.11</ele></trkpt>
            <trkpt lat="50.782832" lon="3.91182"><ele>42.11</ele></trkpt>
            <trkpt lat="50.782664" lon="3.911493"><ele>44.11</ele></trkpt>
            <trkpt lat="50.782611" lon="3.911436"><ele>44.5</ele></trkpt>
            <trkpt lat="50.78248" lon="3.911393"><ele>45.24</ele></trkpt>
            <trkpt lat="50.782023" lon="3.911153"><ele>47.99</ele></trkpt>
            <trkpt lat="50.781671" lon="3.911054"><ele>49.35</ele></trkpt>
            <trkpt lat="50.781593" lon="3.911002"><ele>49.63</ele></trkpt>
            <trkpt lat="50.781532" lon="3.910932"><ele>49.88</ele></trkpt>
            <trkpt lat="50.781407" lon="3.910765"><ele>50.51</ele></trkpt>
            <trkpt lat="50.781213" lon="3.910513"><ele>51.89</ele></trkpt>
            <trkpt lat="50.780918" lon="3.910141"><ele>54.31</ele></trkpt>
            <trkpt lat="50.780819" lon="3.910017"><ele>55.11</ele></trkpt>
            <trkpt lat="50.780649" lon="3.909748"><ele>56.51</ele></trkpt>
            <trkpt lat="50.780563" lon="3.909614"><ele>57.2</ele></trkpt>
            <trkpt lat="50.780419" lon="3.909327"><ele>58.6</ele></trkpt>
            <trkpt lat="50.780159" lon="3.908637"><ele>62.89</ele></trkpt>
            <trkpt lat="50.780074" lon="3.90838"><ele>63.82</ele></trkpt>
            <trkpt lat="50.779897" lon="3.907844"><ele>65.25</ele></trkpt>
            <trkpt lat="50.779839" lon="3.907665"><ele>65.73</ele></trkpt>
            <trkpt lat="50.779603" lon="3.90695"><ele>67.63</ele></trkpt>
            <trkpt lat="50.779507" lon="3.906695"><ele>68.67</ele></trkpt>
            <trkpt lat="50.779348" lon="3.90632"><ele>70.66</ele></trkpt>
            <trkpt lat="50.779229" lon="3.906112"><ele>71.72</ele></trkpt>
            <trkpt lat="50.77909" lon="3.905926"><ele>72.42</ele></trkpt>
            <trkpt lat="50.778877" lon="3.90564"><ele>73.23</ele></trkpt>
            <trkpt lat="50.77873" lon="3.905375"><ele>73.87</ele></trkpt>
            <trkpt lat="50.778605" lon="3.905052"><ele>74.43</ele></trkpt>
            <trkpt lat="50.778418" lon="3.904569"><ele>75.26</ele></trkpt>
            <trkpt lat="50.778179" lon="3.9041"><ele>75.82</ele></trkpt>
            <trkpt lat="50.77802" lon="3.903787"><ele>76.19</ele></trkpt>
            <trkpt lat="50.777905" lon="3.903563"><ele>76.64</ele></trkpt>
            <trkpt lat="50.777448" lon="3.902668"><ele>79.07</ele></trkpt>
            <trkpt lat="50.777105" lon="3.901998"><ele>80.17</ele></trkpt>
            <trkpt lat="50.776933" lon="3.901663"><ele>80.73</ele></trkpt>
            <trkpt lat="50.776676" lon="3.901161"><ele>81.55</ele></trkpt>
            <trkpt lat="50.776591" lon="3.900993"><ele>81.83</ele></trkpt>
            <trkpt lat="50.776421" lon="3.900723"><ele>82.54</ele></trkpt>
            <trkpt lat="50.776168" lon="3.900318"><ele>83.59</ele></trkpt>
            <trkpt lat="50.775762" lon="3.899782"><ele>85.84</ele></trkpt>
            <trkpt lat="50.775453" lon="3.899319"><ele>87.46</ele></trkpt>
            <trkpt lat="50.775364" lon="3.899177"><ele>88.05</ele></trkpt>
            <trkpt lat="50.775256" lon="3.898924"><ele>89.12</ele></trkpt>
            <trkpt lat="50.775194" lon="3.898724"><ele>89.73</ele></trkpt>
            <trkpt lat="50.775142" lon="3.898519"><ele>90.06</ele></trkpt>
            <trkpt lat="50.775083" lon="3.898146"><ele>90.12</ele></trkpt>
            <trkpt lat="50.774995" lon="3.897587"><ele>90.2</ele></trkpt>
            <trkpt lat="50.774928" lon="3.897162"><ele>90</ele></trkpt>
            <trkpt lat="50.774834" lon="3.896553"><ele>89.3</ele></trkpt>
            <trkpt lat="50.774739" lon="3.895944"><ele>88.59</ele></trkpt>
            <trkpt lat="50.774654" lon="3.895402"><ele>88.1</ele></trkpt>
            <trkpt lat="50.77457" lon="3.89486"><ele>87.61</ele></trkpt>
            <trkpt lat="50.774474" lon="3.894251"><ele>87.81</ele></trkpt>
            <trkpt lat="50.774443" lon="3.894048"><ele>87.88</ele></trkpt>
            <trkpt lat="50.774379" lon="3.893642"><ele>88.01</ele></trkpt>
            <trkpt lat="50.774276" lon="3.893246"><ele>88.35</ele></trkpt>
            <trkpt lat="50.774186" lon="3.893036"><ele>88.81</ele></trkpt>
            <trkpt lat="50.774203" lon="3.892948"><ele>88.83</ele></trkpt>
            <trkpt lat="50.774413" lon="3.892906"><ele>87.35</ele></trkpt>
            <trkpt lat="50.774577" lon="3.892819"><ele>86.04</ele></trkpt>
            <trkpt lat="50.774907" lon="3.892643"><ele>83.12</ele></trkpt>
            <trkpt lat="50.775319" lon="3.892424"><ele>78.9</ele></trkpt>
            <trkpt lat="50.775483" lon="3.892337"><ele>77.4</ele></trkpt>
            <trkpt lat="50.775651" lon="3.892247"><ele>76.26</ele></trkpt>
            <trkpt lat="50.77602" lon="3.89205"><ele>74.14</ele></trkpt>
            <trkpt lat="50.776248" lon="3.891851"><ele>72.33</ele></trkpt>
            <trkpt lat="50.776442" lon="3.891626"><ele>70.59</ele></trkpt>
            <trkpt lat="50.776731" lon="3.891248"><ele>68.4</ele></trkpt>
            <trkpt lat="50.776883" lon="3.891037"><ele>66.75</ele></trkpt>
            <trkpt lat="50.776977" lon="3.890856"><ele>65.15</ele></trkpt>
            <trkpt lat="50.777058" lon="3.890618"><ele>63.27</ele></trkpt>
            <trkpt lat="50.777128" lon="3.890327"><ele>61.4</ele></trkpt>
            <trkpt lat="50.777157" lon="3.89009"><ele>60.08</ele></trkpt>
            <trkpt lat="50.77716" lon="3.889468"><ele>57.28</ele></trkpt>
            <trkpt lat="50.777149" lon="3.889031"><ele>55.23</ele></trkpt>
            <trkpt lat="50.777134" lon="3.888375"><ele>52.16</ele></trkpt>
            <trkpt lat="50.777126" lon="3.888065"><ele>50.53</ele></trkpt>
            <trkpt lat="50.777122" lon="3.887871"><ele>49.42</ele></trkpt>
            <trkpt lat="50.777112" lon="3.887484"><ele>47.21</ele></trkpt>
            <trkpt lat="50.777108" lon="3.88729"><ele>46.1</ele></trkpt>
            <trkpt lat="50.7771" lon="3.886977"><ele>44.52</ele></trkpt>
            <trkpt lat="50.777093" lon="3.886701"><ele>43.53</ele></trkpt>
            <trkpt lat="50.777089" lon="3.886511"><ele>42.97</ele></trkpt>
            <trkpt lat="50.777079" lon="3.886131"><ele>41.86</ele></trkpt>
            <trkpt lat="50.777075" lon="3.885942"><ele>41.3</ele></trkpt>
            <trkpt lat="50.777073" lon="3.88574"><ele>40.55</ele></trkpt>
            <trkpt lat="50.777139" lon="3.885082"><ele>37.28</ele></trkpt>
            <trkpt lat="50.777165" lon="3.884676"><ele>35.83</ele></trkpt>
            <trkpt lat="50.777179" lon="3.884473"><ele>35.1</ele></trkpt>
            <trkpt lat="50.777205" lon="3.884067"><ele>33.65</ele></trkpt>
            <trkpt lat="50.777217" lon="3.883876"><ele>32.81</ele></trkpt>
            <trkpt lat="50.777243" lon="3.883494"><ele>31.12</ele></trkpt>
            <trkpt lat="50.777268" lon="3.883113"><ele>29.43</ele></trkpt>
            <trkpt lat="50.777322" lon="3.882929"><ele>28.52</ele></trkpt>
            <trkpt lat="50.777436" lon="3.882806"><ele>27.64</ele></trkpt>
            <trkpt lat="50.777484" lon="3.882702"><ele>27.17</ele></trkpt>
            <trkpt lat="50.777496" lon="3.882544"><ele>26.67</ele></trkpt>
            <trkpt lat="50.777431" lon="3.882324"><ele>26.18</ele></trkpt>
            <trkpt lat="50.777433" lon="3.882206"><ele>26.01</ele></trkpt>
            <trkpt lat="50.777526" lon="3.88158"><ele>25.16</ele></trkpt>
            <trkpt lat="50.777637" lon="3.880995"><ele>24.69</ele></trkpt>
            <trkpt lat="50.77771" lon="3.880605"><ele>24.37</ele></trkpt>
            <trkpt lat="50.777815" lon="3.880047"><ele>24.33</ele></trkpt>
            <trkpt lat="50.777849" lon="3.879861"><ele>24.31</ele></trkpt>
            <trkpt lat="50.777919" lon="3.879489"><ele>24.28</ele></trkpt>
            <trkpt lat="50.778015" lon="3.878655"><ele>23.62</ele></trkpt>
            <trkpt lat="50.778078" lon="3.878098"><ele>22.82</ele></trkpt>
            <trkpt lat="50.778109" lon="3.877822"><ele>22.21</ele></trkpt>
            <trkpt lat="50.778139" lon="3.877221"><ele>20.28</ele></trkpt>
            <trkpt lat="50.77814" lon="3.876755"><ele>19.55</ele></trkpt>
            <trkpt lat="50.778133" lon="3.876448"><ele>19.33</ele></trkpt>
            <trkpt lat="50.778116" lon="3.876069"><ele>19.21</ele></trkpt>
            <trkpt lat="50.7781" lon="3.87569"><ele>19.09</ele></trkpt>
            <trkpt lat="50.778049" lon="3.875078"><ele>19.07</ele></trkpt>
            <trkpt lat="50.778029" lon="3.874881"><ele>19.04</ele></trkpt>
            <trkpt lat="50.777945" lon="3.874095"><ele>18.91</ele></trkpt>
            <trkpt lat="50.777914" lon="3.873809"><ele>19.21</ele></trkpt>
            <trkpt lat="50.777883" lon="3.873518"><ele>19.81</ele></trkpt>
            <trkpt lat="50.777828" lon="3.872996"><ele>21.1</ele></trkpt>
            <trkpt lat="50.77782" lon="3.872775"><ele>21.88</ele></trkpt>
            <trkpt lat="50.777841" lon="3.872642"><ele>22.51</ele></trkpt>
            <trkpt lat="50.777868" lon="3.872582"><ele>22.86</ele></trkpt>
            <trkpt lat="50.777928" lon="3.872526"><ele>23.36</ele></trkpt>
            <trkpt lat="50.778" lon="3.872503"><ele>23.8</ele></trkpt>
            <trkpt lat="50.778074" lon="3.872521"><ele>24.13</ele></trkpt>
            <trkpt lat="50.778284" lon="3.872654"><ele>24.8</ele></trkpt>
            <trkpt lat="50.778538" lon="3.872761"><ele>25.65</ele></trkpt>
            <trkpt lat="50.778982" lon="3.873043"><ele>26.78</ele></trkpt>
            <trkpt lat="50.779158" lon="3.873157"><ele>27.14</ele></trkpt>
            <trkpt lat="50.779798" lon="3.873552"><ele>27.96</ele></trkpt>
            <trkpt lat="50.780309" lon="3.873869"><ele>28.62</ele></trkpt>
            <trkpt lat="50.780782" lon="3.874109"><ele>28.85</ele></trkpt>
            <trkpt lat="50.781103" lon="3.874207"><ele>28.89</ele></trkpt>
            <trkpt lat="50.78121" lon="3.874239"><ele>28.9</ele></trkpt>
            <trkpt lat="50.781269" lon="3.874224"><ele>28.89</ele></trkpt>
            <trkpt lat="50.781297" lon="3.87415"><ele>28.88</ele></trkpt>
            <trkpt lat="50.781322" lon="3.87385"><ele>28.89</ele></trkpt>
            <trkpt lat="50.781382" lon="3.87345"><ele>29.16</ele></trkpt>
            <trkpt lat="50.781413" lon="3.87325"><ele>29.29</ele></trkpt>
            <trkpt lat="50.781458" lon="3.87295"><ele>29.73</ele></trkpt>
            <trkpt lat="50.781485" lon="3.872762"><ele>30.11</ele></trkpt>
            <trkpt lat="50.781569" lon="3.872198"><ele>31.26</ele></trkpt>
            <trkpt lat="50.781671" lon="3.870899"><ele>33.01</ele></trkpt>
            <trkpt lat="50.78169" lon="3.870725"><ele>33.34</ele></trkpt>
            <trkpt lat="50.78175" lon="3.8702"><ele>34.3</ele></trkpt>
            <trkpt lat="50.78183" lon="3.869502"><ele>34.93</ele></trkpt>
            <trkpt lat="50.78193" lon="3.868751"><ele>35.92</ele></trkpt>
            <trkpt lat="50.781992" lon="3.868191"><ele>37.2</ele></trkpt>
            <trkpt lat="50.782055" lon="3.867631"><ele>38.47</ele></trkpt>
            <trkpt lat="50.782101" lon="3.867204"><ele>38.93</ele></trkpt>
            <trkpt lat="50.782166" lon="3.866633"><ele>39.28</ele></trkpt>
            <trkpt lat="50.782174" lon="3.866284"><ele>39.31</ele></trkpt>
            <trkpt lat="50.782125" lon="3.865877"><ele>39.25</ele></trkpt>
            <trkpt lat="50.782084" lon="3.86569"><ele>39.29</ele></trkpt>
            <trkpt lat="50.781958" lon="3.865129"><ele>39.42</ele></trkpt>
            <trkpt lat="50.781875" lon="3.864754"><ele>39.51</ele></trkpt>
            <trkpt lat="50.781786" lon="3.864356"><ele>39.89</ele></trkpt>
            <trkpt lat="50.781707" lon="3.864004"><ele>40.35</ele></trkpt>
            <trkpt lat="50.781629" lon="3.863652"><ele>40.81</ele></trkpt>
            <trkpt lat="50.78155" lon="3.863301"><ele>41.27</ele></trkpt>
            <trkpt lat="50.781409" lon="3.862722"><ele>41.51</ele></trkpt>
            <trkpt lat="50.781361" lon="3.862529"><ele>41.59</ele></trkpt>
            <trkpt lat="50.781032" lon="3.861179"><ele>42.17</ele></trkpt>
            <trkpt lat="50.780888" lon="3.86006"><ele>43.12</ele></trkpt>
            <trkpt lat="50.780843" lon="3.85979"><ele>43.19</ele></trkpt>
            <trkpt lat="50.780792" lon="3.859542"><ele>43.14</ele></trkpt>
            <trkpt lat="50.780726" lon="3.859329"><ele>43.14</ele></trkpt>
            <trkpt lat="50.780669" lon="3.859187"><ele>43.21</ele></trkpt>
            <trkpt lat="50.780501" lon="3.858761"><ele>43.42</ele></trkpt>
            <trkpt lat="50.780376" lon="3.85838"><ele>43.77</ele></trkpt>
            <trkpt lat="50.780252" lon="3.858"><ele>44.13</ele></trkpt>
            <trkpt lat="50.780209" lon="3.857804"><ele>44.13</ele></trkpt>
            <trkpt lat="50.780124" lon="3.857411"><ele>44.15</ele></trkpt>
            <trkpt lat="50.78004" lon="3.857018"><ele>44.16</ele></trkpt>
            <trkpt lat="50.779935" lon="3.856532"><ele>43.89</ele></trkpt>
            <trkpt lat="50.779901" lon="3.85637"><ele>43.8</ele></trkpt>
            <trkpt lat="50.779857" lon="3.856106"><ele>43.51</ele></trkpt>
            <trkpt lat="50.779825" lon="3.856064"><ele>43.44</ele></trkpt>
            <trkpt lat="50.779783" lon="3.856066"><ele>43.37</ele></trkpt>
            <trkpt lat="50.779681" lon="3.856194"><ele>42.98</ele></trkpt>
            <trkpt lat="50.779372" lon="3.856516"><ele>41.68</ele></trkpt>
            <trkpt lat="50.779198" lon="3.856652"><ele>41.1</ele></trkpt>
            <trkpt lat="50.778941" lon="3.856849"><ele>40.32</ele></trkpt>
            <trkpt lat="50.778816" lon="3.856926"><ele>39.96</ele></trkpt>
            <trkpt lat="50.778568" lon="3.857082"><ele>39.26</ele></trkpt>
            <trkpt lat="50.778009" lon="3.857432"><ele>38.05</ele></trkpt>
            <trkpt lat="50.777809" lon="3.857595"><ele>37.38</ele></trkpt>
            <trkpt lat="50.77751" lon="3.85784"><ele>36.38</ele></trkpt>
            <trkpt lat="50.777209" lon="3.858085"><ele>35.67</ele></trkpt>
            <trkpt lat="50.777009" lon="3.858249"><ele>35.19</ele></trkpt>
            <trkpt lat="50.776579" lon="3.8585"><ele>34.56</ele></trkpt>
            <trkpt lat="50.77609" lon="3.858755"><ele>34.19</ele></trkpt>
            <trkpt lat="50.775624" lon="3.858994"><ele>34.6</ele></trkpt>
            <trkpt lat="50.775395" lon="3.858999"><ele>34.96</ele></trkpt>
            <trkpt lat="50.775272" lon="3.858945"><ele>35.22</ele></trkpt>
            <trkpt lat="50.775207" lon="3.85888"><ele>35.35</ele></trkpt>
            <trkpt lat="50.775173" lon="3.858807"><ele>35.43</ele></trkpt>
            <trkpt lat="50.775174" lon="3.858614"><ele>35.5</ele></trkpt>
            <trkpt lat="50.775174" lon="3.858229"><ele>35.63</ele></trkpt>
            <trkpt lat="50.775139" lon="3.857854"><ele>35.7</ele></trkpt>
            <trkpt lat="50.775066" lon="3.857487"><ele>35.86</ele></trkpt>
            <trkpt lat="50.77503" lon="3.857303"><ele>35.94</ele></trkpt>
            <trkpt lat="50.774979" lon="3.857132"><ele>36.04</ele></trkpt>
            <trkpt lat="50.774779" lon="3.856448"><ele>36.41</ele></trkpt>
            <trkpt lat="50.774609" lon="3.855942"><ele>37.03</ele></trkpt>
            <trkpt lat="50.774171" lon="3.85501"><ele>38.72</ele></trkpt>
            <trkpt lat="50.774097" lon="3.854854"><ele>39</ele></trkpt>
            <trkpt lat="50.774037" lon="3.854691"><ele>39.22</ele></trkpt>
            <trkpt lat="50.774013" lon="3.85457"><ele>39.37</ele></trkpt>
            <trkpt lat="50.774012" lon="3.854201"><ele>39.85</ele></trkpt>
            <trkpt lat="50.774042" lon="3.853923"><ele>40.16</ele></trkpt>
            <trkpt lat="50.774071" lon="3.853804"><ele>40.25</ele></trkpt>
            <trkpt lat="50.774132" lon="3.853628"><ele>40.36</ele></trkpt>
            <trkpt lat="50.774256" lon="3.853276"><ele>40.58</ele></trkpt>
            <trkpt lat="50.774413" lon="3.852754"><ele>40.81</ele></trkpt>
            <trkpt lat="50.774466" lon="3.85258"><ele>40.88</ele></trkpt>
            <trkpt lat="50.774575" lon="3.851819"><ele>41.27</ele></trkpt>
            <trkpt lat="50.774691" lon="3.851011"><ele>42.06</ele></trkpt>
            <trkpt lat="50.774859" lon="3.850198"><ele>42.75</ele></trkpt>
            <trkpt lat="50.77493" lon="3.849706"><ele>43.36</ele></trkpt>
            <trkpt lat="50.774953" lon="3.849541"><ele>43.56</ele></trkpt>
            <trkpt lat="50.775054" lon="3.849184"><ele>44.13</ele></trkpt>
            <trkpt lat="50.775189" lon="3.8488"><ele>44.97</ele></trkpt>
            <trkpt lat="50.775325" lon="3.848417"><ele>45.8</ele></trkpt>
            <trkpt lat="50.775715" lon="3.847409"><ele>48.48</ele></trkpt>
            <trkpt lat="50.775782" lon="3.84699"><ele>49.4</ele></trkpt>
            <trkpt lat="50.775763" lon="3.84673"><ele>49.77</ele></trkpt>
            <trkpt lat="50.775679" lon="3.846135"><ele>50.44</ele></trkpt>
            <trkpt lat="50.77565" lon="3.845936"><ele>50.67</ele></trkpt>
            <trkpt lat="50.775617" lon="3.845514"><ele>51.14</ele></trkpt>
            <trkpt lat="50.775549" lon="3.844669"><ele>52.09</ele></trkpt>
            <trkpt lat="50.775501" lon="3.844077"><ele>52.46</ele></trkpt>
            <trkpt lat="50.77547" lon="3.843683"><ele>52.71</ele></trkpt>
            <trkpt lat="50.77537" lon="3.842909"><ele>53.28</ele></trkpt>
            <trkpt lat="50.775287" lon="3.842358"><ele>53.82</ele></trkpt>
            <trkpt lat="50.775231" lon="3.841979"><ele>54.11</ele></trkpt>
            <trkpt lat="50.775201" lon="3.841783"><ele>54.22</ele></trkpt>
            <trkpt lat="50.775151" lon="3.841442"><ele>54.39</ele></trkpt>
            <trkpt lat="50.775121" lon="3.840948"><ele>54.48</ele></trkpt>
            <trkpt lat="50.77512" lon="3.840744"><ele>54.59</ele></trkpt>
            <trkpt lat="50.77512" lon="3.840338"><ele>54.8</ele></trkpt>
            <trkpt lat="50.77512" lon="3.839787"><ele>55.29</ele></trkpt>
            <trkpt lat="50.775121" lon="3.83942"><ele>55.61</ele></trkpt>
            <trkpt lat="50.775143" lon="3.839018"><ele>55.84</ele></trkpt>
            <trkpt lat="50.775155" lon="3.838817"><ele>55.96</ele></trkpt>
            <trkpt lat="50.775177" lon="3.838415"><ele>56.19</ele></trkpt>
            <trkpt lat="50.775189" lon="3.838214"><ele>56.3</ele></trkpt>
            <trkpt lat="50.775229" lon="3.83749"><ele>57.01</ele></trkpt>
            <trkpt lat="50.77524" lon="3.837309"><ele>57.19</ele></trkpt>
            <trkpt lat="50.775251" lon="3.836869"><ele>57.86</ele></trkpt>
            <trkpt lat="50.775262" lon="3.836428"><ele>58.54</ele></trkpt>
            <trkpt lat="50.775334" lon="3.835854"><ele>58.74</ele></trkpt>
            <trkpt lat="50.7754" lon="3.835345"><ele>58.76</ele></trkpt>
            <trkpt lat="50.775494" lon="3.834622"><ele>58.39</ele></trkpt>
            <trkpt lat="50.77554" lon="3.83426"><ele>58.2</ele></trkpt>
            <trkpt lat="50.775597" lon="3.833879"><ele>58.13</ele></trkpt>
            <trkpt lat="50.775683" lon="3.833307"><ele>58.03</ele></trkpt>
            <trkpt lat="50.775811" lon="3.832461"><ele>58.4</ele></trkpt>
            <trkpt lat="50.775842" lon="3.832249"><ele>58.49</ele></trkpt>
            <trkpt lat="50.77597" lon="3.831403"><ele>58.85</ele></trkpt>
            <trkpt lat="50.776002" lon="3.831216"><ele>58.94</ele></trkpt>
            <trkpt lat="50.776068" lon="3.830842"><ele>59.1</ele></trkpt>
            <trkpt lat="50.7761" lon="3.830654"><ele>59.19</ele></trkpt>
            <trkpt lat="50.776166" lon="3.83028"><ele>59.36</ele></trkpt>
            <trkpt lat="50.776231" lon="3.829906"><ele>59.52</ele></trkpt>
            <trkpt lat="50.776303" lon="3.829485"><ele>59.64</ele></trkpt>
            <trkpt lat="50.776338" lon="3.829275"><ele>59.7</ele></trkpt>
            <trkpt lat="50.776446" lon="3.828645"><ele>59.88</ele></trkpt>
            <trkpt lat="50.776481" lon="3.828435"><ele>59.93</ele></trkpt>
            <trkpt lat="50.776589" lon="3.827805"><ele>60.11</ele></trkpt>
            <trkpt lat="50.77666" lon="3.827385"><ele>60.23</ele></trkpt>
            <trkpt lat="50.776754" lon="3.826817"><ele>60.27</ele></trkpt>
            <trkpt lat="50.77688" lon="3.826059"><ele>60.32</ele></trkpt>
            <trkpt lat="50.77694" lon="3.825655"><ele>60.38</ele></trkpt>
            <trkpt lat="50.776969" lon="3.825452"><ele>60.42</ele></trkpt>
            <trkpt lat="50.777029" lon="3.825048"><ele>60.48</ele></trkpt>
            <trkpt lat="50.777141" lon="3.823373"><ele>60.99</ele></trkpt>
            <trkpt lat="50.7772" lon="3.822948"><ele>61.36</ele></trkpt>
            <trkpt lat="50.77729" lon="3.82231"><ele>61.91</ele></trkpt>
            <trkpt lat="50.777425" lon="3.821361"><ele>63.14</ele></trkpt>
            <trkpt lat="50.7774194" lon="3.8212366"><ele>63.3</ele></trkpt>
            <trkpt lat="50.7773617" lon="3.8211776"><ele>63.7</ele></trkpt>
            <trkpt lat="50.777236" lon="3.821222"><ele>63.82</ele></trkpt>
            <trkpt lat="50.776378" lon="3.821859"><ele>64.73</ele></trkpt>
            <trkpt lat="50.77601" lon="3.822132"><ele>65.11</ele></trkpt>
            <trkpt lat="50.775847" lon="3.822253"><ele>65.07</ele></trkpt>
            <trkpt lat="50.775683" lon="3.822375"><ele>64.62</ele></trkpt>
            <trkpt lat="50.775112" lon="3.8228"><ele>62.19</ele></trkpt>
            <trkpt lat="50.774784" lon="3.823096"><ele>60.26</ele></trkpt>
            <trkpt lat="50.774347" lon="3.823492"><ele>57.69</ele></trkpt>
            <trkpt lat="50.774126" lon="3.823711"><ele>56.15</ele></trkpt>
            <trkpt lat="50.774015" lon="3.82382"><ele>55.37</ele></trkpt>
            <trkpt lat="50.773683" lon="3.824148"><ele>52.1</ele></trkpt>
            <trkpt lat="50.773523" lon="3.824293"><ele>50.88</ele></trkpt>
            <trkpt lat="50.773408" lon="3.824389"><ele>50.34</ele></trkpt>
            <trkpt lat="50.772944" lon="3.82477"><ele>48.18</ele></trkpt>
            <trkpt lat="50.772597" lon="3.825057"><ele>46.56</ele></trkpt>
            <trkpt lat="50.772478" lon="3.825143"><ele>46.13</ele></trkpt>
            <trkpt lat="50.772242" lon="3.825317"><ele>45.27</ele></trkpt>
            <trkpt lat="50.772005" lon="3.82549"><ele>44.41</ele></trkpt>
            <trkpt lat="50.771576" lon="3.825798"><ele>41.42</ele></trkpt>
            <trkpt lat="50.771491" lon="3.82586"><ele>40.99</ele></trkpt>
            <trkpt lat="50.771142" lon="3.826152"><ele>40.26</ele></trkpt>
            <trkpt lat="50.770788" lon="3.826483"><ele>39.09</ele></trkpt>
            <trkpt lat="50.770464" lon="3.826825"><ele>37.85</ele></trkpt>
            <trkpt lat="50.770247" lon="3.827054"><ele>37.02</ele></trkpt>
            <trkpt lat="50.769815" lon="3.827511"><ele>35.36</ele></trkpt>
            <trkpt lat="50.769489" lon="3.827809"><ele>33.96</ele></trkpt>
            <trkpt lat="50.769234" lon="3.827972"><ele>33.15</ele></trkpt>
            <trkpt lat="50.768852" lon="3.828217"><ele>31.94</ele></trkpt>
            <trkpt lat="50.768597" lon="3.82838"><ele>31.13</ele></trkpt>
            <trkpt lat="50.768343" lon="3.828544"><ele>30.32</ele></trkpt>
            <trkpt lat="50.768215" lon="3.828625"><ele>29.91</ele></trkpt>
            <trkpt lat="50.767902" lon="3.828798"><ele>29.26</ele></trkpt>
            <trkpt lat="50.767722" lon="3.828868"><ele>29.03</ele></trkpt>
            <trkpt lat="50.767519" lon="3.828909"><ele>28.88</ele></trkpt>
            <trkpt lat="50.767142" lon="3.828936"><ele>28.72</ele></trkpt>
            <trkpt lat="50.767017" lon="3.828946"><ele>28.67</ele></trkpt>
            <trkpt lat="50.766639" lon="3.828973"><ele>28.51</ele></trkpt>
            <trkpt lat="50.766197" lon="3.828968"><ele>28.74</ele></trkpt>
            <trkpt lat="50.766067" lon="3.828904"><ele>29.01</ele></trkpt>
            <trkpt lat="50.765911" lon="3.828787"><ele>29.71</ele></trkpt>
            <trkpt lat="50.765511" lon="3.828392"><ele>32.92</ele></trkpt>
            <trkpt lat="50.765415" lon="3.828312"><ele>33.57</ele></trkpt>
            <trkpt lat="50.765217" lon="3.828198"><ele>34.57</ele></trkpt>
            <trkpt lat="50.764954" lon="3.82805"><ele>35.65</ele></trkpt>
            <trkpt lat="50.764461" lon="3.827771"><ele>36.77</ele></trkpt>
            <trkpt lat="50.764336" lon="3.827712"><ele>36.88</ele></trkpt>
            <trkpt lat="50.763838" lon="3.827474"><ele>37.33</ele></trkpt>
            <trkpt lat="50.763589" lon="3.827355"><ele>37.55</ele></trkpt>
            <trkpt lat="50.763349" lon="3.827317"><ele>37.81</ele></trkpt>
            <trkpt lat="50.763151" lon="3.827365"><ele>38.23</ele></trkpt>
            <trkpt lat="50.763004" lon="3.827456"><ele>38.73</ele></trkpt>
            <trkpt lat="50.762674" lon="3.827758"><ele>39.81</ele></trkpt>
            <trkpt lat="50.76266" lon="3.827814"><ele>39.86</ele></trkpt>
            <trkpt lat="50.762668" lon="3.827874"><ele>39.88</ele></trkpt>
            <trkpt lat="50.762721" lon="3.828006"><ele>39.92</ele></trkpt>
            <trkpt lat="50.762937" lon="3.828791"><ele>39.5</ele></trkpt>
            <trkpt lat="50.763017" lon="3.8294"><ele>39.28</ele></trkpt>
            <trkpt lat="50.762999" lon="3.830214"><ele>38.75</ele></trkpt>
            <trkpt lat="50.76299" lon="3.830621"><ele>38.49</ele></trkpt>
            <trkpt lat="50.762975" lon="3.831238"><ele>37.52</ele></trkpt>
            <trkpt lat="50.762971" lon="3.831444"><ele>37.19</ele></trkpt>
            <trkpt lat="50.762961" lon="3.831855"><ele>36.55</ele></trkpt>
            <trkpt lat="50.762966" lon="3.832051"><ele>36.27</ele></trkpt>
            <trkpt lat="50.762978" lon="3.832443"><ele>35.72</ele></trkpt>
            <trkpt lat="50.762983" lon="3.832639"><ele>35.45</ele></trkpt>
            <trkpt lat="50.763151" lon="3.833782"><ele>33.28</ele></trkpt>
            <trkpt lat="50.763208" lon="3.834163"><ele>32.42</ele></trkpt>
            <trkpt lat="50.763322" lon="3.834929"><ele>30.43</ele></trkpt>
            <trkpt lat="50.763379" lon="3.835312"><ele>29.43</ele></trkpt>
            <trkpt lat="50.763394" lon="3.835482"><ele>29.07</ele></trkpt>
            <trkpt lat="50.763436" lon="3.83599"><ele>28</ele></trkpt>
            <trkpt lat="50.763418" lon="3.836385"><ele>27.34</ele></trkpt>
            <trkpt lat="50.763408" lon="3.836582"><ele>27.01</ele></trkpt>
            <trkpt lat="50.763375" lon="3.836991"><ele>26.69</ele></trkpt>
            <trkpt lat="50.763343" lon="3.837399"><ele>26.37</ele></trkpt>
            <trkpt lat="50.763326" lon="3.837604"><ele>26.2</ele></trkpt>
            <trkpt lat="50.763338" lon="3.838169"><ele>25.84</ele></trkpt>
            <trkpt lat="50.763356" lon="3.83831"><ele>25.77</ele></trkpt>
            <trkpt lat="50.763403" lon="3.838486"><ele>25.72</ele></trkpt>
            <trkpt lat="50.763537" lon="3.838809"><ele>25.77</ele></trkpt>
            <trkpt lat="50.763605" lon="3.83897"><ele>25.79</ele></trkpt>
            <trkpt lat="50.763739" lon="3.839293"><ele>25.83</ele></trkpt>
            <trkpt lat="50.763863" lon="3.839679"><ele>25.83</ele></trkpt>
            <trkpt lat="50.763907" lon="3.839837"><ele>25.79</ele></trkpt>
            <trkpt lat="50.763928" lon="3.840039"><ele>25.73</ele></trkpt>
            <trkpt lat="50.763888" lon="3.840426"><ele>25.65</ele></trkpt>
            <trkpt lat="50.763846" lon="3.840623"><ele>25.64</ele></trkpt>
            <trkpt lat="50.763723" lon="3.841216"><ele>25.6</ele></trkpt>
            <trkpt lat="50.763681" lon="3.841413"><ele>25.58</ele></trkpt>
            <trkpt lat="50.763599" lon="3.841809"><ele>25.56</ele></trkpt>
            <trkpt lat="50.76356" lon="3.84199"><ele>25.65</ele></trkpt>
            <trkpt lat="50.763484" lon="3.842354"><ele>25.85</ele></trkpt>
            <trkpt lat="50.76341" lon="3.842711"><ele>26.24</ele></trkpt>
            <trkpt lat="50.763372" lon="3.842889"><ele>26.44</ele></trkpt>
            <trkpt lat="50.76335" lon="3.843126"><ele>26.98</ele></trkpt>
            <trkpt lat="50.763351" lon="3.843341"><ele>27.43</ele></trkpt>
            <trkpt lat="50.763382" lon="3.84372"><ele>28.21</ele></trkpt>
            <trkpt lat="50.763427" lon="3.844287"><ele>29.39</ele></trkpt>
            <trkpt lat="50.763409" lon="3.844857"><ele>30.07</ele></trkpt>
            <trkpt lat="50.763388" lon="3.845035"><ele>30.21</ele></trkpt>
            <trkpt lat="50.763348" lon="3.845391"><ele>30.49</ele></trkpt>
            <trkpt lat="50.763271" lon="3.845734"><ele>30.52</ele></trkpt>
            <trkpt lat="50.763171" lon="3.846065"><ele>30.36</ele></trkpt>
            <trkpt lat="50.763023" lon="3.846561"><ele>30.11</ele></trkpt>
            <trkpt lat="50.762943" lon="3.846954"><ele>30.01</ele></trkpt>
            <trkpt lat="50.762904" lon="3.847151"><ele>29.95</ele></trkpt>
            <trkpt lat="50.762884" lon="3.84751"><ele>30.04</ele></trkpt>
            <trkpt lat="50.762922" lon="3.847964"><ele>30.23</ele></trkpt>
            <trkpt lat="50.763122" lon="3.848929"><ele>30.79</ele></trkpt>
            <trkpt lat="50.763245" lon="3.849524"><ele>31.5</ele></trkpt>
            <trkpt lat="50.763287" lon="3.849723"><ele>31.74</ele></trkpt>
            <trkpt lat="50.76341" lon="3.850318"><ele>32.46</ele></trkpt>
            <trkpt lat="50.763452" lon="3.850517"><ele>32.7</ele></trkpt>
            <trkpt lat="50.763534" lon="3.850914"><ele>33.18</ele></trkpt>
            <trkpt lat="50.763576" lon="3.851112"><ele>33.42</ele></trkpt>
            <trkpt lat="50.763699" lon="3.851708"><ele>34.13</ele></trkpt>
            <trkpt lat="50.763758" lon="3.851991"><ele>34.28</ele></trkpt>
            <trkpt lat="50.763791" lon="3.852293"><ele>33.98</ele></trkpt>
            <trkpt lat="50.763806" lon="3.85261"><ele>33.44</ele></trkpt>
            <trkpt lat="50.763774" lon="3.85304"><ele>32.42</ele></trkpt>
            <trkpt lat="50.763741" lon="3.85347"><ele>31.4</ele></trkpt>
            <trkpt lat="50.763743" lon="3.853793"><ele>30.63</ele></trkpt>
            <trkpt lat="50.763776" lon="3.854055"><ele>30.07</ele></trkpt>
            <trkpt lat="50.76382" lon="3.854249"><ele>29.74</ele></trkpt>
            <trkpt lat="50.763937" lon="3.854615"><ele>29.47</ele></trkpt>
            <trkpt lat="50.764055" lon="3.85498"><ele>29.21</ele></trkpt>
            <trkpt lat="50.764113" lon="3.855163"><ele>29.07</ele></trkpt>
            <trkpt lat="50.764231" lon="3.855528"><ele>28.8</ele></trkpt>
            <trkpt lat="50.764302" lon="3.855778"><ele>28.76</ele></trkpt>
            <trkpt lat="50.764429" lon="3.856291"><ele>28.91</ele></trkpt>
            <trkpt lat="50.764508" lon="3.856816"><ele>29.34</ele></trkpt>
            <trkpt lat="50.764519" lon="3.856999"><ele>29.64</ele></trkpt>
            <trkpt lat="50.764539" lon="3.857367"><ele>30.25</ele></trkpt>
            <trkpt lat="50.76455" lon="3.85755"><ele>30.56</ele></trkpt>
            <trkpt lat="50.76457" lon="3.857917"><ele>31.17</ele></trkpt>
            <trkpt lat="50.764629" lon="3.858413"><ele>31.9</ele></trkpt>
            <trkpt lat="50.76469" lon="3.858712"><ele>32.5</ele></trkpt>
            <trkpt lat="50.764698" lon="3.858807"><ele>32.63</ele></trkpt>
            <trkpt lat="50.764671" lon="3.85889"><ele>32.72</ele></trkpt>
            <trkpt lat="50.764506" lon="3.859154"><ele>32.7</ele></trkpt>
            <trkpt lat="50.764331" lon="3.859466"><ele>32.29</ele></trkpt>
            <trkpt lat="50.764069" lon="3.859934"><ele>31.67</ele></trkpt>
            <trkpt lat="50.763795" lon="3.860426"><ele>30.44</ele></trkpt>
            <trkpt lat="50.76352" lon="3.860917"><ele>29.21</ele></trkpt>
            <trkpt lat="50.763245" lon="3.861409"><ele>28.44</ele></trkpt>
            <trkpt lat="50.762969" lon="3.8619"><ele>27.68</ele></trkpt>
            <trkpt lat="50.762601" lon="3.862513"><ele>25.93</ele></trkpt>
            <trkpt lat="50.762428" lon="3.862794"><ele>25.43</ele></trkpt>
            <trkpt lat="50.762256" lon="3.863075"><ele>24.94</ele></trkpt>
            <trkpt lat="50.762251" lon="3.863136"><ele>24.88</ele></trkpt>
            <trkpt lat="50.762285" lon="3.863268"><ele>24.73</ele></trkpt>
            <trkpt lat="50.762284" lon="3.863326"><ele>24.67</ele></trkpt>
            <trkpt lat="50.762162" lon="3.863734"><ele>24.11</ele></trkpt>
            <trkpt lat="50.762122" lon="3.86387"><ele>23.65</ele></trkpt>
            <trkpt lat="50.762115" lon="3.863978"><ele>23.15</ele></trkpt>
            <trkpt lat="50.762148" lon="3.86413"><ele>22.32</ele></trkpt>
            <trkpt lat="50.762209" lon="3.864289"><ele>21.49</ele></trkpt>
            <trkpt lat="50.762464" lon="3.864772"><ele>19.41</ele></trkpt>
            <trkpt lat="50.762526" lon="3.8649"><ele>18.96</ele></trkpt>
            <trkpt lat="50.762537" lon="3.864962"><ele>18.81</ele></trkpt>
            <trkpt lat="50.76252" lon="3.865058"><ele>18.63</ele></trkpt>
            <trkpt lat="50.762483" lon="3.86515"><ele>18.45</ele></trkpt>
            <trkpt lat="50.762344" lon="3.865465"><ele>18.21</ele></trkpt>
            <trkpt lat="50.762282" lon="3.865997"><ele>18.2</ele></trkpt>
            <trkpt lat="50.762204" lon="3.86617"><ele>18.36</ele></trkpt>
            <trkpt lat="50.762035" lon="3.866393"><ele>18.82</ele></trkpt>
            <trkpt lat="50.761865" lon="3.866615"><ele>19.29</ele></trkpt>
            <trkpt lat="50.761599" lon="3.866962"><ele>19.1</ele></trkpt>
            <trkpt lat="50.761498" lon="3.867086"><ele>18.85</ele></trkpt>
            <trkpt lat="50.76141" lon="3.867163"><ele>18.59</ele></trkpt>
            <trkpt lat="50.761113" lon="3.867299"><ele>17.72</ele></trkpt>
            <trkpt lat="50.760746" lon="3.867388"><ele>17.12</ele></trkpt>
            <trkpt lat="50.760378" lon="3.867465"><ele>16.89</ele></trkpt>
            <trkpt lat="50.76001" lon="3.867542"><ele>16.65</ele></trkpt>
            <trkpt lat="50.759292" lon="3.86783"><ele>16.44</ele></trkpt>
            <trkpt lat="50.758809" lon="3.868102"><ele>16.4</ele></trkpt>
            <trkpt lat="50.758328" lon="3.86845"><ele>16.41</ele></trkpt>
            <trkpt lat="50.757966" lon="3.868711"><ele>16.42</ele></trkpt>
            <trkpt lat="50.75792" lon="3.868703"><ele>16.43</ele></trkpt>
            <trkpt lat="50.757416" lon="3.868306"><ele>16.38</ele></trkpt>
            <trkpt lat="50.756931" lon="3.86792"><ele>16.53</ele></trkpt>
            <trkpt lat="50.756567" lon="3.86763"><ele>16.64</ele></trkpt>
            <trkpt lat="50.756203" lon="3.86734"><ele>16.75</ele></trkpt>
            <trkpt lat="50.756082" lon="3.867243"><ele>16.79</ele></trkpt>
            <trkpt lat="50.755889" lon="3.867141"><ele>16.83</ele></trkpt>
            <trkpt lat="50.755593" lon="3.867075"><ele>16.96</ele></trkpt>
            <trkpt lat="50.755368" lon="3.867114"><ele>17.19</ele></trkpt>
            <trkpt lat="50.755083" lon="3.867217"><ele>18.07</ele></trkpt>
            <trkpt lat="50.754731" lon="3.867351"><ele>19.76</ele></trkpt>
            <trkpt lat="50.754548" lon="3.867453"><ele>21.06</ele></trkpt>
            <trkpt lat="50.7544" lon="3.867563"><ele>22.37</ele></trkpt>
            <trkpt lat="50.754204" lon="3.867758"><ele>23.83</ele></trkpt>
            <trkpt lat="50.75405" lon="3.867963"><ele>24.6</ele></trkpt>
            <trkpt lat="50.753931" lon="3.868173"><ele>25.41</ele></trkpt>
            <trkpt lat="50.753694" lon="3.868598"><ele>27.47</ele></trkpt>
            <trkpt lat="50.753575" lon="3.86881"><ele>28.81</ele></trkpt>
            <trkpt lat="50.753456" lon="3.869023"><ele>30.69</ele></trkpt>
            <trkpt lat="50.753219" lon="3.869448"><ele>34.94</ele></trkpt>
            <trkpt lat="50.752981" lon="3.869873"><ele>39.2</ele></trkpt>
            <trkpt lat="50.752649" lon="3.870468"><ele>44.64</ele></trkpt>
            <trkpt lat="50.752565" lon="3.870617"><ele>46.01</ele></trkpt>
            <trkpt lat="50.752233" lon="3.871212"><ele>51.46</ele></trkpt>
            <trkpt lat="50.752149" lon="3.871361"><ele>52.82</ele></trkpt>
            <trkpt lat="50.751746" lon="3.872074"><ele>60.1</ele></trkpt>
            <trkpt lat="50.751489" lon="3.872531"><ele>64.14</ele></trkpt>
            <trkpt lat="50.751398" lon="3.872749"><ele>65.69</ele></trkpt>
            <trkpt lat="50.751355" lon="3.872904"><ele>66.62</ele></trkpt>
            <trkpt lat="50.751342" lon="3.873068"><ele>67.52</ele></trkpt>
            <trkpt lat="50.751346" lon="3.873354"><ele>69.07</ele></trkpt>
            <trkpt lat="50.751352" lon="3.873477"><ele>69.65</ele></trkpt>
            <trkpt lat="50.751375" lon="3.873575"><ele>70.06</ele></trkpt>
            <trkpt lat="50.751547" lon="3.873784"><ele>70.93</ele></trkpt>
            <trkpt lat="50.752001" lon="3.874303"><ele>72.06</ele></trkpt>
            <trkpt lat="50.752571" lon="3.874969"><ele>72.52</ele></trkpt>
            <trkpt lat="50.753018" lon="3.875357"><ele>72.41</ele></trkpt>
            <trkpt lat="50.753258" lon="3.875526"><ele>72.08</ele></trkpt>
            <trkpt lat="50.75374" lon="3.875864"><ele>71.42</ele></trkpt>
            <trkpt lat="50.753981" lon="3.876033"><ele>71.09</ele></trkpt>
            <trkpt lat="50.754288" lon="3.876358"><ele>70.68</ele></trkpt>
            <trkpt lat="50.754665" lon="3.876827"><ele>70.06</ele></trkpt>
            <trkpt lat="50.754814" lon="3.877017"><ele>69.97</ele></trkpt>
            <trkpt lat="50.754919" lon="3.877153"><ele>70.04</ele></trkpt>
            <trkpt lat="50.755232" lon="3.877564"><ele>70.23</ele></trkpt>
            <trkpt lat="50.755442" lon="3.877837"><ele>70.36</ele></trkpt>
            <trkpt lat="50.755546" lon="3.877974"><ele>70.42</ele></trkpt>
            <trkpt lat="50.755756" lon="3.878247"><ele>70.55</ele></trkpt>
            <trkpt lat="50.756069" lon="3.878657"><ele>70.75</ele></trkpt>
            <trkpt lat="50.756333" lon="3.87892"><ele>70.69</ele></trkpt>
            <trkpt lat="50.756712" lon="3.879186"><ele>70.44</ele></trkpt>
            <trkpt lat="50.757091" lon="3.879453"><ele>70.19</ele></trkpt>
            <trkpt lat="50.757549" lon="3.87992"><ele>70.22</ele></trkpt>
            <trkpt lat="50.757998" lon="3.880441"><ele>70.27</ele></trkpt>
            <trkpt lat="50.758332" lon="3.880829"><ele>70.26</ele></trkpt>
            <trkpt lat="50.758551" lon="3.881084"><ele>70.2</ele></trkpt>
            <trkpt lat="50.759098" lon="3.881721"><ele>70.06</ele></trkpt>
            <trkpt lat="50.759317" lon="3.881976"><ele>70</ele></trkpt>
            <trkpt lat="50.759646" lon="3.882358"><ele>69.91</ele></trkpt>
            <trkpt lat="50.759865" lon="3.882613"><ele>69.85</ele></trkpt>
            <trkpt lat="50.76016" lon="3.882928"><ele>69.74</ele></trkpt>
            <trkpt lat="50.760381" lon="3.883105"><ele>69.58</ele></trkpt>
            <trkpt lat="50.761028" lon="3.883401"><ele>68.78</ele></trkpt>
            <trkpt lat="50.761267" lon="3.883592"><ele>68.38</ele></trkpt>
            <trkpt lat="50.761507" lon="3.883782"><ele>67.97</ele></trkpt>
            <trkpt lat="50.761813" lon="3.884055"><ele>67.56</ele></trkpt>
            <trkpt lat="50.761943" lon="3.884143"><ele>67.39</ele></trkpt>
            <trkpt lat="50.76205" lon="3.884191"><ele>67.22</ele></trkpt>
            <trkpt lat="50.762449" lon="3.884246"><ele>66.5</ele></trkpt>
            <trkpt lat="50.762538" lon="3.884289"><ele>66.44</ele></trkpt>
            <trkpt lat="50.76259" lon="3.884341"><ele>66.42</ele></trkpt>
            <trkpt lat="50.762882" lon="3.88483"><ele>66.64</ele></trkpt>
            <trkpt lat="50.763116" lon="3.885132"><ele>67.18</ele></trkpt>
            <trkpt lat="50.763389" lon="3.885479"><ele>67.93</ele></trkpt>
            <trkpt lat="50.763765" lon="3.886015"><ele>69.74</ele></trkpt>
            <trkpt lat="50.763954" lon="3.886284"><ele>70.2</ele></trkpt>
            <trkpt lat="50.764144" lon="3.886553"><ele>70.66</ele></trkpt>
            <trkpt lat="50.76441" lon="3.886847"><ele>71.62</ele></trkpt>
            <trkpt lat="50.764731" lon="3.887098"><ele>73.15</ele></trkpt>
            <trkpt lat="50.7649" lon="3.887235"><ele>73.66</ele></trkpt>
            <trkpt lat="50.765172" lon="3.887462"><ele>74.04</ele></trkpt>
            <trkpt lat="50.765282" lon="3.887563"><ele>74.28</ele></trkpt>
            <trkpt lat="50.765722" lon="3.887964"><ele>75.24</ele></trkpt>
            <trkpt lat="50.765872" lon="3.888128"><ele>75.36</ele></trkpt>
            <trkpt lat="50.7660276" lon="3.8882074"><ele>75.14</ele></trkpt>
            <trkpt lat="50.766145" lon="3.888085"><ele>74.96</ele></trkpt>
            <trkpt lat="50.766169" lon="3.887966"><ele>74.7</ele></trkpt>
            <trkpt lat="50.766268" lon="3.887683"><ele>73.89</ele></trkpt>
            <trkpt lat="50.766346" lon="3.887523"><ele>73.39</ele></trkpt>
            <trkpt lat="50.766449" lon="3.887384"><ele>72.97</ele></trkpt>
            <trkpt lat="50.766589" lon="3.887241"><ele>72.5</ele></trkpt>
            <trkpt lat="50.766788" lon="3.887084"><ele>71.66</ele></trkpt>
            <trkpt lat="50.76696" lon="3.88701"><ele>71.06</ele></trkpt>
            <trkpt lat="50.767385" lon="3.886835"><ele>69.99</ele></trkpt>
            <trkpt lat="50.76756" lon="3.886786"><ele>69.42</ele></trkpt>
            <trkpt lat="50.76795" lon="3.886723"><ele>67.88</ele></trkpt>
            <trkpt lat="50.76808" lon="3.886703"><ele>67.37</ele></trkpt>
            <trkpt lat="50.76847" lon="3.88664"><ele>65.83</ele></trkpt>
            <trkpt lat="50.76873" lon="3.886599"><ele>64.8</ele></trkpt>
            <trkpt lat="50.769115" lon="3.886526"><ele>63.69</ele></trkpt>
            <trkpt lat="50.769325" lon="3.886487"><ele>62.77</ele></trkpt>
            <trkpt lat="50.769606" lon="3.88643"><ele>62.08</ele></trkpt>
            <trkpt lat="50.770003" lon="3.886351"><ele>60.57</ele></trkpt>
            <trkpt lat="50.770558" lon="3.886343"><ele>57.92</ele></trkpt>
            <trkpt lat="50.770728" lon="3.886339"><ele>57.25</ele></trkpt>
            <trkpt lat="50.770849" lon="3.886313"><ele>56.96</ele></trkpt>
            <trkpt lat="50.770944" lon="3.886264"><ele>56.79</ele></trkpt>
            <trkpt lat="50.771047" lon="3.886137"><ele>56.46</ele></trkpt>
            <trkpt lat="50.771095" lon="3.886005"><ele>56.08</ele></trkpt>
            <trkpt lat="50.771111" lon="3.885902"><ele>55.79</ele></trkpt>
            <trkpt lat="50.771096" lon="3.885682"><ele>55.16</ele></trkpt>
            <trkpt lat="50.771049" lon="3.885551"><ele>54.75</ele></trkpt>
            <trkpt lat="50.770994" lon="3.885466"><ele>54.42</ele></trkpt>
            <trkpt lat="50.770919" lon="3.885403"><ele>54.06</ele></trkpt>
            <trkpt lat="50.770836" lon="3.885374"><ele>53.72</ele></trkpt>
            <trkpt lat="50.770647" lon="3.885386"><ele>53.12</ele></trkpt>
            <trkpt lat="50.770275" lon="3.885451"><ele>52.28</ele></trkpt>
            <trkpt lat="50.769902" lon="3.885515"><ele>51.45</ele></trkpt>
            <trkpt lat="50.768528" lon="3.885725"><ele>48.79</ele></trkpt>
            <trkpt lat="50.768162" lon="3.885758"><ele>48.25</ele></trkpt>
            <trkpt lat="50.767856" lon="3.885706"><ele>47.4</ele></trkpt>
            <trkpt lat="50.767461" lon="3.885535"><ele>46.14</ele></trkpt>
            <trkpt lat="50.767115" lon="3.885275"><ele>45.4</ele></trkpt>
            <trkpt lat="50.766907" lon="3.885098"><ele>44.79</ele></trkpt>
            <trkpt lat="50.7667" lon="3.88492"><ele>44.19</ele></trkpt>
            <trkpt lat="50.766364" lon="3.884632"><ele>43.45</ele></trkpt>
            <trkpt lat="50.766282" lon="3.884561"><ele>43.18</ele></trkpt>
            <trkpt lat="50.76602" lon="3.884288"><ele>41.84</ele></trkpt>
            <trkpt lat="50.765834" lon="3.884013"><ele>41.02</ele></trkpt>
            <trkpt lat="50.765649" lon="3.883737"><ele>40.19</ele></trkpt>
            <trkpt lat="50.765467" lon="3.883455"><ele>39.07</ele></trkpt>
            <trkpt lat="50.765196" lon="3.883031"><ele>37.4</ele></trkpt>
            <trkpt lat="50.76511" lon="3.882898"><ele>36.95</ele></trkpt>
            <trkpt lat="50.764855" lon="3.882499"><ele>35.59</ele></trkpt>
            <trkpt lat="50.764738" lon="3.882326"><ele>34.78</ele></trkpt>
            <trkpt lat="50.764638" lon="3.882235"><ele>34.07</ele></trkpt>
            <trkpt lat="50.764535" lon="3.88218"><ele>33.48</ele></trkpt>
            <trkpt lat="50.764259" lon="3.882049"><ele>32.22</ele></trkpt>
            <trkpt lat="50.764075" lon="3.881959"><ele>31.55</ele></trkpt>
            <trkpt lat="50.763999" lon="3.8819"><ele>31.26</ele></trkpt>
            <trkpt lat="50.763903" lon="3.881786"><ele>30.84</ele></trkpt>
            <trkpt lat="50.763852" lon="3.88168"><ele>30.48</ele></trkpt>
            <trkpt lat="50.763836" lon="3.881537"><ele>30.05</ele></trkpt>
            <trkpt lat="50.763857" lon="3.881403"><ele>29.64</ele></trkpt>
            <trkpt lat="50.763911" lon="3.881264"><ele>29.23</ele></trkpt>
            <trkpt lat="50.763978" lon="3.881165"><ele>28.88</ele></trkpt>
            <trkpt lat="50.764061" lon="3.881094"><ele>28.49</ele></trkpt>
            <trkpt lat="50.7642" lon="3.881057"><ele>27.85</ele></trkpt>
            <trkpt lat="50.764306" lon="3.881106"><ele>27.39</ele></trkpt>
            <trkpt lat="50.764492" lon="3.881274"><ele>26.68</ele></trkpt>
            <trkpt lat="50.764622" lon="3.881335"><ele>26.36</ele></trkpt>
            <trkpt lat="50.764738" lon="3.881348"><ele>26.14</ele></trkpt>
            <trkpt lat="50.764845" lon="3.88133"><ele>25.95</ele></trkpt>
            <trkpt lat="50.765031" lon="3.881232"><ele>25.45</ele></trkpt>
            <trkpt lat="50.765115" lon="3.881134"><ele>25.09</ele></trkpt>
            <trkpt lat="50.765362" lon="3.880685"><ele>23.73</ele></trkpt>
            <trkpt lat="50.76556" lon="3.880381"><ele>23.16</ele></trkpt>
            <trkpt lat="50.765666" lon="3.880262"><ele>23.05</ele></trkpt>
            <trkpt lat="50.765981" lon="3.879903"><ele>22.73</ele></trkpt>
            <trkpt lat="50.766297" lon="3.879545"><ele>22.41</ele></trkpt>
            <trkpt lat="50.766413" lon="3.879439"><ele>22.17</ele></trkpt>
            <trkpt lat="50.766761" lon="3.879124"><ele>21.45</ele></trkpt>
            <trkpt lat="50.767031" lon="3.878967"><ele>21.13</ele></trkpt>
            <trkpt lat="50.767257" lon="3.8789"><ele>20.77</ele></trkpt>
            <trkpt lat="50.76757" lon="3.878865"><ele>20.24</ele></trkpt>
            <trkpt lat="50.767831" lon="3.878922"><ele>19.86</ele></trkpt>
            <trkpt lat="50.768222" lon="3.879009"><ele>19.29</ele></trkpt>
            <trkpt lat="50.768352" lon="3.879037"><ele>19.1</ele></trkpt>
            <trkpt lat="50.768507" lon="3.879033"><ele>18.85</ele></trkpt>
            <trkpt lat="50.768653" lon="3.878995"><ele>18.65</ele></trkpt>
            <trkpt lat="50.768783" lon="3.878931"><ele>18.49</ele></trkpt>
            <trkpt lat="50.768907" lon="3.878838"><ele>18.36</ele></trkpt>
            <trkpt lat="50.769052" lon="3.878679"><ele>18.21</ele></trkpt>
            <trkpt lat="50.76918" lon="3.878482"><ele>18.09</ele></trkpt>
            <trkpt lat="50.769454" lon="3.877796"><ele>17.71</ele></trkpt>
            <trkpt lat="50.769595" lon="3.877402"><ele>17.94</ele></trkpt>
            <trkpt lat="50.769766" lon="3.876901"><ele>18.64</ele></trkpt>
            <trkpt lat="50.769879" lon="3.876567"><ele>19.11</ele></trkpt>
            <trkpt lat="50.769927" lon="3.876493"><ele>19.22</ele></trkpt>
            <trkpt lat="50.769993" lon="3.876509"><ele>19.31</ele></trkpt>
            <trkpt lat="50.770188" lon="3.876662"><ele>19.52</ele></trkpt>
            <trkpt lat="50.770382" lon="3.876816"><ele>19.73</ele></trkpt>
            <trkpt lat="50.770854" lon="3.87718"><ele>19.74</ele></trkpt>
            <trkpt lat="50.771226" lon="3.877437"><ele>19.5</ele></trkpt>
            <trkpt lat="50.771656" lon="3.877676"><ele>19.16</ele></trkpt>
            <trkpt lat="50.771722" lon="3.877739"><ele>19.07</ele></trkpt>
            <trkpt lat="50.771738" lon="3.8778"><ele>18.99</ele></trkpt>
            <trkpt lat="50.771733" lon="3.877964"><ele>18.78</ele></trkpt>
            <trkpt lat="50.771717" lon="3.878182"><ele>18.46</ele></trkpt>
            <trkpt lat="50.771671" lon="3.878834"><ele>17.48</ele></trkpt>
        </trkseg>
    </trk>
</gpx>
