<?xml version='1.0' encoding='UTF-8'?>
<gpx version="1.1"
  creator="GPXmagic"
  xmlns="http://www.topografix.com/GPX/1/1"
  xmlns:rgt="http://www.rgtcycling.com/XML/GpxExtensions/v1"
  xmlns:xsi="http://www.w3.org/2001/XMLSchema-instance" xsi:schemaLocation="http://www.topografix.com/GPX/1/1
  http://www.topografix.com/GPX/1/1/gpx.xsd">
  <metadata>
    <name>Smoothed with GPXmagic</name>
    <author>
      <link href="https://www.stepwiserefinement.co.uk">
        <text>GPXmagic v3</text>
        <type>text/html</type>
      </link>
    </author>
  </metadata>
<trk>  <name>Tour&#32;de&#32;Gyeongnam&#32;-&#32;S1&#32;-&#32;Geoje</name>
<trkseg>
<trkpt lat="34.7531683" lon="128.6092555"><ele>229.83</ele></trkpt>
<trkpt lat="34.752581199999995" lon="128.6090256"><ele>226.2</ele></trkpt>
<trkpt lat="34.7519845" lon="128.6086407"><ele>222.52</ele></trkpt>
<trkpt lat="34.7518581" lon="128.6086203"><ele>221.85</ele></trkpt>
<trkpt lat="34.7516807" lon="128.6086348"><ele>220.92</ele></trkpt>
<trkpt lat="34.75159910000001" lon="128.6086694"><ele>220.47</ele></trkpt>
<trkpt lat="34.751454700000004" lon="128.6087693"><ele>219.6</ele></trkpt>
<trkpt lat="34.751354" lon="128.6089146"><ele>218.78</ele></trkpt>
<trkpt lat="34.7512754" lon="128.6091405"><ele>217.71</ele></trkpt>
<trkpt lat="34.7512448" lon="128.60935259999997"><ele>216.77</ele></trkpt>
<trkpt lat="34.7511979" lon="128.6099348"><ele>214.1</ele></trkpt>
<trkpt lat="34.75115519999999" lon="128.6100999"><ele>213.28</ele></trkpt>
<trkpt lat="34.75107020000001" lon="128.6102529"><ele>212.39</ele></trkpt>
<trkpt lat="34.750935" lon="128.6103783"><ele>211.37</ele></trkpt>
<trkpt lat="34.7507681" lon="128.6104429"><ele>210.3</ele></trkpt>
<trkpt lat="34.74999040000001" lon="128.6104039"><ele>205.34</ele></trkpt>
<trkpt lat="34.7498824" lon="128.6104281"><ele>204.62</ele></trkpt>
<trkpt lat="34.74977859999999" lon="128.6105112"><ele>203.8</ele></trkpt>
<trkpt lat="34.7496176" lon="128.6106956"><ele>202.32</ele></trkpt>
<trkpt lat="34.749569" lon="128.6107835"><ele>201.73</ele></trkpt>
<trkpt lat="34.74949190000001" lon="128.6109867"><ele>200.49</ele></trkpt>
<trkpt lat="34.7494138" lon="128.6113455"><ele>198.4</ele></trkpt>
<trkpt lat="34.7492663" lon="128.6115863"><ele>196.7</ele></trkpt>
<trkpt lat="34.7491953" lon="128.6116627"><ele>196.04</ele></trkpt>
<trkpt lat="34.7490404" lon="128.6117585"><ele>194.84</ele></trkpt>
<trkpt lat="34.7482522" lon="128.612125"><ele>189.1</ele></trkpt>
<trkpt lat="34.7480821" lon="128.61227300000002"><ele>187.73</ele></trkpt>
<trkpt lat="34.7479481" lon="128.61245639999999"><ele>186.43</ele></trkpt>
<trkpt lat="34.7477669" lon="128.6128768"><ele>184.03</ele></trkpt>
<trkpt lat="34.7476447" lon="128.6130698"><ele>182.86</ele></trkpt>
<trkpt lat="34.7474981" lon="128.61323509999997"><ele>181.73</ele></trkpt>
<trkpt lat="34.7471908" lon="128.6134623"><ele>179.78</ele></trkpt>
<trkpt lat="34.74704299999999" lon="128.6136224"><ele>178.76</ele></trkpt>
<trkpt lat="34.7469655" lon="128.61378820000002"><ele>177.96</ele></trkpt>
<trkpt lat="34.7468702" lon="128.6140875"><ele>176.67</ele></trkpt>
<trkpt lat="34.7467007" lon="128.614444"><ele>175.05</ele></trkpt>
<trkpt lat="34.7466003" lon="128.6145409"><ele>174.44</ele></trkpt>
<trkpt lat="34.7463509" lon="128.61471179999998"><ele>173.09</ele></trkpt>
<trkpt lat="34.7462334" lon="128.6148144"><ele>172.41</ele></trkpt>
<trkpt lat="34.745967" lon="128.6151961"><ele>170.47</ele></trkpt>
<trkpt lat="34.7458311" lon="128.6153299"><ele>169.64</ele></trkpt>
<trkpt lat="34.7457185" lon="128.6153958"><ele>169.05</ele></trkpt>
<trkpt lat="34.7456298" lon="128.6154143"><ele>168.62</ele></trkpt>
<trkpt lat="34.74545059999999" lon="128.61542289999997"><ele>167.76</ele></trkpt>
<trkpt lat="34.7449122" lon="128.6152391"><ele>165.04</ele></trkpt>
<trkpt lat="34.7443912" lon="128.61493830000003"><ele>162.13</ele></trkpt>
<trkpt lat="34.7437425" lon="128.6144034"><ele>157.8</ele></trkpt>
<trkpt lat="34.7434181" lon="128.6141359"><ele>155.42</ele></trkpt>
<trkpt lat="34.7431997" lon="128.6140234"><ele>153.92</ele></trkpt>
<trkpt lat="34.7429198" lon="128.6139567"><ele>152.08</ele></trkpt>
<trkpt lat="34.7424687" lon="128.6140128"><ele>149.12</ele></trkpt>
<trkpt lat="34.7421322" lon="128.6141262"><ele>146.89</ele></trkpt>
<trkpt lat="34.7419634" lon="128.6142594"><ele>145.65</ele></trkpt>
<trkpt lat="34.7411981" lon="128.61494649999997"><ele>140.17</ele></trkpt>
<trkpt lat="34.7409386" lon="128.61508"><ele>138.66</ele></trkpt>
<trkpt lat="34.7406719" lon="128.6151498"><ele>137.24</ele></trkpt>
<trkpt lat="34.7403858" lon="128.6151599"><ele>135.77</ele></trkpt>
<trkpt lat="34.7401901" lon="128.6151261"><ele>134.77</ele></trkpt>
<trkpt lat="34.74007559999999" lon="128.6150681"><ele>134.15</ele></trkpt>
<trkpt lat="34.73969" lon="128.6147608"><ele>131.86</ele></trkpt>
<trkpt lat="34.7395996" lon="128.61470600000004"><ele>131.36</ele></trkpt>
<trkpt lat="34.7394788" lon="128.61466290000004"><ele>130.73</ele></trkpt>
<trkpt lat="34.7392433" lon="128.6146407"><ele>129.54</ele></trkpt>
<trkpt lat="34.7387989" lon="128.6147092"><ele>127.21</ele></trkpt>
<trkpt lat="34.7386196" lon="128.61467650000003"><ele>126.22</ele></trkpt>
<trkpt lat="34.7385229" lon="128.6146219"><ele>125.62</ele></trkpt>
<trkpt lat="34.7383742" lon="128.6144693"><ele>124.49</ele></trkpt>
<trkpt lat="34.7379593" lon="128.613853"><ele>120.38</ele></trkpt>
<trkpt lat="34.7379116" lon="128.6137291"><ele>119.63</ele></trkpt>
<trkpt lat="34.73791729999999" lon="128.6135918"><ele>118.87</ele></trkpt>
<trkpt lat="34.7380894" lon="128.6132181"><ele>116.43</ele></trkpt>
<trkpt lat="34.7381577" lon="128.6129968"><ele>115.07</ele></trkpt>
<trkpt lat="34.738156" lon="128.61285"><ele>114.22</ele></trkpt>
<trkpt lat="34.73807920000001" lon="128.6126541"><ele>112.98</ele></trkpt>
<trkpt lat="34.7380212" lon="128.6125654"><ele>112.34</ele></trkpt>
<trkpt lat="34.737918" lon="128.61245460000004"><ele>111.4</ele></trkpt>
<trkpt lat="34.7375623" lon="128.6122779"><ele>108.86</ele></trkpt>
<trkpt lat="34.7373715" lon="128.6121307"><ele>107.42</ele></trkpt>
<trkpt lat="34.7373244" lon="128.6120708"><ele>107</ele></trkpt>
<trkpt lat="34.7370913" lon="128.6115893"><ele>104.23</ele></trkpt>
<trkpt lat="34.7369281" lon="128.61139319999998"><ele>102.9</ele></trkpt>
<trkpt lat="34.73677519999999" lon="128.6112859"><ele>101.89</ele></trkpt>
<trkpt lat="34.7366022" lon="128.61122670000003"><ele>100.86</ele></trkpt>
<trkpt lat="34.736508" lon="128.611217"><ele>100.32</ele></trkpt>
<trkpt lat="34.7364342" lon="128.6112282"><ele>99.9</ele></trkpt>
<trkpt lat="34.7360753" lon="128.6113838"><ele>97.73</ele></trkpt>
<trkpt lat="34.7357849" lon="128.6115449"><ele>95.89</ele></trkpt>
<trkpt lat="34.7356527" lon="128.6115606"><ele>95.12</ele></trkpt>
<trkpt lat="34.735484" lon="128.6115286"><ele>94.11</ele></trkpt>
<trkpt lat="34.7353722" lon="128.6114799"><ele>93.41</ele></trkpt>
<trkpt lat="34.735262000000006" lon="128.6113916"><ele>92.62</ele></trkpt>
<trkpt lat="34.735208" lon="128.6113182"><ele>92.13</ele></trkpt>
<trkpt lat="34.735039" lon="128.610983"><ele>90.16</ele></trkpt>
<trkpt lat="34.7349525" lon="128.6108834"><ele>89.42</ele></trkpt>
<trkpt lat="34.734830800000005" lon="128.6108223"><ele>88.59</ele></trkpt>
<trkpt lat="34.7346961" lon="128.6108091"><ele>87.74</ele></trkpt>
<trkpt lat="34.734447900000006" lon="128.610817"><ele>86.15</ele></trkpt>
<trkpt lat="34.7340449" lon="128.610861"><ele>83.49</ele></trkpt>
<trkpt lat="34.733239" lon="128.61094890000004"><ele>77.9</ele></trkpt>
<trkpt lat="34.73270500000001" lon="128.6109504"><ele>74.06</ele></trkpt>
<trkpt lat="34.7324707" lon="128.6109706"><ele>72.38</ele></trkpt>
<trkpt lat="34.7322406" lon="128.6110501"><ele>70.72</ele></trkpt>
<trkpt lat="34.7321245" lon="128.6111153"><ele>69.86</ele></trkpt>
<trkpt lat="34.7318515" lon="128.6113404"><ele>67.8</ele></trkpt>
<trkpt lat="34.73150950000001" lon="128.61168970000003"><ele>65.44</ele></trkpt>
<trkpt lat="34.73117580000001" lon="128.6120068"><ele>63.78</ele></trkpt>
<trkpt lat="34.731009" lon="128.6121654"><ele>63.2</ele></trkpt>
<trkpt lat="34.7306753" lon="128.6124825"><ele>62.49</ele></trkpt>
<trkpt lat="34.7304622" lon="128.61266279999998"><ele>62.34</ele></trkpt>
<trkpt lat="34.7303537" lon="128.6127923"><ele>62.32</ele></trkpt>
<trkpt lat="34.7302615" lon="128.6129698"><ele>62.35</ele></trkpt>
<trkpt lat="34.7299123" lon="128.6138459"><ele>62.44</ele></trkpt>
<trkpt lat="34.7298305" lon="128.6140931"><ele>62.26</ele></trkpt>
<trkpt lat="34.7297712" lon="128.61442709999997"><ele>61.76</ele></trkpt>
<trkpt lat="34.7297503" lon="128.6148034"><ele>60.81</ele></trkpt>
<trkpt lat="34.7298025" lon="128.6151399"><ele>59.56</ele></trkpt>
<trkpt lat="34.7299304" lon="128.61562130000002"><ele>57.11</ele></trkpt>
<trkpt lat="34.7301222" lon="128.6163435"><ele>52.39</ele></trkpt>
<trkpt lat="34.7302702" lon="128.616697"><ele>49.58</ele></trkpt>
<trkpt lat="34.7306586" lon="128.6173106"><ele>43.69</ele></trkpt>
<trkpt lat="34.731306" lon="128.6183332"><ele>33.31</ele></trkpt>
<trkpt lat="34.731561" lon="128.618756"><ele>29.08</ele></trkpt>
<trkpt lat="34.7319434" lon="128.61939010000003"><ele>23.06</ele></trkpt>
<trkpt lat="34.732208" lon="128.6198551"><ele>19.25</ele></trkpt>
<trkpt lat="34.7324248" lon="128.6202798"><ele>16.43</ele></trkpt>
<trkpt lat="34.7326416" lon="128.6207046"><ele>14.21</ele></trkpt>
<trkpt lat="34.7327245" lon="128.6209062"><ele>13.42</ele></trkpt>
<trkpt lat="34.7328904" lon="128.6213094"><ele>12.28</ele></trkpt>
<trkpt lat="34.7331457" lon="128.6218515"><ele>11.6</ele></trkpt>
<trkpt lat="34.7332077" lon="128.6220218"><ele>11.59</ele></trkpt>
<trkpt lat="34.7332258" lon="128.6222155"><ele>11.66</ele></trkpt>
<trkpt lat="34.73318869999999" lon="128.6226494"><ele>12.06</ele></trkpt>
<trkpt lat="34.7331923" lon="128.6229483"><ele>12.5</ele></trkpt>
<trkpt lat="34.7332593" lon="128.6232149"><ele>13</ele></trkpt>
<trkpt lat="34.7334288" lon="128.6235569"><ele>13.8</ele></trkpt>
<trkpt lat="34.733579" lon="128.623837"><ele>14.5</ele></trkpt>
<trkpt lat="34.7337949" lon="128.62417390000002"><ele>15.38</ele></trkpt>
<trkpt lat="34.7339317" lon="128.6243355"><ele>15.82</ele></trkpt>
<trkpt lat="34.7341024" lon="128.6244651"><ele>16.25</ele></trkpt>
<trkpt lat="34.7347632" lon="128.6249052"><ele>17.28</ele></trkpt>
<trkpt lat="34.7350169" lon="128.6250006"><ele>17.35</ele></trkpt>
<trkpt lat="34.7354788" lon="128.62507540000001"><ele>17.01</ele></trkpt>
<trkpt lat="34.7356506" lon="128.62515719999996"><ele>16.7</ele></trkpt>
<trkpt lat="34.7357618" lon="128.625246"><ele>16.42</ele></trkpt>
<trkpt lat="34.7361508" lon="128.62578840000003"><ele>14.66</ele></trkpt>
<trkpt lat="34.7366694" lon="128.62651149999996"><ele>11.46</ele></trkpt>
<trkpt lat="34.7370542" lon="128.6272244"><ele>8.66</ele></trkpt>
<trkpt lat="34.7371023" lon="128.6273898"><ele>8.16</ele></trkpt>
<trkpt lat="34.7370962" lon="128.6275058"><ele>7.85</ele></trkpt>
<trkpt lat="34.7370651" lon="128.6277716"><ele>7.21</ele></trkpt>
<trkpt lat="34.7369758" lon="128.6282381"><ele>6.3</ele></trkpt>
<trkpt lat="34.7367677" lon="128.6286934"><ele>5.64</ele></trkpt>
<trkpt lat="34.7365596" lon="128.6291486"><ele>5.32</ele></trkpt>
<trkpt lat="34.7364295" lon="128.6293669"><ele>5.27</ele></trkpt>
<trkpt lat="34.7362863" lon="128.6295873"><ele>5.3</ele></trkpt>
<trkpt lat="34.7361557" lon="128.6297399"><ele>5.38</ele></trkpt>
<trkpt lat="34.736012" lon="128.6298947"><ele>5.51</ele></trkpt>
<trkpt lat="34.7355811" lon="128.6303592"><ele>6.28</ele></trkpt>
<trkpt lat="34.7355304" lon="128.6304362"><ele>6.44</ele></trkpt>
<trkpt lat="34.7354885" lon="128.6305542"><ele>6.66</ele></trkpt>
<trkpt lat="34.7354487" lon="128.6308146"><ele>7.2</ele></trkpt>
<trkpt lat="34.7354106" lon="128.6313573"><ele>8.6</ele></trkpt>
<trkpt lat="34.7353992" lon="128.6319845"><ele>10.78</ele></trkpt>
<trkpt lat="34.7354231" lon="128.63215879999998"><ele>11.51</ele></trkpt>
<trkpt lat="34.7356385" lon="128.6328993"><ele>15.2</ele></trkpt>
<trkpt lat="34.7356544" lon="128.6330198"><ele>15.82</ele></trkpt>
<trkpt lat="34.7356553" lon="128.63326429999998"><ele>17.09</ele></trkpt>
<trkpt lat="34.7356372" lon="128.6333948"><ele>17.78</ele></trkpt>
<trkpt lat="34.7355336" lon="128.633738"><ele>19.68</ele></trkpt>
<trkpt lat="34.7353643" lon="128.63412130000003"><ele>21.87</ele></trkpt>
<trkpt lat="34.73531539999999" lon="128.6343393"><ele>22.95</ele></trkpt>
<trkpt lat="34.735293000000006" lon="128.63455"><ele>23.92</ele></trkpt>
<trkpt lat="34.7353391" lon="128.6348817"><ele>25.37</ele></trkpt>
<trkpt lat="34.7354414" lon="128.6351412"><ele>26.53</ele></trkpt>
<trkpt lat="34.7356324" lon="128.6354518"><ele>28.01</ele></trkpt>
<trkpt lat="34.7361026" lon="128.6361304"><ele>31.36</ele></trkpt>
<trkpt lat="34.736289799999994" lon="128.6363306"><ele>32.61</ele></trkpt>
<trkpt lat="34.7364601" lon="128.6365531"><ele>33.98</ele></trkpt>
<trkpt lat="34.7365733" lon="128.636779"><ele>35.26</ele></trkpt>
<trkpt lat="34.736754100000006" lon="128.6372566"><ele>38.06</ele></trkpt>
<trkpt lat="34.73692189999999" lon="128.6375568"><ele>40.18</ele></trkpt>
<trkpt lat="34.7370936" lon="128.6377488"><ele>41.94</ele></trkpt>
<trkpt lat="34.7374553" lon="128.6380677"><ele>45.43</ele></trkpt>
<trkpt lat="34.7375999" lon="128.6382317"><ele>46.99</ele></trkpt>
<trkpt lat="34.7377263" lon="128.6384844"><ele>48.88</ele></trkpt>
<trkpt lat="34.7378064" lon="128.6388707"><ele>51.33</ele></trkpt>
<trkpt lat="34.7378095" lon="128.6392318"><ele>53.4</ele></trkpt>
<trkpt lat="34.73776939999999" lon="128.6401165"><ele>57.69</ele></trkpt>
<trkpt lat="34.7377174" lon="128.6403874"><ele>58.79</ele></trkpt>
<trkpt lat="34.737669" lon="128.64055730000004"><ele>59.44</ele></trkpt>
<trkpt lat="34.7373261" lon="128.6413137"><ele>62.02</ele></trkpt>
<trkpt lat="34.7369646" lon="128.6420236"><ele>64.06</ele></trkpt>
<trkpt lat="34.7365099" lon="128.6425967"><ele>66.05</ele></trkpt>
<trkpt lat="34.7363328" lon="128.6429104"><ele>67.11</ele></trkpt>
<trkpt lat="34.7362704" lon="128.64305760000002"><ele>67.61</ele></trkpt>
<trkpt lat="34.7361767" lon="128.6433618"><ele>68.66</ele></trkpt>
<trkpt lat="34.7361228" lon="128.64368789999997"><ele>69.85</ele></trkpt>
<trkpt lat="34.7360956" lon="128.6444527"><ele>72.97</ele></trkpt>
<trkpt lat="34.7360683" lon="128.6452176"><ele>76.39</ele></trkpt>
<trkpt lat="34.7360411" lon="128.6459824"><ele>79.66</ele></trkpt>
<trkpt lat="34.7361008" lon="128.6466818"><ele>82.17</ele></trkpt>
<trkpt lat="34.7362196" lon="128.64738159999996"><ele>84.08</ele></trkpt>
<trkpt lat="34.7362988" lon="128.6478482"><ele>85</ele></trkpt>
<trkpt lat="34.7363091" lon="128.6481142"><ele>85.4</ele></trkpt>
<trkpt lat="34.7362887" lon="128.6484409"><ele>85.78</ele></trkpt>
<trkpt lat="34.7361854" lon="128.6491341"><ele>86.13</ele></trkpt>
<trkpt lat="34.736151" lon="128.6493652"><ele>86.1</ele></trkpt>
<trkpt lat="34.7361512" lon="128.6496193"><ele>85.97</ele></trkpt>
<trkpt lat="34.7361843" lon="128.6498193"><ele>85.79</ele></trkpt>
<trkpt lat="34.7363045" lon="128.6501061"><ele>85.35</ele></trkpt>
<trkpt lat="34.7365712" lon="128.6504333"><ele>84.38</ele></trkpt>
<trkpt lat="34.736837900000005" lon="128.6507605"><ele>83.02</ele></trkpt>
<trkpt lat="34.7372727" lon="128.65120400000004"><ele>80.25</ele></trkpt>
<trkpt lat="34.7374272" lon="128.6512829"><ele>79.27</ele></trkpt>
<trkpt lat="34.7375207" lon="128.6512966"><ele>78.68</ele></trkpt>
<trkpt lat="34.7376876" lon="128.6512869"><ele>77.58</ele></trkpt>
<trkpt lat="34.7378432" lon="128.6512214"><ele>76.43</ele></trkpt>
<trkpt lat="34.7379765" lon="128.65109699999996"><ele>75.19</ele></trkpt>
<trkpt lat="34.7381536" lon="128.6508244"><ele>72.92</ele></trkpt>
<trkpt lat="34.7383673" lon="128.6506247"><ele>70.62</ele></trkpt>
<trkpt lat="34.738454" lon="128.65056770000004"><ele>69.75</ele></trkpt>
<trkpt lat="34.7386299" lon="128.6504906"><ele>68.05</ele></trkpt>
<trkpt lat="34.7388538" lon="128.6504497"><ele>65.94</ele></trkpt>
<trkpt lat="34.7390013" lon="128.6504556"><ele>64.54</ele></trkpt>
<trkpt lat="34.73912609999999" lon="128.6504817"><ele>63.34</ele></trkpt>
<trkpt lat="34.7399489" lon="128.6507881"><ele>55.39</ele></trkpt>
<trkpt lat="34.7403197" lon="128.6508477"><ele>52.39</ele></trkpt>
<trkpt lat="34.7407602" lon="128.6508007"><ele>49.47</ele></trkpt>
<trkpt lat="34.74120069999999" lon="128.6507536"><ele>47.4</ele></trkpt>
<trkpt lat="34.741421" lon="128.6507301"><ele>46.72</ele></trkpt>
<trkpt lat="34.7416271" lon="128.6507188"><ele>46.31</ele></trkpt>
<trkpt lat="34.7420393" lon="128.6506963"><ele>46.13</ele></trkpt>
<trkpt lat="34.7422454" lon="128.650685"><ele>46.35</ele></trkpt>
<trkpt lat="34.7426575" lon="128.6506625"><ele>47.33</ele></trkpt>
<trkpt lat="34.7430697" lon="128.6506399"><ele>48.93</ele></trkpt>
<trkpt lat="34.7433068" lon="128.65055879999997"><ele>50.13</ele></trkpt>
<trkpt lat="34.7433763" lon="128.6505166"><ele>50.54</ele></trkpt>
<trkpt lat="34.74352669999999" lon="128.65034680000002"><ele>51.71</ele></trkpt>
<trkpt lat="34.7435669" lon="128.6502761"><ele>52.13</ele></trkpt>
<trkpt lat="34.7436398" lon="128.6500546"><ele>53.35</ele></trkpt>
<trkpt lat="34.7436703" lon="128.649868"><ele>54.38</ele></trkpt>
<trkpt lat="34.7436863" lon="128.6494428"><ele>56.8</ele></trkpt>
<trkpt lat="34.7437105" lon="128.6492399"><ele>58.02</ele></trkpt>
<trkpt lat="34.7440253" lon="128.6478467"><ele>67</ele></trkpt>
<trkpt lat="34.7441302" lon="128.6473823"><ele>69.91</ele></trkpt>
<trkpt lat="34.7442109" lon="128.6471399"><ele>71.42</ele></trkpt>
<trkpt lat="34.7443122" lon="128.6469191"><ele>72.84</ele></trkpt>
<trkpt lat="34.7444329" lon="128.6467077"><ele>74.23</ele></trkpt>
<trkpt lat="34.74485069999999" lon="128.6461509"><ele>78.01</ele></trkpt>
<trkpt lat="34.7452441" lon="128.645726"><ele>80.99</ele></trkpt>
<trkpt lat="34.7453599" lon="128.6455538"><ele>82.01</ele></trkpt>
<trkpt lat="34.7454662" lon="128.6453285"><ele>83.21</ele></trkpt>
<trkpt lat="34.7455296" lon="128.64504859999997"><ele>84.59</ele></trkpt>
<trkpt lat="34.745661" lon="128.6446393"><ele>86.74</ele></trkpt>
<trkpt lat="34.7458158" lon="128.64428889999996"><ele>88.8</ele></trkpt>
<trkpt lat="34.74601539999999" lon="128.644034"><ele>90.69</ele></trkpt>
<trkpt lat="34.7463095" lon="128.64378119999998"><ele>93.12</ele></trkpt>
<trkpt lat="34.746761" lon="128.6435401"><ele>96.53</ele></trkpt>
<trkpt lat="34.7469379" lon="128.6434641"><ele>97.84</ele></trkpt>
<trkpt lat="34.7471241" lon="128.6434373"><ele>99.15</ele></trkpt>
<trkpt lat="34.7473069" lon="128.6434701"><ele>100.43</ele></trkpt>
<trkpt lat="34.7474116" lon="128.643514"><ele>101.19</ele></trkpt>
<trkpt lat="34.7477108" lon="128.6437185"><ele>103.54</ele></trkpt>
<trkpt lat="34.7478774" lon="128.643811"><ele>104.76</ele></trkpt>
<trkpt lat="34.748050899999996" lon="128.6438766"><ele>105.95</ele></trkpt>
<trkpt lat="34.7482493" lon="128.6439107"><ele>107.24</ele></trkpt>
<trkpt lat="34.7484733" lon="128.64391919999997"><ele>108.62</ele></trkpt>
<trkpt lat="34.7492195" lon="128.6438736"><ele>112.59</ele></trkpt>
<trkpt lat="34.7494559" lon="128.64391200000003"><ele>113.56</ele></trkpt>
<trkpt lat="34.749741" lon="128.6439854"><ele>114.5</ele></trkpt>
<trkpt lat="34.74982949999999" lon="128.6440218"><ele>114.73</ele></trkpt>
<trkpt lat="34.7499427" lon="128.6441141"><ele>115.03</ele></trkpt>
<trkpt lat="34.7500899" lon="128.6443327"><ele>115.36</ele></trkpt>
<trkpt lat="34.7503021" lon="128.6445757"><ele>115.52</ele></trkpt>
<trkpt lat="34.7504818" lon="128.64470939999998"><ele>115.46</ele></trkpt>
<trkpt lat="34.7508412" lon="128.6449769"><ele>114.96</ele></trkpt>
<trkpt lat="34.7510501" lon="128.6450972"><ele>114.48</ele></trkpt>
<trkpt lat="34.7512003" lon="128.6451557"><ele>114.08</ele></trkpt>
<trkpt lat="34.7513982" lon="128.6451843"><ele>113.49</ele></trkpt>
<trkpt lat="34.7515365" lon="128.6451771"><ele>113.03</ele></trkpt>
<trkpt lat="34.7516686" lon="128.6450682"><ele>112.46</ele></trkpt>
<trkpt lat="34.7517354" lon="128.6449482"><ele>112</ele></trkpt>
<trkpt lat="34.751757" lon="128.644793"><ele>111.47</ele></trkpt>
<trkpt lat="34.751743" lon="128.64426670000003"><ele>109.58</ele></trkpt>
<trkpt lat="34.751800800000005" lon="128.6439903"><ele>108.49</ele></trkpt>
<trkpt lat="34.7518687" lon="128.6438472"><ele>107.85</ele></trkpt>
<trkpt lat="34.7519291" lon="128.64376440000004"><ele>107.42</ele></trkpt>
<trkpt lat="34.75205429999999" lon="128.6436521"><ele>106.68</ele></trkpt>
<trkpt lat="34.7523317" lon="128.643513"><ele>105.27</ele></trkpt>
<trkpt lat="34.7526958" lon="128.643464"><ele>103.62</ele></trkpt>
<trkpt lat="34.7528196" lon="128.6434224"><ele>103.06</ele></trkpt>
<trkpt lat="34.7529004" lon="128.64336069999996"><ele>102.66</ele></trkpt>
<trkpt lat="34.7530809" lon="128.643146"><ele>101.66</ele></trkpt>
<trkpt lat="34.7532153" lon="128.6430631"><ele>101.09</ele></trkpt>
<trkpt lat="34.7533661" lon="128.6430571"><ele>100.55</ele></trkpt>
<trkpt lat="34.75375999999999" lon="128.6431908"><ele>99.2</ele></trkpt>
<trkpt lat="34.7539026" lon="128.6431785"><ele>98.77</ele></trkpt>
<trkpt lat="34.754011" lon="128.6431371"><ele>98.43</ele></trkpt>
<trkpt lat="34.75411179999999" lon="128.6430204"><ele>98.03</ele></trkpt>
<trkpt lat="34.7542642" lon="128.6427753"><ele>97.33</ele></trkpt>
<trkpt lat="34.7543513" lon="128.6424624"><ele>96.58</ele></trkpt>
<trkpt lat="34.7544726" lon="128.64215209999998"><ele>95.79</ele></trkpt>
<trkpt lat="34.7545395" lon="128.6420571"><ele>95.49</ele></trkpt>
<trkpt lat="34.7546056" lon="128.6420019"><ele>95.25</ele></trkpt>
<trkpt lat="34.7546917" lon="128.64196309999997"><ele>94.98</ele></trkpt>
<trkpt lat="34.7548409" lon="128.64195970000003"><ele>94.51</ele></trkpt>
<trkpt lat="34.7549536" lon="128.6420069"><ele>94.13</ele></trkpt>
<trkpt lat="34.7552432" lon="128.6422128"><ele>92.99</ele></trkpt>
<trkpt lat="34.7553435" lon="128.6422426"><ele>92.62</ele></trkpt>
<trkpt lat="34.7554799" lon="128.6422342"><ele>92.13</ele></trkpt>
<trkpt lat="34.7557689" lon="128.6421787"><ele>91.03</ele></trkpt>
<trkpt lat="34.7563101" lon="128.6420454"><ele>88.87</ele></trkpt>
<trkpt lat="34.7564274" lon="128.641975"><ele>88.35</ele></trkpt>
<trkpt lat="34.7564891" lon="128.6419177"><ele>88.04</ele></trkpt>
<trkpt lat="34.7566336" lon="128.64170409999997"><ele>87.13</ele></trkpt>
<trkpt lat="34.7566891" lon="128.6415642"><ele>86.61</ele></trkpt>
<trkpt lat="34.75670960000001" lon="128.6414674"><ele>86.28</ele></trkpt>
<trkpt lat="34.7567496" lon="128.6407448"><ele>83.81</ele></trkpt>
<trkpt lat="34.7567505" lon="128.64034950000004"><ele>82.38</ele></trkpt>
<trkpt lat="34.7567685" lon="128.6400069"><ele>81.06</ele></trkpt>
<trkpt lat="34.7568012" lon="128.639818"><ele>80.27</ele></trkpt>
<trkpt lat="34.7568614" lon="128.6396459"><ele>79.48</ele></trkpt>
<trkpt lat="34.7569055" lon="128.6395501"><ele>79</ele></trkpt>
<trkpt lat="34.7570686" lon="128.63929489999998"><ele>77.51</ele></trkpt>
<trkpt lat="34.7573905" lon="128.6389013"><ele>74.68</ele></trkpt>
<trkpt lat="34.7578337" lon="128.6384881"><ele>70.79</ele></trkpt>
<trkpt lat="34.75802050000001" lon="128.63835599999996"><ele>69.19</ele></trkpt>
<trkpt lat="34.7580911" lon="128.6383219"><ele>68.61</ele></trkpt>
<trkpt lat="34.7581701" lon="128.6383106"><ele>68</ele></trkpt>
<trkpt lat="34.7584951" lon="128.6383439"><ele>65.43</ele></trkpt>
<trkpt lat="34.7586441" lon="128.6383279"><ele>64.22</ele></trkpt>
<trkpt lat="34.7588096" lon="128.6382587"><ele>62.79</ele></trkpt>
<trkpt lat="34.7594474" lon="128.637882"><ele>56.84</ele></trkpt>
<trkpt lat="34.759830300000004" lon="128.6377008"><ele>53.35</ele></trkpt>
<trkpt lat="34.7603224" lon="128.63754"><ele>49.11</ele></trkpt>
<trkpt lat="34.7607475" lon="128.6374363"><ele>45.69</ele></trkpt>
<trkpt lat="34.7613852" lon="128.6372809"><ele>41.09</ele></trkpt>
<trkpt lat="34.76202289999999" lon="128.6371254"><ele>37.38</ele></trkpt>
<trkpt lat="34.762448" lon="128.6370217"><ele>35.47</ele></trkpt>
<trkpt lat="34.7626606" lon="128.6369699"><ele>34.69</ele></trkpt>
<trkpt lat="34.7628649" lon="128.6369447"><ele>34.06</ele></trkpt>
<trkpt lat="34.7634779" lon="128.6368689"><ele>32.78</ele></trkpt>
<trkpt lat="34.7641881" lon="128.6367426"><ele>32.29</ele></trkpt>
<trkpt lat="34.7643384" lon="128.63664749999998"><ele>32.29</ele></trkpt>
<trkpt lat="34.76448760000001" lon="128.6365087"><ele>32.34</ele></trkpt>
<trkpt lat="34.764776" lon="128.63614580000004"><ele>32.55</ele></trkpt>
<trkpt lat="34.764953" lon="128.6359586"><ele>32.69</ele></trkpt>
<trkpt lat="34.7651395" lon="128.63579989999997"><ele>32.84</ele></trkpt>
<trkpt lat="34.7653348" lon="128.63567560000004"><ele>32.98</ele></trkpt>
<trkpt lat="34.7654404" lon="128.63563279999997"><ele>33.04</ele></trkpt>
<trkpt lat="34.7658645" lon="128.6355716"><ele>33.25</ele></trkpt>
<trkpt lat="34.766199" lon="128.6356017"><ele>33.38</ele></trkpt>
<trkpt lat="34.7664548" lon="128.635669"><ele>33.45</ele></trkpt>
<trkpt lat="34.7669583" lon="128.6358643"><ele>33.55</ele></trkpt>
<trkpt lat="34.7670872" lon="128.6359576"><ele>33.56</ele></trkpt>
<trkpt lat="34.7672017" lon="128.636074"><ele>33.56</ele></trkpt>
<trkpt lat="34.7672954" lon="128.6362048"><ele>33.55</ele></trkpt>
<trkpt lat="34.767584" lon="128.63671809999997"><ele>33.35</ele></trkpt>
<trkpt lat="34.7676921" lon="128.6371871"><ele>32.95</ele></trkpt>
<trkpt lat="34.7679146" lon="128.6376153"><ele>32.22</ele></trkpt>
<trkpt lat="34.7679731" lon="128.6376787"><ele>32.04</ele></trkpt>
<trkpt lat="34.7680863" lon="128.6377582"><ele>31.71</ele></trkpt>
<trkpt lat="34.768398" lon="128.6379371"><ele>30.62</ele></trkpt>
<trkpt lat="34.7685501" lon="128.6379918"><ele>30.02</ele></trkpt>
<trkpt lat="34.7687109" lon="128.6380257"><ele>29.35</ele></trkpt>
<trkpt lat="34.769170300000006" lon="128.6380164"><ele>27.16</ele></trkpt>
<trkpt lat="34.7693582" lon="128.6379583"><ele>26.14</ele></trkpt>
<trkpt lat="34.7698926" lon="128.63767840000003"><ele>22.94</ele></trkpt>
<trkpt lat="34.7701568" lon="128.637613"><ele>21.48</ele></trkpt>
<trkpt lat="34.7703014" lon="128.6375994"><ele>20.71</ele></trkpt>
<trkpt lat="34.7704256" lon="128.6376119"><ele>20.08</ele></trkpt>
<trkpt lat="34.7711158" lon="128.6377772"><ele>16.95</ele></trkpt>
<trkpt lat="34.771342999999995" lon="128.6377986"><ele>16.13</ele></trkpt>
<trkpt lat="34.771978" lon="128.6377327"><ele>14.35</ele></trkpt>
<trkpt lat="34.7720947" lon="128.63775699999997"><ele>14.09</ele></trkpt>
<trkpt lat="34.7721995" lon="128.6378178"><ele>13.86</ele></trkpt>
<trkpt lat="34.77228950000001" lon="128.63791229999998"><ele>13.65</ele></trkpt>
<trkpt lat="34.772409" lon="128.63808199999997"><ele>13.37</ele></trkpt>
<trkpt lat="34.7728992" lon="128.6389874"><ele>12.5</ele></trkpt>
<trkpt lat="34.7732625" lon="128.63953679999997"><ele>12.2</ele></trkpt>
<trkpt lat="34.77383389999999" lon="128.6401019"><ele>11.76</ele></trkpt>
<trkpt lat="34.7747436" lon="128.640947"><ele>10.63</ele></trkpt>
<trkpt lat="34.7755705" lon="128.64182949999997"><ele>9.55</ele></trkpt>
<trkpt lat="34.7760457" lon="128.6422928"><ele>9.22</ele></trkpt>
<trkpt lat="34.7766793" lon="128.6429105"><ele>9.13</ele></trkpt>
<trkpt lat="34.7772803" lon="128.643601"><ele>9.56</ele></trkpt>
<trkpt lat="34.7776992" lon="128.6442251"><ele>10.45</ele></trkpt>
<trkpt lat="34.7782577" lon="128.64505719999997"><ele>12.42</ele></trkpt>
<trkpt lat="34.77839130000001" lon="128.6452935"><ele>13.04</ele></trkpt>
<trkpt lat="34.7786118" lon="128.6458093"><ele>14.31</ele></trkpt>
<trkpt lat="34.7786844" lon="128.6460413"><ele>14.82</ele></trkpt>
<trkpt lat="34.7787778" lon="128.6466847"><ele>16.03</ele></trkpt>
<trkpt lat="34.7788178" lon="128.6468463"><ele>16.3</ele></trkpt>
<trkpt lat="34.7791757" lon="128.64756340000002"><ele>17.54</ele></trkpt>
<trkpt lat="34.77938830000001" lon="128.6481169"><ele>18.44</ele></trkpt>
<trkpt lat="34.7795699" lon="128.64866089999998"><ele>19.36</ele></trkpt>
<trkpt lat="34.7797277" lon="128.64919869999997"><ele>20.25</ele></trkpt>
<trkpt lat="34.779755599999994" lon="128.6493304"><ele>20.44</ele></trkpt>
<trkpt lat="34.7797599" lon="128.6494396"><ele>20.59</ele></trkpt>
<trkpt lat="34.7797537" lon="128.6501786"><ele>21.4</ele></trkpt>
<trkpt lat="34.7795588" lon="128.6508423"><ele>21.76</ele></trkpt>
<trkpt lat="34.77947210000001" lon="128.6512878"><ele>21.84</ele></trkpt>
<trkpt lat="34.7794186" lon="128.65146480000004"><ele>21.87</ele></trkpt>
<trkpt lat="34.7793624" lon="128.6515588"><ele>21.89</ele></trkpt>
<trkpt lat="34.7792939" lon="128.6516217"><ele>21.91</ele></trkpt>
<trkpt lat="34.77907270000001" lon="128.6517192"><ele>22.03</ele></trkpt>
<trkpt lat="34.778599" lon="128.6519731"><ele>22.66</ele></trkpt>
<trkpt lat="34.7784899" lon="128.6520591"><ele>22.93</ele></trkpt>
<trkpt lat="34.77840880000001" lon="128.6521678"><ele>23.24</ele></trkpt>
<trkpt lat="34.77831429999999" lon="128.6523622"><ele>23.81</ele></trkpt>
<trkpt lat="34.7780895" lon="128.6530137"><ele>26.46</ele></trkpt>
<trkpt lat="34.7779238" lon="128.653579"><ele>29.66</ele></trkpt>
<trkpt lat="34.7778735" lon="128.6538107"><ele>31.14</ele></trkpt>
<trkpt lat="34.7778678" lon="128.65389989999997"><ele>31.72</ele></trkpt>
<trkpt lat="34.7778886" lon="128.6540866"><ele>32.97</ele></trkpt>
<trkpt lat="34.7779879" lon="128.6543534"><ele>34.99</ele></trkpt>
<trkpt lat="34.7781614" lon="128.6546709"><ele>37.72</ele></trkpt>
<trkpt lat="34.778375700000005" lon="128.6550139"><ele>40.84</ele></trkpt>
<trkpt lat="34.7784342" lon="128.65515210000004"><ele>41.96</ele></trkpt>
<trkpt lat="34.7784643" lon="128.655278"><ele>42.89</ele></trkpt>
<trkpt lat="34.7784683" lon="128.6553692"><ele>43.54</ele></trkpt>
<trkpt lat="34.7784537" lon="128.6554617"><ele>44.19</ele></trkpt>
<trkpt lat="34.7784178" lon="128.65555790000002"><ele>44.92</ele></trkpt>
<trkpt lat="34.7783548" lon="128.6556396"><ele>45.69</ele></trkpt>
<trkpt lat="34.77828079999999" lon="128.6556696"><ele>46.33</ele></trkpt>
<trkpt lat="34.777464300000005" lon="128.6557852"><ele>52.67</ele></trkpt>
<trkpt lat="34.7772864" lon="128.6558763"><ele>54.08</ele></trkpt>
<trkpt lat="34.7771962" lon="128.6559562"><ele>54.89</ele></trkpt>
<trkpt lat="34.77686849999999" lon="128.6563453"><ele>58.22</ele></trkpt>
<trkpt lat="34.77674970000001" lon="128.6564539"><ele>59.32</ele></trkpt>
<trkpt lat="34.7766495" lon="128.6565057"><ele>60.14</ele></trkpt>
<trkpt lat="34.7763482" lon="128.6566108"><ele>62.56</ele></trkpt>
<trkpt lat="34.7762518" lon="128.6567022"><ele>63.55</ele></trkpt>
<trkpt lat="34.776195" lon="128.65681090000004"><ele>64.41</ele></trkpt>
<trkpt lat="34.7761795" lon="128.6569301"><ele>65.24</ele></trkpt>
<trkpt lat="34.7762007" lon="128.6570699"><ele>66.22</ele></trkpt>
<trkpt lat="34.776270499999995" lon="128.6571963"><ele>67.31</ele></trkpt>
<trkpt lat="34.7763659" lon="128.6572627"><ele>68.27</ele></trkpt>
<trkpt lat="34.7765025" lon="128.6572705"><ele>69.48</ele></trkpt>
<trkpt lat="34.7765937" lon="128.6572058"><ele>70.43</ele></trkpt>
<trkpt lat="34.776809" lon="128.6568932"><ele>73.43</ele></trkpt>
<trkpt lat="34.776900899999994" lon="128.6568154"><ele>74.43</ele></trkpt>
<trkpt lat="34.7774229" lon="128.6565841"><ele>79.16</ele></trkpt>
<trkpt lat="34.7776209" lon="128.6565235"><ele>80.76</ele></trkpt>
<trkpt lat="34.7777435" lon="128.65651900000003"><ele>81.68</ele></trkpt>
<trkpt lat="34.77796649999999" lon="128.656563"><ele>83.24</ele></trkpt>
<trkpt lat="34.77834210000001" lon="128.6567355"><ele>85.65</ele></trkpt>
<trkpt lat="34.7787177" lon="128.6569081"><ele>87.63</ele></trkpt>
<trkpt lat="34.779040300000005" lon="128.6570075"><ele>88.97</ele></trkpt>
<trkpt lat="34.7795222" lon="128.6570006"><ele>90.57</ele></trkpt>
<trkpt lat="34.7799094" lon="128.65702349999998"><ele>91.68</ele></trkpt>
<trkpt lat="34.7804213" lon="128.6571872"><ele>93.17</ele></trkpt>
<trkpt lat="34.7806738" lon="128.6572969"><ele>93.96</ele></trkpt>
<trkpt lat="34.7808158" lon="128.6573981"><ele>94.48</ele></trkpt>
<trkpt lat="34.7808953" lon="128.6574842"><ele>94.83</ele></trkpt>
<trkpt lat="34.7810787" lon="128.6577358"><ele>95.8</ele></trkpt>
<trkpt lat="34.78141290000001" lon="128.6581353"><ele>97.69</ele></trkpt>
<trkpt lat="34.7815702" lon="128.6582419"><ele>98.51</ele></trkpt>
<trkpt lat="34.7820419" lon="128.6585617"><ele>101.3</ele></trkpt>
<trkpt lat="34.7826603" lon="128.659007"><ele>105.73</ele></trkpt>
<trkpt lat="34.783121200000004" lon="128.659207"><ele>109.08</ele></trkpt>
<trkpt lat="34.7831963" lon="128.659254"><ele>109.67</ele></trkpt>
<trkpt lat="34.7832549" lon="128.6593211"><ele>110.24</ele></trkpt>
<trkpt lat="34.7832944" lon="128.6594096"><ele>110.83</ele></trkpt>
<trkpt lat="34.7833083" lon="128.6594999"><ele>111.37</ele></trkpt>
<trkpt lat="34.7833086" lon="128.65998759999997"><ele>114.26</ele></trkpt>
<trkpt lat="34.7832931" lon="128.6601489"><ele>115.22</ele></trkpt>
<trkpt lat="34.7832427" lon="128.6603857"><ele>116.67</ele></trkpt>
<trkpt lat="34.783196" lon="128.6604985"><ele>117.42</ele></trkpt>
<trkpt lat="34.7831554" lon="128.6605562"><ele>117.86</ele></trkpt>
<trkpt lat="34.7827711" lon="128.6609366"><ele>121.39</ele></trkpt>
<trkpt lat="34.7826508" lon="128.6611019"><ele>122.65</ele></trkpt>
<trkpt lat="34.7825265" lon="128.6614117"><ele>124.56</ele></trkpt>
<trkpt lat="34.782488" lon="128.6616024"><ele>125.61</ele></trkpt>
<trkpt lat="34.7824845" lon="128.6617267"><ele>126.26</ele></trkpt>
<trkpt lat="34.7824973" lon="128.6618072"><ele>126.68</ele></trkpt>
<trkpt lat="34.78267" lon="128.6622672"><ele>129.04</ele></trkpt>
<trkpt lat="34.7829465" lon="128.66285330000002"><ele>131.55</ele></trkpt>
<trkpt lat="34.7829665" lon="128.6630379"><ele>132.09</ele></trkpt>
<trkpt lat="34.78295260000001" lon="128.663151"><ele>132.39</ele></trkpt>
<trkpt lat="34.78290899999999" lon="128.6632325"><ele>132.63</ele></trkpt>
<trkpt lat="34.78285650000001" lon="128.6632822"><ele>132.81</ele></trkpt>
<trkpt lat="34.7826619" lon="128.6634088"><ele>133.33</ele></trkpt>
<trkpt lat="34.782077900000004" lon="128.66378849999998"><ele>134.38</ele></trkpt>
<trkpt lat="34.7820119" lon="128.66388759999998"><ele>134.5</ele></trkpt>
<trkpt lat="34.7819528" lon="128.66410869999999"><ele>134.71</ele></trkpt>
<trkpt lat="34.7819462" lon="128.6642111"><ele>134.8</ele></trkpt>
<trkpt lat="34.7820137" lon="128.6649415"><ele>135.49</ele></trkpt>
<trkpt lat="34.7821038" lon="128.6659154"><ele>136.73</ele></trkpt>
<trkpt lat="34.7822189" lon="128.6663041"><ele>137.26</ele></trkpt>
<trkpt lat="34.7822726" lon="128.6664068"><ele>137.39</ele></trkpt>
<trkpt lat="34.782310800000005" lon="128.6664504"><ele>137.46</ele></trkpt>
<trkpt lat="34.7824312" lon="128.666533"><ele>137.61</ele></trkpt>
<trkpt lat="34.7825345" lon="128.6665689"><ele>137.71</ele></trkpt>
<trkpt lat="34.7826491" lon="128.6665758"><ele>137.78</ele></trkpt>
<trkpt lat="34.7827757" lon="128.66653"><ele>137.82</ele></trkpt>
<trkpt lat="34.7828476" lon="128.6664811"><ele>137.81</ele></trkpt>
<trkpt lat="34.7832437" lon="128.6661074"><ele>137.3</ele></trkpt>
<trkpt lat="34.7833947" lon="128.66601219999998"><ele>136.91</ele></trkpt>
<trkpt lat="34.7834603" lon="128.6659958"><ele>136.73</ele></trkpt>
<trkpt lat="34.7835193" lon="128.6660057"><ele>136.54</ele></trkpt>
<trkpt lat="34.783587700000005" lon="128.666045"><ele>136.29</ele></trkpt>
<trkpt lat="34.783643" lon="128.6661004"><ele>136.02</ele></trkpt>
<trkpt lat="34.7838195" lon="128.6664195"><ele>134.59</ele></trkpt>
<trkpt lat="34.7839148" lon="128.6666537"><ele>133.41</ele></trkpt>
<trkpt lat="34.7841054" lon="128.6671222"><ele>130.64</ele></trkpt>
<trkpt lat="34.7841562" lon="128.66737089999998"><ele>129.11</ele></trkpt>
<trkpt lat="34.7841435" lon="128.6678388"><ele>126.11</ele></trkpt>
<trkpt lat="34.7841554" lon="128.667952"><ele>125.34</ele></trkpt>
<trkpt lat="34.7842124" lon="128.66812940000003"><ele>124.04</ele></trkpt>
<trkpt lat="34.7842475" lon="128.6681862"><ele>123.55</ele></trkpt>
<trkpt lat="34.7844514" lon="128.66836270000002"><ele>121.41</ele></trkpt>
<trkpt lat="34.7845178" lon="128.6684446"><ele>120.59</ele></trkpt>
<trkpt lat="34.7846867" lon="128.6689118"><ele>116.92</ele></trkpt>
<trkpt lat="34.7847932" lon="128.6691162"><ele>115.18</ele></trkpt>
<trkpt lat="34.784881500000004" lon="128.66922910000002"><ele>114.06</ele></trkpt>
<trkpt lat="34.785152" lon="128.6694753"><ele>111.12</ele></trkpt>
<trkpt lat="34.7855468" lon="128.66967639999996"><ele>107.46</ele></trkpt>
<trkpt lat="34.785717" lon="128.66986719999997"><ele>105.52</ele></trkpt>
<trkpt lat="34.785776000000006" lon="128.6699917"><ele>104.54</ele></trkpt>
<trkpt lat="34.7857962" lon="128.67010150000002"><ele>103.79</ele></trkpt>
<trkpt lat="34.7858178" lon="128.6708167"><ele>99.17</ele></trkpt>
<trkpt lat="34.7859038" lon="128.6710264"><ele>97.73</ele></trkpt>
<trkpt lat="34.7860167" lon="128.6711622"><ele>96.57</ele></trkpt>
<trkpt lat="34.7862169" lon="128.6713197"><ele>94.89</ele></trkpt>
<trkpt lat="34.7862734" lon="128.67134590000003"><ele>94.47</ele></trkpt>
<trkpt lat="34.7863784" lon="128.6713542"><ele>93.76</ele></trkpt>
<trkpt lat="34.7864577" lon="128.6713112"><ele>93.17</ele></trkpt>
<trkpt lat="34.7865114" lon="128.6711992"><ele>92.47</ele></trkpt>
<trkpt lat="34.786595" lon="128.6708101"><ele>90.31</ele></trkpt>
<trkpt lat="34.78667239999999" lon="128.670678"><ele>89.45</ele></trkpt>
<trkpt lat="34.7867203" lon="128.67063229999997"><ele>89.06</ele></trkpt>
<trkpt lat="34.7869962" lon="128.6704636"><ele>87.05</ele></trkpt>
<trkpt lat="34.7872346" lon="128.67018800000002"><ele>84.86</ele></trkpt>
<trkpt lat="34.7875396" lon="128.6700529"><ele>82.59</ele></trkpt>
<trkpt lat="34.7876573" lon="128.6699248"><ele>81.43</ele></trkpt>
<trkpt lat="34.787716999999994" lon="128.6697203"><ele>80.09</ele></trkpt>
<trkpt lat="34.787731" lon="128.6692972"><ele>77.34</ele></trkpt>
<trkpt lat="34.7877931" lon="128.66914299999996"><ele>76.18</ele></trkpt>
<trkpt lat="34.7878569" lon="128.6690643"><ele>75.41</ele></trkpt>
<trkpt lat="34.7880422" lon="128.6689205"><ele>73.53</ele></trkpt>
<trkpt lat="34.7882016" lon="128.6688715"><ele>72.09</ele></trkpt>
<trkpt lat="34.7887834" lon="128.6687719"><ele>66.79</ele></trkpt>
<trkpt lat="34.7889279" lon="128.66869849999998"><ele>65.35</ele></trkpt>
<trkpt lat="34.7890345" lon="128.668615"><ele>64.2</ele></trkpt>
<trkpt lat="34.7890807" lon="128.6685518"><ele>63.56</ele></trkpt>
<trkpt lat="34.789112200000005" lon="128.6684733"><ele>62.91</ele></trkpt>
<trkpt lat="34.7892509" lon="128.6678193"><ele>57.95</ele></trkpt>
<trkpt lat="34.7893544" lon="128.66749150000004"><ele>55.47</ele></trkpt>
<trkpt lat="34.7894494" lon="128.667288"><ele>53.87</ele></trkpt>
<trkpt lat="34.78954040000001" lon="128.66717949999997"><ele>52.85</ele></trkpt>
<trkpt lat="34.7900681" lon="128.6667496"><ele>48.15</ele></trkpt>
<trkpt lat="34.790419899999996" lon="128.666463"><ele>45.48</ele></trkpt>
<trkpt lat="34.7907817" lon="128.6661895"><ele>43.2</ele></trkpt>
<trkpt lat="34.7909788" lon="128.6660633"><ele>42.15</ele></trkpt>
<trkpt lat="34.79157" lon="128.6656845"><ele>39.45</ele></trkpt>
<trkpt lat="34.7921082" lon="128.6653168"><ele>37.28</ele></trkpt>
<trkpt lat="34.7924622" lon="128.6649398"><ele>35.63</ele></trkpt>
<trkpt lat="34.7930296" lon="128.6642193"><ele>32.73</ele></trkpt>
<trkpt lat="34.7936259" lon="128.6633689"><ele>29.89</ele></trkpt>
<trkpt lat="34.7941434" lon="128.6626716"><ele>28.13</ele></trkpt>
<trkpt lat="34.79440220000001" lon="128.6623229"><ele>27.48</ele></trkpt>
<trkpt lat="34.7945014" lon="128.66223340000002"><ele>27.3</ele></trkpt>
<trkpt lat="34.7947131" lon="128.6621102"><ele>27</ele></trkpt>
<trkpt lat="34.794819700000005" lon="128.6620716"><ele>26.89</ele></trkpt>
<trkpt lat="34.7948795" lon="128.6620656"><ele>26.83</ele></trkpt>
<trkpt lat="34.7949723" lon="128.6620891"><ele>26.75</ele></trkpt>
<trkpt lat="34.7950377" lon="128.6621331"><ele>26.7</ele></trkpt>
<trkpt lat="34.7952645" lon="128.66237559999996"><ele>26.56</ele></trkpt>
<trkpt lat="34.79584450000001" lon="128.6630502"><ele>26.82</ele></trkpt>
<trkpt lat="34.795957" lon="128.6632508"><ele>27.04</ele></trkpt>
<trkpt lat="34.7959984" lon="128.6634128"><ele>27.23</ele></trkpt>
<trkpt lat="34.7960181" lon="128.66358990000003"><ele>27.47</ele></trkpt>
<trkpt lat="34.7960089" lon="128.663998"><ele>28.13</ele></trkpt>
<trkpt lat="34.7959599" lon="128.6644171"><ele>29.01</ele></trkpt>
<trkpt lat="34.7958014" lon="128.66539"><ele>31.9</ele></trkpt>
<trkpt lat="34.79579410000001" lon="128.6655216"><ele>32.38</ele></trkpt>
<trkpt lat="34.795815299999994" lon="128.6657383"><ele>33.26</ele></trkpt>
<trkpt lat="34.79586479999999" lon="128.6658815"><ele>33.94</ele></trkpt>
<trkpt lat="34.7960025" lon="128.6661822"><ele>35.61</ele></trkpt>
<trkpt lat="34.7962024" lon="128.66650610000002"><ele>37.88</ele></trkpt>
<trkpt lat="34.7965525" lon="128.6668757"><ele>41.58</ele></trkpt>
<trkpt lat="34.7966981" lon="128.6669797"><ele>43.07</ele></trkpt>
<trkpt lat="34.7967854" lon="128.6670172"><ele>43.91</ele></trkpt>
<trkpt lat="34.79687500000001" lon="128.6670181"><ele>44.74</ele></trkpt>
<trkpt lat="34.7969688" lon="128.66699209999996"><ele>45.65</ele></trkpt>
<trkpt lat="34.7975963" lon="128.6667647"><ele>52.06</ele></trkpt>
<trkpt lat="34.7977982" lon="128.6666469"><ele>54.25</ele></trkpt>
<trkpt lat="34.7978859" lon="128.6665587"><ele>55.34</ele></trkpt>
<trkpt lat="34.7979731" lon="128.6663799"><ele>56.94</ele></trkpt>
<trkpt lat="34.798013" lon="128.66621260000002"><ele>58.24</ele></trkpt>
<trkpt lat="34.7979915" lon="128.6656963"><ele>61.83</ele></trkpt>
<trkpt lat="34.7979807" lon="128.6654382"><ele>63.44</ele></trkpt>
<trkpt lat="34.7979832" lon="128.6652206"><ele>64.69</ele></trkpt>
<trkpt lat="34.798035399999996" lon="128.6649747"><ele>66.01</ele></trkpt>
<trkpt lat="34.7981733" lon="128.6645345"><ele>68.06</ele></trkpt>
<trkpt lat="34.7982962" lon="128.6642731"><ele>69.08</ele></trkpt>
<trkpt lat="34.7983374" lon="128.6642079"><ele>69.31</ele></trkpt>
<trkpt lat="34.7984377" lon="128.6641025"><ele>69.72</ele></trkpt>
<trkpt lat="34.7986383" lon="128.66401200000004"><ele>70.24</ele></trkpt>
<trkpt lat="34.7987353" lon="128.6639882"><ele>70.43</ele></trkpt>
<trkpt lat="34.7989383" lon="128.6639971"><ele>70.71</ele></trkpt>
<trkpt lat="34.7993363" lon="128.66414559999998"><ele>70.89</ele></trkpt>
<trkpt lat="34.7995353" lon="128.6642198"><ele>70.79</ele></trkpt>
<trkpt lat="34.7997697" lon="128.6642669"><ele>70.55</ele></trkpt>
<trkpt lat="34.7998994" lon="128.6642372"><ele>70.35</ele></trkpt>
<trkpt lat="34.8002009" lon="128.6640993"><ele>69.74</ele></trkpt>
<trkpt lat="34.8003449" lon="128.66405869999997"><ele>69.41</ele></trkpt>
<trkpt lat="34.8012426" lon="128.6640683"><ele>67.3</ele></trkpt>
<trkpt lat="34.8020818" lon="128.663919"><ele>66.03</ele></trkpt>
<trkpt lat="34.802267699999994" lon="128.6639078"><ele>65.92</ele></trkpt>
<trkpt lat="34.802423" lon="128.6639476"><ele>65.88</ele></trkpt>
<trkpt lat="34.8025874" lon="128.66404510000004"><ele>65.87</ele></trkpt>
<trkpt lat="34.8028994" lon="128.6644388"><ele>66.01</ele></trkpt>
<trkpt lat="34.80301020000001" lon="128.6645385"><ele>66.08</ele></trkpt>
<trkpt lat="34.8031007" lon="128.66458690000002"><ele>66.13</ele></trkpt>
<trkpt lat="34.8032043" lon="128.66461400000003"><ele>66.17</ele></trkpt>
<trkpt lat="34.8033013" lon="128.6646109"><ele>66.21</ele></trkpt>
<trkpt lat="34.8037315" lon="128.6644714"><ele>66.29</ele></trkpt>
<trkpt lat="34.8038122" lon="128.6644599"><ele>66.28</ele></trkpt>
<trkpt lat="34.8045635" lon="128.6645664"><ele>65.68</ele></trkpt>
<trkpt lat="34.8047586" lon="128.6646245"><ele>65.35</ele></trkpt>
<trkpt lat="34.804887400000005" lon="128.6647003"><ele>65.07</ele></trkpt>
<trkpt lat="34.8053789" lon="128.6651754"><ele>63.41</ele></trkpt>
<trkpt lat="34.8054911" lon="128.66524410000002"><ele>62.99</ele></trkpt>
<trkpt lat="34.8056105" lon="128.6652566"><ele>62.56</ele></trkpt>
<trkpt lat="34.8057381" lon="128.6652265"><ele>62.06</ele></trkpt>
<trkpt lat="34.8060927" lon="128.6649672"><ele>60.27</ele></trkpt>
<trkpt lat="34.8062554" lon="128.6649313"><ele>59.46</ele></trkpt>
<trkpt lat="34.8063383" lon="128.6649421"><ele>59.04</ele></trkpt>
<trkpt lat="34.8065625" lon="128.6650181"><ele>57.77</ele></trkpt>
<trkpt lat="34.8070931" lon="128.665253"><ele>54.33</ele></trkpt>
<trkpt lat="34.8073299" lon="128.6652981"><ele>52.75</ele></trkpt>
<trkpt lat="34.8075969" lon="128.6652884"><ele>50.92</ele></trkpt>
<trkpt lat="34.808519800000006" lon="128.6650507"><ele>44.13</ele></trkpt>
<trkpt lat="34.8088878" lon="128.6650109"><ele>41.4</ele></trkpt>
<trkpt lat="34.8090981" lon="128.6650222"><ele>39.84</ele></trkpt>
<trkpt lat="34.80999400000001" lon="128.6651732"><ele>33.15</ele></trkpt>
<trkpt lat="34.8101889" lon="128.6652334"><ele>31.71</ele></trkpt>
<trkpt lat="34.81090940000001" lon="128.6656641"><ele>26.36</ele></trkpt>
<trkpt lat="34.8112696" lon="128.6658794"><ele>24.08</ele></trkpt>
<trkpt lat="34.8118163" lon="128.6662508"><ele>21.18</ele></trkpt>
<trkpt lat="34.81238569999999" lon="128.6666113"><ele>19.01</ele></trkpt>
<trkpt lat="34.8127653" lon="128.6668517"><ele>17.94</ele></trkpt>
<trkpt lat="34.8128977" lon="128.66696150000004"><ele>17.6</ele></trkpt>
<trkpt lat="34.8131888" lon="128.66742930000004"><ele>16.81</ele></trkpt>
<trkpt lat="34.8135515" lon="128.6680865"><ele>16.23</ele></trkpt>
<trkpt lat="34.8137932" lon="128.6685246"><ele>16.23</ele></trkpt>
<trkpt lat="34.814035" lon="128.6689627"><ele>16.62</ele></trkpt>
<trkpt lat="34.814276799999995" lon="128.66940079999998"><ele>17.51</ele></trkpt>
<trkpt lat="34.8143976" lon="128.6696199"><ele>18.16</ele></trkpt>
<trkpt lat="34.8146394" lon="128.670058"><ele>19.92</ele></trkpt>
<trkpt lat="34.814791" lon="128.6702689"><ele>21.11</ele></trkpt>
<trkpt lat="34.8149646" lon="128.6704422"><ele>22.44</ele></trkpt>
<trkpt lat="34.815541" lon="128.6708306"><ele>27.09</ele></trkpt>
<trkpt lat="34.8159252" lon="128.6710896"><ele>30.66</ele></trkpt>
<trkpt lat="34.8160982" lon="128.6712329"><ele>32.44</ele></trkpt>
<trkpt lat="34.8162404" lon="128.671399"><ele>34.15</ele></trkpt>
<trkpt lat="34.8163265" lon="128.6715389"><ele>35.4</ele></trkpt>
<trkpt lat="34.8163995" lon="128.6717027"><ele>36.74</ele></trkpt>
<trkpt lat="34.8164746" lon="128.6719865"><ele>38.89</ele></trkpt>
<trkpt lat="34.8165188" lon="128.6722312"><ele>40.68</ele></trkpt>
<trkpt lat="34.8165288" lon="128.67245919999996"><ele>42.29</ele></trkpt>
<trkpt lat="34.816498900000006" lon="128.6727119"><ele>44.08</ele></trkpt>
<trkpt lat="34.8164271" lon="128.6729434"><ele>45.77</ele></trkpt>
<trkpt lat="34.8163012" lon="128.6731956"><ele>47.74</ele></trkpt>
<trkpt lat="34.8159916" lon="128.673677"><ele>51.57</ele></trkpt>
<trkpt lat="34.8158244" lon="128.6739815"><ele>53.67</ele></trkpt>
<trkpt lat="34.815779" lon="128.674129"><ele>54.51</ele></trkpt>
<trkpt lat="34.8157503" lon="128.6743023"><ele>55.43</ele></trkpt>
<trkpt lat="34.8157067" lon="128.67513870000002"><ele>59.13</ele></trkpt>
<trkpt lat="34.8156691" lon="128.6752794"><ele>59.68</ele></trkpt>
<trkpt lat="34.8155671" lon="128.6754854"><ele>60.5</ele></trkpt>
<trkpt lat="34.8154648" lon="128.6756362"><ele>61.11</ele></trkpt>
<trkpt lat="34.8151932" lon="128.6759707"><ele>62.4</ele></trkpt>
<trkpt lat="34.8150484" lon="128.6766855"><ele>64.07</ele></trkpt>
<trkpt lat="34.8148552" lon="128.6776387"><ele>66.18</ele></trkpt>
<trkpt lat="34.8147587" lon="128.6781152"><ele>67.43</ele></trkpt>
<trkpt lat="34.8147042" lon="128.6782961"><ele>67.97</ele></trkpt>
<trkpt lat="34.8147146" lon="128.67842960000002"><ele>68.38</ele></trkpt>
<trkpt lat="34.8147632" lon="128.67847820000003"><ele>68.62</ele></trkpt>
<trkpt lat="34.8148259" lon="128.6784813"><ele>68.86</ele></trkpt>
<trkpt lat="34.8149133" lon="128.6783789"><ele>69.36</ele></trkpt>
<trkpt lat="34.81507040000001" lon="128.67777219999996"><ele>71.68</ele></trkpt>
<trkpt lat="34.8151516" lon="128.6775491"><ele>72.64</ele></trkpt>
<trkpt lat="34.8152467" lon="128.677358"><ele>73.54</ele></trkpt>
<trkpt lat="34.8153604" lon="128.6771818"><ele>74.45</ele></trkpt>
<trkpt lat="34.8158983" lon="128.6765915"><ele>78.05</ele></trkpt>
<trkpt lat="34.816151399999995" lon="128.67639330000003"><ele>79.5</ele></trkpt>
<trkpt lat="34.8166181" lon="128.6761561"><ele>81.84</ele></trkpt>
<trkpt lat="34.8169164" lon="128.6759045"><ele>83.45</ele></trkpt>
<trkpt lat="34.8170058" lon="128.6757671"><ele>84.07</ele></trkpt>
<trkpt lat="34.8171917" lon="128.6752076"><ele>86.17</ele></trkpt>
<trkpt lat="34.8173874" lon="128.6747571"><ele>87.93</ele></trkpt>
<trkpt lat="34.8174337" lon="128.6746619"><ele>88.32</ele></trkpt>
<trkpt lat="34.8175205" lon="128.67453909999998"><ele>88.9</ele></trkpt>
<trkpt lat="34.8176415" lon="128.674405"><ele>89.63</ele></trkpt>
<trkpt lat="34.8177299" lon="128.6743668"><ele>90.05</ele></trkpt>
<trkpt lat="34.8180474" lon="128.6743209"><ele>91.59</ele></trkpt>
<trkpt lat="34.8181706" lon="128.6742858"><ele>92.23</ele></trkpt>
<trkpt lat="34.818276399999995" lon="128.674216"><ele>92.87</ele></trkpt>
<trkpt lat="34.81834369999999" lon="128.6741483"><ele>93.35</ele></trkpt>
<trkpt lat="34.8184127" lon="128.6740522"><ele>93.94</ele></trkpt>
<trkpt lat="34.818475400000004" lon="128.6739195"><ele>94.68</ele></trkpt>
<trkpt lat="34.8185853" lon="128.673529"><ele>96.81</ele></trkpt>
<trkpt lat="34.81861099999999" lon="128.6732583"><ele>98.32</ele></trkpt>
<trkpt lat="34.8186315" lon="128.67318060000002"><ele>98.79</ele></trkpt>
<trkpt lat="34.8186783" lon="128.6730884"><ele>99.42</ele></trkpt>
<trkpt lat="34.8187932" lon="128.6729613"><ele>100.55</ele></trkpt>
<trkpt lat="34.8191852" lon="128.6727474"><ele>103.78</ele></trkpt>
<trkpt lat="34.81927379999999" lon="128.6726712"><ele>104.61</ele></trkpt>
<trkpt lat="34.8193347" lon="128.672577"><ele>105.37</ele></trkpt>
<trkpt lat="34.8193535" lon="128.6724601"><ele>106.12</ele></trkpt>
<trkpt lat="34.81934009999999" lon="128.6723162"><ele>107.03</ele></trkpt>
<trkpt lat="34.8193069" lon="128.6722018"><ele>107.79</ele></trkpt>
<trkpt lat="34.8192487" lon="128.6721027"><ele>108.56</ele></trkpt>
<trkpt lat="34.8191554" lon="128.6720077"><ele>109.47</ele></trkpt>
<trkpt lat="34.8187527" lon="128.6716734"><ele>113.07</ele></trkpt>
<trkpt lat="34.8186469" lon="128.6715165"><ele>114.26</ele></trkpt>
<trkpt lat="34.8186093" lon="128.6713881"><ele>115.05</ele></trkpt>
<trkpt lat="34.8186073" lon="128.67125839999997"><ele>115.8</ele></trkpt>
<trkpt lat="34.8186338" lon="128.6711381"><ele>116.51</ele></trkpt>
<trkpt lat="34.8189693" lon="128.6700316"><ele>122.97</ele></trkpt>
<trkpt lat="34.8190294" lon="128.66982110000004"><ele>124.14</ele></trkpt>
<trkpt lat="34.819036" lon="128.6697299"><ele>124.61</ele></trkpt>
<trkpt lat="34.81901930000001" lon="128.66882290000004"><ele>129.07</ele></trkpt>
<trkpt lat="34.8189965" lon="128.6685687"><ele>130.23</ele></trkpt>
<trkpt lat="34.8189325" lon="128.66830449999998"><ele>131.44</ele></trkpt>
<trkpt lat="34.81888510000001" lon="128.6681733"><ele>132.04</ele></trkpt>
<trkpt lat="34.818623499999994" lon="128.667658"><ele>134.46</ele></trkpt>
<trkpt lat="34.8185982" lon="128.6675448"><ele>134.9</ele></trkpt>
<trkpt lat="34.81860240000001" lon="128.6674135"><ele>135.39</ele></trkpt>
<trkpt lat="34.8186599" lon="128.6671632"><ele>136.35</ele></trkpt>
<trkpt lat="34.8189693" lon="128.6661791"><ele>140.21</ele></trkpt>
<trkpt lat="34.8190422" lon="128.6660473"><ele>140.81</ele></trkpt>
<trkpt lat="34.8194039" lon="128.6655453"><ele>143.44</ele></trkpt>
<trkpt lat="34.81968260000001" lon="128.6653289"><ele>145.13</ele></trkpt>
<trkpt lat="34.8203079" lon="128.6652277"><ele>148.58</ele></trkpt>
<trkpt lat="34.8203899" lon="128.6651879"><ele>149.09</ele></trkpt>
<trkpt lat="34.8204738" lon="128.66507940000002"><ele>149.79</ele></trkpt>
<trkpt lat="34.820498699999995" lon="128.664984"><ele>150.27</ele></trkpt>
<trkpt lat="34.8204958" lon="128.66483210000004"><ele>151</ele></trkpt>
<trkpt lat="34.8204278" lon="128.6644914"><ele>152.7</ele></trkpt>
<trkpt lat="34.8204533" lon="128.6642913"><ele>153.69</ele></trkpt>
<trkpt lat="34.8205663" lon="128.6637798"><ele>156.26</ele></trkpt>
<trkpt lat="34.820568" lon="128.6636384"><ele>156.95</ele></trkpt>
<trkpt lat="34.8205199" lon="128.663414"><ele>158.07</ele></trkpt>
<trkpt lat="34.8204735" lon="128.6633035"><ele>158.67</ele></trkpt>
<trkpt lat="34.8201268" lon="128.66269380000003"><ele>162.28</ele></trkpt>
<trkpt lat="34.8200208" lon="128.6626016"><ele>163.06</ele></trkpt>
<trkpt lat="34.8199006" lon="128.66254269999996"><ele>163.85</ele></trkpt>
<trkpt lat="34.8195958" lon="128.6624708"><ele>165.78</ele></trkpt>
<trkpt lat="34.8193992" lon="128.6624555"><ele>167.02</ele></trkpt>
<trkpt lat="34.8192896" lon="128.6624071"><ele>167.76</ele></trkpt>
<trkpt lat="34.8192147" lon="128.6623374"><ele>168.36</ele></trkpt>
<trkpt lat="34.8191616" lon="128.6622314"><ele>169.02</ele></trkpt>
<trkpt lat="34.81899349999999" lon="128.6615565"><ele>172.69</ele></trkpt>
<trkpt lat="34.8189369" lon="128.6614406"><ele>173.37</ele></trkpt>
<trkpt lat="34.81823810000001" lon="128.6609254"><ele>178.05</ele></trkpt>
<trkpt lat="34.817199" lon="128.66055840000004"><ele>183.42</ele></trkpt>
<trkpt lat="34.8170437" lon="128.6604683"><ele>184.25</ele></trkpt>
<trkpt lat="34.8168171" lon="128.660269"><ele>185.64</ele></trkpt>
<trkpt lat="34.8166328" lon="128.6600614"><ele>186.92</ele></trkpt>
<trkpt lat="34.81608849999999" lon="128.659356"><ele>191.23</ele></trkpt>
<trkpt lat="34.81587309999999" lon="128.65904279999998"><ele>193.12</ele></trkpt>
<trkpt lat="34.8155351" lon="128.6584056"><ele>196.63</ele></trkpt>
<trkpt lat="34.815108800000004" lon="128.65801809999996"><ele>199.56</ele></trkpt>
<trkpt lat="34.8145088" lon="128.6574074"><ele>203.63</ele></trkpt>
<trkpt lat="34.8141396" lon="128.6569616"><ele>206.07</ele></trkpt>
<trkpt lat="34.8137246" lon="128.6565878"><ele>208.08</ele></trkpt>
<trkpt lat="34.81359809999999" lon="128.6564279"><ele>208.63</ele></trkpt>
<trkpt lat="34.8135572" lon="128.6563379"><ele>208.86</ele></trkpt>
<trkpt lat="34.813429" lon="128.6559515"><ele>209.49</ele></trkpt>
<trkpt lat="34.8133007" lon="128.65556510000002"><ele>209.64</ele></trkpt>
<trkpt lat="34.8130749" lon="128.655111"><ele>209.04</ele></trkpt>
<trkpt lat="34.812962" lon="128.6548839"><ele>208.39</ele></trkpt>
<trkpt lat="34.8128119" lon="128.6546918"><ele>207.52</ele></trkpt>
<trkpt lat="34.8125116" lon="128.6543077"><ele>205.12</ele></trkpt>
<trkpt lat="34.8123614" lon="128.6541157"><ele>203.61</ele></trkpt>
<trkpt lat="34.8120611" lon="128.6537316"><ele>200.12</ele></trkpt>
<trkpt lat="34.8116307" lon="128.653227"><ele>194.56</ele></trkpt>
<trkpt lat="34.8113438" lon="128.6528906"><ele>190.57</ele></trkpt>
<trkpt lat="34.81126179999999" lon="128.65276989999998"><ele>189.26</ele></trkpt>
<trkpt lat="34.811173" lon="128.6525754"><ele>187.4</ele></trkpt>
<trkpt lat="34.8110943" lon="128.6522849"><ele>184.82</ele></trkpt>
<trkpt lat="34.8109989" lon="128.6518073"><ele>180.69</ele></trkpt>
<trkpt lat="34.8106885" lon="128.6506406"><ele>170.42</ele></trkpt>
<trkpt lat="34.8106903" lon="128.6505414"><ele>169.58</ele></trkpt>
<trkpt lat="34.8107284" lon="128.6504514"><ele>168.72</ele></trkpt>
<trkpt lat="34.8107807" lon="128.6504023"><ele>168.03</ele></trkpt>
<trkpt lat="34.8115197" lon="128.6501086"><ele>159.85</ele></trkpt>
<trkpt lat="34.8116986" lon="128.65"><ele>157.71</ele></trkpt>
<trkpt lat="34.8117264" lon="128.6499679"><ele>157.3</ele></trkpt>
<trkpt lat="34.8117665" lon="128.6498055"><ele>155.8</ele></trkpt>
<trkpt lat="34.8118799" lon="128.6490631"><ele>149.15</ele></trkpt>
<trkpt lat="34.8119593" lon="128.6486858"><ele>145.76</ele></trkpt>
<trkpt lat="34.8119695" lon="128.648463"><ele>143.83</ele></trkpt>
<trkpt lat="34.8119585" lon="128.64834920000004"><ele>142.84</ele></trkpt>
<trkpt lat="34.8119035" lon="128.6481471"><ele>141.01</ele></trkpt>
<trkpt lat="34.8118549" lon="128.6480454"><ele>140</ele></trkpt>
<trkpt lat="34.8117621" lon="128.647916"><ele>138.53</ele></trkpt>
<trkpt lat="34.8116126" lon="128.6477752"><ele>136.55</ele></trkpt>
<trkpt lat="34.8110166" lon="128.6473717"><ele>129.18</ele></trkpt>
<trkpt lat="34.810904" lon="128.6471826"><ele>126.99</ele></trkpt>
<trkpt lat="34.810876699999994" lon="128.6471096"><ele>126.23</ele></trkpt>
<trkpt lat="34.8108745" lon="128.647042"><ele>125.57</ele></trkpt>
<trkpt lat="34.810908" lon="128.6468714"><ele>123.85</ele></trkpt>
<trkpt lat="34.8110136" lon="128.6465436"><ele>120.26</ele></trkpt>
<trkpt lat="34.8110549" lon="128.646458"><ele>119.22</ele></trkpt>
<trkpt lat="34.8111267" lon="128.6463604"><ele>117.82</ele></trkpt>
<trkpt lat="34.811475800000004" lon="128.6460627"><ele>112.16</ele></trkpt>
<trkpt lat="34.8119304" lon="128.6456383"><ele>104.5</ele></trkpt>
<trkpt lat="34.8124" lon="128.6451733"><ele>96.92</ele></trkpt>
<trkpt lat="34.812713" lon="128.6448632"><ele>92.42</ele></trkpt>
<trkpt lat="34.8130261" lon="128.6445532"><ele>88.42</ele></trkpt>
<trkpt lat="34.8131524" lon="128.6443963"><ele>86.78</ele></trkpt>
<trkpt lat="34.8132705" lon="128.6441721"><ele>84.91</ele></trkpt>
<trkpt lat="34.8133084" lon="128.64404620000002"><ele>84.01</ele></trkpt>
<trkpt lat="34.8133397" lon="128.6437516"><ele>82.09</ele></trkpt>
<trkpt lat="34.81333519999999" lon="128.643329"><ele>79.52</ele></trkpt>
<trkpt lat="34.8133649" lon="128.6431787"><ele>78.61</ele></trkpt>
<trkpt lat="34.8137568" lon="128.6425825"><ele>74.23</ele></trkpt>
<trkpt lat="34.8138671" lon="128.6423191"><ele>72.56</ele></trkpt>
<trkpt lat="34.813910299999996" lon="128.6421365"><ele>71.5</ele></trkpt>
<trkpt lat="34.8139216" lon="128.6420141"><ele>70.81</ele></trkpt>
<trkpt lat="34.813947199999994" lon="128.6409361"><ele>64.91</ele></trkpt>
<trkpt lat="34.8139728" lon="128.639858"><ele>59.41</ele></trkpt>
<trkpt lat="34.8139855" lon="128.639319"><ele>56.88</ele></trkpt>
<trkpt lat="34.8140111" lon="128.63824090000003"><ele>52.24</ele></trkpt>
<trkpt lat="34.8140303" lon="128.6374324"><ele>49.11</ele></trkpt>
<trkpt lat="34.81406" lon="128.63662479999996"><ele>46.25</ele></trkpt>
<trkpt lat="34.8140897" lon="128.6358171"><ele>43.74</ele></trkpt>
<trkpt lat="34.8141288" lon="128.63531250000003"><ele>42.37</ele></trkpt>
<trkpt lat="34.81409769999999" lon="128.6351508"><ele>41.97</ele></trkpt>
<trkpt lat="34.8140362" lon="128.6349681"><ele>41.51</ele></trkpt>
<trkpt lat="34.813812500000004" lon="128.634655"><ele>40.66</ele></trkpt>
<trkpt lat="34.8133784" lon="128.634139"><ele>39.49</ele></trkpt>
<trkpt lat="34.8127995" lon="128.633451"><ele>38.56</ele></trkpt>
<trkpt lat="34.8124863" lon="128.633169"><ele>38.31</ele></trkpt>
<trkpt lat="34.8117302" lon="128.6326595"><ele>38.06</ele></trkpt>
<trkpt lat="34.8109201" lon="128.6321518"><ele>37.88</ele></trkpt>
<trkpt lat="34.8105988" lon="128.63195920000004"><ele>37.75</ele></trkpt>
<trkpt lat="34.8098991" lon="128.6315991"><ele>37.27</ele></trkpt>
<trkpt lat="34.80970119999999" lon="128.6314354"><ele>37.07</ele></trkpt>
<trkpt lat="34.8096026" lon="128.6312888"><ele>36.92</ele></trkpt>
<trkpt lat="34.8094573" lon="128.6309812"><ele>36.63</ele></trkpt>
<trkpt lat="34.809416" lon="128.63084600000002"><ele>36.5</ele></trkpt>
<trkpt lat="34.8093994" lon="128.6307012"><ele>36.38</ele></trkpt>
<trkpt lat="34.80940309999999" lon="128.6305983"><ele>36.29</ele></trkpt>
<trkpt lat="34.8094699" lon="128.6303464"><ele>36.08</ele></trkpt>
<trkpt lat="34.8095428" lon="128.6301708"><ele>35.94</ele></trkpt>
<trkpt lat="34.8096483" lon="128.63001210000002"><ele>35.81</ele></trkpt>
<trkpt lat="34.80969780000001" lon="128.6299656"><ele>35.76</ele></trkpt>
<trkpt lat="34.8104183" lon="128.6294744"><ele>35.55</ele></trkpt>
<trkpt lat="34.810779000000004" lon="128.6292499"><ele>35.76</ele></trkpt>
<trkpt lat="34.8111492" lon="128.6289665"><ele>36.23</ele></trkpt>
<trkpt lat="34.8113348" lon="128.628784"><ele>36.57</ele></trkpt>
<trkpt lat="34.811401" lon="128.6286759"><ele>36.76</ele></trkpt>
<trkpt lat="34.8114749" lon="128.6284742"><ele>37.08</ele></trkpt>
<trkpt lat="34.8115991" lon="128.6278767"><ele>38.07</ele></trkpt>
<trkpt lat="34.811690000000006" lon="128.6275412"><ele>38.64</ele></trkpt>
<trkpt lat="34.8117631" lon="128.6273809"><ele>38.93</ele></trkpt>
<trkpt lat="34.811822199999995" lon="128.6273031"><ele>39.09</ele></trkpt>
<trkpt lat="34.8121696" lon="128.6270278"><ele>39.76</ele></trkpt>
<trkpt lat="34.8128282" lon="128.6264383"><ele>40.5</ele></trkpt>
<trkpt lat="34.8130022" lon="128.6263357"><ele>40.53</ele></trkpt>
<trkpt lat="34.8131728" lon="128.6262602"><ele>40.51</ele></trkpt>
<trkpt lat="34.8136847" lon="128.62603349999998"><ele>40.11</ele></trkpt>
<trkpt lat="34.813853" lon="128.62594519999996"><ele>39.89</ele></trkpt>
<trkpt lat="34.8139912" lon="128.6258344"><ele>39.66</ele></trkpt>
<trkpt lat="34.815024599999994" lon="128.624714"><ele>37.51</ele></trkpt>
<trkpt lat="34.8151691" lon="128.6245441"><ele>37.25</ele></trkpt>
<trkpt lat="34.8152663" lon="128.6243788"><ele>37.06</ele></trkpt>
<trkpt lat="34.8153388" lon="128.62416250000004"><ele>36.85</ele></trkpt>
<trkpt lat="34.8153658" lon="128.6239108"><ele>36.63</ele></trkpt>
<trkpt lat="34.815337299999996" lon="128.6237184"><ele>36.45</ele></trkpt>
<trkpt lat="34.815273600000005" lon="128.62357649999998"><ele>36.3</ele></trkpt>
<trkpt lat="34.8150882" lon="128.62338129999998"><ele>35.98</ele></trkpt>
<trkpt lat="34.8145307" lon="128.6230301"><ele>34.87</ele></trkpt>
<trkpt lat="34.8141678" lon="128.6227572"><ele>33.79</ele></trkpt>
<trkpt lat="34.8139999" lon="128.622587"><ele>33.15</ele></trkpt>
<trkpt lat="34.8139364" lon="128.6224714"><ele>32.79</ele></trkpt>
<trkpt lat="34.8139028" lon="128.62235259999997"><ele>32.45</ele></trkpt>
<trkpt lat="34.8138407" lon="128.62178490000002"><ele>30.78</ele></trkpt>
<trkpt lat="34.813860700000006" lon="128.6213101"><ele>29.32</ele></trkpt>
<trkpt lat="34.8139016" lon="128.62112109999998"><ele>28.72</ele></trkpt>
<trkpt lat="34.814091" lon="128.6204695"><ele>26.65</ele></trkpt>
<trkpt lat="34.8142904" lon="128.619881"><ele>24.86</ele></trkpt>
<trkpt lat="34.8144004" lon="128.61959"><ele>24.02</ele></trkpt>
<trkpt lat="34.8145297" lon="128.61930159999997"><ele>23.19</ele></trkpt>
<trkpt lat="34.814774299999996" lon="128.61883540000002"><ele>21.92</ele></trkpt>
<trkpt lat="34.8151993" lon="128.61827"><ele>20.44</ele></trkpt>
<trkpt lat="34.8159045" lon="128.6172107"><ele>18.59</ele></trkpt>
<trkpt lat="34.8163276" lon="128.616575"><ele>17.82</ele></trkpt>
<trkpt lat="34.8168918" lon="128.6157275"><ele>17.1</ele></trkpt>
<trkpt lat="34.8173149" lon="128.6150919"><ele>16.8</ele></trkpt>
<trkpt lat="34.817486" lon="128.6148051"><ele>16.72</ele></trkpt>
<trkpt lat="34.8175494" lon="128.6146288"><ele>16.69</ele></trkpt>
<trkpt lat="34.8176119" lon="128.6143823"><ele>16.64</ele></trkpt>
<trkpt lat="34.817606" lon="128.614039"><ele>16.57</ele></trkpt>
<trkpt lat="34.8175858" lon="128.6139517"><ele>16.55</ele></trkpt>
<trkpt lat="34.8172408" lon="128.6132067"><ele>16.17</ele></trkpt>
<trkpt lat="34.8172008" lon="128.6130252"><ele>16.04</ele></trkpt>
<trkpt lat="34.81719230000001" lon="128.6128695"><ele>15.92</ele></trkpt>
<trkpt lat="34.8172127" lon="128.61271"><ele>15.78</ele></trkpt>
<trkpt lat="34.81730009999999" lon="128.6124019"><ele>15.47</ele></trkpt>
<trkpt lat="34.8174719" lon="128.6119766"><ele>14.94</ele></trkpt>
<trkpt lat="34.8175636" lon="128.61183"><ele>14.73</ele></trkpt>
<trkpt lat="34.8177077" lon="128.611717"><ele>14.48</ele></trkpt>
<trkpt lat="34.81864389999999" lon="128.6112358"><ele>13.18</ele></trkpt>
<trkpt lat="34.8189827" lon="128.6109856"><ele>12.81</ele></trkpt>
<trkpt lat="34.81968839999999" lon="128.610347"><ele>12.3</ele></trkpt>
<trkpt lat="34.820747" lon="128.6093891"><ele>12.03</ele></trkpt>
<trkpt lat="34.8216638" lon="128.6085142"><ele>11.97</ele></trkpt>
<trkpt lat="34.82249149999999" lon="128.6077791"><ele>11.89</ele></trkpt>
<trkpt lat="34.82288809999999" lon="128.6074941"><ele>11.8</ele></trkpt>
<trkpt lat="34.8230727" lon="128.6074327"><ele>11.74</ele></trkpt>
<trkpt lat="34.8236378" lon="128.6071424"><ele>11.48</ele></trkpt>
<trkpt lat="34.8237592" lon="128.6070573"><ele>11.4</ele></trkpt>
<trkpt lat="34.8238699" lon="128.6069434"><ele>11.31</ele></trkpt>
<trkpt lat="34.8244177" lon="128.6061831"><ele>10.68</ele></trkpt>
<trkpt lat="34.8245902" lon="128.6060257"><ele>10.48</ele></trkpt>
<trkpt lat="34.8252679" lon="128.6058101"><ele>9.77</ele></trkpt>
<trkpt lat="34.8257618" lon="128.6056911"><ele>9.21</ele></trkpt>
<trkpt lat="34.8263919" lon="128.605657"><ele>8.53</ele></trkpt>
<trkpt lat="34.8274421" lon="128.6056001"><ele>7.68</ele></trkpt>
<trkpt lat="34.8277378" lon="128.6055731"><ele>7.55</ele></trkpt>
<trkpt lat="34.8279063" lon="128.6055226"><ele>7.5</ele></trkpt>
<trkpt lat="34.8282045" lon="128.6053274"><ele>7.46</ele></trkpt>
<trkpt lat="34.828953" lon="128.6047587"><ele>7.62</ele></trkpt>
<trkpt lat="34.829278" lon="128.6045363"><ele>7.73</ele></trkpt>
<trkpt lat="34.8294275" lon="128.6043816"><ele>7.78</ele></trkpt>
<trkpt lat="34.8298523" lon="128.6038236"><ele>7.88</ele></trkpt>
<trkpt lat="34.8301861" lon="128.603526"><ele>7.86</ele></trkpt>
<trkpt lat="34.830336700000004" lon="128.6034136"><ele>7.83</ele></trkpt>
<trkpt lat="34.8310467" lon="128.603072"><ele>7.56</ele></trkpt>
<trkpt lat="34.8314383" lon="128.60292279999996"><ele>7.35</ele></trkpt>
<trkpt lat="34.8318438" lon="128.6027204"><ele>7.13</ele></trkpt>
<trkpt lat="34.8325011" lon="128.6024489"><ele>6.9</ele></trkpt>
<trkpt lat="34.8332973" lon="128.6020501"><ele>6.91</ele></trkpt>
<trkpt lat="34.8336176" lon="128.6018565"><ele>7.02</ele></trkpt>
<trkpt lat="34.8336847" lon="128.6017937"><ele>7.06</ele></trkpt>
<trkpt lat="34.8337297" lon="128.60172"><ele>7.09</ele></trkpt>
<trkpt lat="34.8342388" lon="128.6006737"><ele>7.83</ele></trkpt>
<trkpt lat="34.8345115" lon="128.6002194"><ele>8.27</ele></trkpt>
<trkpt lat="34.8347019" lon="128.5999526"><ele>8.57</ele></trkpt>
<trkpt lat="34.8348633" lon="128.599788"><ele>8.78</ele></trkpt>
<trkpt lat="34.835131999999994" lon="128.5995777"><ele>9.09</ele></trkpt>
<trkpt lat="34.835786" lon="128.599002"><ele>9.74</ele></trkpt>
<trkpt lat="34.836192499999996" lon="128.5986152"><ele>10.02</ele></trkpt>
<trkpt lat="34.836446" lon="128.5985023"><ele>10.11</ele></trkpt>
<trkpt lat="34.8370484" lon="128.5982811"><ele>10.18</ele></trkpt>
<trkpt lat="34.8385888" lon="128.5978757"><ele>9.87</ele></trkpt>
<trkpt lat="34.83997599999999" lon="128.5971116"><ele>9.85</ele></trkpt>
<trkpt lat="34.84030550000001" lon="128.5969688"><ele>9.87</ele></trkpt>
<trkpt lat="34.8406638" lon="128.5968709"><ele>9.85</ele></trkpt>
<trkpt lat="34.8408496" lon="128.5968539"><ele>9.83</ele></trkpt>
<trkpt lat="34.841157" lon="128.5969195"><ele>9.75</ele></trkpt>
<trkpt lat="34.8415884" lon="128.5970851"><ele>9.57</ele></trkpt>
<trkpt lat="34.8417414" lon="128.5970986"><ele>9.5</ele></trkpt>
<trkpt lat="34.84186909999999" lon="128.5970813"><ele>9.43</ele></trkpt>
<trkpt lat="34.84203110000001" lon="128.597027"><ele>9.34</ele></trkpt>
<trkpt lat="34.84326159999999" lon="128.5965168"><ele>8.66</ele></trkpt>
<trkpt lat="34.8438769" lon="128.5962617"><ele>8.42</ele></trkpt>
<trkpt lat="34.844103" lon="128.5961905"><ele>8.32</ele></trkpt>
<trkpt lat="34.8446903" lon="128.5961184"><ele>8</ele></trkpt>
<trkpt lat="34.8449734" lon="128.596028"><ele>7.78</ele></trkpt>
<trkpt lat="34.8455741" lon="128.59576"><ele>7.16</ele></trkpt>
<trkpt lat="34.8457042" lon="128.59567719999998"><ele>6.99</ele></trkpt>
<trkpt lat="34.8458873" lon="128.5955066"><ele>6.73</ele></trkpt>
<trkpt lat="34.8468144" lon="128.5945217"><ele>5.43</ele></trkpt>
<trkpt lat="34.8468831" lon="128.5943812"><ele>5.33</ele></trkpt>
<trkpt lat="34.8469834" lon="128.5942262"><ele>5.24</ele></trkpt>
<trkpt lat="34.84702360000001" lon="128.5940527"><ele>5.17</ele></trkpt>
<trkpt lat="34.8471331" lon="128.593931"><ele>5.11</ele></trkpt>
<trkpt lat="34.8472549" lon="128.5937204"><ele>5.06</ele></trkpt>
<trkpt lat="34.8473359" lon="128.59350570000004"><ele>5.05</ele></trkpt>
<trkpt lat="34.8473985" lon="128.5932195"><ele>5.06</ele></trkpt>
<trkpt lat="34.8474491" lon="128.59275680000002"><ele>5.13</ele></trkpt>
<trkpt lat="34.8474007" lon="128.5908339"><ele>5.49</ele></trkpt>
<trkpt lat="34.8474036" lon="128.58983100000003"><ele>5.38</ele></trkpt>
<trkpt lat="34.8475027" lon="128.5892504"><ele>5.2</ele></trkpt>
<trkpt lat="34.8475594" lon="128.5890036"><ele>5.1</ele></trkpt>
<trkpt lat="34.8476328" lon="128.5887422"><ele>4.98</ele></trkpt>
<trkpt lat="34.8477311" lon="128.58853170000003"><ele>4.88</ele></trkpt>
<trkpt lat="34.8480407" lon="128.5880104"><ele>4.61</ele></trkpt>
<trkpt lat="34.8486255" lon="128.5872053"><ele>4.37</ele></trkpt>
<trkpt lat="34.849064000000006" lon="128.5866015"><ele>4.53</ele></trkpt>
<trkpt lat="34.8495026" lon="128.5859977"><ele>5.06</ele></trkpt>
<trkpt lat="34.849796299999994" lon="128.5856214"><ele>5.59</ele></trkpt>
<trkpt lat="34.8499255" lon="128.5854816"><ele>5.85</ele></trkpt>
<trkpt lat="34.85001259999999" lon="128.5854138"><ele>6.01</ele></trkpt>
<trkpt lat="34.8503301" lon="128.5852418"><ele>6.6</ele></trkpt>
<trkpt lat="34.85057969999999" lon="128.58516009999997"><ele>7.08</ele></trkpt>
<trkpt lat="34.850989" lon="128.5851098"><ele>7.88</ele></trkpt>
<trkpt lat="34.851562" lon="128.58509030000002"><ele>9</ele></trkpt>
</trkseg>
</trk></gpx>
