<?xml version="1.0" encoding="UTF-8"?>
<gpx xmlns="http://www.topografix.com/GPX/1/1" version="1.1" creator="GPX Route Fixer (Virtual Cycling)"><trk><name>Fixed Route</name><trkseg><trkpt lat="47.321668" lon="7.898944"><ele>403.16</ele></trkpt><trkpt lat="47.321443" lon="7.898889"><ele>402.28</ele></trkpt><trkpt lat="47.321218" lon="7.898833"><ele>400.85</ele></trkpt><trkpt lat="47.320993" lon="7.898778"><ele>399.42</ele></trkpt><trkpt lat="47.320780" lon="7.898744"><ele>398.16</ele></trkpt><trkpt lat="47.320569" lon="7.898743"><ele>397.14</ele></trkpt><trkpt lat="47.320473" lon="7.898690"><ele>396.77</ele></trkpt><trkpt lat="47.320378" lon="7.898341"><ele>396.26</ele></trkpt><trkpt lat="47.320282" lon="7.897993"><ele>396.41</ele></trkpt><trkpt lat="47.320187" lon="7.897644"><ele>397.22</ele></trkpt><trkpt lat="47.320158" lon="7.897465"><ele>397.85</ele></trkpt><trkpt lat="47.320182" lon="7.897145"><ele>399.27</ele></trkpt><trkpt lat="47.320176" lon="7.896982"><ele>400.13</ele></trkpt><trkpt lat="47.320117" lon="7.896823"><ele>401.14</ele></trkpt><trkpt lat="47.320023" lon="7.896705"><ele>402.22</ele></trkpt><trkpt lat="47.319863" lon="7.896547"><ele>403.97</ele></trkpt><trkpt lat="47.319703" lon="7.896389"><ele>405.73</ele></trkpt><trkpt lat="47.319550" lon="7.896165"><ele>407.69</ele></trkpt><trkpt lat="47.319396" lon="7.895908"><ele>409.74</ele></trkpt><trkpt lat="47.319242" lon="7.895652"><ele>411.68</ele></trkpt><trkpt lat="47.319099" lon="7.895425"><ele>413.31</ele></trkpt><trkpt lat="47.318956" lon="7.895197"><ele>414.77</ele></trkpt><trkpt lat="47.318813" lon="7.894970"><ele>415.99</ele></trkpt><trkpt lat="47.318672" lon="7.894772"><ele>416.87</ele></trkpt><trkpt lat="47.318532" lon="7.894573"><ele>417.46</ele></trkpt><trkpt lat="47.318390" lon="7.894397"><ele>417.73</ele></trkpt><trkpt lat="47.318249" lon="7.894220"><ele>417.69</ele></trkpt><trkpt lat="47.318087" lon="7.894036"><ele>417.31</ele></trkpt><trkpt lat="47.317926" lon="7.893852"><ele>416.59</ele></trkpt><trkpt lat="47.317764" lon="7.893668"><ele>415.59</ele></trkpt><trkpt lat="47.317625" lon="7.893510"><ele>414.55</ele></trkpt><trkpt lat="47.317486" lon="7.893352"><ele>413.41</ele></trkpt><trkpt lat="47.317278" lon="7.893116"><ele>411.68</ele></trkpt><trkpt lat="47.317070" lon="7.892880"><ele>410.13</ele></trkpt><trkpt lat="47.316927" lon="7.892684"><ele>409.23</ele></trkpt><trkpt lat="47.316785" lon="7.892489"><ele>408.62</ele></trkpt><trkpt lat="47.316620" lon="7.892220"><ele>408.25</ele></trkpt><trkpt lat="47.316456" lon="7.891950"><ele>408.22</ele></trkpt><trkpt lat="47.316292" lon="7.891680"><ele>408.39</ele></trkpt><trkpt lat="47.316142" lon="7.891357"><ele>408.60</ele></trkpt><trkpt lat="47.315991" lon="7.891033"><ele>408.69</ele></trkpt><trkpt lat="47.315841" lon="7.890710"><ele>408.61</ele></trkpt><trkpt lat="47.315703" lon="7.890377"><ele>408.39</ele></trkpt><trkpt lat="47.315567" lon="7.890044"><ele>408.12</ele></trkpt><trkpt lat="47.315429" lon="7.889711"><ele>407.94</ele></trkpt><trkpt lat="47.315292" lon="7.889378"><ele>407.96</ele></trkpt><trkpt lat="47.315215" lon="7.889149"><ele>408.11</ele></trkpt><trkpt lat="47.315173" lon="7.888872"><ele>408.43</ele></trkpt><trkpt lat="47.315131" lon="7.888594"><ele>408.86</ele></trkpt><trkpt lat="47.315090" lon="7.888317"><ele>409.37</ele></trkpt><trkpt lat="47.315054" lon="7.888175"><ele>409.64</ele></trkpt><trkpt lat="47.314937" lon="7.887873"><ele>410.25</ele></trkpt><trkpt lat="47.314837" lon="7.887716"><ele>410.57</ele></trkpt><trkpt lat="47.314737" lon="7.887559"><ele>410.83</ele></trkpt><trkpt lat="47.314587" lon="7.887360"><ele>411.05</ele></trkpt><trkpt lat="47.314437" lon="7.887161"><ele>411.12</ele></trkpt><trkpt lat="47.314281" lon="7.886963"><ele>411.04</ele></trkpt><trkpt lat="47.314125" lon="7.886766"><ele>410.83</ele></trkpt><trkpt lat="47.313969" lon="7.886569"><ele>410.50</ele></trkpt><trkpt lat="47.313812" lon="7.886371"><ele>410.08</ele></trkpt><trkpt lat="47.313625" lon="7.886133"><ele>409.50</ele></trkpt><trkpt lat="47.313438" lon="7.885895"><ele>408.89</ele></trkpt><trkpt lat="47.313251" lon="7.885657"><ele>408.28</ele></trkpt><trkpt lat="47.313162" lon="7.885497"><ele>407.96</ele></trkpt><trkpt lat="47.313073" lon="7.885338"><ele>407.68</ele></trkpt><trkpt lat="47.313002" lon="7.885149"><ele>407.42</ele></trkpt><trkpt lat="47.312949" lon="7.884946"><ele>407.21</ele></trkpt><trkpt lat="47.312921" lon="7.884698"><ele>407.03</ele></trkpt><trkpt lat="47.312894" lon="7.884450"><ele>406.93</ele></trkpt><trkpt lat="47.312912" lon="7.884090"><ele>406.87</ele></trkpt><trkpt lat="47.312930" lon="7.883730"><ele>406.92</ele></trkpt><trkpt lat="47.312929" lon="7.883350"><ele>407.06</ele></trkpt><trkpt lat="47.312928" lon="7.882970"><ele>407.24</ele></trkpt><trkpt lat="47.312927" lon="7.882590"><ele>407.45</ele></trkpt><trkpt lat="47.312927" lon="7.882210"><ele>407.67</ele></trkpt><trkpt lat="47.312926" lon="7.881830"><ele>407.86</ele></trkpt><trkpt lat="47.312925" lon="7.881450"><ele>408.02</ele></trkpt><trkpt lat="47.312924" lon="7.881107"><ele>408.13</ele></trkpt><trkpt lat="47.312923" lon="7.880765"><ele>408.21</ele></trkpt><trkpt lat="47.312923" lon="7.880422"><ele>408.28</ele></trkpt><trkpt lat="47.312922" lon="7.880079"><ele>408.33</ele></trkpt><trkpt lat="47.312921" lon="7.879736"><ele>408.41</ele></trkpt><trkpt lat="47.312920" lon="7.879394"><ele>408.52</ele></trkpt><trkpt lat="47.312920" lon="7.879051"><ele>408.68</ele></trkpt><trkpt lat="47.312910" lon="7.878676"><ele>408.91</ele></trkpt><trkpt lat="47.312900" lon="7.878300"><ele>409.19</ele></trkpt><trkpt lat="47.312890" lon="7.877925"><ele>409.49</ele></trkpt><trkpt lat="47.312880" lon="7.877550"><ele>409.79</ele></trkpt><trkpt lat="47.312870" lon="7.877176"><ele>410.06</ele></trkpt><trkpt lat="47.312859" lon="7.876801"><ele>410.26</ele></trkpt><trkpt lat="47.312833" lon="7.876410"><ele>410.42</ele></trkpt><trkpt lat="47.312806" lon="7.876019"><ele>410.54</ele></trkpt><trkpt lat="47.312779" lon="7.875627"><ele>410.64</ele></trkpt><trkpt lat="47.312753" lon="7.875318"><ele>410.74</ele></trkpt><trkpt lat="47.312726" lon="7.875009"><ele>410.88</ele></trkpt><trkpt lat="47.312699" lon="7.874700"><ele>411.10</ele></trkpt><trkpt lat="47.312666" lon="7.874431"><ele>411.35</ele></trkpt><trkpt lat="47.312633" lon="7.874161"><ele>411.66</ele></trkpt><trkpt lat="47.312600" lon="7.873892"><ele>412.02</ele></trkpt><trkpt lat="47.312550" lon="7.873524"><ele>412.57</ele></trkpt><trkpt lat="47.312500" lon="7.873156"><ele>413.11</ele></trkpt><trkpt lat="47.312450" lon="7.872789"><ele>413.60</ele></trkpt><trkpt lat="47.312389" lon="7.872428"><ele>413.97</ele></trkpt><trkpt lat="47.312329" lon="7.872067"><ele>414.22</ele></trkpt><trkpt lat="47.312268" lon="7.871707"><ele>414.32</ele></trkpt><trkpt lat="47.312194" lon="7.871328"><ele>414.28</ele></trkpt><trkpt lat="47.312120" lon="7.870949"><ele>414.11</ele></trkpt><trkpt lat="47.312046" lon="7.870571"><ele>413.84</ele></trkpt><trkpt lat="47.312001" lon="7.870343"><ele>413.65</ele></trkpt><trkpt lat="47.311955" lon="7.870115"><ele>413.44</ele></trkpt><trkpt lat="47.311887" lon="7.869808"><ele>413.15</ele></trkpt><trkpt lat="47.311820" lon="7.869502"><ele>412.88</ele></trkpt><trkpt lat="47.311752" lon="7.869195"><ele>412.64</ele></trkpt><trkpt lat="47.311677" lon="7.868850"><ele>412.43</ele></trkpt><trkpt lat="47.311601" lon="7.868505"><ele>412.26</ele></trkpt><trkpt lat="47.311525" lon="7.868160"><ele>412.13</ele></trkpt><trkpt lat="47.311449" lon="7.867815"><ele>412.01</ele></trkpt><trkpt lat="47.311373" lon="7.867470"><ele>411.88</ele></trkpt><trkpt lat="47.311298" lon="7.867125"><ele>411.73</ele></trkpt><trkpt lat="47.311230" lon="7.866818"><ele>411.58</ele></trkpt><trkpt lat="47.311163" lon="7.866512"><ele>411.44</ele></trkpt><trkpt lat="47.311095" lon="7.866205"><ele>411.33</ele></trkpt><trkpt lat="47.311035" lon="7.865860"><ele>411.30</ele></trkpt><trkpt lat="47.310992" lon="7.865512"><ele>411.40</ele></trkpt><trkpt lat="47.310972" lon="7.865215"><ele>411.63</ele></trkpt><trkpt lat="47.310952" lon="7.864920"><ele>412.02</ele></trkpt><trkpt lat="47.310959" lon="7.864628"><ele>412.53</ele></trkpt><trkpt lat="47.310967" lon="7.864336"><ele>413.18</ele></trkpt><trkpt lat="47.310988" lon="7.864092"><ele>413.79</ele></trkpt><trkpt lat="47.311042" lon="7.863713"><ele>414.83</ele></trkpt><trkpt lat="47.311095" lon="7.863334"><ele>415.84</ele></trkpt><trkpt lat="47.311149" lon="7.862954"><ele>416.71</ele></trkpt><trkpt lat="47.311169" lon="7.862646"><ele>417.26</ele></trkpt><trkpt lat="47.311158" lon="7.862388"><ele>417.57</ele></trkpt><trkpt lat="47.311128" lon="7.862149"><ele>417.74</ele></trkpt><trkpt lat="47.311049" lon="7.861832"><ele>417.81</ele></trkpt><trkpt lat="47.310956" lon="7.861588"><ele>417.74</ele></trkpt><trkpt lat="47.310863" lon="7.861344"><ele>417.61</ele></trkpt><trkpt lat="47.310770" lon="7.861099"><ele>417.45</ele></trkpt><trkpt lat="47.310687" lon="7.860857"><ele>417.30</ele></trkpt><trkpt lat="47.310604" lon="7.860614"><ele>417.19</ele></trkpt><trkpt lat="47.310522" lon="7.860372"><ele>417.13</ele></trkpt><trkpt lat="47.310434" lon="7.860051"><ele>417.16</ele></trkpt><trkpt lat="47.310347" lon="7.859731"><ele>417.29</ele></trkpt><trkpt lat="47.310260" lon="7.859410"><ele>417.50</ele></trkpt><trkpt lat="47.310168" lon="7.859064"><ele>417.80</ele></trkpt><trkpt lat="47.310076" lon="7.858718"><ele>418.14</ele></trkpt><trkpt lat="47.309984" lon="7.858372"><ele>418.49</ele></trkpt><trkpt lat="47.309897" lon="7.858037"><ele>418.82</ele></trkpt><trkpt lat="47.309809" lon="7.857702"><ele>419.11</ele></trkpt><trkpt lat="47.309742" lon="7.857376"><ele>419.36</ele></trkpt><trkpt lat="47.309675" lon="7.857050"><ele>419.54</ele></trkpt><trkpt lat="47.309608" lon="7.856725"><ele>419.66</ele></trkpt><trkpt lat="47.309541" lon="7.856400"><ele>419.70</ele></trkpt><trkpt lat="47.309523" lon="7.856162"><ele>419.68</ele></trkpt><trkpt lat="47.309536" lon="7.855913"><ele>419.62</ele></trkpt><trkpt lat="47.309594" lon="7.855626"><ele>419.49</ele></trkpt><trkpt lat="47.309653" lon="7.855339"><ele>419.34</ele></trkpt><trkpt lat="47.309711" lon="7.855051"><ele>419.19</ele></trkpt><trkpt lat="47.309770" lon="7.854764"><ele>419.05</ele></trkpt><trkpt lat="47.309790" lon="7.854565"><ele>418.99</ele></trkpt><trkpt lat="47.309785" lon="7.854321"><ele>418.95</ele></trkpt><trkpt lat="47.309748" lon="7.854056"><ele>418.96</ele></trkpt><trkpt lat="47.309710" lon="7.853791"><ele>419.03</ele></trkpt><trkpt lat="47.309650" lon="7.853465"><ele>419.18</ele></trkpt><trkpt lat="47.309590" lon="7.853138"><ele>419.40</ele></trkpt><trkpt lat="47.309530" lon="7.852812"><ele>419.65</ele></trkpt><trkpt lat="47.309470" lon="7.852486"><ele>419.91</ele></trkpt><trkpt lat="47.309410" lon="7.852159"><ele>420.15</ele></trkpt><trkpt lat="47.309368" lon="7.851868"><ele>420.34</ele></trkpt><trkpt lat="47.309326" lon="7.851576"><ele>420.48</ele></trkpt><trkpt lat="47.309284" lon="7.851284"><ele>420.60</ele></trkpt><trkpt lat="47.309280" lon="7.851164"><ele>420.63</ele></trkpt><trkpt lat="47.309337" lon="7.851017"><ele>420.68</ele></trkpt><trkpt lat="47.309346" lon="7.850910"><ele>420.70</ele></trkpt><trkpt lat="47.309313" lon="7.850818"><ele>420.73</ele></trkpt><trkpt lat="47.309188" lon="7.850687"><ele>420.77</ele></trkpt><trkpt lat="47.309140" lon="7.850339"><ele>420.85</ele></trkpt><trkpt lat="47.309092" lon="7.849990"><ele>420.96</ele></trkpt><trkpt lat="47.309045" lon="7.849642"><ele>421.12</ele></trkpt><trkpt lat="47.308999" lon="7.849292"><ele>421.39</ele></trkpt><trkpt lat="47.308954" lon="7.848941"><ele>421.80</ele></trkpt><trkpt lat="47.308909" lon="7.848591"><ele>422.41</ele></trkpt><trkpt lat="47.308905" lon="7.848315"><ele>423.04</ele></trkpt><trkpt lat="47.308902" lon="7.848039"><ele>423.82</ele></trkpt><trkpt lat="47.308935" lon="7.847742"><ele>424.81</ele></trkpt><trkpt lat="47.308968" lon="7.847446"><ele>425.88</ele></trkpt><trkpt lat="47.308969" lon="7.847257"><ele>426.56</ele></trkpt><trkpt lat="47.308954" lon="7.847052"><ele>427.27</ele></trkpt><trkpt lat="47.308940" lon="7.846846"><ele>427.92</ele></trkpt><trkpt lat="47.308869" lon="7.846518"><ele>428.78</ele></trkpt><trkpt lat="47.308771" lon="7.846254"><ele>429.23</ele></trkpt><trkpt lat="47.308630" lon="7.845995"><ele>429.35</ele></trkpt><trkpt lat="47.308478" lon="7.845803"><ele>429.12</ele></trkpt><trkpt lat="47.308304" lon="7.845654"><ele>428.58</ele></trkpt><trkpt lat="47.308129" lon="7.845504"><ele>427.80</ele></trkpt><trkpt lat="47.307983" lon="7.845427"><ele>427.09</ele></trkpt><trkpt lat="47.307838" lon="7.845351"><ele>426.34</ele></trkpt><trkpt lat="47.307657" lon="7.845305"><ele>425.43</ele></trkpt><trkpt lat="47.307477" lon="7.845260"><ele>424.58</ele></trkpt><trkpt lat="47.307268" lon="7.845234"><ele>423.70</ele></trkpt><trkpt lat="47.307059" lon="7.845208"><ele>422.96</ele></trkpt><trkpt lat="47.306837" lon="7.845141"><ele>422.34</ele></trkpt><trkpt lat="47.306727" lon="7.845083"><ele>422.08</ele></trkpt><trkpt lat="47.306535" lon="7.844916"><ele>421.73</ele></trkpt><trkpt lat="47.306405" lon="7.844736"><ele>421.55</ele></trkpt><trkpt lat="47.306280" lon="7.844471"><ele>421.45</ele></trkpt><trkpt lat="47.306199" lon="7.844163"><ele>421.48</ele></trkpt><trkpt lat="47.306176" lon="7.843977"><ele>421.55</ele></trkpt><trkpt lat="47.306171" lon="7.843782"><ele>421.66</ele></trkpt><trkpt lat="47.306196" lon="7.843438"><ele>421.95</ele></trkpt><trkpt lat="47.306220" lon="7.843094"><ele>422.32</ele></trkpt><trkpt lat="47.306261" lon="7.842760"><ele>422.73</ele></trkpt><trkpt lat="47.306301" lon="7.842427"><ele>423.14</ele></trkpt><trkpt lat="47.306341" lon="7.842093"><ele>423.54</ele></trkpt><trkpt lat="47.306381" lon="7.841759"><ele>423.89</ele></trkpt><trkpt lat="47.306440" lon="7.841422"><ele>424.19</ele></trkpt><trkpt lat="47.306500" lon="7.841084"><ele>424.45</ele></trkpt><trkpt lat="47.306559" lon="7.840746"><ele>424.67</ele></trkpt><trkpt lat="47.306596" lon="7.840399"><ele>424.88</ele></trkpt><trkpt lat="47.306633" lon="7.840051"><ele>425.10</ele></trkpt><trkpt lat="47.306635" lon="7.839866"><ele>425.23</ele></trkpt><trkpt lat="47.306621" lon="7.839509"><ele>425.50</ele></trkpt><trkpt lat="47.306607" lon="7.839152"><ele>425.79</ele></trkpt><trkpt lat="47.306593" lon="7.838796"><ele>426.07</ele></trkpt><trkpt lat="47.306579" lon="7.838439"><ele>426.32</ele></trkpt><trkpt lat="47.306554" lon="7.838100"><ele>426.49</ele></trkpt><trkpt lat="47.306528" lon="7.837761"><ele>426.58</ele></trkpt><trkpt lat="47.306503" lon="7.837422"><ele>426.58</ele></trkpt><trkpt lat="47.306477" lon="7.837083"><ele>426.52</ele></trkpt><trkpt lat="47.306452" lon="7.836743"><ele>426.40</ele></trkpt><trkpt lat="47.306426" lon="7.836404"><ele>426.27</ele></trkpt><trkpt lat="47.306401" lon="7.836065"><ele>426.17</ele></trkpt><trkpt lat="47.306375" lon="7.835732"><ele>426.10</ele></trkpt><trkpt lat="47.306350" lon="7.835398"><ele>426.09</ele></trkpt><trkpt lat="47.306325" lon="7.835065"><ele>426.14</ele></trkpt><trkpt lat="47.306299" lon="7.834726"><ele>426.23</ele></trkpt><trkpt lat="47.306274" lon="7.834386"><ele>426.36</ele></trkpt><trkpt lat="47.306248" lon="7.834047"><ele>426.50</ele></trkpt><trkpt lat="47.306222" lon="7.833708"><ele>426.64</ele></trkpt><trkpt lat="47.306197" lon="7.833369"><ele>426.77</ele></trkpt><trkpt lat="47.306171" lon="7.833029"><ele>426.87</ele></trkpt><trkpt lat="47.306146" lon="7.832690"><ele>426.94</ele></trkpt><trkpt lat="47.306118" lon="7.832305"><ele>426.99</ele></trkpt><trkpt lat="47.306090" lon="7.831920"><ele>427.00</ele></trkpt><trkpt lat="47.306062" lon="7.831535"><ele>426.98</ele></trkpt><trkpt lat="47.306035" lon="7.831149"><ele>426.96</ele></trkpt><trkpt lat="47.306007" lon="7.830764"><ele>426.92</ele></trkpt><trkpt lat="47.305979" lon="7.830379"><ele>426.88</ele></trkpt><trkpt lat="47.305951" lon="7.829994"><ele>426.84</ele></trkpt><trkpt lat="47.305923" lon="7.829609"><ele>426.82</ele></trkpt><trkpt lat="47.305896" lon="7.829224"><ele>426.81</ele></trkpt><trkpt lat="47.305868" lon="7.828839"><ele>426.84</ele></trkpt><trkpt lat="47.305840" lon="7.828453"><ele>426.92</ele></trkpt><trkpt lat="47.305816" lon="7.828169"><ele>427.01</ele></trkpt><trkpt lat="47.305791" lon="7.827885"><ele>427.12</ele></trkpt><trkpt lat="47.305766" lon="7.827601"><ele>427.27</ele></trkpt><trkpt lat="47.305698" lon="7.827297"><ele>427.44</ele></trkpt><trkpt lat="47.305610" lon="7.826994"><ele>427.63</ele></trkpt><trkpt lat="47.305512" lon="7.826712"><ele>427.80</ele></trkpt><trkpt lat="47.305414" lon="7.826431"><ele>427.95</ele></trkpt><trkpt lat="47.305315" lon="7.826149"><ele>428.06</ele></trkpt><trkpt lat="47.305217" lon="7.825868"><ele>428.15</ele></trkpt><trkpt lat="47.305112" lon="7.825569"><ele>428.21</ele></trkpt><trkpt lat="47.305007" lon="7.825269"><ele>428.26</ele></trkpt><trkpt lat="47.304902" lon="7.824970"><ele>428.30</ele></trkpt><trkpt lat="47.304797" lon="7.824671"><ele>428.37</ele></trkpt><trkpt lat="47.304692" lon="7.824371"><ele>428.45</ele></trkpt><trkpt lat="47.304587" lon="7.824072"><ele>428.56</ele></trkpt><trkpt lat="47.304489" lon="7.823791"><ele>428.69</ele></trkpt><trkpt lat="47.304390" lon="7.823510"><ele>428.83</ele></trkpt><trkpt lat="47.304292" lon="7.823229"><ele>428.98</ele></trkpt><trkpt lat="47.304193" lon="7.822948"><ele>429.13</ele></trkpt><trkpt lat="47.304077" lon="7.822612"><ele>429.29</ele></trkpt><trkpt lat="47.303960" lon="7.822275"><ele>429.44</ele></trkpt><trkpt lat="47.303844" lon="7.821938"><ele>429.55</ele></trkpt><trkpt lat="47.303803" lon="7.821709"><ele>429.61</ele></trkpt><trkpt lat="47.303793" lon="7.821376"><ele>429.67</ele></trkpt><trkpt lat="47.303783" lon="7.821042"><ele>429.69</ele></trkpt><trkpt lat="47.303737" lon="7.820889"><ele>429.69</ele></trkpt><trkpt lat="47.303723" lon="7.820649"><ele>429.68</ele></trkpt><trkpt lat="47.303709" lon="7.820409"><ele>429.64</ele></trkpt><trkpt lat="47.303674" lon="7.820105"><ele>429.57</ele></trkpt><trkpt lat="47.303640" lon="7.819801"><ele>429.47</ele></trkpt><trkpt lat="47.303584" lon="7.819431"><ele>429.31</ele></trkpt><trkpt lat="47.303529" lon="7.819061"><ele>429.13</ele></trkpt><trkpt lat="47.303450" lon="7.818696"><ele>428.95</ele></trkpt><trkpt lat="47.303372" lon="7.818332"><ele>428.80</ele></trkpt><trkpt lat="47.303293" lon="7.817967"><ele>428.71</ele></trkpt><trkpt lat="47.303214" lon="7.817602"><ele>428.72</ele></trkpt><trkpt lat="47.303135" lon="7.817238"><ele>428.86</ele></trkpt><trkpt lat="47.303057" lon="7.816873"><ele>429.14</ele></trkpt><trkpt lat="47.302978" lon="7.816508"><ele>429.56</ele></trkpt><trkpt lat="47.302899" lon="7.816143"><ele>430.08</ele></trkpt><trkpt lat="47.302821" lon="7.815779"><ele>430.66</ele></trkpt><trkpt lat="47.302764" lon="7.815422"><ele>431.21</ele></trkpt><trkpt lat="47.302707" lon="7.815066"><ele>431.72</ele></trkpt><trkpt lat="47.302650" lon="7.814710"><ele>432.13</ele></trkpt><trkpt lat="47.302593" lon="7.814354"><ele>432.39</ele></trkpt><trkpt lat="47.302537" lon="7.813997"><ele>432.50</ele></trkpt><trkpt lat="47.302480" lon="7.813641"><ele>432.46</ele></trkpt><trkpt lat="47.302416" lon="7.813308"><ele>432.28</ele></trkpt><trkpt lat="47.302352" lon="7.812975"><ele>432.03</ele></trkpt><trkpt lat="47.302288" lon="7.812642"><ele>431.72</ele></trkpt><trkpt lat="47.302224" lon="7.812309"><ele>431.41</ele></trkpt><trkpt lat="47.302157" lon="7.811958"><ele>431.11</ele></trkpt><trkpt lat="47.302089" lon="7.811607"><ele>430.87</ele></trkpt><trkpt lat="47.302022" lon="7.811257"><ele>430.70</ele></trkpt><trkpt lat="47.301954" lon="7.810906"><ele>430.60</ele></trkpt><trkpt lat="47.301887" lon="7.810555"><ele>430.56</ele></trkpt><trkpt lat="47.301819" lon="7.810204"><ele>430.57</ele></trkpt><trkpt lat="47.301752" lon="7.809854"><ele>430.63</ele></trkpt><trkpt lat="47.301685" lon="7.809503"><ele>430.74</ele></trkpt><trkpt lat="47.301617" lon="7.809152"><ele>430.93</ele></trkpt><trkpt lat="47.301550" lon="7.808801"><ele>431.19</ele></trkpt><trkpt lat="47.301489" lon="7.808555"><ele>431.42</ele></trkpt><trkpt lat="47.301429" lon="7.808308"><ele>431.69</ele></trkpt><trkpt lat="47.301317" lon="7.807949"><ele>432.13</ele></trkpt><trkpt lat="47.301206" lon="7.807589"><ele>432.54</ele></trkpt><trkpt lat="47.301094" lon="7.807229"><ele>432.85</ele></trkpt><trkpt lat="47.301047" lon="7.807053"><ele>432.94</ele></trkpt><trkpt lat="47.301069" lon="7.806932"><ele>432.98</ele></trkpt><trkpt lat="47.301242" lon="7.806823"><ele>433.00</ele></trkpt><trkpt lat="47.301415" lon="7.806713"><ele>432.95</ele></trkpt><trkpt lat="47.301589" lon="7.806604"><ele>432.85</ele></trkpt><trkpt lat="47.301803" lon="7.806474"><ele>432.71</ele></trkpt><trkpt lat="47.302016" lon="7.806344"><ele>432.58</ele></trkpt><trkpt lat="47.302230" lon="7.806214"><ele>432.48</ele></trkpt><trkpt lat="47.302444" lon="7.806084"><ele>432.40</ele></trkpt><trkpt lat="47.302658" lon="7.805955"><ele>432.35</ele></trkpt><trkpt lat="47.302704" lon="7.805880"><ele>432.34</ele></trkpt><trkpt lat="47.302686" lon="7.805762"><ele>432.32</ele></trkpt><trkpt lat="47.302574" lon="7.805404"><ele>432.27</ele></trkpt><trkpt lat="47.302461" lon="7.805047"><ele>432.21</ele></trkpt><trkpt lat="47.302349" lon="7.804689"><ele>432.15</ele></trkpt><trkpt lat="47.302237" lon="7.804331"><ele>432.10</ele></trkpt><trkpt lat="47.302125" lon="7.803973"><ele>432.08</ele></trkpt><trkpt lat="47.302012" lon="7.803615"><ele>432.09</ele></trkpt><trkpt lat="47.301900" lon="7.803257"><ele>432.13</ele></trkpt><trkpt lat="47.301788" lon="7.802899"><ele>432.19</ele></trkpt><trkpt lat="47.301675" lon="7.802541"><ele>432.27</ele></trkpt><trkpt lat="47.301563" lon="7.802183"><ele>432.39</ele></trkpt><trkpt lat="47.301451" lon="7.801825"><ele>432.55</ele></trkpt><trkpt lat="47.301341" lon="7.801474"><ele>432.75</ele></trkpt><trkpt lat="47.301231" lon="7.801123"><ele>433.00</ele></trkpt><trkpt lat="47.301121" lon="7.800772"><ele>433.30</ele></trkpt><trkpt lat="47.301011" lon="7.800421"><ele>433.61</ele></trkpt><trkpt lat="47.300922" lon="7.800135"><ele>433.87</ele></trkpt><trkpt lat="47.300832" lon="7.799849"><ele>434.12</ele></trkpt><trkpt lat="47.300743" lon="7.799563"><ele>434.35</ele></trkpt><trkpt lat="47.300697" lon="7.799327"><ele>434.50</ele></trkpt><trkpt lat="47.300618" lon="7.799255"><ele>434.58</ele></trkpt><trkpt lat="47.300403" lon="7.799218"><ele>434.76</ele></trkpt><trkpt lat="47.300189" lon="7.799181"><ele>434.94</ele></trkpt><trkpt lat="47.299950" lon="7.799171"><ele>435.16</ele></trkpt><trkpt lat="47.299711" lon="7.799161"><ele>435.45</ele></trkpt><trkpt lat="47.299520" lon="7.799173"><ele>435.77</ele></trkpt><trkpt lat="47.299330" lon="7.799185"><ele>436.17</ele></trkpt><trkpt lat="47.299209" lon="7.799235"><ele>436.49</ele></trkpt><trkpt lat="47.298970" lon="7.799412"><ele>437.33</ele></trkpt><trkpt lat="47.298730" lon="7.799588"><ele>438.37</ele></trkpt><trkpt lat="47.298491" lon="7.799765"><ele>439.59</ele></trkpt><trkpt lat="47.298256" lon="7.799866"><ele>440.87</ele></trkpt><trkpt lat="47.298131" lon="7.799902"><ele>441.59</ele></trkpt><trkpt lat="47.297958" lon="7.799944"><ele>442.65</ele></trkpt><trkpt lat="47.297784" lon="7.799987"><ele>443.76</ele></trkpt><trkpt lat="47.297542" lon="7.800054"><ele>445.38</ele></trkpt><trkpt lat="47.297361" lon="7.800135"><ele>446.62</ele></trkpt><trkpt lat="47.297230" lon="7.800230"><ele>447.55</ele></trkpt><trkpt lat="47.297066" lon="7.800426"><ele>448.83</ele></trkpt><trkpt lat="47.296961" lon="7.800636"><ele>449.79</ele></trkpt><trkpt lat="47.296864" lon="7.800849"><ele>450.63</ele></trkpt><trkpt lat="47.296768" lon="7.801061"><ele>451.34</ele></trkpt><trkpt lat="47.296627" lon="7.801320"><ele>452.07</ele></trkpt><trkpt lat="47.296485" lon="7.801578"><ele>452.61</ele></trkpt><trkpt lat="47.296343" lon="7.801837"><ele>453.00</ele></trkpt><trkpt lat="47.296201" lon="7.802096"><ele>453.28</ele></trkpt><trkpt lat="47.296059" lon="7.802354"><ele>453.51</ele></trkpt><trkpt lat="47.295917" lon="7.802613"><ele>453.75</ele></trkpt><trkpt lat="47.295796" lon="7.802839"><ele>454.02</ele></trkpt><trkpt lat="47.295676" lon="7.803064"><ele>454.38</ele></trkpt><trkpt lat="47.295556" lon="7.803290"><ele>454.87</ele></trkpt><trkpt lat="47.295498" lon="7.803345"><ele>455.07</ele></trkpt><trkpt lat="47.295446" lon="7.803315"><ele>455.25</ele></trkpt><trkpt lat="47.295305" lon="7.803023"><ele>456.15</ele></trkpt><trkpt lat="47.295163" lon="7.802732"><ele>457.23</ele></trkpt><trkpt lat="47.295021" lon="7.802441"><ele>458.43</ele></trkpt><trkpt lat="47.294880" lon="7.802149"><ele>459.68</ele></trkpt><trkpt lat="47.294738" lon="7.801858"><ele>460.91</ele></trkpt><trkpt lat="47.294597" lon="7.801571"><ele>462.03</ele></trkpt><trkpt lat="47.294456" lon="7.801284"><ele>462.98</ele></trkpt><trkpt lat="47.294299" lon="7.800964"><ele>463.78</ele></trkpt><trkpt lat="47.294143" lon="7.800645"><ele>464.28</ele></trkpt><trkpt lat="47.293986" lon="7.800326"><ele>464.46</ele></trkpt><trkpt lat="47.293860" lon="7.800071"><ele>464.39</ele></trkpt><trkpt lat="47.293735" lon="7.799816"><ele>464.12</ele></trkpt><trkpt lat="47.293609" lon="7.799561"><ele>463.70</ele></trkpt><trkpt lat="47.293434" lon="7.799269"><ele>463.01</ele></trkpt><trkpt lat="47.293260" lon="7.798977"><ele>462.19</ele></trkpt><trkpt lat="47.293085" lon="7.798685"><ele>461.25</ele></trkpt><trkpt lat="47.292973" lon="7.798500"><ele>460.61</ele></trkpt><trkpt lat="47.292861" lon="7.798316"><ele>459.94</ele></trkpt><trkpt lat="47.292712" lon="7.798073"><ele>459.01</ele></trkpt><trkpt lat="47.292563" lon="7.797830"><ele>458.08</ele></trkpt><trkpt lat="47.292414" lon="7.797587"><ele>457.16</ele></trkpt><trkpt lat="47.292266" lon="7.797344"><ele>456.28</ele></trkpt><trkpt lat="47.292150" lon="7.797155"><ele>455.64</ele></trkpt><trkpt lat="47.292034" lon="7.796965"><ele>455.03</ele></trkpt><trkpt lat="47.291890" lon="7.796731"><ele>454.35</ele></trkpt><trkpt lat="47.291747" lon="7.796496"><ele>453.73</ele></trkpt><trkpt lat="47.291606" lon="7.796212"><ele>453.13</ele></trkpt><trkpt lat="47.291502" lon="7.795885"><ele>452.63</ele></trkpt><trkpt lat="47.291398" lon="7.795557"><ele>452.24</ele></trkpt><trkpt lat="47.291295" lon="7.795230"><ele>452.02</ele></trkpt><trkpt lat="47.291191" lon="7.794903"><ele>451.98</ele></trkpt><trkpt lat="47.291143" lon="7.794779"><ele>452.02</ele></trkpt><trkpt lat="47.291103" lon="7.794747"><ele>452.06</ele></trkpt><trkpt lat="47.290997" lon="7.794785"><ele>452.19</ele></trkpt><trkpt lat="47.290799" lon="7.794897"><ele>452.60</ele></trkpt><trkpt lat="47.290600" lon="7.795010"><ele>453.23</ele></trkpt><trkpt lat="47.290396" lon="7.795125"><ele>454.12</ele></trkpt><trkpt lat="47.290191" lon="7.795241"><ele>455.25</ele></trkpt><trkpt lat="47.289986" lon="7.795357"><ele>456.64</ele></trkpt><trkpt lat="47.289829" lon="7.795422"><ele>457.82</ele></trkpt><trkpt lat="47.289672" lon="7.795488"><ele>459.12</ele></trkpt><trkpt lat="47.289446" lon="7.795543"><ele>461.07</ele></trkpt><trkpt lat="47.289220" lon="7.795598"><ele>463.08</ele></trkpt><trkpt lat="47.289043" lon="7.795629"><ele>464.62</ele></trkpt><trkpt lat="47.288816" lon="7.795651"><ele>466.47</ele></trkpt><trkpt lat="47.288589" lon="7.795673"><ele>468.14</ele></trkpt><trkpt lat="47.288362" lon="7.795695"><ele>469.57</ele></trkpt><trkpt lat="47.288136" lon="7.795717"><ele>470.74</ele></trkpt><trkpt lat="47.287909" lon="7.795739"><ele>471.68</ele></trkpt><trkpt lat="47.287718" lon="7.795747"><ele>472.31</ele></trkpt><trkpt lat="47.287528" lon="7.795754"><ele>472.82</ele></trkpt><trkpt lat="47.287338" lon="7.795762"><ele>473.27</ele></trkpt><trkpt lat="47.287132" lon="7.795791"><ele>473.71</ele></trkpt><trkpt lat="47.286893" lon="7.795856"><ele>474.21</ele></trkpt><trkpt lat="47.286655" lon="7.795920"><ele>474.71</ele></trkpt><trkpt lat="47.286444" lon="7.795979"><ele>475.14</ele></trkpt><trkpt lat="47.286233" lon="7.796038"><ele>475.56</ele></trkpt><trkpt lat="47.286023" lon="7.796098"><ele>475.93</ele></trkpt><trkpt lat="47.285787" lon="7.796168"><ele>476.26</ele></trkpt><trkpt lat="47.285552" lon="7.796238"><ele>476.50</ele></trkpt><trkpt lat="47.285367" lon="7.796242"><ele>476.61</ele></trkpt><trkpt lat="47.285229" lon="7.796232"><ele>476.65</ele></trkpt><trkpt lat="47.285091" lon="7.796221"><ele>476.64</ele></trkpt><trkpt lat="47.284997" lon="7.796220"><ele>476.61</ele></trkpt><trkpt lat="47.284841" lon="7.796242"><ele>476.49</ele></trkpt><trkpt lat="47.284685" lon="7.796265"><ele>476.28</ele></trkpt><trkpt lat="47.284581" lon="7.796314"><ele>476.05</ele></trkpt><trkpt lat="47.284493" lon="7.796395"><ele>475.78</ele></trkpt><trkpt lat="47.284303" lon="7.796670"><ele>474.77</ele></trkpt><trkpt lat="47.284209" lon="7.796850"><ele>473.95</ele></trkpt><trkpt lat="47.284116" lon="7.797031"><ele>472.93</ele></trkpt><trkpt lat="47.284025" lon="7.797230"><ele>471.63</ele></trkpt><trkpt lat="47.283911" lon="7.797502"><ele>469.60</ele></trkpt><trkpt lat="47.283798" lon="7.797775"><ele>467.32</ele></trkpt><trkpt lat="47.283660" lon="7.798003"><ele>465.00</ele></trkpt><trkpt lat="47.283526" lon="7.798161"><ele>463.04</ele></trkpt><trkpt lat="47.283369" lon="7.798329"><ele>460.82</ele></trkpt><trkpt lat="47.283212" lon="7.798497"><ele>458.65</ele></trkpt><trkpt lat="47.283055" lon="7.798666"><ele>456.57</ele></trkpt><trkpt lat="47.282916" lon="7.798814"><ele>454.82</ele></trkpt><trkpt lat="47.282778" lon="7.798962"><ele>453.14</ele></trkpt><trkpt lat="47.282590" lon="7.799163"><ele>450.95</ele></trkpt><trkpt lat="47.282401" lon="7.799365"><ele>448.85</ele></trkpt><trkpt lat="47.282212" lon="7.799567"><ele>446.83</ele></trkpt><trkpt lat="47.282067" lon="7.799696"><ele>445.39</ele></trkpt><trkpt lat="47.281922" lon="7.799825"><ele>444.00</ele></trkpt><trkpt lat="47.281848" lon="7.799871"><ele>443.35</ele></trkpt><trkpt lat="47.281695" lon="7.799915"><ele>442.14</ele></trkpt><trkpt lat="47.281650" lon="7.799963"><ele>441.72</ele></trkpt><trkpt lat="47.281653" lon="7.800071"><ele>441.18</ele></trkpt><trkpt lat="47.281716" lon="7.800273"><ele>440.11</ele></trkpt><trkpt lat="47.281779" lon="7.800474"><ele>439.12</ele></trkpt><trkpt lat="47.281894" lon="7.800778"><ele>437.74</ele></trkpt><trkpt lat="47.282009" lon="7.801082"><ele>436.59</ele></trkpt><trkpt lat="47.282124" lon="7.801386"><ele>435.66</ele></trkpt><trkpt lat="47.282238" lon="7.801691"><ele>434.94</ele></trkpt><trkpt lat="47.282288" lon="7.801953"><ele>434.50</ele></trkpt><trkpt lat="47.282339" lon="7.802215"><ele>434.14</ele></trkpt><trkpt lat="47.282389" lon="7.802478"><ele>433.83</ele></trkpt><trkpt lat="47.282434" lon="7.802833"><ele>433.44</ele></trkpt><trkpt lat="47.282480" lon="7.803189"><ele>433.03</ele></trkpt><trkpt lat="47.282526" lon="7.803545"><ele>432.57</ele></trkpt><trkpt lat="47.282566" lon="7.803730"><ele>432.30</ele></trkpt><trkpt lat="47.282685" lon="7.803977"><ele>431.87</ele></trkpt><trkpt lat="47.282804" lon="7.804225"><ele>431.42</ele></trkpt><trkpt lat="47.282923" lon="7.804473"><ele>430.97</ele></trkpt><trkpt lat="47.283042" lon="7.804721"><ele>430.54</ele></trkpt><trkpt lat="47.283196" lon="7.805014"><ele>430.06</ele></trkpt><trkpt lat="47.283351" lon="7.805307"><ele>429.64</ele></trkpt><trkpt lat="47.283506" lon="7.805600"><ele>429.27</ele></trkpt><trkpt lat="47.283661" lon="7.805893"><ele>428.97</ele></trkpt><trkpt lat="47.283774" lon="7.806126"><ele>428.77</ele></trkpt><trkpt lat="47.283887" lon="7.806358"><ele>428.62</ele></trkpt><trkpt lat="47.284000" lon="7.806591"><ele>428.50</ele></trkpt><trkpt lat="47.284107" lon="7.806844"><ele>428.42</ele></trkpt><trkpt lat="47.284214" lon="7.807095"><ele>428.37</ele></trkpt><trkpt lat="47.284322" lon="7.807408"><ele>428.36</ele></trkpt><trkpt lat="47.284387" lon="7.807505"><ele>428.37</ele></trkpt><trkpt lat="47.284550" lon="7.807696"><ele>428.44</ele></trkpt><trkpt lat="47.284714" lon="7.807887"><ele>428.56</ele></trkpt><trkpt lat="47.284877" lon="7.808079"><ele>428.76</ele></trkpt><trkpt lat="47.285040" lon="7.808270"><ele>429.04</ele></trkpt><trkpt lat="47.285241" lon="7.808517"><ele>429.50</ele></trkpt><trkpt lat="47.285443" lon="7.808764"><ele>430.07</ele></trkpt><trkpt lat="47.285622" lon="7.808984"><ele>430.66</ele></trkpt><trkpt lat="47.285802" lon="7.809205"><ele>431.30</ele></trkpt><trkpt lat="47.285981" lon="7.809425"><ele>431.95</ele></trkpt><trkpt lat="47.286122" lon="7.809598"><ele>432.45</ele></trkpt><trkpt lat="47.286263" lon="7.809771"><ele>432.91</ele></trkpt><trkpt lat="47.286403" lon="7.809944"><ele>433.31</ele></trkpt><trkpt lat="47.286514" lon="7.810106"><ele>433.61</ele></trkpt><trkpt lat="47.286602" lon="7.810102"><ele>433.75</ele></trkpt><trkpt lat="47.286795" lon="7.809933"><ele>434.05</ele></trkpt><trkpt lat="47.286989" lon="7.809763"><ele>434.26</ele></trkpt><trkpt lat="47.287183" lon="7.809593"><ele>434.42</ele></trkpt><trkpt lat="47.287377" lon="7.809423"><ele>434.56</ele></trkpt><trkpt lat="47.287568" lon="7.809274"><ele>434.69</ele></trkpt><trkpt lat="47.287661" lon="7.809226"><ele>434.75</ele></trkpt><trkpt lat="47.287869" lon="7.809218"><ele>434.89</ele></trkpt><trkpt lat="47.288046" lon="7.809267"><ele>435.02</ele></trkpt><trkpt lat="47.288224" lon="7.809315"><ele>435.16</ele></trkpt><trkpt lat="47.288455" lon="7.809364"><ele>435.36</ele></trkpt><trkpt lat="47.288539" lon="7.809362"><ele>435.44</ele></trkpt><trkpt lat="47.288651" lon="7.809316"><ele>435.57</ele></trkpt><trkpt lat="47.288842" lon="7.809185"><ele>435.86</ele></trkpt><trkpt lat="47.289034" lon="7.809055"><ele>436.26</ele></trkpt><trkpt lat="47.289225" lon="7.808925"><ele>436.86</ele></trkpt><trkpt lat="47.289417" lon="7.808795"><ele>437.70</ele></trkpt><trkpt lat="47.289641" lon="7.808634"><ele>439.07</ele></trkpt><trkpt lat="47.289858" lon="7.808463"><ele>440.85</ele></trkpt><trkpt lat="47.290075" lon="7.808291"><ele>443.01</ele></trkpt><trkpt lat="47.290291" lon="7.808120"><ele>445.46</ele></trkpt><trkpt lat="47.290508" lon="7.807949"><ele>448.00</ele></trkpt><trkpt lat="47.290610" lon="7.807887"><ele>449.12</ele></trkpt><trkpt lat="47.290774" lon="7.807878"><ele>450.66</ele></trkpt><trkpt lat="47.290932" lon="7.807958"><ele>452.01</ele></trkpt><trkpt lat="47.291082" lon="7.808116"><ele>453.17</ele></trkpt><trkpt lat="47.291231" lon="7.808274"><ele>453.91</ele></trkpt><trkpt lat="47.291381" lon="7.808433"><ele>454.17</ele></trkpt><trkpt lat="47.291556" lon="7.808518"><ele>453.95</ele></trkpt><trkpt lat="47.291593" lon="7.808617"><ele>453.72</ele></trkpt><trkpt lat="47.291573" lon="7.808711"><ele>453.46</ele></trkpt><trkpt lat="47.291461" lon="7.809037"><ele>452.10</ele></trkpt><trkpt lat="47.291348" lon="7.809363"><ele>450.38</ele></trkpt><trkpt lat="47.291230" lon="7.809656"><ele>448.73</ele></trkpt><trkpt lat="47.291116" lon="7.809873"><ele>447.54</ele></trkpt><trkpt lat="47.290960" lon="7.810116"><ele>446.40</ele></trkpt><trkpt lat="47.290885" lon="7.810266"><ele>445.97</ele></trkpt><trkpt lat="47.290813" lon="7.810437"><ele>445.67</ele></trkpt><trkpt lat="47.290741" lon="7.810609"><ele>445.55</ele></trkpt><trkpt lat="47.290650" lon="7.810854"><ele>445.62</ele></trkpt><trkpt lat="47.290559" lon="7.811099"><ele>445.88</ele></trkpt><trkpt lat="47.290468" lon="7.811343"><ele>446.22</ele></trkpt><trkpt lat="47.290354" lon="7.811626"><ele>446.59</ele></trkpt><trkpt lat="47.290240" lon="7.811908"><ele>446.83</ele></trkpt><trkpt lat="47.290126" lon="7.812191"><ele>446.90</ele></trkpt><trkpt lat="47.290011" lon="7.812473"><ele>446.78</ele></trkpt><trkpt lat="47.289877" lon="7.812713"><ele>446.55</ele></trkpt><trkpt lat="47.289743" lon="7.812952"><ele>446.24</ele></trkpt><trkpt lat="47.289637" lon="7.813220"><ele>445.92</ele></trkpt><trkpt lat="47.289532" lon="7.813487"><ele>445.63</ele></trkpt><trkpt lat="47.289431" lon="7.813833"><ele>445.33</ele></trkpt><trkpt lat="47.289330" lon="7.814178"><ele>445.11</ele></trkpt><trkpt lat="47.289215" lon="7.814513"><ele>444.94</ele></trkpt><trkpt lat="47.289100" lon="7.814848"><ele>444.78</ele></trkpt><trkpt lat="47.288980" lon="7.815041"><ele>444.67</ele></trkpt><trkpt lat="47.288863" lon="7.815194"><ele>444.56</ele></trkpt><trkpt lat="47.288747" lon="7.815346"><ele>444.43</ele></trkpt><trkpt lat="47.288578" lon="7.815547"><ele>444.23</ele></trkpt><trkpt lat="47.288410" lon="7.815748"><ele>444.02</ele></trkpt><trkpt lat="47.288208" lon="7.815971"><ele>443.77</ele></trkpt><trkpt lat="47.288043" lon="7.816146"><ele>443.57</ele></trkpt><trkpt lat="47.287878" lon="7.816322"><ele>443.40</ele></trkpt><trkpt lat="47.287712" lon="7.816498"><ele>443.27</ele></trkpt><trkpt lat="47.287547" lon="7.816674"><ele>443.17</ele></trkpt><trkpt lat="47.287359" lon="7.816874"><ele>443.11</ele></trkpt><trkpt lat="47.287170" lon="7.817075"><ele>443.07</ele></trkpt><trkpt lat="47.286981" lon="7.817276"><ele>443.04</ele></trkpt><trkpt lat="47.286792" lon="7.817477"><ele>442.98</ele></trkpt><trkpt lat="47.286604" lon="7.817678"><ele>442.84</ele></trkpt><trkpt lat="47.286415" lon="7.817879"><ele>442.60</ele></trkpt><trkpt lat="47.286226" lon="7.818080"><ele>442.25</ele></trkpt><trkpt lat="47.286050" lon="7.818281"><ele>441.79</ele></trkpt><trkpt lat="47.285874" lon="7.818481"><ele>441.24</ele></trkpt><trkpt lat="47.285697" lon="7.818682"><ele>440.62</ele></trkpt><trkpt lat="47.285521" lon="7.818883"><ele>439.95</ele></trkpt><trkpt lat="47.285330" lon="7.819106"><ele>439.22</ele></trkpt><trkpt lat="47.285138" lon="7.819329"><ele>438.52</ele></trkpt><trkpt lat="47.284946" lon="7.819551"><ele>437.93</ele></trkpt><trkpt lat="47.284799" lon="7.819740"><ele>437.56</ele></trkpt><trkpt lat="47.284651" lon="7.819930"><ele>437.29</ele></trkpt><trkpt lat="47.284503" lon="7.820119"><ele>437.13</ele></trkpt><trkpt lat="47.284320" lon="7.820367"><ele>437.04</ele></trkpt><trkpt lat="47.284160" lon="7.820590"><ele>437.01</ele></trkpt><trkpt lat="47.284000" lon="7.820812"><ele>436.94</ele></trkpt><trkpt lat="47.283840" lon="7.821035"><ele>436.77</ele></trkpt><trkpt lat="47.283671" lon="7.821268"><ele>436.42</ele></trkpt><trkpt lat="47.283503" lon="7.821500"><ele>435.84</ele></trkpt><trkpt lat="47.283334" lon="7.821733"><ele>435.05</ele></trkpt><trkpt lat="47.283165" lon="7.821965"><ele>434.08</ele></trkpt><trkpt lat="47.282997" lon="7.822197"><ele>433.00</ele></trkpt><trkpt lat="47.282828" lon="7.822430"><ele>431.90</ele></trkpt><trkpt lat="47.282666" lon="7.822650"><ele>430.91</ele></trkpt><trkpt lat="47.282504" lon="7.822870"><ele>430.02</ele></trkpt><trkpt lat="47.282342" lon="7.823090"><ele>429.27</ele></trkpt><trkpt lat="47.282180" lon="7.823310"><ele>428.66</ele></trkpt><trkpt lat="47.282023" lon="7.823523"><ele>428.21</ele></trkpt><trkpt lat="47.281866" lon="7.823737"><ele>427.88</ele></trkpt><trkpt lat="47.281709" lon="7.823950"><ele>427.65</ele></trkpt><trkpt lat="47.281512" lon="7.824217"><ele>427.50</ele></trkpt><trkpt lat="47.281315" lon="7.824483"><ele>427.47</ele></trkpt><trkpt lat="47.281118" lon="7.824750"><ele>427.52</ele></trkpt><trkpt lat="47.280945" lon="7.824955"><ele>427.61</ele></trkpt><trkpt lat="47.280931" lon="7.825035"><ele>427.64</ele></trkpt><trkpt lat="47.280973" lon="7.825158"><ele>427.68</ele></trkpt><trkpt lat="47.281117" lon="7.825494"><ele>427.82</ele></trkpt><trkpt lat="47.281261" lon="7.825829"><ele>427.95</ele></trkpt><trkpt lat="47.281406" lon="7.826165"><ele>428.06</ele></trkpt><trkpt lat="47.281550" lon="7.826500"><ele>428.15</ele></trkpt><trkpt lat="47.281663" lon="7.826753"><ele>428.22</ele></trkpt><trkpt lat="47.281776" lon="7.827007"><ele>428.30</ele></trkpt><trkpt lat="47.281888" lon="7.827260"><ele>428.37</ele></trkpt><trkpt lat="47.282001" lon="7.827514"><ele>428.44</ele></trkpt><trkpt lat="47.282043" lon="7.827636"><ele>428.48</ele></trkpt><trkpt lat="47.282073" lon="7.827834"><ele>428.53</ele></trkpt><trkpt lat="47.282103" lon="7.828032"><ele>428.57</ele></trkpt><trkpt lat="47.282145" lon="7.828417"><ele>428.65</ele></trkpt><trkpt lat="47.282186" lon="7.828801"><ele>428.71</ele></trkpt><trkpt lat="47.282228" lon="7.829186"><ele>428.73</ele></trkpt><trkpt lat="47.282269" lon="7.829571"><ele>428.70</ele></trkpt><trkpt lat="47.282287" lon="7.829858"><ele>428.63</ele></trkpt><trkpt lat="47.282305" lon="7.830145"><ele>428.52</ele></trkpt><trkpt lat="47.282323" lon="7.830432"><ele>428.35</ele></trkpt><trkpt lat="47.282316" lon="7.830540"><ele>428.27</ele></trkpt><trkpt lat="47.282224" lon="7.830601"><ele>428.14</ele></trkpt><trkpt lat="47.282013" lon="7.830614"><ele>427.84</ele></trkpt><trkpt lat="47.281801" lon="7.830627"><ele>427.47</ele></trkpt><trkpt lat="47.281588" lon="7.830641"><ele>427.07</ele></trkpt><trkpt lat="47.281377" lon="7.830654"><ele>426.65</ele></trkpt><trkpt lat="47.281188" lon="7.830699"><ele>426.27</ele></trkpt><trkpt lat="47.281000" lon="7.830744"><ele>425.91</ele></trkpt><trkpt lat="47.280873" lon="7.830808"><ele>425.69</ele></trkpt><trkpt lat="47.280758" lon="7.830894"><ele>425.49</ele></trkpt><trkpt lat="47.280534" lon="7.831092"><ele>425.18</ele></trkpt><trkpt lat="47.280310" lon="7.831291"><ele>424.97</ele></trkpt><trkpt lat="47.280087" lon="7.831489"><ele>424.88</ele></trkpt><trkpt lat="47.279986" lon="7.831602"><ele>424.88</ele></trkpt><trkpt lat="47.279795" lon="7.831847"><ele>424.95</ele></trkpt><trkpt lat="47.279603" lon="7.832092"><ele>425.08</ele></trkpt><trkpt lat="47.279455" lon="7.832282"><ele>425.21</ele></trkpt><trkpt lat="47.279308" lon="7.832472"><ele>425.36</ele></trkpt><trkpt lat="47.279160" lon="7.832662"><ele>425.52</ele></trkpt><trkpt lat="47.278995" lon="7.832917"><ele>425.72</ele></trkpt><trkpt lat="47.278830" lon="7.833172"><ele>425.92</ele></trkpt><trkpt lat="47.278666" lon="7.833426"><ele>426.13</ele></trkpt><trkpt lat="47.278501" lon="7.833681"><ele>426.35</ele></trkpt><trkpt lat="47.278340" lon="7.833996"><ele>426.61</ele></trkpt><trkpt lat="47.278178" lon="7.834311"><ele>426.87</ele></trkpt><trkpt lat="47.278017" lon="7.834626"><ele>427.14</ele></trkpt><trkpt lat="47.277856" lon="7.834941"><ele>427.41</ele></trkpt><trkpt lat="47.277735" lon="7.835266"><ele>427.66</ele></trkpt><trkpt lat="47.277671" lon="7.835550"><ele>427.87</ele></trkpt><trkpt lat="47.277638" lon="7.835818"><ele>428.06</ele></trkpt><trkpt lat="47.277605" lon="7.836087"><ele>428.25</ele></trkpt><trkpt lat="47.277538" lon="7.836305"><ele>428.41</ele></trkpt><trkpt lat="47.277537" lon="7.836365"><ele>428.45</ele></trkpt><trkpt lat="47.277599" lon="7.836464"><ele>428.53</ele></trkpt><trkpt lat="47.277794" lon="7.836646"><ele>428.73</ele></trkpt><trkpt lat="47.277989" lon="7.836827"><ele>428.90</ele></trkpt><trkpt lat="47.278179" lon="7.836966"><ele>429.01</ele></trkpt><trkpt lat="47.278369" lon="7.837105"><ele>429.09</ele></trkpt><trkpt lat="47.278560" lon="7.837243"><ele>429.12</ele></trkpt><trkpt lat="47.278750" lon="7.837382"><ele>429.09</ele></trkpt><trkpt lat="47.278919" lon="7.837546"><ele>429.02</ele></trkpt><trkpt lat="47.279089" lon="7.837710"><ele>428.89</ele></trkpt><trkpt lat="47.279300" lon="7.837940"><ele>428.66</ele></trkpt><trkpt lat="47.279511" lon="7.838171"><ele>428.36</ele></trkpt><trkpt lat="47.279722" lon="7.838401"><ele>428.02</ele></trkpt><trkpt lat="47.279916" lon="7.838595"><ele>427.68</ele></trkpt><trkpt lat="47.280110" lon="7.838789"><ele>427.35</ele></trkpt><trkpt lat="47.280304" lon="7.838983"><ele>427.05</ele></trkpt><trkpt lat="47.280499" lon="7.839177"><ele>426.79</ele></trkpt><trkpt lat="47.280712" lon="7.839363"><ele>426.60</ele></trkpt><trkpt lat="47.280925" lon="7.839549"><ele>426.51</ele></trkpt><trkpt lat="47.281137" lon="7.839735"><ele>426.52</ele></trkpt><trkpt lat="47.281279" lon="7.839932"><ele>426.61</ele></trkpt><trkpt lat="47.281421" lon="7.840129"><ele>426.78</ele></trkpt><trkpt lat="47.281562" lon="7.840327"><ele>427.02</ele></trkpt><trkpt lat="47.281681" lon="7.840435"><ele>427.24</ele></trkpt><trkpt lat="47.281799" lon="7.840543"><ele>427.49</ele></trkpt><trkpt lat="47.282014" lon="7.840675"><ele>427.97</ele></trkpt><trkpt lat="47.282230" lon="7.840808"><ele>428.52</ele></trkpt><trkpt lat="47.282445" lon="7.840940"><ele>429.13</ele></trkpt><trkpt lat="47.282660" lon="7.841072"><ele>429.80</ele></trkpt><trkpt lat="47.282875" lon="7.841204"><ele>430.50</ele></trkpt><trkpt lat="47.283095" lon="7.841310"><ele>431.22</ele></trkpt><trkpt lat="47.283298" lon="7.841381"><ele>431.88</ele></trkpt><trkpt lat="47.283502" lon="7.841452"><ele>432.53</ele></trkpt><trkpt lat="47.283705" lon="7.841524"><ele>433.14</ele></trkpt><trkpt lat="47.283963" lon="7.841609"><ele>433.85</ele></trkpt><trkpt lat="47.284220" lon="7.841695"><ele>434.48</ele></trkpt><trkpt lat="47.284478" lon="7.841780"><ele>435.01</ele></trkpt><trkpt lat="47.284705" lon="7.841880"><ele>435.41</ele></trkpt><trkpt lat="47.284932" lon="7.841980"><ele>435.72</ele></trkpt><trkpt lat="47.285160" lon="7.842080"><ele>435.96</ele></trkpt><trkpt lat="47.285415" lon="7.842205"><ele>436.12</ele></trkpt><trkpt lat="47.285670" lon="7.842329"><ele>436.17</ele></trkpt><trkpt lat="47.285925" lon="7.842454"><ele>436.09</ele></trkpt><trkpt lat="47.286181" lon="7.842578"><ele>435.87</ele></trkpt><trkpt lat="47.286432" lon="7.842647"><ele>435.53</ele></trkpt><trkpt lat="47.286683" lon="7.842715"><ele>435.08</ele></trkpt><trkpt lat="47.286934" lon="7.842784"><ele>434.53</ele></trkpt><trkpt lat="47.287185" lon="7.842852"><ele>433.90</ele></trkpt><trkpt lat="47.287414" lon="7.842989"><ele>433.24</ele></trkpt><trkpt lat="47.287628" lon="7.843181"><ele>432.57</ele></trkpt><trkpt lat="47.287830" lon="7.843432"><ele>431.88</ele></trkpt><trkpt lat="47.288031" lon="7.843684"><ele>431.27</ele></trkpt><trkpt lat="47.288233" lon="7.843936"><ele>430.75</ele></trkpt><trkpt lat="47.288420" lon="7.844190"><ele>430.34</ele></trkpt><trkpt lat="47.288596" lon="7.844458"><ele>429.97</ele></trkpt><trkpt lat="47.288735" lon="7.844701"><ele>429.66</ele></trkpt><trkpt lat="47.288875" lon="7.844945"><ele>429.31</ele></trkpt><trkpt lat="47.289014" lon="7.845188"><ele>428.90</ele></trkpt><trkpt lat="47.289154" lon="7.845432"><ele>428.42</ele></trkpt><trkpt lat="47.289292" lon="7.845645"><ele>427.93</ele></trkpt><trkpt lat="47.289431" lon="7.845859"><ele>427.44</ele></trkpt><trkpt lat="47.289555" lon="7.846009"><ele>427.08</ele></trkpt><trkpt lat="47.289679" lon="7.846158"><ele>426.77</ele></trkpt><trkpt lat="47.289848" lon="7.846328"><ele>426.50</ele></trkpt><trkpt lat="47.290018" lon="7.846497"><ele>426.38</ele></trkpt><trkpt lat="47.290180" lon="7.846640"><ele>426.43</ele></trkpt><trkpt lat="47.290341" lon="7.846783"><ele>426.60</ele></trkpt><trkpt lat="47.290544" lon="7.846995"><ele>427.00</ele></trkpt><trkpt lat="47.290746" lon="7.847207"><ele>427.50</ele></trkpt><trkpt lat="47.290949" lon="7.847420"><ele>428.02</ele></trkpt><trkpt lat="47.291156" lon="7.847662"><ele>428.51</ele></trkpt><trkpt lat="47.291363" lon="7.847904"><ele>428.87</ele></trkpt><trkpt lat="47.291571" lon="7.848146"><ele>429.08</ele></trkpt><trkpt lat="47.291778" lon="7.848388"><ele>429.13</ele></trkpt><trkpt lat="47.291962" lon="7.848603"><ele>429.03</ele></trkpt><trkpt lat="47.292146" lon="7.848818"><ele>428.81</ele></trkpt><trkpt lat="47.292330" lon="7.849033"><ele>428.48</ele></trkpt><trkpt lat="47.292517" lon="7.849251"><ele>428.02</ele></trkpt><trkpt lat="47.292705" lon="7.849469"><ele>427.45</ele></trkpt><trkpt lat="47.292892" lon="7.849686"><ele>426.80</ele></trkpt><trkpt lat="47.293079" lon="7.849904"><ele>426.10</ele></trkpt><trkpt lat="47.293205" lon="7.850025"><ele>425.68</ele></trkpt><trkpt lat="47.293337" lon="7.850117"><ele>425.29</ele></trkpt><trkpt lat="47.293553" lon="7.850215"><ele>424.78</ele></trkpt><trkpt lat="47.293771" lon="7.850280"><ele>424.41</ele></trkpt><trkpt lat="47.293990" lon="7.850345"><ele>424.18</ele></trkpt><trkpt lat="47.294209" lon="7.850410"><ele>424.07</ele></trkpt><trkpt lat="47.294384" lon="7.850471"><ele>424.03</ele></trkpt><trkpt lat="47.294560" lon="7.850533"><ele>423.98</ele></trkpt><trkpt lat="47.294760" lon="7.850657"><ele>423.86</ele></trkpt><trkpt lat="47.294961" lon="7.850781"><ele>423.59</ele></trkpt><trkpt lat="47.295161" lon="7.850906"><ele>423.12</ele></trkpt><trkpt lat="47.295361" lon="7.851030"><ele>422.42</ele></trkpt><trkpt lat="47.295563" lon="7.851143"><ele>421.52</ele></trkpt><trkpt lat="47.295766" lon="7.851255"><ele>420.46</ele></trkpt><trkpt lat="47.295968" lon="7.851368"><ele>419.34</ele></trkpt><trkpt lat="47.296211" lon="7.851468"><ele>418.06</ele></trkpt><trkpt lat="47.296453" lon="7.851568"><ele>416.93</ele></trkpt><trkpt lat="47.296696" lon="7.851668"><ele>416.03</ele></trkpt><trkpt lat="47.296939" lon="7.851768"><ele>415.40</ele></trkpt><trkpt lat="47.297201" lon="7.851844"><ele>415.01</ele></trkpt><trkpt lat="47.297463" lon="7.851919"><ele>414.85</ele></trkpt><trkpt lat="47.297656" lon="7.851943"><ele>414.85</ele></trkpt><trkpt lat="47.297849" lon="7.851968"><ele>414.94</ele></trkpt><trkpt lat="47.298024" lon="7.851984"><ele>415.07</ele></trkpt><trkpt lat="47.298200" lon="7.852001"><ele>415.25</ele></trkpt><trkpt lat="47.298460" lon="7.852040"><ele>415.57</ele></trkpt><trkpt lat="47.298721" lon="7.852080"><ele>415.98</ele></trkpt><trkpt lat="47.298972" lon="7.852107"><ele>416.44</ele></trkpt><trkpt lat="47.299224" lon="7.852134"><ele>416.96</ele></trkpt><trkpt lat="47.299476" lon="7.852161"><ele>417.52</ele></trkpt><trkpt lat="47.299699" lon="7.852150"><ele>418.02</ele></trkpt><trkpt lat="47.299922" lon="7.852138"><ele>418.47</ele></trkpt><trkpt lat="47.300077" lon="7.852111"><ele>418.73</ele></trkpt><trkpt lat="47.300231" lon="7.852083"><ele>418.91</ele></trkpt><trkpt lat="47.300466" lon="7.852093"><ele>419.02</ele></trkpt><trkpt lat="47.300701" lon="7.852104"><ele>418.90</ele></trkpt><trkpt lat="47.300858" lon="7.852164"><ele>418.67</ele></trkpt><trkpt lat="47.301014" lon="7.852225"><ele>418.31</ele></trkpt><trkpt lat="47.301241" lon="7.852401"><ele>417.54</ele></trkpt><trkpt lat="47.301468" lon="7.852577"><ele>416.60</ele></trkpt><trkpt lat="47.301694" lon="7.852753"><ele>415.59</ele></trkpt><trkpt lat="47.301841" lon="7.852815"><ele>414.99</ele></trkpt><trkpt lat="47.301987" lon="7.852877"><ele>414.42</ele></trkpt><trkpt lat="47.302238" lon="7.852950"><ele>413.56</ele></trkpt><trkpt lat="47.302489" lon="7.853022"><ele>412.85</ele></trkpt><trkpt lat="47.302741" lon="7.853143"><ele>412.29</ele></trkpt><trkpt lat="47.302878" lon="7.853241"><ele>412.07</ele></trkpt><trkpt lat="47.303035" lon="7.853385"><ele>411.88</ele></trkpt><trkpt lat="47.303192" lon="7.853529"><ele>411.79</ele></trkpt><trkpt lat="47.303380" lon="7.853659"><ele>411.78</ele></trkpt><trkpt lat="47.303530" lon="7.853694"><ele>411.82</ele></trkpt><trkpt lat="47.303695" lon="7.853675"><ele>411.89</ele></trkpt><trkpt lat="47.303860" lon="7.853657"><ele>411.97</ele></trkpt><trkpt lat="47.303953" lon="7.853667"><ele>412.02</ele></trkpt><trkpt lat="47.304196" lon="7.853756"><ele>412.12</ele></trkpt><trkpt lat="47.304438" lon="7.853844"><ele>412.17</ele></trkpt><trkpt lat="47.304680" lon="7.853932"><ele>412.13</ele></trkpt><trkpt lat="47.304801" lon="7.854026"><ele>412.07</ele></trkpt><trkpt lat="47.304923" lon="7.854120"><ele>411.98</ele></trkpt><trkpt lat="47.305032" lon="7.854265"><ele>411.86</ele></trkpt><trkpt lat="47.305149" lon="7.854516"><ele>411.66</ele></trkpt><trkpt lat="47.305267" lon="7.854767"><ele>411.45</ele></trkpt><trkpt lat="47.305371" lon="7.854958"><ele>411.29</ele></trkpt><trkpt lat="47.305444" lon="7.855235"><ele>411.12</ele></trkpt><trkpt lat="47.305548" lon="7.855397"><ele>411.02</ele></trkpt><trkpt lat="47.305653" lon="7.855560"><ele>410.95</ele></trkpt><trkpt lat="47.305840" lon="7.855743"><ele>410.92</ele></trkpt><trkpt lat="47.306028" lon="7.855926"><ele>410.98</ele></trkpt><trkpt lat="47.306222" lon="7.856058"><ele>411.12</ele></trkpt><trkpt lat="47.306416" lon="7.856191"><ele>411.35</ele></trkpt><trkpt lat="47.306610" lon="7.856323"><ele>411.66</ele></trkpt><trkpt lat="47.306683" lon="7.856325"><ele>411.79</ele></trkpt><trkpt lat="47.306854" lon="7.856258"><ele>412.13</ele></trkpt><trkpt lat="47.307025" lon="7.856190"><ele>412.52</ele></trkpt><trkpt lat="47.307242" lon="7.856185"><ele>413.05</ele></trkpt><trkpt lat="47.307449" lon="7.856235"><ele>413.61</ele></trkpt><trkpt lat="47.307637" lon="7.856379"><ele>414.22</ele></trkpt><trkpt lat="47.307835" lon="7.856583"><ele>414.95</ele></trkpt><trkpt lat="47.307992" lon="7.856709"><ele>415.53</ele></trkpt><trkpt lat="47.308149" lon="7.856834"><ele>416.12</ele></trkpt><trkpt lat="47.308250" lon="7.856884"><ele>416.48</ele></trkpt><trkpt lat="47.308340" lon="7.856890"><ele>416.78</ele></trkpt><trkpt lat="47.308541" lon="7.856795"><ele>417.47</ele></trkpt><trkpt lat="47.308770" lon="7.856642"><ele>418.23</ele></trkpt><trkpt lat="47.308998" lon="7.856488"><ele>418.88</ele></trkpt><trkpt lat="47.309213" lon="7.856316"><ele>419.36</ele></trkpt><trkpt lat="47.309523" lon="7.856162"><ele>419.68</ele></trkpt><trkpt lat="47.309541" lon="7.856400"><ele>419.70</ele></trkpt><trkpt lat="47.309608" lon="7.856725"><ele>419.66</ele></trkpt><trkpt lat="47.309675" lon="7.857050"><ele>419.54</ele></trkpt><trkpt lat="47.309742" lon="7.857376"><ele>419.36</ele></trkpt><trkpt lat="47.309809" lon="7.857702"><ele>419.11</ele></trkpt><trkpt lat="47.309897" lon="7.858037"><ele>418.82</ele></trkpt><trkpt lat="47.309984" lon="7.858372"><ele>418.49</ele></trkpt><trkpt lat="47.310076" lon="7.858718"><ele>418.14</ele></trkpt><trkpt lat="47.310168" lon="7.859064"><ele>417.80</ele></trkpt><trkpt lat="47.310260" lon="7.859410"><ele>417.50</ele></trkpt><trkpt lat="47.310347" lon="7.859731"><ele>417.29</ele></trkpt><trkpt lat="47.310434" lon="7.860051"><ele>417.16</ele></trkpt><trkpt lat="47.310522" lon="7.860372"><ele>417.13</ele></trkpt><trkpt lat="47.310604" lon="7.860614"><ele>417.19</ele></trkpt><trkpt lat="47.310687" lon="7.860857"><ele>417.30</ele></trkpt><trkpt lat="47.310770" lon="7.861099"><ele>417.45</ele></trkpt><trkpt lat="47.310863" lon="7.861344"><ele>417.61</ele></trkpt><trkpt lat="47.310956" lon="7.861588"><ele>417.74</ele></trkpt><trkpt lat="47.311049" lon="7.861832"><ele>417.81</ele></trkpt><trkpt lat="47.311128" lon="7.862149"><ele>417.74</ele></trkpt><trkpt lat="47.311158" lon="7.862388"><ele>417.57</ele></trkpt><trkpt lat="47.311169" lon="7.862646"><ele>417.26</ele></trkpt><trkpt lat="47.311149" lon="7.862954"><ele>416.71</ele></trkpt><trkpt lat="47.311095" lon="7.863334"><ele>415.84</ele></trkpt><trkpt lat="47.311042" lon="7.863713"><ele>414.83</ele></trkpt><trkpt lat="47.310988" lon="7.864092"><ele>413.79</ele></trkpt><trkpt lat="47.310967" lon="7.864336"><ele>413.18</ele></trkpt><trkpt lat="47.310959" lon="7.864628"><ele>412.53</ele></trkpt><trkpt lat="47.310952" lon="7.864920"><ele>412.02</ele></trkpt><trkpt lat="47.310972" lon="7.865215"><ele>411.63</ele></trkpt><trkpt lat="47.310992" lon="7.865512"><ele>411.40</ele></trkpt><trkpt lat="47.311035" lon="7.865860"><ele>411.30</ele></trkpt><trkpt lat="47.311095" lon="7.866205"><ele>411.33</ele></trkpt><trkpt lat="47.311163" lon="7.866512"><ele>411.44</ele></trkpt><trkpt lat="47.311230" lon="7.866818"><ele>411.58</ele></trkpt><trkpt lat="47.311298" lon="7.867125"><ele>411.73</ele></trkpt><trkpt lat="47.311373" lon="7.867470"><ele>411.88</ele></trkpt><trkpt lat="47.311449" lon="7.867815"><ele>412.01</ele></trkpt><trkpt lat="47.311525" lon="7.868160"><ele>412.13</ele></trkpt><trkpt lat="47.311601" lon="7.868505"><ele>412.26</ele></trkpt><trkpt lat="47.311677" lon="7.868850"><ele>412.43</ele></trkpt><trkpt lat="47.311752" lon="7.869195"><ele>412.64</ele></trkpt><trkpt lat="47.311820" lon="7.869502"><ele>412.88</ele></trkpt><trkpt lat="47.311887" lon="7.869808"><ele>413.15</ele></trkpt><trkpt lat="47.311955" lon="7.870115"><ele>413.44</ele></trkpt><trkpt lat="47.312001" lon="7.870343"><ele>413.65</ele></trkpt><trkpt lat="47.312046" lon="7.870571"><ele>413.84</ele></trkpt><trkpt lat="47.312120" lon="7.870949"><ele>414.11</ele></trkpt><trkpt lat="47.312194" lon="7.871328"><ele>414.28</ele></trkpt><trkpt lat="47.312268" lon="7.871707"><ele>414.32</ele></trkpt><trkpt lat="47.312329" lon="7.872067"><ele>414.22</ele></trkpt><trkpt lat="47.312389" lon="7.872428"><ele>413.97</ele></trkpt><trkpt lat="47.312450" lon="7.872789"><ele>413.60</ele></trkpt><trkpt lat="47.312500" lon="7.873156"><ele>413.11</ele></trkpt><trkpt lat="47.312550" lon="7.873524"><ele>412.57</ele></trkpt><trkpt lat="47.312600" lon="7.873892"><ele>412.02</ele></trkpt><trkpt lat="47.312633" lon="7.874161"><ele>411.66</ele></trkpt><trkpt lat="47.312666" lon="7.874431"><ele>411.35</ele></trkpt><trkpt lat="47.312699" lon="7.874700"><ele>411.10</ele></trkpt><trkpt lat="47.312726" lon="7.875009"><ele>410.88</ele></trkpt><trkpt lat="47.312753" lon="7.875318"><ele>410.74</ele></trkpt><trkpt lat="47.312779" lon="7.875627"><ele>410.64</ele></trkpt><trkpt lat="47.312806" lon="7.876019"><ele>410.54</ele></trkpt><trkpt lat="47.312833" lon="7.876410"><ele>410.42</ele></trkpt><trkpt lat="47.312859" lon="7.876801"><ele>410.26</ele></trkpt><trkpt lat="47.312870" lon="7.877176"><ele>410.06</ele></trkpt><trkpt lat="47.312880" lon="7.877550"><ele>409.79</ele></trkpt><trkpt lat="47.312890" lon="7.877925"><ele>409.49</ele></trkpt><trkpt lat="47.312900" lon="7.878300"><ele>409.19</ele></trkpt><trkpt lat="47.312910" lon="7.878676"><ele>408.91</ele></trkpt><trkpt lat="47.312920" lon="7.879051"><ele>408.68</ele></trkpt><trkpt lat="47.312920" lon="7.879394"><ele>408.52</ele></trkpt><trkpt lat="47.312921" lon="7.879736"><ele>408.41</ele></trkpt><trkpt lat="47.312922" lon="7.880079"><ele>408.33</ele></trkpt><trkpt lat="47.312923" lon="7.880422"><ele>408.28</ele></trkpt><trkpt lat="47.312923" lon="7.880765"><ele>408.21</ele></trkpt><trkpt lat="47.312924" lon="7.881107"><ele>408.13</ele></trkpt><trkpt lat="47.312925" lon="7.881450"><ele>408.02</ele></trkpt><trkpt lat="47.312926" lon="7.881830"><ele>407.86</ele></trkpt><trkpt lat="47.312927" lon="7.882210"><ele>407.67</ele></trkpt><trkpt lat="47.312927" lon="7.882590"><ele>407.45</ele></trkpt><trkpt lat="47.312928" lon="7.882970"><ele>407.24</ele></trkpt><trkpt lat="47.312929" lon="7.883350"><ele>407.06</ele></trkpt><trkpt lat="47.312930" lon="7.883730"><ele>406.92</ele></trkpt><trkpt lat="47.312912" lon="7.884090"><ele>406.87</ele></trkpt><trkpt lat="47.312894" lon="7.884450"><ele>406.93</ele></trkpt><trkpt lat="47.312921" lon="7.884698"><ele>407.03</ele></trkpt><trkpt lat="47.312949" lon="7.884946"><ele>407.21</ele></trkpt><trkpt lat="47.313002" lon="7.885149"><ele>407.42</ele></trkpt><trkpt lat="47.313073" lon="7.885338"><ele>407.68</ele></trkpt><trkpt lat="47.313162" lon="7.885497"><ele>407.96</ele></trkpt><trkpt lat="47.313251" lon="7.885657"><ele>408.28</ele></trkpt><trkpt lat="47.313438" lon="7.885895"><ele>408.89</ele></trkpt><trkpt lat="47.313625" lon="7.886133"><ele>409.50</ele></trkpt><trkpt lat="47.313812" lon="7.886371"><ele>410.08</ele></trkpt><trkpt lat="47.313969" lon="7.886569"><ele>410.50</ele></trkpt><trkpt lat="47.314125" lon="7.886766"><ele>410.83</ele></trkpt><trkpt lat="47.314281" lon="7.886963"><ele>411.04</ele></trkpt><trkpt lat="47.314437" lon="7.887161"><ele>411.12</ele></trkpt><trkpt lat="47.314587" lon="7.887360"><ele>411.05</ele></trkpt><trkpt lat="47.314737" lon="7.887559"><ele>410.83</ele></trkpt><trkpt lat="47.314837" lon="7.887716"><ele>410.57</ele></trkpt><trkpt lat="47.314937" lon="7.887873"><ele>410.25</ele></trkpt><trkpt lat="47.315054" lon="7.888175"><ele>409.64</ele></trkpt><trkpt lat="47.315090" lon="7.888317"><ele>409.37</ele></trkpt><trkpt lat="47.315131" lon="7.888594"><ele>408.86</ele></trkpt><trkpt lat="47.315173" lon="7.888872"><ele>408.43</ele></trkpt><trkpt lat="47.315215" lon="7.889149"><ele>408.11</ele></trkpt><trkpt lat="47.315292" lon="7.889378"><ele>407.96</ele></trkpt><trkpt lat="47.315429" lon="7.889711"><ele>407.94</ele></trkpt><trkpt lat="47.315567" lon="7.890044"><ele>408.12</ele></trkpt><trkpt lat="47.315703" lon="7.890377"><ele>408.39</ele></trkpt><trkpt lat="47.315841" lon="7.890710"><ele>408.61</ele></trkpt><trkpt lat="47.315991" lon="7.891033"><ele>408.69</ele></trkpt><trkpt lat="47.316142" lon="7.891357"><ele>408.60</ele></trkpt><trkpt lat="47.316292" lon="7.891680"><ele>408.39</ele></trkpt><trkpt lat="47.316456" lon="7.891950"><ele>408.22</ele></trkpt><trkpt lat="47.316620" lon="7.892220"><ele>408.25</ele></trkpt><trkpt lat="47.316785" lon="7.892489"><ele>408.62</ele></trkpt><trkpt lat="47.316927" lon="7.892684"><ele>409.23</ele></trkpt><trkpt lat="47.317070" lon="7.892880"><ele>410.13</ele></trkpt><trkpt lat="47.317278" lon="7.893116"><ele>411.68</ele></trkpt><trkpt lat="47.317486" lon="7.893352"><ele>413.41</ele></trkpt><trkpt lat="47.317625" lon="7.893510"><ele>414.55</ele></trkpt><trkpt lat="47.317764" lon="7.893668"><ele>415.59</ele></trkpt><trkpt lat="47.317926" lon="7.893852"><ele>416.59</ele></trkpt><trkpt lat="47.318087" lon="7.894036"><ele>417.31</ele></trkpt><trkpt lat="47.318249" lon="7.894220"><ele>417.69</ele></trkpt><trkpt lat="47.318390" lon="7.894397"><ele>417.73</ele></trkpt><trkpt lat="47.318532" lon="7.894573"><ele>417.46</ele></trkpt><trkpt lat="47.318672" lon="7.894772"><ele>416.87</ele></trkpt><trkpt lat="47.318813" lon="7.894970"><ele>415.99</ele></trkpt><trkpt lat="47.318956" lon="7.895197"><ele>414.77</ele></trkpt><trkpt lat="47.319099" lon="7.895425"><ele>413.31</ele></trkpt><trkpt lat="47.319242" lon="7.895652"><ele>411.68</ele></trkpt><trkpt lat="47.319396" lon="7.895908"><ele>409.74</ele></trkpt><trkpt lat="47.319550" lon="7.896165"><ele>407.69</ele></trkpt><trkpt lat="47.319703" lon="7.896389"><ele>405.73</ele></trkpt><trkpt lat="47.319863" lon="7.896547"><ele>403.97</ele></trkpt><trkpt lat="47.320023" lon="7.896705"><ele>402.22</ele></trkpt><trkpt lat="47.320117" lon="7.896823"><ele>401.14</ele></trkpt><trkpt lat="47.320176" lon="7.896982"><ele>400.13</ele></trkpt><trkpt lat="47.320182" lon="7.897145"><ele>399.27</ele></trkpt><trkpt lat="47.320158" lon="7.897465"><ele>397.85</ele></trkpt><trkpt lat="47.320187" lon="7.897644"><ele>397.22</ele></trkpt><trkpt lat="47.320282" lon="7.897993"><ele>396.41</ele></trkpt><trkpt lat="47.320378" lon="7.898341"><ele>396.26</ele></trkpt><trkpt lat="47.320473" lon="7.898690"><ele>396.77</ele></trkpt><trkpt lat="47.320260" lon="7.898962"><ele>394.51</ele></trkpt><trkpt lat="47.320181" lon="7.899135"><ele>394.74</ele></trkpt><trkpt lat="47.320102" lon="7.899309"><ele>395.01</ele></trkpt><trkpt lat="47.320040" lon="7.899334"><ele>395.15</ele></trkpt><trkpt lat="47.319792" lon="7.899244"><ele>395.74</ele></trkpt><trkpt lat="47.319643" lon="7.899124"><ele>396.15</ele></trkpt><trkpt lat="47.319494" lon="7.899004"><ele>396.55</ele></trkpt><trkpt lat="47.319281" lon="7.898778"><ele>397.16</ele></trkpt><trkpt lat="47.319067" lon="7.898553"><ele>397.77</ele></trkpt><trkpt lat="47.318854" lon="7.898328"><ele>398.38</ele></trkpt><trkpt lat="47.318694" lon="7.898243"><ele>398.80</ele></trkpt></trkseg></trk></gpx>