<?xml version='1.0' encoding='UTF-8'?>
<gpx version="1.1"
  creator="GPXmagic"
  xmlns="http://www.topografix.com/GPX/1/1"
  xmlns:rgt="http://www.rgtcycling.com/XML/GpxExtensions/v1"
  xmlns:xsi="http://www.w3.org/2001/XMLSchema-instance" xsi:schemaLocation="http://www.topografix.com/GPX/1/1
  http://www.topografix.com/GPX/1/1/gpx.xsd">
  <metadata>
    <name>Smoothed with GPXmagic</name>
    <author>
      <link href="https://www.stepwiserefinement.co.uk">
        <text>GPXmagic v3</text>
        <type>text/html</type>
      </link>
    </author>
  </metadata>
<trk>  <name>Tour&#32;of&#32;Poland&#32;S3</name>
<trkseg>
<trkpt lat="52.0115303" lon="15.743157899999998"><ele>53.58</ele></trkpt>
<trkpt lat="52.0096707" lon="15.7444826"><ele>55.92</ele></trkpt>
<trkpt lat="52.008379" lon="15.7453931"><ele>55.97</ele></trkpt>
<trkpt lat="52.00659799999999" lon="15.746661"><ele>55.73</ele></trkpt>
<trkpt lat="52.0063116" lon="15.7469117"><ele>55.5</ele></trkpt>
<trkpt lat="52.00601280000001" lon="15.747238600000003"><ele>55.16</ele></trkpt>
<trkpt lat="52.0057223" lon="15.747655800000002"><ele>54.82</ele></trkpt>
<trkpt lat="52.0053722" lon="15.7482696"><ele>54.53</ele></trkpt>
<trkpt lat="52.0033128" lon="15.751946299999998"><ele>54.05</ele></trkpt>
<trkpt lat="52.0016821" lon="15.7548413"><ele>54.23</ele></trkpt>
<trkpt lat="52.000955399999995" lon="15.7562405"><ele>54.78</ele></trkpt>
<trkpt lat="52.00020299999999" lon="15.757804000000002"><ele>55.06</ele></trkpt>
<trkpt lat="51.999753" lon="15.7586652"><ele>55.63</ele></trkpt>
<trkpt lat="51.99916590000001" lon="15.759801599999998"><ele>57.07</ele></trkpt>
<trkpt lat="51.99844199999999" lon="15.76108"><ele>58.25</ele></trkpt>
<trkpt lat="51.9976886" lon="15.762436699999999"><ele>58.16</ele></trkpt>
<trkpt lat="51.996968499999994" lon="15.7636505"><ele>56.99</ele></trkpt>
<trkpt lat="51.995957" lon="15.765369"><ele>54.98</ele></trkpt>
<trkpt lat="51.9951771" lon="15.7667056"><ele>54.78</ele></trkpt>
<trkpt lat="51.9941902" lon="15.7684167"><ele>55.81</ele></trkpt>
<trkpt lat="51.9931291" lon="15.770247699999999"><ele>57.76</ele></trkpt>
<trkpt lat="51.992045" lon="15.772138"><ele>57.53</ele></trkpt>
<trkpt lat="51.9918813" lon="15.772468599999998"><ele>57.47</ele></trkpt>
<trkpt lat="51.991703099999995" lon="15.773059"><ele>57.43</ele></trkpt>
<trkpt lat="51.9915921" lon="15.7736737"><ele>57.35</ele></trkpt>
<trkpt lat="51.9913551" lon="15.775185299999999"><ele>56.59</ele></trkpt>
<trkpt lat="51.9912341" lon="15.776088699999997"><ele>55.89</ele></trkpt>
<trkpt lat="51.991166500000006" lon="15.776424900000002"><ele>55.7</ele></trkpt>
<trkpt lat="51.9910077" lon="15.777081099999997"><ele>55.5</ele></trkpt>
<trkpt lat="51.99095869999999" lon="15.777670900000004"><ele>55.53</ele></trkpt>
<trkpt lat="51.9909864" lon="15.7781183"><ele>55.62</ele></trkpt>
<trkpt lat="51.991275900000005" lon="15.7801645"><ele>55.98</ele></trkpt>
<trkpt lat="51.9913611" lon="15.780604499999999"><ele>56.12</ele></trkpt>
<trkpt lat="51.991586" lon="15.781430000000002"><ele>56.47</ele></trkpt>
<trkpt lat="51.9916839" lon="15.781867"><ele>56.6</ele></trkpt>
<trkpt lat="51.9917705" lon="15.7824186"><ele>56.67</ele></trkpt>
<trkpt lat="51.9918227" lon="15.783013299999999"><ele>56.69</ele></trkpt>
<trkpt lat="51.9918325" lon="15.7833749"><ele>56.72</ele></trkpt>
<trkpt lat="51.991755999999995" lon="15.786004300000002"><ele>57.19</ele></trkpt>
<trkpt lat="51.9917589" lon="15.787363899999999"><ele>56.8</ele></trkpt>
<trkpt lat="51.99175" lon="15.788455699999995"><ele>56.36</ele></trkpt>
<trkpt lat="51.99170959999999" lon="15.789832899999997"><ele>56.05</ele></trkpt>
<trkpt lat="51.9916822" lon="15.790558599999999"><ele>56.04</ele></trkpt>
<trkpt lat="51.9916369" lon="15.791012300000002"><ele>56.05</ele></trkpt>
<trkpt lat="51.9915451" lon="15.791437300000002"><ele>56.07</ele></trkpt>
<trkpt lat="51.9913581" lon="15.792054899999998"><ele>56.08</ele></trkpt>
<trkpt lat="51.9912354" lon="15.792349700000003"><ele>56.1</ele></trkpt>
<trkpt lat="51.9907729" lon="15.7933432"><ele>56.17</ele></trkpt>
<trkpt lat="51.990551499999995" lon="15.793932899999998"><ele>56.16</ele></trkpt>
<trkpt lat="51.9902749" lon="15.7948702"><ele>55.97</ele></trkpt>
<trkpt lat="51.9895686" lon="15.7973875"><ele>54.95</ele></trkpt>
<trkpt lat="51.9893268" lon="15.798118999999998"><ele>54.75</ele></trkpt>
<trkpt lat="51.9891678" lon="15.798481999999998"><ele>54.71</ele></trkpt>
<trkpt lat="51.9889209" lon="15.798909100000001"><ele>54.74</ele></trkpt>
<trkpt lat="51.9885071" lon="15.799522800000002"><ele>54.93</ele></trkpt>
<trkpt lat="51.9881792" lon="15.7999497"><ele>55.11</ele></trkpt>
<trkpt lat="51.9878124" lon="15.800306100000002"><ele>55.23</ele></trkpt>
<trkpt lat="51.9875388" lon="15.800466000000002"><ele>55.23</ele></trkpt>
<trkpt lat="51.98732549999999" lon="15.8005519"><ele>55.15</ele></trkpt>
<trkpt lat="51.985727499999996" lon="15.800893999999998"><ele>54.14</ele></trkpt>
<trkpt lat="51.98440579999999" lon="15.801161100000002"><ele>54.08</ele></trkpt>
<trkpt lat="51.9835012" lon="15.801356"><ele>54.07</ele></trkpt>
<trkpt lat="51.98271199999999" lon="15.801572000000002"><ele>54</ele></trkpt>
<trkpt lat="51.9813105" lon="15.8020469"><ele>54.48</ele></trkpt>
<trkpt lat="51.9805551" lon="15.8023279"><ele>54.93</ele></trkpt>
<trkpt lat="51.979759900000005" lon="15.8025872"><ele>55.74</ele></trkpt>
<trkpt lat="51.9790413" lon="15.8028559"><ele>56.63</ele></trkpt>
<trkpt lat="51.9777588" lon="15.803315000000001"><ele>57.51</ele></trkpt>
<trkpt lat="51.9767485" lon="15.803675300000004"><ele>56.49</ele></trkpt>
<trkpt lat="51.9757675" lon="15.8040604"><ele>55.22</ele></trkpt>
<trkpt lat="51.975100000000005" lon="15.8042961"><ele>54.99</ele></trkpt>
<trkpt lat="51.9741659" lon="15.804663899999996"><ele>54.92</ele></trkpt>
<trkpt lat="51.9726765" lon="15.805215700000002"><ele>54.81</ele></trkpt>
<trkpt lat="51.97167110000001" lon="15.805567200000002"><ele>55.63</ele></trkpt>
<trkpt lat="51.970435" lon="15.806015900000002"><ele>58.46</ele></trkpt>
<trkpt lat="51.9700288" lon="15.806080900000003"><ele>59.25</ele></trkpt>
<trkpt lat="51.96935810000001" lon="15.806096"><ele>59.76</ele></trkpt>
<trkpt lat="51.968388100000006" lon="15.806134"><ele>59.18</ele></trkpt>
<trkpt lat="51.9665687" lon="15.8061779"><ele>56</ele></trkpt>
<trkpt lat="51.965671" lon="15.806197"><ele>55.11</ele></trkpt>
<trkpt lat="51.964250199999995" lon="15.806246999999999"><ele>55.23</ele></trkpt>
<trkpt lat="51.963849" lon="15.8062699"><ele>55.25</ele></trkpt>
<trkpt lat="51.9631782" lon="15.8062691"><ele>55.26</ele></trkpt>
<trkpt lat="51.962248" lon="15.806296"><ele>55.25</ele></trkpt>
<trkpt lat="51.96173890000001" lon="15.806347000000002"><ele>55.26</ele></trkpt>
<trkpt lat="51.9613524" lon="15.8064239"><ele>55.27</ele></trkpt>
<trkpt lat="51.96055110000001" lon="15.806620999999996"><ele>55.31</ele></trkpt>
<trkpt lat="51.9600098" lon="15.806781"><ele>55.38</ele></trkpt>
<trkpt lat="51.9594828" lon="15.806915"><ele>55.53</ele></trkpt>
<trkpt lat="51.9573118" lon="15.807433500000002"><ele>56.9</ele></trkpt>
<trkpt lat="51.9570264" lon="15.8075601"><ele>57.02</ele></trkpt>
<trkpt lat="51.95620180000001" lon="15.808089100000002"><ele>57.21</ele></trkpt>
<trkpt lat="51.955918800000006" lon="15.808237599999998"><ele>57.35</ele></trkpt>
<trkpt lat="51.9549331" lon="15.8086469"><ele>58.18</ele></trkpt>
<trkpt lat="51.9542695" lon="15.8088891"><ele>58.62</ele></trkpt>
<trkpt lat="51.9531915" lon="15.809258999999997"><ele>58.44</ele></trkpt>
<trkpt lat="51.9529413" lon="15.809358799999996"><ele>58.32</ele></trkpt>
<trkpt lat="51.952817100000004" lon="15.809324399999998"><ele>58.26</ele></trkpt>
<trkpt lat="51.95273829999999" lon="15.809175999999997"><ele>58.21</ele></trkpt>
<trkpt lat="51.9526032" lon="15.808378100000004"><ele>57.97</ele></trkpt>
<trkpt lat="51.95257599999999" lon="15.807901000000001"><ele>57.84</ele></trkpt>
<trkpt lat="51.9526041" lon="15.807557899999997"><ele>57.74</ele></trkpt>
<trkpt lat="51.95279089999999" lon="15.806484500000002"><ele>57.46</ele></trkpt>
<trkpt lat="51.952816199999994" lon="15.8060301"><ele>57.34</ele></trkpt>
<trkpt lat="51.9528004" lon="15.805818099999996"><ele>57.27</ele></trkpt>
<trkpt lat="51.9527459" lon="15.8056306"><ele>57.19</ele></trkpt>
<trkpt lat="51.9526553" lon="15.805476700000002"><ele>57.11</ele></trkpt>
<trkpt lat="51.9523063" lon="15.805127599999999"><ele>56.79</ele></trkpt>
<trkpt lat="51.952176800000004" lon="15.804908399999999"><ele>56.63</ele></trkpt>
<trkpt lat="51.95212179999999" lon="15.8047141"><ele>56.52</ele></trkpt>
<trkpt lat="51.95209409999999" lon="15.804414800000002"><ele>56.37</ele></trkpt>
<trkpt lat="51.9520655" lon="15.802360099999998"><ele>55.77</ele></trkpt>
<trkpt lat="51.952058" lon="15.8014751"><ele>55.68</ele></trkpt>
<trkpt lat="51.95202" lon="15.798277"><ele>55.35</ele></trkpt>
<trkpt lat="51.951986" lon="15.79574"><ele>55.36</ele></trkpt>
<trkpt lat="51.9519701" lon="15.794957499999999"><ele>55.47</ele></trkpt>
<trkpt lat="51.9519531" lon="15.793437200000001"><ele>55.69</ele></trkpt>
<trkpt lat="51.9519582" lon="15.792681499999999"><ele>55.71</ele></trkpt>
<trkpt lat="51.9519873" lon="15.792119900000001"><ele>55.68</ele></trkpt>
<trkpt lat="51.9520302" lon="15.791519200000002"><ele>55.62</ele></trkpt>
<trkpt lat="51.9521122" lon="15.7909394"><ele>55.59</ele></trkpt>
<trkpt lat="51.9522641" lon="15.7901378"><ele>55.68</ele></trkpt>
<trkpt lat="51.9523932" lon="15.789557699999998"><ele>55.83</ele></trkpt>
<trkpt lat="51.9524921" lon="15.789193700000002"><ele>55.93</ele></trkpt>
<trkpt lat="51.952702099999996" lon="15.7885192"><ele>56.08</ele></trkpt>
<trkpt lat="51.9529329" lon="15.787881800000001"><ele>56.11</ele></trkpt>
<trkpt lat="51.953186900000006" lon="15.787267000000002"><ele>56.03</ele></trkpt>
<trkpt lat="51.9534101" lon="15.7868511"><ele>55.92</ele></trkpt>
<trkpt lat="51.9538212" lon="15.786207199999998"><ele>55.75</ele></trkpt>
<trkpt lat="51.95409180000001" lon="15.785851399999997"><ele>55.75</ele></trkpt>
<trkpt lat="51.95458729999999" lon="15.7852878"><ele>55.89</ele></trkpt>
<trkpt lat="51.9552271" lon="15.7846801"><ele>56.07</ele></trkpt>
<trkpt lat="51.9557955" lon="15.7842212"><ele>56.07</ele></trkpt>
<trkpt lat="51.956721" lon="15.783402"><ele>55.77</ele></trkpt>
<trkpt lat="51.957849800000005" lon="15.782474199999998"><ele>55.35</ele></trkpt>
<trkpt lat="51.9589751" lon="15.781557000000001"><ele>55.29</ele></trkpt>
<trkpt lat="51.959438" lon="15.781169900000002"><ele>55.34</ele></trkpt>
<trkpt lat="51.960128899999994" lon="15.780524900000003"><ele>55.51</ele></trkpt>
<trkpt lat="51.960556" lon="15.780027899999999"><ele>55.57</ele></trkpt>
<trkpt lat="51.9609549" lon="15.779468999999997"><ele>55.51</ele></trkpt>
<trkpt lat="51.96130730000001" lon="15.778869300000002"><ele>55.46</ele></trkpt>
<trkpt lat="51.96160280000001" lon="15.778259299999998"><ele>55.53</ele></trkpt>
<trkpt lat="51.9618739" lon="15.7776029"><ele>55.68</ele></trkpt>
<trkpt lat="51.96205700000001" lon="15.7770784"><ele>55.81</ele></trkpt>
<trkpt lat="51.9622198" lon="15.776528399999997"><ele>55.94</ele></trkpt>
<trkpt lat="51.96249389999999" lon="15.775392099999996"><ele>56.24</ele></trkpt>
<trkpt lat="51.962761" lon="15.7740921"><ele>57.03</ele></trkpt>
<trkpt lat="51.9631009" lon="15.772506000000002"><ele>57.95</ele></trkpt>
<trkpt lat="51.96331800000001" lon="15.7714219"><ele>57.88</ele></trkpt>
<trkpt lat="51.9637737" lon="15.7692501"><ele>57.05</ele></trkpt>
<trkpt lat="51.9642102" lon="15.7671692"><ele>58.56</ele></trkpt>
<trkpt lat="51.9644489" lon="15.766045699999998"><ele>58.96</ele></trkpt>
<trkpt lat="51.9647559" lon="15.764615299999999"><ele>59.45</ele></trkpt>
<trkpt lat="51.964975499999994" lon="15.763413700000001"><ele>61.33</ele></trkpt>
<trkpt lat="51.9650465" lon="15.762948399999996"><ele>61.85</ele></trkpt>
<trkpt lat="51.96511640000001" lon="15.762347900000002"><ele>62.11</ele></trkpt>
<trkpt lat="51.9651664" lon="15.761393899999998"><ele>61.88</ele></trkpt>
<trkpt lat="51.965166" lon="15.7607891"><ele>61.63</ele></trkpt>
<trkpt lat="51.965148500000005" lon="15.7603098"><ele>61.51</ele></trkpt>
<trkpt lat="51.965086" lon="15.759518599999996"><ele>61.64</ele></trkpt>
<trkpt lat="51.9649988" lon="15.7588622"><ele>62.25</ele></trkpt>
<trkpt lat="51.9648419" lon="15.7580689"><ele>63.83</ele></trkpt>
<trkpt lat="51.9645879" lon="15.7570858"><ele>66.98</ele></trkpt>
<trkpt lat="51.9643618" lon="15.756354700000003"><ele>69.66</ele></trkpt>
<trkpt lat="51.964119100000005" lon="15.755700099999997"><ele>71.73</ele></trkpt>
<trkpt lat="51.963778" lon="15.754742099999998"><ele>73.72</ele></trkpt>
<trkpt lat="51.9635068" lon="15.753955899999998"><ele>74.79</ele></trkpt>
<trkpt lat="51.9630584" lon="15.752688099999999"><ele>75.88</ele></trkpt>
<trkpt lat="51.9626441" lon="15.751551499999996"><ele>76.47</ele></trkpt>
<trkpt lat="51.9623951" lon="15.7508899"><ele>76.64</ele></trkpt>
<trkpt lat="51.96168889999999" lon="15.748897900000003"><ele>76.75</ele></trkpt>
<trkpt lat="51.961157" lon="15.7474279"><ele>77.27</ele></trkpt>
<trkpt lat="51.960435" lon="15.745348999999996"><ele>77.9</ele></trkpt>
<trkpt lat="51.9598919" lon="15.743861800000003"><ele>78.13</ele></trkpt>
<trkpt lat="51.9595404" lon="15.7428461"><ele>78.86</ele></trkpt>
<trkpt lat="51.9591079" lon="15.7413766"><ele>80.22</ele></trkpt>
<trkpt lat="51.958979" lon="15.740819200000004"><ele>80.15</ele></trkpt>
<trkpt lat="51.9587721" lon="15.739800600000002"><ele>79.27</ele></trkpt>
<trkpt lat="51.9586745" lon="15.739209199999998"><ele>78.3</ele></trkpt>
<trkpt lat="51.9585343" lon="15.7381364"><ele>75.83</ele></trkpt>
<trkpt lat="51.9584555" lon="15.737072399999999"><ele>73.07</ele></trkpt>
<trkpt lat="51.9584093" lon="15.7353041"><ele>69.17</ele></trkpt>
<trkpt lat="51.958392" lon="15.733957499999999"><ele>67.36</ele></trkpt>
<trkpt lat="51.95838" lon="15.7332216"><ele>67.11</ele></trkpt>
<trkpt lat="51.958359900000005" lon="15.730706700000002"><ele>68.13</ele></trkpt>
<trkpt lat="51.9583469" lon="15.7291769"><ele>67.56</ele></trkpt>
<trkpt lat="51.95833" lon="15.727495499999998"><ele>66.17</ele></trkpt>
<trkpt lat="51.958303" lon="15.725672600000001"><ele>65.05</ele></trkpt>
<trkpt lat="51.958289" lon="15.7241068"><ele>65.4</ele></trkpt>
<trkpt lat="51.9582718" lon="15.722328399999999"><ele>68.06</ele></trkpt>
<trkpt lat="51.958197000000006" lon="15.7207918"><ele>70.69</ele></trkpt>
<trkpt lat="51.9581379" lon="15.7198591"><ele>71.81</ele></trkpt>
<trkpt lat="51.958035599999995" lon="15.718800500000004"><ele>72.71</ele></trkpt>
<trkpt lat="51.95795300000001" lon="15.718171699999997"><ele>73.3</ele></trkpt>
<trkpt lat="51.9578327" lon="15.717412099999995"><ele>74.37</ele></trkpt>
<trkpt lat="51.9574688" lon="15.7155416"><ele>78.46</ele></trkpt>
<trkpt lat="51.9572477" lon="15.7147217"><ele>80.63</ele></trkpt>
<trkpt lat="51.95702" lon="15.713981599999999"><ele>82.29</ele></trkpt>
<trkpt lat="51.95669219999999" lon="15.713077700000001"><ele>83.4</ele></trkpt>
<trkpt lat="51.956386099999996" lon="15.712309600000001"><ele>83.42</ele></trkpt>
<trkpt lat="51.956182" lon="15.711834399999999"><ele>82.89</ele></trkpt>
<trkpt lat="51.955870000000004" lon="15.7111762"><ele>81.65</ele></trkpt>
<trkpt lat="51.9555102" lon="15.710493499999997"><ele>80.44</ele></trkpt>
<trkpt lat="51.9551193" lon="15.709813099999998"><ele>79.67</ele></trkpt>
<trkpt lat="51.9549226" lon="15.709498800000002"><ele>79.47</ele></trkpt>
<trkpt lat="51.9542038" lon="15.708469800000001"><ele>79.21</ele></trkpt>
<trkpt lat="51.953338" lon="15.707283999999994"><ele>79.15</ele></trkpt>
<trkpt lat="51.9516642" lon="15.7050432"><ele>78.74</ele></trkpt>
<trkpt lat="51.950475" lon="15.703430099999999"><ele>76.92</ele></trkpt>
<trkpt lat="51.9501802" lon="15.7030792"><ele>76.05</ele></trkpt>
<trkpt lat="51.9499533" lon="15.702978399999997"><ele>75.38</ele></trkpt>
<trkpt lat="51.9498221" lon="15.702792599999999"><ele>74.89</ele></trkpt>
<trkpt lat="51.949702" lon="15.702413599999998"><ele>74.33</ele></trkpt>
<trkpt lat="51.9490509" lon="15.701490699999999"><ele>73.53</ele></trkpt>
<trkpt lat="51.9487493" lon="15.7010194"><ele>73.79</ele></trkpt>
<trkpt lat="51.9483514" lon="15.7003434"><ele>74.84</ele></trkpt>
<trkpt lat="51.9480014" lon="15.699607499999999"><ele>76.12</ele></trkpt>
<trkpt lat="51.9477502" lon="15.6989323"><ele>77.24</ele></trkpt>
<trkpt lat="51.9474837" lon="15.6980423"><ele>78.8</ele></trkpt>
<trkpt lat="51.9473034" lon="15.697224400000001"><ele>80.63</ele></trkpt>
<trkpt lat="51.947197" lon="15.6965211"><ele>82.6</ele></trkpt>
<trkpt lat="51.9471103" lon="15.6956148"><ele>85.36</ele></trkpt>
<trkpt lat="51.9470674" lon="15.6947313"><ele>87.74</ele></trkpt>
<trkpt lat="51.947064" lon="15.694139"><ele>88.95</ele></trkpt>
<trkpt lat="51.9470911" lon="15.692223"><ele>91.95</ele></trkpt>
<trkpt lat="51.947123899999994" lon="15.690584"><ele>94.54</ele></trkpt>
<trkpt lat="51.94714090000001" lon="15.689502899999997"><ele>95.85</ele></trkpt>
<trkpt lat="51.94716699999999" lon="15.687896900000002"><ele>96.76</ele></trkpt>
<trkpt lat="51.9472193" lon="15.685676900000002"><ele>98.79</ele></trkpt>
<trkpt lat="51.9472472" lon="15.6853063"><ele>99.23</ele></trkpt>
<trkpt lat="51.9473462" lon="15.684422200000002"><ele>100.37</ele></trkpt>
<trkpt lat="51.94757430000001" lon="15.6832409"><ele>101.82</ele></trkpt>
<trkpt lat="51.94766099999999" lon="15.6828975"><ele>102.31</ele></trkpt>
<trkpt lat="51.9478659" lon="15.6822097"><ele>103.51</ele></trkpt>
<trkpt lat="51.94832280000001" lon="15.680963100000003"><ele>106.68</ele></trkpt>
<trkpt lat="51.9484134" lon="15.6803264"><ele>108.01</ele></trkpt>
<trkpt lat="51.9484021" lon="15.679982499999998"><ele>108.46</ele></trkpt>
<trkpt lat="51.9483107" lon="15.679647500000002"><ele>108.66</ele></trkpt>
<trkpt lat="51.9477162" lon="15.6780423"><ele>108.34</ele></trkpt>
<trkpt lat="51.94744909999999" lon="15.6770693"><ele>108.45</ele></trkpt>
<trkpt lat="51.947307" lon="15.6764795"><ele>108.87</ele></trkpt>
<trkpt lat="51.9469702" lon="15.6742468"><ele>111.66</ele></trkpt>
<trkpt lat="51.9467689" lon="15.6728489"><ele>113.34</ele></trkpt>
<trkpt lat="51.9466765" lon="15.6723159"><ele>114.22</ele></trkpt>
<trkpt lat="51.94666339999999" lon="15.671972600000002"><ele>114.96</ele></trkpt>
<trkpt lat="51.9467867" lon="15.669865499999997"><ele>120.71</ele></trkpt>
<trkpt lat="51.9468496" lon="15.668657"><ele>123.67</ele></trkpt>
<trkpt lat="51.9468599" lon="15.6676395"><ele>125.54</ele></trkpt>
<trkpt lat="51.94683680000001" lon="15.666570800000004"><ele>126.79</ele></trkpt>
<trkpt lat="51.9467781" lon="15.6645602"><ele>127.64</ele></trkpt>
<trkpt lat="51.946743" lon="15.662555"><ele>128.3</ele></trkpt>
<trkpt lat="51.946693" lon="15.660964999999997"><ele>130.48</ele></trkpt>
<trkpt lat="51.94666" lon="15.659678999999999"><ele>132.11</ele></trkpt>
<trkpt lat="51.9466381" lon="15.6587278"><ele>132.26</ele></trkpt>
<trkpt lat="51.94661" lon="15.657785099999998"><ele>131.51</ele></trkpt>
<trkpt lat="51.946571000000006" lon="15.6573989"><ele>131.13</ele></trkpt>
<trkpt lat="51.946369" lon="15.655734699999996"><ele>129.82</ele></trkpt>
<trkpt lat="51.946276999999995" lon="15.654842400000003"><ele>128.48</ele></trkpt>
<trkpt lat="51.9460757" lon="15.653182099999997"><ele>123.54</ele></trkpt>
<trkpt lat="51.9460435" lon="15.652671400000001"><ele>122.15</ele></trkpt>
<trkpt lat="51.94606559999999" lon="15.6522787"><ele>121.38</ele></trkpt>
<trkpt lat="51.9461251" lon="15.651904799999999"><ele>120.93</ele></trkpt>
<trkpt lat="51.9462844" lon="15.6512997"><ele>120.65</ele></trkpt>
<trkpt lat="51.9465445" lon="15.6503791"><ele>120.79</ele></trkpt>
<trkpt lat="51.946941100000004" lon="15.6489434"><ele>121.28</ele></trkpt>
<trkpt lat="51.9470479" lon="15.6485359"><ele>121.33</ele></trkpt>
<trkpt lat="51.94712990000001" lon="15.6481107"><ele>121.38</ele></trkpt>
<trkpt lat="51.947232" lon="15.647270399999996"><ele>121.69</ele></trkpt>
<trkpt lat="51.94746069999999" lon="15.6454428"><ele>123.55</ele></trkpt>
<trkpt lat="51.9475682" lon="15.644438400000002"><ele>125.24</ele></trkpt>
<trkpt lat="51.9477148" lon="15.642992800000002"><ele>126.87</ele></trkpt>
<trkpt lat="51.947848" lon="15.6415369"><ele>126.67</ele></trkpt>
<trkpt lat="51.947899" lon="15.641132399999998"><ele>126.4</ele></trkpt>
<trkpt lat="51.9479731" lon="15.640725999999997"><ele>125.96</ele></trkpt>
<trkpt lat="51.9483571" lon="15.6394279"><ele>123.36</ele></trkpt>
<trkpt lat="51.9485328" lon="15.638865499999998"><ele>122.12</ele></trkpt>
<trkpt lat="51.9486309" lon="15.6384415"><ele>121.33</ele></trkpt>
<trkpt lat="51.9486485" lon="15.6382554"><ele>121.04</ele></trkpt>
<trkpt lat="51.9486158" lon="15.6374283"><ele>119.72</ele></trkpt>
<trkpt lat="51.94867349999999" lon="15.6370529"><ele>118.88</ele></trkpt>
<trkpt lat="51.9487998" lon="15.636813"><ele>118.05</ele></trkpt>
<trkpt lat="51.948961600000004" lon="15.636643399999999"><ele>117.18</ele></trkpt>
<trkpt lat="51.949764" lon="15.6358944"><ele>113.11</ele></trkpt>
<trkpt lat="51.9500668" lon="15.635632"><ele>112.01</ele></trkpt>
<trkpt lat="51.9503853" lon="15.6354187"><ele>111.25</ele></trkpt>
<trkpt lat="51.9506769" lon="15.6351366"><ele>110.76</ele></trkpt>
<trkpt lat="51.9511071" lon="15.6346772"><ele>110.23</ele></trkpt>
<trkpt lat="51.951682" lon="15.6341117"><ele>109.4</ele></trkpt>
<trkpt lat="51.9524061" lon="15.6333504"><ele>107.59</ele></trkpt>
<trkpt lat="51.95337179999999" lon="15.632386200000001"><ele>104.6</ele></trkpt>
<trkpt lat="51.954010600000004" lon="15.6318238"><ele>103.17</ele></trkpt>
<trkpt lat="51.9543428" lon="15.631504600000001"><ele>102.66</ele></trkpt>
<trkpt lat="51.954578" lon="15.6312099"><ele>102.39</ele></trkpt>
<trkpt lat="51.954729" lon="15.6309417"><ele>102.23</ele></trkpt>
<trkpt lat="51.955254" lon="15.629935500000002"><ele>101.79</ele></trkpt>
<trkpt lat="51.9557363" lon="15.6289019"><ele>101.7</ele></trkpt>
<trkpt lat="51.9559835" lon="15.6284629"><ele>101.81</ele></trkpt>
<trkpt lat="51.9563416" lon="15.627882"><ele>101.84</ele></trkpt>
<trkpt lat="51.956734" lon="15.627221000000002"><ele>101.38</ele></trkpt>
<trkpt lat="51.9574855" lon="15.625935000000004"><ele>99.32</ele></trkpt>
<trkpt lat="51.9577893" lon="15.625250700000002"><ele>98</ele></trkpt>
<trkpt lat="51.958104" lon="15.624533"><ele>96.82</ele></trkpt>
<trkpt lat="51.9583223" lon="15.6241703"><ele>96.4</ele></trkpt>
<trkpt lat="51.9587292" lon="15.6236573"><ele>95.96</ele></trkpt>
<trkpt lat="51.95904949999999" lon="15.6233712"><ele>95.52</ele></trkpt>
<trkpt lat="51.9591674" lon="15.623188200000001"><ele>95.23</ele></trkpt>
<trkpt lat="51.9592295" lon="15.6228218"><ele>94.71</ele></trkpt>
<trkpt lat="51.9591612" lon="15.622115299999999"><ele>93.95</ele></trkpt>
<trkpt lat="51.959184199999996" lon="15.621482800000003"><ele>93.91</ele></trkpt>
<trkpt lat="51.9591626" lon="15.621202700000001"><ele>94.17</ele></trkpt>
<trkpt lat="51.95907389999999" lon="15.6207737"><ele>94.99</ele></trkpt>
<trkpt lat="51.959010600000006" lon="15.6205839"><ele>95.52</ele></trkpt>
<trkpt lat="51.9588577" lon="15.620257299999999"><ele>96.65</ele></trkpt>
<trkpt lat="51.9586755" lon="15.620008900000002"><ele>97.77</ele></trkpt>
<trkpt lat="51.9582076" lon="15.6195687"><ele>100.31</ele></trkpt>
<trkpt lat="51.9571897" lon="15.618632400000001"><ele>106.53</ele></trkpt>
<trkpt lat="51.956835" lon="15.6182779"><ele>109.81</ele></trkpt>
<trkpt lat="51.956482099999995" lon="15.617889400000003"><ele>113.5</ele></trkpt>
<trkpt lat="51.9560747" lon="15.6173284"><ele>117.98</ele></trkpt>
<trkpt lat="51.95585359999999" lon="15.6168685"><ele>120.58</ele></trkpt>
<trkpt lat="51.95572" lon="15.6164616"><ele>122.23</ele></trkpt>
<trkpt lat="51.9554398" lon="15.615491899999999"><ele>125.23</ele></trkpt>
<trkpt lat="51.955220499999996" lon="15.614671300000003"><ele>127.44</ele></trkpt>
<trkpt lat="51.9551583" lon="15.6143907"><ele>128.21</ele></trkpt>
<trkpt lat="51.9545589" lon="15.6122053"><ele>135.28</ele></trkpt>
<trkpt lat="51.95429239999999" lon="15.6109709"><ele>139.2</ele></trkpt>
<trkpt lat="51.95403079999999" lon="15.609696"><ele>142.3</ele></trkpt>
<trkpt lat="51.9538705" lon="15.608818700000002"><ele>143.97</ele></trkpt>
<trkpt lat="51.953722899999995" lon="15.6081727"><ele>144.85</ele></trkpt>
<trkpt lat="51.953589099999995" lon="15.6077754"><ele>145.24</ele></trkpt>
<trkpt lat="51.9533753" lon="15.607201799999999"><ele>145.71</ele></trkpt>
<trkpt lat="51.9530771" lon="15.606280799999999"><ele>146.52</ele></trkpt>
<trkpt lat="51.952193" lon="15.603429599999998"><ele>149.68</ele></trkpt>
<trkpt lat="51.95161590000001" lon="15.601755"><ele>150.39</ele></trkpt>
<trkpt lat="51.9505292" lon="15.598729299999999"><ele>151.08</ele></trkpt>
<trkpt lat="51.9503491" lon="15.5981592"><ele>151.06</ele></trkpt>
<trkpt lat="51.9501217" lon="15.597351899999998"><ele>150.99</ele></trkpt>
<trkpt lat="51.9498388" lon="15.5962557"><ele>151.04</ele></trkpt>
<trkpt lat="51.9497003" lon="15.59597"><ele>151.05</ele></trkpt>
<trkpt lat="51.9495519" lon="15.5958211"><ele>151.04</ele></trkpt>
<trkpt lat="51.94844" lon="15.5952569"><ele>150.75</ele></trkpt>
<trkpt lat="51.947938" lon="15.594991"><ele>150.47</ele></trkpt>
<trkpt lat="51.94550379999999" lon="15.5937421"><ele>148.95</ele></trkpt>
<trkpt lat="51.9444321" lon="15.593188099999997"><ele>148.33</ele></trkpt>
<trkpt lat="51.943361" lon="15.592647"><ele>147.17</ele></trkpt>
<trkpt lat="51.942555000000006" lon="15.592226999999996"><ele>146.06</ele></trkpt>
<trkpt lat="51.9421579" lon="15.5920297"><ele>145.72</ele></trkpt>
<trkpt lat="51.9418658" lon="15.591908100000001"><ele>145.55</ele></trkpt>
<trkpt lat="51.9410385" lon="15.591645999999997"><ele>145.02</ele></trkpt>
<trkpt lat="51.93979989999999" lon="15.591302999999996"><ele>143.39</ele></trkpt>
<trkpt lat="51.9387461" lon="15.591073100000003"><ele>142.78</ele></trkpt>
<trkpt lat="51.93849399999999" lon="15.591050100000002"><ele>142.82</ele></trkpt>
<trkpt lat="51.93811829999999" lon="15.591055900000002"><ele>143.19</ele></trkpt>
<trkpt lat="51.937364" lon="15.5910952"><ele>144.63</ele></trkpt>
<trkpt lat="51.937119200000005" lon="15.591148299999997"><ele>145.26</ele></trkpt>
<trkpt lat="51.9367727" lon="15.5913204"><ele>146.28</ele></trkpt>
<trkpt lat="51.93645010000001" lon="15.591516"><ele>147.05</ele></trkpt>
<trkpt lat="51.9361075" lon="15.5917978"><ele>147.49</ele></trkpt>
<trkpt lat="51.9358661" lon="15.591818200000004"><ele>147.51</ele></trkpt>
<trkpt lat="51.93576730000001" lon="15.5916675"><ele>147.44</ele></trkpt>
<trkpt lat="51.935696500000006" lon="15.5913366"><ele>147.26</ele></trkpt>
<trkpt lat="51.9356153" lon="15.590604899999999"><ele>146.91</ele></trkpt>
<trkpt lat="51.93560969999999" lon="15.590093600000003"><ele>146.77</ele></trkpt>
<trkpt lat="51.9355715" lon="15.5898757"><ele>146.75</ele></trkpt>
<trkpt lat="51.9354786" lon="15.589604599999998"><ele>146.75</ele></trkpt>
<trkpt lat="51.934755" lon="15.5880991"><ele>147.36</ele></trkpt>
<trkpt lat="51.9341327" lon="15.5869807"><ele>148.76</ele></trkpt>
<trkpt lat="51.9338693" lon="15.5865459"><ele>149.52</ele></trkpt>
<trkpt lat="51.9333733" lon="15.5857706"><ele>151.02</ele></trkpt>
<trkpt lat="51.9331608" lon="15.585309799999996"><ele>151.8</ele></trkpt>
<trkpt lat="51.932980099999995" lon="15.584817899999997"><ele>152.56</ele></trkpt>
<trkpt lat="51.932688500000005" lon="15.583801199999998"><ele>154.05</ele></trkpt>
<trkpt lat="51.93256" lon="15.583556800000004"><ele>154.55</ele></trkpt>
<trkpt lat="51.9324629" lon="15.583449899999998"><ele>154.89</ele></trkpt>
<trkpt lat="51.932058299999994" lon="15.5831456"><ele>156.46</ele></trkpt>
<trkpt lat="51.93153" lon="15.582587600000002"><ele>159.09</ele></trkpt>
<trkpt lat="51.9310499" lon="15.5818754"><ele>161.44</ele></trkpt>
<trkpt lat="51.93069210000001" lon="15.581304400000002"><ele>162.21</ele></trkpt>
<trkpt lat="51.930342" lon="15.5807742"><ele>161.6</ele></trkpt>
<trkpt lat="51.9301223" lon="15.5804945"><ele>160.68</ele></trkpt>
<trkpt lat="51.9298908" lon="15.5802548"><ele>159.54</ele></trkpt>
<trkpt lat="51.929690300000004" lon="15.580099399999998"><ele>158.56</ele></trkpt>
<trkpt lat="51.9293277" lon="15.5798948"><ele>157.05</ele></trkpt>
<trkpt lat="51.9285597" lon="15.579542899999998"><ele>155.3</ele></trkpt>
<trkpt lat="51.9282514" lon="15.5793868"><ele>154.9</ele></trkpt>
<trkpt lat="51.92796560000001" lon="15.579142699999998"><ele>154.6</ele></trkpt>
<trkpt lat="51.927722" lon="15.578821800000002"><ele>154.33</ele></trkpt>
<trkpt lat="51.9275225" lon="15.578422699999999"><ele>154.06</ele></trkpt>
<trkpt lat="51.927277" lon="15.5777916"><ele>153.72</ele></trkpt>
<trkpt lat="51.92699199999999" lon="15.576999199999994"><ele>153.65</ele></trkpt>
<trkpt lat="51.9266815" lon="15.5763527"><ele>154.07</ele></trkpt>
<trkpt lat="51.9265715" lon="15.575988900000002"><ele>154.53</ele></trkpt>
<trkpt lat="51.9265186" lon="15.5755759"><ele>155.19</ele></trkpt>
<trkpt lat="51.9265223" lon="15.575362600000002"><ele>155.55</ele></trkpt>
<trkpt lat="51.9265862" lon="15.574252199999997"><ele>157.22</ele></trkpt>
<trkpt lat="51.9266746" lon="15.5733232"><ele>158.12</ele></trkpt>
<trkpt lat="51.926832100000006" lon="15.572290200000003"><ele>159.1</ele></trkpt>
<trkpt lat="51.92710710000001" lon="15.5707729"><ele>160.69</ele></trkpt>
<trkpt lat="51.92729789999999" lon="15.5697344"><ele>161.21</ele></trkpt>
<trkpt lat="51.927341899999995" lon="15.569312"><ele>161.14</ele></trkpt>
<trkpt lat="51.9273549" lon="15.568887700000001"><ele>161.01</ele></trkpt>
<trkpt lat="51.9273359" lon="15.5682676"><ele>160.86</ele></trkpt>
<trkpt lat="51.9272807" lon="15.567657100000002"><ele>160.92</ele></trkpt>
<trkpt lat="51.9271719" lon="15.567066499999997"><ele>161.29</ele></trkpt>
<trkpt lat="51.92702090000001" lon="15.566491400000004"><ele>161.93</ele></trkpt>
<trkpt lat="51.926754" lon="15.565751"><ele>162.85</ele></trkpt>
<trkpt lat="51.9263129" lon="15.5646608"><ele>162.99</ele></trkpt>
<trkpt lat="51.9260157" lon="15.5639518"><ele>162.35</ele></trkpt>
<trkpt lat="51.92586990000001" lon="15.563352199999997"><ele>161.67</ele></trkpt>
<trkpt lat="51.9257862" lon="15.5631767"><ele>161.41</ele></trkpt>
<trkpt lat="51.9255688" lon="15.562842400000001"><ele>160.83</ele></trkpt>
<trkpt lat="51.925397" lon="15.562496699999999"><ele>160.28</ele></trkpt>
<trkpt lat="51.9244301" lon="15.560175999999995"><ele>156.82</ele></trkpt>
<trkpt lat="51.9241479" lon="15.5594081"><ele>156.13</ele></trkpt>
<trkpt lat="51.9240243" lon="15.558929299999999"><ele>156</ele></trkpt>
<trkpt lat="51.9236817" lon="15.558344499999999"><ele>156.24</ele></trkpt>
<trkpt lat="51.923245900000005" lon="15.5573828"><ele>157.07</ele></trkpt>
<trkpt lat="51.922701" lon="15.5560397"><ele>158.33</ele></trkpt>
<trkpt lat="51.9220742" lon="15.554377900000002"><ele>158.09</ele></trkpt>
<trkpt lat="51.9219933" lon="15.553980799999994"><ele>158.07</ele></trkpt>
<trkpt lat="51.9219111" lon="15.5531689"><ele>158.49</ele></trkpt>
<trkpt lat="51.9219358" lon="15.552773500000002"><ele>158.91</ele></trkpt>
<trkpt lat="51.92201609999999" lon="15.552148999999998"><ele>159.83</ele></trkpt>
<trkpt lat="51.9220853" lon="15.5517528"><ele>160.48</ele></trkpt>
<trkpt lat="51.92230889999999" lon="15.550832799999998"><ele>161.97</ele></trkpt>
<trkpt lat="51.922724200000005" lon="15.5494932"><ele>163.74</ele></trkpt>
<trkpt lat="51.923073800000004" lon="15.5485393"><ele>165.24</ele></trkpt>
<trkpt lat="51.9234212" lon="15.547484299999997"><ele>167.35</ele></trkpt>
<trkpt lat="51.9238011" lon="15.5465113"><ele>169.26</ele></trkpt>
<trkpt lat="51.9239741" lon="15.5460217"><ele>169.6</ele></trkpt>
<trkpt lat="51.9242898" lon="15.545203200000001"><ele>169.02</ele></trkpt>
<trkpt lat="51.9247951" lon="15.543852399999997"><ele>165.48</ele></trkpt>
<trkpt lat="51.9249112" lon="15.5435708"><ele>164.57</ele></trkpt>
<trkpt lat="51.9251596" lon="15.543172"><ele>163.08</ele></trkpt>
<trkpt lat="51.9252428" lon="15.542704900000004"><ele>161.8</ele></trkpt>
<trkpt lat="51.9253054" lon="15.542433199999998"><ele>161.06</ele></trkpt>
<trkpt lat="51.9256774" lon="15.5413493"><ele>158.63</ele></trkpt>
<trkpt lat="51.925919799999996" lon="15.540657200000002"><ele>158.8</ele></trkpt>
<trkpt lat="51.9266309" lon="15.53877"><ele>164.59</ele></trkpt>
<trkpt lat="51.926758" lon="15.5384072"><ele>165.8</ele></trkpt>
<trkpt lat="51.92719780000001" lon="15.5372285"><ele>169.3</ele></trkpt>
<trkpt lat="51.927666" lon="15.535945"><ele>171.06</ele></trkpt>
<trkpt lat="51.9283438" lon="15.5341275"><ele>172.5</ele></trkpt>
<trkpt lat="51.928896599999995" lon="15.5326348"><ele>174.83</ele></trkpt>
<trkpt lat="51.92956220000001" lon="15.530821300000001"><ele>177.95</ele></trkpt>
<trkpt lat="51.92992670000001" lon="15.529846500000001"><ele>180.62</ele></trkpt>
<trkpt lat="51.9301644" lon="15.5291884"><ele>182.73</ele></trkpt>
<trkpt lat="51.9303611" lon="15.5287081"><ele>184.22</ele></trkpt>
<trkpt lat="51.9308623" lon="15.527623500000002"><ele>187</ele></trkpt>
<trkpt lat="51.9313738" lon="15.5266565"><ele>188.09</ele></trkpt>
<trkpt lat="51.9316119" lon="15.5262313"><ele>187.83</ele></trkpt>
<trkpt lat="51.9320424" lon="15.525489"><ele>185.64</ele></trkpt>
<trkpt lat="51.9323827" lon="15.524887699999999"><ele>182.73</ele></trkpt>
<trkpt lat="51.93284009999999" lon="15.5241398"><ele>178.39</ele></trkpt>
<trkpt lat="51.9330066" lon="15.523821200000002"><ele>176.82</ele></trkpt>
<trkpt lat="51.933232499999995" lon="15.5231755"><ele>174.35</ele></trkpt>
<trkpt lat="51.9334754" lon="15.5223532"><ele>171.72</ele></trkpt>
<trkpt lat="51.93360849999999" lon="15.5219625"><ele>170.51</ele></trkpt>
<trkpt lat="51.933858" lon="15.521129"><ele>168.12</ele></trkpt>
<trkpt lat="51.93397300000001" lon="15.520699600000002"><ele>166.98</ele></trkpt>
<trkpt lat="51.9341438" lon="15.519976900000001"><ele>165.22</ele></trkpt>
<trkpt lat="51.9343727" lon="15.5191845"><ele>163.19</ele></trkpt>
<trkpt lat="51.934696499999994" lon="15.518212800000002"><ele>160.46</ele></trkpt>
<trkpt lat="51.9348845" lon="15.5176091"><ele>158.87</ele></trkpt>
<trkpt lat="51.9351697" lon="15.516804200000001"><ele>156.89</ele></trkpt>
<trkpt lat="51.9354745" lon="15.5160155"><ele>155.17</ele></trkpt>
<trkpt lat="51.9358786" lon="15.5150214"><ele>153.31</ele></trkpt>
<trkpt lat="51.9362765" lon="15.5139085"><ele>151.93</ele></trkpt>
<trkpt lat="51.9365005" lon="15.513383100000004"><ele>151.59</ele></trkpt>
<trkpt lat="51.9369538" lon="15.512513200000003"><ele>151.13</ele></trkpt>
<trkpt lat="51.9371084" lon="15.5120671"><ele>150.65</ele></trkpt>
<trkpt lat="51.93717720000001" lon="15.511708700000002"><ele>150.09</ele></trkpt>
<trkpt lat="51.9372086" lon="15.5113313"><ele>149.42</ele></trkpt>
<trkpt lat="51.937197" lon="15.5109555"><ele>148.71</ele></trkpt>
<trkpt lat="51.93714769999999" lon="15.510592499999998"><ele>148</ele></trkpt>
<trkpt lat="51.9370915" lon="15.510356100000003"><ele>147.52</ele></trkpt>
<trkpt lat="51.9368589" lon="15.5097061"><ele>146.2</ele></trkpt>
<trkpt lat="51.9361709" lon="15.507918399999998"><ele>143.95</ele></trkpt>
<trkpt lat="51.9359422" lon="15.5071917"><ele>144.08</ele></trkpt>
<trkpt lat="51.9358266" lon="15.506700000000002"><ele>144.65</ele></trkpt>
<trkpt lat="51.935740200000005" lon="15.5062045"><ele>145.46</ele></trkpt>
<trkpt lat="51.935676599999994" lon="15.5057105"><ele>146.32</ele></trkpt>
<trkpt lat="51.9356376" lon="15.5052169"><ele>147.08</ele></trkpt>
<trkpt lat="51.9356111" lon="15.504509299999997"><ele>147.77</ele></trkpt>
<trkpt lat="51.93565099999999" lon="15.503640399999998"><ele>147.83</ele></trkpt>
<trkpt lat="51.935697999999995" lon="15.503224400000004"><ele>147.59</ele></trkpt>
<trkpt lat="51.9358049" lon="15.5025974"><ele>146.97</ele></trkpt>
<trkpt lat="51.936034" lon="15.501354"><ele>145.57</ele></trkpt>
<trkpt lat="51.936082" lon="15.500881500000002"><ele>145.24</ele></trkpt>
<trkpt lat="51.9360922" lon="15.500525300000001"><ele>145.15</ele></trkpt>
<trkpt lat="51.9360786" lon="15.5000772"><ele>145.21</ele></trkpt>
<trkpt lat="51.935817" lon="15.497426600000002"><ele>147.39</ele></trkpt>
<trkpt lat="51.93577830000001" lon="15.496797100000002"><ele>147.77</ele></trkpt>
<trkpt lat="51.9358081" lon="15.496387000000006"><ele>147.87</ele></trkpt>
<trkpt lat="51.93587430000001" lon="15.495988800000005"><ele>147.8</ele></trkpt>
<trkpt lat="51.9359773" lon="15.495625199999997"><ele>147.59</ele></trkpt>
<trkpt lat="51.9361227" lon="15.495300600000004"><ele>147.27</ele></trkpt>
<trkpt lat="51.9363057" lon="15.4950143"><ele>146.84</ele></trkpt>
<trkpt lat="51.9365204" lon="15.4947816"><ele>146.34</ele></trkpt>
<trkpt lat="51.9367657" lon="15.494610300000002"><ele>145.77</ele></trkpt>
<trkpt lat="51.937162300000004" lon="15.494446900000002"><ele>144.81</ele></trkpt>
<trkpt lat="51.937521" lon="15.4943265"><ele>143.83</ele></trkpt>
<trkpt lat="51.937862" lon="15.494239599999998"><ele>142.72</ele></trkpt>
<trkpt lat="51.9385183" lon="15.4941306"><ele>140.15</ele></trkpt>
<trkpt lat="51.93894349999999" lon="15.494010899999997"><ele>138.3</ele></trkpt>
<trkpt lat="51.93922090000001" lon="15.4940172"><ele>137.19</ele></trkpt>
<trkpt lat="51.939424" lon="15.4941065"><ele>136.47</ele></trkpt>
<trkpt lat="51.9396701" lon="15.494334"><ele>135.76</ele></trkpt>
<trkpt lat="51.9398322" lon="15.494594"><ele>135.43</ele></trkpt>
<trkpt lat="51.9399525" lon="15.494906199999999"><ele>135.29</ele></trkpt>
<trkpt lat="51.94003750000001" lon="15.495358500000004"><ele>135.35</ele></trkpt>
<trkpt lat="51.94009100000001" lon="15.4961665"><ele>135.73</ele></trkpt>
<trkpt lat="51.940099" lon="15.4967416"><ele>135.98</ele></trkpt>
<trkpt lat="51.9400869" lon="15.4974067"><ele>136.17</ele></trkpt>
<trkpt lat="51.9400059" lon="15.498475900000003"><ele>136.38</ele></trkpt>
<trkpt lat="51.9399398" lon="15.4990694"><ele>136.59</ele></trkpt>
<trkpt lat="51.939823999999994" lon="15.4998261"><ele>136.96</ele></trkpt>
<trkpt lat="51.9396601" lon="15.500780499999998"><ele>137.33</ele></trkpt>
<trkpt lat="51.9396015" lon="15.501190700000002"><ele>137.28</ele></trkpt>
<trkpt lat="51.9395917" lon="15.501582300000003"><ele>137</ele></trkpt>
<trkpt lat="51.939609999999995" lon="15.501779599999997"><ele>136.76</ele></trkpt>
<trkpt lat="51.939693199999994" lon="15.502158899999998"><ele>136.09</ele></trkpt>
<trkpt lat="51.9399469" lon="15.5028646"><ele>134.39</ele></trkpt>
<trkpt lat="51.940100199999996" lon="15.5032017"><ele>133.62</ele></trkpt>
<trkpt lat="51.94028990000001" lon="15.503487800000002"><ele>133.08</ele></trkpt>
<trkpt lat="51.9406" lon="15.5038999"><ele>132.75</ele></trkpt>
<trkpt lat="51.9411133" lon="15.504541799999998"><ele>133.08</ele></trkpt>
<trkpt lat="51.9419541" lon="15.505798899999998"><ele>134.62</ele></trkpt>
<trkpt lat="51.94237100000001" lon="15.5065195"><ele>135.68</ele></trkpt>
<trkpt lat="51.9426048" lon="15.5069856"><ele>136.3</ele></trkpt>
<trkpt lat="51.9432031" lon="15.508262399999998"><ele>137.71</ele></trkpt>
<trkpt lat="51.943571899999995" lon="15.509129900000001"><ele>138.71</ele></trkpt>
<trkpt lat="51.9438782" lon="15.5098138"><ele>139.59</ele></trkpt>
</trkseg>
</trk></gpx>
