<?xml version='1.0' encoding='UTF-8'?>
<gpx version="1.1"
  creator="GPXmagic"
  xmlns="http://www.topografix.com/GPX/1/1"
  xmlns:rgt="http://www.rgtcycling.com/XML/GpxExtensions/v1"
  xmlns:xsi="http://www.w3.org/2001/XMLSchema-instance" xsi:schemaLocation="http://www.topografix.com/GPX/1/1
  http://www.topografix.com/GPX/1/1/gpx.xsd">
  <metadata>
    <name>Smoothed with GPXmagic</name>
    <author>
      <link href="https://www.stepwiserefinement.co.uk">
        <text>GPXmagic v3</text>
        <type>text/html</type>
      </link>
    </author>
  </metadata>
<trk>  <name>Trofeo&#32;Alfredo&#32;Binda&#32;-&#32;Comune&#32;di&#32;Cittiglio</name>
<trkseg>
<trkpt lat="45.893962872686785" lon="8.673432152704512"><ele>255.13145455110273</ele></trkpt>
<trkpt lat="45.89395894636525" lon="8.673495657034408"><ele>255.39121244520317</ele></trkpt>
<trkpt lat="45.893955030062095" lon="8.673560129415845"><ele>255.65632092931597</ele></trkpt>
<trkpt lat="45.89395109552835" lon="8.673626057745773"><ele>255.92788405162543</ele></trkpt>
<trkpt lat="45.89394711451504" lon="8.673693929920862"><ele>256.2070058603158</ele></trkpt>
<trkpt lat="45.893943058773196" lon="8.673764233837492"><ele>256.49479040357136</ele></trkpt>
<trkpt lat="45.89393890005384" lon="8.673837457391746"><ele>256.79234172957644</ele></trkpt>
<trkpt lat="45.89393461010799" lon="8.673914088479385"><ele>257.1007638865153</ele></trkpt>
<trkpt lat="45.89393016068667" lon="8.673994614995808"><ele>257.4211609225722</ele></trkpt>
<trkpt lat="45.893925523540915" lon="8.674079524836053"><ele>257.7546368859315</ele></trkpt>
<trkpt lat="45.89392067042174" lon="8.674169305894718"><ele>258.1022958247774</ele></trkpt>
<trkpt lat="45.89391557308018" lon="8.67426444606596"><ele>258.4652417872942</ele></trkpt>
<trkpt lat="45.89391020326724" lon="8.67436543324343"><ele>258.84457882166623</ele></trkpt>
<trkpt lat="45.89390453273397" lon="8.67447275532021"><ele>259.24141097607776</ele></trkpt>
<trkpt lat="45.89389853323137" lon="8.674586900188782"><ele>259.656842298713</ele></trkpt>
<trkpt lat="45.89389217651048" lon="8.67470835574095"><ele>260.0919768377563</ele></trkpt>
<trkpt lat="45.893885434322314" lon="8.674837609867781"><ele>260.54791864139196</ele></trkpt>
<trkpt lat="45.8938782784179" lon="8.67497515045953"><ele>261.02577175780425</ele></trkpt>
<trkpt lat="45.89387068054826" lon="8.675121465405564"><ele>261.52664023517747</ele></trkpt>
<trkpt lat="45.893862612464446" lon="8.67527704259428"><ele>262.0516281216958</ele></trkpt>
<trkpt lat="45.89385404591743" lon="8.675442369913027"><ele>262.60183946554366</ele></trkpt>
<trkpt lat="45.893759910505" lon="8.677259593633801"><ele>268.6092110769997</ele></trkpt>
<trkpt lat="45.893430267989395" lon="8.68291970977118"><ele>279.6238078718217</ele></trkpt>
<trkpt lat="45.89337876274813" lon="8.684070125469116"><ele>282.2762735475102</ele></trkpt>
<trkpt lat="45.89324431446123" lon="8.685298280689643"><ele>283.69750702426245</ele></trkpt>
<trkpt lat="45.89321094949313" lon="8.68594829900095"><ele>282.7505416136213</ele></trkpt>
<trkpt lat="45.893210613774336" lon="8.68713266270775"><ele>280.63859600054974</ele></trkpt>
<trkpt lat="45.893226721209984" lon="8.687647444719078"><ele>280.2246672908137</ele></trkpt>
<trkpt lat="45.89324648725153" lon="8.687863865194167"><ele>280.19149609831805</ele></trkpt>
<trkpt lat="45.89359057193787" lon="8.690241035132804"><ele>282.0296595841833</ele></trkpt>
<trkpt lat="45.89402072930654" lon="8.692788014107524"><ele>284.7554957009251</ele></trkpt>
<trkpt lat="45.89438973809127" lon="8.694350797664727"><ele>287.4322226726501</ele></trkpt>
<trkpt lat="45.89501474807834" lon="8.697307048501298"><ele>292.1087103125323</ele></trkpt>
<trkpt lat="45.89515353908414" lon="8.697605201275987"><ele>292.7071293267974</ele></trkpt>
<trkpt lat="45.89531524629362" lon="8.697795728109586"><ele>293.1761143833587</ele></trkpt>
<trkpt lat="45.89595251254637" lon="8.698220273606276"><ele>294.6223619380904</ele></trkpt>
<trkpt lat="45.896149201765176" lon="8.698331291615776"><ele>294.9441699341464</ele></trkpt>
<trkpt lat="45.89661410077411" lon="8.69865402742041"><ele>296.0087383113706</ele></trkpt>
<trkpt lat="45.89687501663357" lon="8.698886810620122"><ele>296.7308062996262</ele></trkpt>
<trkpt lat="45.89713748257096" lon="8.69923110740787"><ele>297.7861656201214</ele></trkpt>
<trkpt lat="45.8979845510636" lon="8.700743319649124"><ele>302.2030657755016</ele></trkpt>
<trkpt lat="45.89801827150016" lon="8.700754241449463"><ele>302.33740841871895</ele></trkpt>
<trkpt lat="45.89805399016179" lon="8.70073772551495"><ele>302.4960079320675</ele></trkpt>
<trkpt lat="45.89841404843824" lon="8.700426886386099"><ele>304.556747885917</ele></trkpt>
<trkpt lat="45.898508529206765" lon="8.700373437233173"><ele>304.95598061882913</ele></trkpt>
<trkpt lat="45.89859076513386" lon="8.70040141311154"><ele>305.27343136708447</ele></trkpt>
<trkpt lat="45.89877396707813" lon="8.700614718730487"><ele>306.35836344322314</ele></trkpt>
<trkpt lat="45.89888071987886" lon="8.700675793855314"><ele>307.1382374749624</ele></trkpt>
<trkpt lat="45.89894807137674" lon="8.70065874028487"><ele>307.7163646813336</ele></trkpt>
<trkpt lat="45.8991283984223" lon="8.700517150138626"><ele>309.8510553944245</ele></trkpt>
<trkpt lat="45.89920321648273" lon="8.700483221477404"><ele>310.6953540153291</ele></trkpt>
<trkpt lat="45.899486674756446" lon="8.700473292055126"><ele>313.2628193412833</ele></trkpt>
<trkpt lat="45.899622182692454" lon="8.700508836987249"><ele>314.56418674738126</ele></trkpt>
<trkpt lat="45.89967612373917" lon="8.700557797785729"><ele>315.31447649855886</ele></trkpt>
<trkpt lat="45.899723054305746" lon="8.700649765058516"><ele>316.32932280802896</ele></trkpt>
<trkpt lat="45.89984712649775" lon="8.70111313069022"><ele>319.8324444870886</ele></trkpt>
<trkpt lat="45.89991544585337" lon="8.70121926095578"><ele>320.55937680271484</ele></trkpt>
<trkpt lat="45.899983649323985" lon="8.701287979253655"><ele>321.18624815710575</ele></trkpt>
<trkpt lat="45.90007107584759" lon="8.701331021878868"><ele>321.9626168254544</ele></trkpt>
<trkpt lat="45.900145500488456" lon="8.701338062291935"><ele>322.61070932615667</ele></trkpt>
<trkpt lat="45.900547923559444" lon="8.701269001165668"><ele>325.47891925842356</ele></trkpt>
<trkpt lat="45.90064858673216" lon="8.701266336095657"><ele>326.24936440054125</ele></trkpt>
<trkpt lat="45.90078868593142" lon="8.701305662201811"><ele>327.3330973636282</ele></trkpt>
<trkpt lat="45.900867990866026" lon="8.701373567306918"><ele>327.9554081698965</ele></trkpt>
<trkpt lat="45.90092082487872" lon="8.70147188198003"><ele>328.51188637432176</ele></trkpt>
<trkpt lat="45.900943808743136" lon="8.701574349665265"><ele>328.9992760464239</ele></trkpt>
<trkpt lat="45.900933841683745" lon="8.702019315182824"><ele>331.1198598967175</ele></trkpt>
<trkpt lat="45.90094760627445" lon="8.702138604185091"><ele>331.70714633065916</ele></trkpt>
<trkpt lat="45.90101224370162" lon="8.702276650046379"><ele>332.4562481163902</ele></trkpt>
<trkpt lat="45.9011036999812" lon="8.70238573559221"><ele>333.15759004637044</ele></trkpt>
<trkpt lat="45.90117352974382" lon="8.702443251850648"><ele>333.6859549193933</ele></trkpt>
<trkpt lat="45.90127412683135" lon="8.702478546512182"><ele>334.5067526661045</ele></trkpt>
<trkpt lat="45.90136316739992" lon="8.702477867551105"><ele>335.31688579834554</ele></trkpt>
<trkpt lat="45.90147755372997" lon="8.702432346050507"><ele>336.3998610396734</ele></trkpt>
<trkpt lat="45.9015749168452" lon="8.702350162280554"><ele>337.2967384282684</ele></trkpt>
<trkpt lat="45.90164243434633" lon="8.702255563184089"><ele>337.9697644025844</ele></trkpt>
<trkpt lat="45.90182485524525" lon="8.701755795381672"><ele>341.1196702526677</ele></trkpt>
<trkpt lat="45.90193986849707" lon="8.701549305887788"><ele>342.9567848838186</ele></trkpt>
<trkpt lat="45.90199391916889" lon="8.701479216541328"><ele>343.7312456876129</ele></trkpt>
<trkpt lat="45.90213099600324" lon="8.701351848938701"><ele>345.7924480689546</ele></trkpt>
<trkpt lat="45.902251488605174" lon="8.701278326000354"><ele>347.58385511599147</ele></trkpt>
<trkpt lat="45.90239347131312" lon="8.701227508688374"><ele>348.9401085466522</ele></trkpt>
<trkpt lat="45.90258514521232" lon="8.701217963465124"><ele>349.6531834999544</ele></trkpt>
<trkpt lat="45.902708163009585" lon="8.701246843064235"><ele>350.3280307508287</ele></trkpt>
<trkpt lat="45.902829772383974" lon="8.701303516038926"><ele>351.4159722599694</ele></trkpt>
<trkpt lat="45.90293782294636" lon="8.70138082045523"><ele>352.53082263475545</ele></trkpt>
<trkpt lat="45.90328832381962" lon="8.70172792550173"><ele>356.15419772972785</ele></trkpt>
<trkpt lat="45.90337147855686" lon="8.70179223737307"><ele>357.12680077809296</ele></trkpt>
<trkpt lat="45.90347230089931" lon="8.701792211789135"><ele>358.1677783454144</ele></trkpt>
<trkpt lat="45.90363998042933" lon="8.701689149724023"><ele>359.6347716368755</ele></trkpt>
<trkpt lat="45.903679712552176" lon="8.70169893089704"><ele>359.8720306708731</ele></trkpt>
<trkpt lat="45.90372251131647" lon="8.701742558257557"><ele>360.12915453906345</ele></trkpt>
<trkpt lat="45.90398836759669" lon="8.702089917442535"><ele>361.0351838278966</ele></trkpt>
<trkpt lat="45.90407010632321" lon="8.702225476266646"><ele>361.0611668338919</ele></trkpt>
<trkpt lat="45.90436310711105" lon="8.70290665022541"><ele>359.24069237646836</ele></trkpt>
<trkpt lat="45.90464681570209" lon="8.7033507554461"><ele>357.60062679945395</ele></trkpt>
<trkpt lat="45.90474151684554" lon="8.703565828740793"><ele>356.8946964584835</ele></trkpt>
<trkpt lat="45.90478425510054" lon="8.70375025286289"><ele>356.3442373502253</ele></trkpt>
<trkpt lat="45.904841345771736" lon="8.704263546387176"><ele>354.4309784674472</ele></trkpt>
<trkpt lat="45.905062082999635" lon="8.705589961189713"><ele>350.54840521169353</ele></trkpt>
<trkpt lat="45.90547008198654" lon="8.706999367757513"><ele>342.85195241285584</ele></trkpt>
<trkpt lat="45.90607161712765" lon="8.70896762924461"><ele>331.28521989040354</ele></trkpt>
<trkpt lat="45.90616866101232" lon="8.709488113931041"><ele>329.12633383131276</ele></trkpt>
<trkpt lat="45.906219477285156" lon="8.709590796023583"><ele>328.78525373378017</ele></trkpt>
<trkpt lat="45.90653504333706" lon="8.710026623202062"><ele>326.88722487421177</ele></trkpt>
<trkpt lat="45.90653619660527" lon="8.710092503345448"><ele>326.53110023838053</ele></trkpt>
<trkpt lat="45.90645974877669" lon="8.710342379166663"><ele>324.617400604274</ele></trkpt>
<trkpt lat="45.90646255413074" lon="8.710440548820358"><ele>323.9216316842201</ele></trkpt>
<trkpt lat="45.90649815964882" lon="8.71050570136698"><ele>323.3773350595098</ele></trkpt>
<trkpt lat="45.906834681377276" lon="8.71093775124936"><ele>319.89014550905216</ele></trkpt>
<trkpt lat="45.906872169195765" lon="8.711023022884554"><ele>319.5225871286153</ele></trkpt>
<trkpt lat="45.90686875424929" lon="8.71111193578039"><ele>319.17381941080333</ele></trkpt>
<trkpt lat="45.90683736002252" lon="8.711223759303566"><ele>318.60693397978855</ele></trkpt>
<trkpt lat="45.90671237725118" lon="8.711421205920303"><ele>316.92883686819295</ele></trkpt>
<trkpt lat="45.906636911110574" lon="8.711496972430897"><ele>316.04219131606715</ele></trkpt>
<trkpt lat="45.906262810109695" lon="8.711756501832236"><ele>312.0432140738646</ele></trkpt>
<trkpt lat="45.90612461618611" lon="8.711929768643136"><ele>309.69247481370144</ele></trkpt>
<trkpt lat="45.906043008072054" lon="8.712069841250646"><ele>308.37003845643585</ele></trkpt>
<trkpt lat="45.90601775997482" lon="8.712137554603586"><ele>307.9573461119779</ele></trkpt>
<trkpt lat="45.906011096862" lon="8.71220860463261"><ele>307.63530198012404</ele></trkpt>
<trkpt lat="45.90606731642461" lon="8.712621099957191"><ele>305.9764372934848</ele></trkpt>
<trkpt lat="45.90605289136872" lon="8.712713325954555"><ele>305.4359113657318</ele></trkpt>
<trkpt lat="45.90574870831075" lon="8.712905222192562"><ele>301.77231645312537</ele></trkpt>
<trkpt lat="45.90557890514828" lon="8.712979349830455"><ele>299.9260661793343</ele></trkpt>
<trkpt lat="45.90554852921382" lon="8.713007764975073"><ele>299.6778711853994</ele></trkpt>
<trkpt lat="45.90553371934995" lon="8.71304898971275"><ele>299.5147104757695</ele></trkpt>
<trkpt lat="45.905548405377125" lon="8.713135706496955"><ele>299.18269493501697</ele></trkpt>
<trkpt lat="45.905661109376744" lon="8.713414632074688"><ele>298.45714237767737</ele></trkpt>
<trkpt lat="45.905810227626596" lon="8.713852241833024"><ele>297.85355747000654</ele></trkpt>
<trkpt lat="45.906498211758176" lon="8.716089245214837"><ele>292.0548082512503</ele></trkpt>
<trkpt lat="45.90662734924084" lon="8.716770529690516"><ele>291.70022260216956</ele></trkpt>
<trkpt lat="45.906697326698655" lon="8.717347586941647"><ele>291.894976705599</ele></trkpt>
<trkpt lat="45.90673890364065" lon="8.718150398261074"><ele>292.0407518573961</ele></trkpt>
<trkpt lat="45.90663957931524" lon="8.720662819983321"><ele>289.0350035683765</ele></trkpt>
<trkpt lat="45.906622511220455" lon="8.720899312607692"><ele>288.539952455831</ele></trkpt>
<trkpt lat="45.906593039445" lon="8.7210708289797"><ele>288.24729165802376</ele></trkpt>
<trkpt lat="45.90537600909219" lon="8.726337667658091"><ele>286.9257841279952</ele></trkpt>
<trkpt lat="45.90533651250726" lon="8.726451039670415"><ele>287.1160348838962</ele></trkpt>
<trkpt lat="45.90526366763338" lon="8.72658985577049"><ele>287.38381072260665</ele></trkpt>
<trkpt lat="45.90519131028579" lon="8.726686767770822"><ele>287.60974479536156</ele></trkpt>
<trkpt lat="45.905066651205935" lon="8.726794716349358"><ele>287.9277054582582</ele></trkpt>
<trkpt lat="45.90501554013904" lon="8.72693141005494"><ele>288.1585656071624</ele></trkpt>
<trkpt lat="45.905017024056676" lon="8.72703936529582"><ele>288.34206549682483</ele></trkpt>
<trkpt lat="45.905096482037905" lon="8.72735157435446"><ele>289.00707622321573</ele></trkpt>
<trkpt lat="45.90510247778753" lon="8.727445593051865"><ele>289.16051291563406</ele></trkpt>
<trkpt lat="45.90509171846013" lon="8.727541495485754"><ele>289.2789445954329</ele></trkpt>
<trkpt lat="45.90432527246816" lon="8.730764334533557"><ele>289.21668863348754</ele></trkpt>
<trkpt lat="45.9042582607275" lon="8.731148043925076"><ele>289.24390932040285</ele></trkpt>
<trkpt lat="45.904270892658374" lon="8.731763150890538"><ele>289.36168538448584</ele></trkpt>
<trkpt lat="45.904383704798924" lon="8.733106270699201"><ele>289.6945692388622</ele></trkpt>
<trkpt lat="45.90437589334151" lon="8.733158017203788"><ele>289.6677137833166</ele></trkpt>
<trkpt lat="45.904354960326536" lon="8.733189572259397"><ele>289.63759677068714</ele></trkpt>
<trkpt lat="45.904214321151294" lon="8.733253804423546"><ele>289.36537756392397</ele></trkpt>
<trkpt lat="45.90227555074266" lon="8.733731718004206"><ele>283.68615329370334</ele></trkpt>
<trkpt lat="45.90211848575963" lon="8.733757508961885"><ele>283.40741725683915</ele></trkpt>
<trkpt lat="45.89825172828331" lon="8.734029534724478"><ele>285.9730746397717</ele></trkpt>
<trkpt lat="45.897757524065476" lon="8.734039514532949"><ele>287.84891011748493</ele></trkpt>
<trkpt lat="45.89767108371567" lon="8.733997182835516"><ele>288.1413322029213</ele></trkpt>
<trkpt lat="45.89761874121892" lon="8.733944396119231"><ele>288.3282366905611</ele></trkpt>
<trkpt lat="45.89751817378408" lon="8.733760763386327"><ele>288.71592639789225</ele></trkpt>
<trkpt lat="45.89673133989188" lon="8.731817770073242"><ele>291.9295516600755</ele></trkpt>
<trkpt lat="45.89605897451797" lon="8.72934084131874"><ele>291.3182245102139</ele></trkpt>
<trkpt lat="45.89599037238679" lon="8.729144397852425"><ele>291.2594251737956</ele></trkpt>
<trkpt lat="45.895886245930534" lon="8.728915193403195"><ele>291.37400912530165</ele></trkpt>
<trkpt lat="45.89567774990353" lon="8.728543107403176"><ele>291.9396960011499</ele></trkpt>
<trkpt lat="45.89529602037448" lon="8.728069090751408"><ele>293.04418417579524</ele></trkpt>
<trkpt lat="45.894570307970284" lon="8.727377807675746"><ele>296.16484084935513</ele></trkpt>
<trkpt lat="45.89450105316493" lon="8.727295679537164"><ele>296.76468549963886</ele></trkpt>
<trkpt lat="45.89442613534168" lon="8.72715626823664"><ele>297.69732905369005</ele></trkpt>
<trkpt lat="45.894367461365775" lon="8.726977184626854"><ele>298.7097132879939</ele></trkpt>
<trkpt lat="45.89410928129613" lon="8.725938806758812"><ele>303.7319783883735</ele></trkpt>
<trkpt lat="45.893794817855095" lon="8.724786745178685"><ele>309.31306118507393</ele></trkpt>
<trkpt lat="45.89342224530525" lon="8.723903232160398"><ele>312.53278192681495</ele></trkpt>
<trkpt lat="45.89336464021849" lon="8.723704820325958"><ele>313.33281015982453</ele></trkpt>
<trkpt lat="45.892890962401964" lon="8.72136692079906"><ele>326.26745622207716</ele></trkpt>
<trkpt lat="45.89283150176828" lon="8.720871510886239"><ele>329.4498346017753</ele></trkpt>
<trkpt lat="45.892757663942724" lon="8.719303357551507"><ele>336.8478380733041</ele></trkpt>
<trkpt lat="45.892704422096685" lon="8.718954638829704"><ele>337.7041872228809</ele></trkpt>
<trkpt lat="45.892570485463345" lon="8.718555270360135"><ele>338.609086701166</ele></trkpt>
<trkpt lat="45.89226254293486" lon="8.71781724467024"><ele>340.9216203069412</ele></trkpt>
<trkpt lat="45.89208692683755" lon="8.71745384486347"><ele>342.38828684408014</ele></trkpt>
<trkpt lat="45.89181993920364" lon="8.71710199973371"><ele>344.2435740192966</ele></trkpt>
<trkpt lat="45.89131000660343" lon="8.71655213769321"><ele>347.5703054148511</ele></trkpt>
<trkpt lat="45.89120357661164" lon="8.716392638518098"><ele>348.05953565442513</ele></trkpt>
<trkpt lat="45.891153757845906" lon="8.71639015721469"><ele>348.2155955776862</ele></trkpt>
<trkpt lat="45.891113422897455" lon="8.716452169138398"><ele>348.4158947422382</ele></trkpt>
<trkpt lat="45.89110888253423" lon="8.716515422327213"><ele>348.5796303642622</ele></trkpt>
<trkpt lat="45.891142014945885" lon="8.716775959097507"><ele>349.3549032663396</ele></trkpt>
<trkpt lat="45.89113645220564" lon="8.716905681680124"><ele>349.73618594306055</ele></trkpt>
<trkpt lat="45.89083347888221" lon="8.717721971843467"><ele>351.6737954671881</ele></trkpt>
<trkpt lat="45.89072439281088" lon="8.718260988159004"><ele>352.27924119559924</ele></trkpt>
<trkpt lat="45.89067146407658" lon="8.721027740033042"><ele>357.0516618897642</ele></trkpt>
<trkpt lat="45.89069174847811" lon="8.721283515434498"><ele>357.9896287315625</ele></trkpt>
<trkpt lat="45.89074010825361" lon="8.721589316993999"><ele>359.1317395739679</ele></trkpt>
<trkpt lat="45.891342403740104" lon="8.725083103182564"><ele>378.8043348933209</ele></trkpt>
<trkpt lat="45.89135328897262" lon="8.725214994287741"><ele>379.84251062474397</ele></trkpt>
<trkpt lat="45.89133786567172" lon="8.725313111737211"><ele>380.61012650825205</ele></trkpt>
<trkpt lat="45.8912846443838" lon="8.725410792116698"><ele>381.46754894530943</ele></trkpt>
<trkpt lat="45.89120907476411" lon="8.725465251856132"><ele>382.23532199687924</ele></trkpt>
<trkpt lat="45.89111733893601" lon="8.725471764475946"><ele>383.0766447731585</ele></trkpt>
<trkpt lat="45.891026651930886" lon="8.725411941675171"><ele>384.0619360072139</ele></trkpt>
<trkpt lat="45.89092999687724" lon="8.72526493186521"><ele>385.4957450980145</ele></trkpt>
<trkpt lat="45.89082920092294" lon="8.725062163605719"><ele>387.04417569446485</ele></trkpt>
<trkpt lat="45.8900575831475" lon="8.722677350784977"><ele>392.7376402741827</ele></trkpt>
<trkpt lat="45.889994225300335" lon="8.722539129404819"><ele>393.3524310907458</ele></trkpt>
<trkpt lat="45.88995702248615" lon="8.722503713246802"><ele>393.63509651384413</ele></trkpt>
<trkpt lat="45.88991579714856" lon="8.722495432646777"><ele>393.9095959366218</ele></trkpt>
<trkpt lat="45.88986400476709" lon="8.722529622502561"><ele>394.2913880200635</ele></trkpt>
<trkpt lat="45.88983325832563" lon="8.722595213669958"><ele>394.65079365851585</ele></trkpt>
<trkpt lat="45.889804728310814" lon="8.722862756532532"><ele>395.84196359906997</ele></trkpt>
<trkpt lat="45.88987060856484" lon="8.723831409868861"><ele>400.5701100474931</ele></trkpt>
<trkpt lat="45.89000015605658" lon="8.725152733460632"><ele>407.5748537782323</ele></trkpt>
<trkpt lat="45.89004694388421" lon="8.725445158621815"><ele>408.7379707158467</ele></trkpt>
<trkpt lat="45.89004369652739" lon="8.725518640873746"><ele>408.90990947483044</ele></trkpt>
<trkpt lat="45.890026856977926" lon="8.725565689987258"><ele>408.9648225897329</ele></trkpt>
<trkpt lat="45.88999118286254" lon="8.725591099236073"><ele>408.9805997250086</ele></trkpt>
<trkpt lat="45.88995361338002" lon="8.725574510705405"><ele>408.9959352669175</ele></trkpt>
<trkpt lat="45.88992226182748" lon="8.725491277263076"><ele>409.12050708899596</ele></trkpt>
<trkpt lat="45.88989306957918" lon="8.725187360251104"><ele>409.5460676349313</ele></trkpt>
<trkpt lat="45.88960932382392" lon="8.724041283287042"><ele>410.83421566718624</ele></trkpt>
<trkpt lat="45.88929683473005" lon="8.723055592739751"><ele>414.142581162673</ele></trkpt>
<trkpt lat="45.88917943661143" lon="8.72279345021221"><ele>415.405856696655</ele></trkpt>
<trkpt lat="45.888498930488254" lon="8.721559337483189"><ele>423.63618308734584</ele></trkpt>
<trkpt lat="45.888250792370826" lon="8.721050851248904"><ele>426.35660093681355</ele></trkpt>
<trkpt lat="45.88810763127442" lon="8.720579472718155"><ele>427.87779768716314</ele></trkpt>
<trkpt lat="45.887924776401825" lon="8.71984405154556"><ele>428.801301262388</ele></trkpt>
<trkpt lat="45.88784965612182" lon="8.719672320862658"><ele>428.954388263358</ele></trkpt>
<trkpt lat="45.88778547653805" lon="8.719576616142618"><ele>429.01272627575673</ele></trkpt>
<trkpt lat="45.88766963984871" lon="8.719453023852395"><ele>429.00402376390184</ele></trkpt>
<trkpt lat="45.887390344119495" lon="8.71922326199749"><ele>428.6076688653018</ele></trkpt>
<trkpt lat="45.88579550995665" lon="8.718333345921087"><ele>424.8797871036517</ele></trkpt>
<trkpt lat="45.885605059751065" lon="8.718203646144831"><ele>424.35486784000096</ele></trkpt>
<trkpt lat="45.88552476441471" lon="8.71810441137443"><ele>424.05494756554464</ele></trkpt>
<trkpt lat="45.885058742957185" lon="8.71682824339118"><ele>421.271820395725</ele></trkpt>
<trkpt lat="45.88439187383924" lon="8.715150815662112"><ele>418.3442418479699</ele></trkpt>
<trkpt lat="45.883644038810495" lon="8.712629464725907"><ele>406.2874684310604</ele></trkpt>
<trkpt lat="45.883615650740026" lon="8.712470249762433"><ele>405.49629153981937</ele></trkpt>
<trkpt lat="45.883628159548664" lon="8.712268154126683"><ele>404.3655142975383</ele></trkpt>
<trkpt lat="45.88365492906688" lon="8.712104849370649"><ele>403.2792066859613</ele></trkpt>
<trkpt lat="45.88427706658403" lon="8.709660157359979"><ele>387.69001786224004</ele></trkpt>
<trkpt lat="45.88431617695446" lon="8.709535495231387"><ele>386.9766849528449</ele></trkpt>
<trkpt lat="45.88436112543624" lon="8.709454054777787"><ele>386.51546569400284</ele></trkpt>
<trkpt lat="45.88444706347145" lon="8.709329305493632"><ele>385.8528658245733</ele></trkpt>
<trkpt lat="45.88450465802735" lon="8.709275072538126"><ele>385.4880717719734</ele></trkpt>
<trkpt lat="45.884832278312736" lon="8.709127091269403"><ele>383.2629676251901</ele></trkpt>
<trkpt lat="45.88506587815939" lon="8.708982867751807"><ele>382.45436106125305</ele></trkpt>
<trkpt lat="45.88622104358588" lon="8.707809993802679"><ele>374.1937944275504</ele></trkpt>
<trkpt lat="45.886471513020716" lon="8.707582263342088"><ele>372.9295141316286</ele></trkpt>
<trkpt lat="45.88677262438407" lon="8.707380427360263"><ele>372.09878687405177</ele></trkpt>
<trkpt lat="45.88681491283482" lon="8.707309186224004"><ele>371.7369703662148</ele></trkpt>
<trkpt lat="45.88682861469872" lon="8.70721971300143"><ele>371.3609939607679</ele></trkpt>
<trkpt lat="45.88679061374403" lon="8.707084449508443"><ele>370.83908255794336</ele></trkpt>
<trkpt lat="45.885966213902556" lon="8.705142222428716"><ele>367.13642587281277</ele></trkpt>
<trkpt lat="45.88583668690615" lon="8.704712519659687"><ele>366.44491791543896</ele></trkpt>
<trkpt lat="45.885658822398995" lon="8.704326102018387"><ele>365.8102056326227</ele></trkpt>
<trkpt lat="45.885528340346646" lon="8.703993239148357"><ele>365.2809152298597</ele></trkpt>
<trkpt lat="45.88549018896927" lon="8.703852980398572"><ele>365.0366578724743</ele></trkpt>
<trkpt lat="45.8852519121933" lon="8.702690224170105"><ele>362.57597894669635</ele></trkpt>
<trkpt lat="45.885220208432024" lon="8.702389963818645"><ele>362.2389637862562</ele></trkpt>
<trkpt lat="45.8852145618434" lon="8.702239779339102"><ele>362.1185175290643</ele></trkpt>
<trkpt lat="45.88525810251005" lon="8.701543363062116"><ele>361.5964981068135</ele></trkpt>
<trkpt lat="45.88523978204096" lon="8.701151556143447"><ele>361.32319062467826</ele></trkpt>
<trkpt lat="45.88490082700904" lon="8.699340939058304"><ele>357.98418869278987</ele></trkpt>
<trkpt lat="45.8847831173365" lon="8.698779033904163"><ele>356.9506982172237</ele></trkpt>
<trkpt lat="45.88468871564967" lon="8.697673341915024"><ele>354.921817941266</ele></trkpt>
<trkpt lat="45.884605175499786" lon="8.697300615911141"><ele>353.62153626198636</ele></trkpt>
<trkpt lat="45.883637695688805" lon="8.694498609282167"><ele>341.5332792722183</ele></trkpt>
<trkpt lat="45.88357407448405" lon="8.694342206406274"><ele>341.2145423616823</ele></trkpt>
<trkpt lat="45.88285076120262" lon="8.69297425438353"><ele>339.8287498745625</ele></trkpt>
<trkpt lat="45.88207372404045" lon="8.691620858423367"><ele>340.92945927539824</ele></trkpt>
<trkpt lat="45.88094013694066" lon="8.689583878855801"><ele>340.54572192396984</ele></trkpt>
<trkpt lat="45.88075117363356" lon="8.689345254264929"><ele>338.5220496396604</ele></trkpt>
<trkpt lat="45.87961916332535" lon="8.688102411852109"><ele>331.94170628088324</ele></trkpt>
<trkpt lat="45.8794044493033" lon="8.68793988531387"><ele>331.9051207842225</ele></trkpt>
<trkpt lat="45.87889896764955" lon="8.687726034133451"><ele>332.95974174311215</ele></trkpt>
<trkpt lat="45.878618084244295" lon="8.68753628384761"><ele>333.84233715999324</ele></trkpt>
<trkpt lat="45.878474039848044" lon="8.687364767318183"><ele>334.15048503750137</ele></trkpt>
<trkpt lat="45.8783548215441" lon="8.687087599485212"><ele>334.161186933038</ele></trkpt>
<trkpt lat="45.87832292557213" lon="8.686926934860178"><ele>334.0417879125732</ele></trkpt>
<trkpt lat="45.87830378577708" lon="8.68670676897861"><ele>333.7729329255241</ele></trkpt>
<trkpt lat="45.878348286992434" lon="8.685974129299849"><ele>332.54283007209415</ele></trkpt>
<trkpt lat="45.87840354884877" lon="8.685841787668583"><ele>332.28120807420606</ele></trkpt>
<trkpt lat="45.87870759098266" lon="8.685317064379333"><ele>330.43032216515974</ele></trkpt>
<trkpt lat="45.878816567549094" lon="8.685037699516595"><ele>328.8125540679169</ele></trkpt>
<trkpt lat="45.87899004565324" lon="8.684212661791973"><ele>324.30133717755734</ele></trkpt>
<trkpt lat="45.87903018581959" lon="8.683933807242791"><ele>322.990924214654</ele></trkpt>
<trkpt lat="45.879029607333656" lon="8.683817782019306"><ele>322.57151817203606</ele></trkpt>
<trkpt lat="45.8789939137999" lon="8.683603331823706"><ele>321.74339341247617</ele></trkpt>
<trkpt lat="45.87892608288542" lon="8.683443197904417"><ele>320.8075465423107</ele></trkpt>
<trkpt lat="45.87885731118292" lon="8.683371678255265"><ele>320.1737118736528</ele></trkpt>
<trkpt lat="45.878810904075635" lon="8.683363747016752"><ele>319.85742615210853</ele></trkpt>
<trkpt lat="45.87876596045272" lon="8.683384478008888"><ele>319.5653280143006</ele></trkpt>
<trkpt lat="45.87870917702146" lon="8.683465052728355"><ele>319.13117461037695</ele></trkpt>
<trkpt lat="45.878682523562745" lon="8.683550179901218"><ele>318.8230973155789</ele></trkpt>
<trkpt lat="45.87864963576618" lon="8.68410640673543"><ele>317.3256214802755</ele></trkpt>
<trkpt lat="45.8786017407437" lon="8.684333638246185"><ele>316.64787711426067</ele></trkpt>
<trkpt lat="45.87855105808877" lon="8.684405221908147"><ele>316.3255451281616</ele></trkpt>
<trkpt lat="45.87846972965147" lon="8.684439322689549"><ele>315.9119515657171</ele></trkpt>
<trkpt lat="45.87842009026495" lon="8.684433127588694"><ele>315.655837443553</ele></trkpt>
<trkpt lat="45.87836374686676" lon="8.68438600592544"><ele>315.2999643569261</ele></trkpt>
<trkpt lat="45.878346583006554" lon="8.684295150367632"><ele>314.9168153067993</ele></trkpt>
<trkpt lat="45.87835817538211" lon="8.68421746208601"><ele>314.573566469936</ele></trkpt>
<trkpt lat="45.87851838551796" lon="8.683607831532308"><ele>311.16466289173184</ele></trkpt>
<trkpt lat="45.8785473926145" lon="8.683432906780652"><ele>310.52437074006235</ele></trkpt>
<trkpt lat="45.8785592291717" lon="8.683249416153533"><ele>309.93497277323524</ele></trkpt>
<trkpt lat="45.8785084650207" lon="8.681652412651111"><ele>302.9811507521458</ele></trkpt>
<trkpt lat="45.87841833585868" lon="8.681057815563067"><ele>300.8174263155014</ele></trkpt>
<trkpt lat="45.877938039804725" lon="8.6789844180198"><ele>292.8544563356194</ele></trkpt>
<trkpt lat="45.87788846207237" lon="8.67881791165285"><ele>292.0900585696977</ele></trkpt>
<trkpt lat="45.87758668143922" lon="8.678036413640445"><ele>288.4289061586286</ele></trkpt>
<trkpt lat="45.87753320917776" lon="8.677709111899583"><ele>286.32008072314613</ele></trkpt>
<trkpt lat="45.87751492521058" lon="8.677351050863132"><ele>284.51910564665957</ele></trkpt>
<trkpt lat="45.87747309789691" lon="8.6772169458107"><ele>283.9212094035433</ele></trkpt>
<trkpt lat="45.87721802872358" lon="8.676884577961875"><ele>282.2767876838095</ele></trkpt>
<trkpt lat="45.87692742374118" lon="8.676648955212364"><ele>281.0925917126854</ele></trkpt>
<trkpt lat="45.87668819326888" lon="8.676348936886615"><ele>279.9450900989191</ele></trkpt>
<trkpt lat="45.87663836321166" lon="8.676304181283289"><ele>279.66573531997386</ele></trkpt>
<trkpt lat="45.87656954252343" lon="8.676272734543286"><ele>279.2645711575513</ele></trkpt>
<trkpt lat="45.87642963496223" lon="8.676272854191717"><ele>278.2983806892666</ele></trkpt>
<trkpt lat="45.87530913303846" lon="8.676586384572772"><ele>269.9611418041365</ele></trkpt>
<trkpt lat="45.87515529474326" lon="8.676613812801032"><ele>269.11667069302393</ele></trkpt>
<trkpt lat="45.87500724282394" lon="8.676566917284307"><ele>268.007158435496</ele></trkpt>
<trkpt lat="45.87476931907615" lon="8.676265487494389"><ele>265.06439760488917</ele></trkpt>
<trkpt lat="45.8746503419731" lon="8.676178476867788"><ele>264.064612875623</ele></trkpt>
<trkpt lat="45.87450476372586" lon="8.67612269581389"><ele>262.91976236795364</ele></trkpt>
<trkpt lat="45.87433006378397" lon="8.676116097948267"><ele>261.1417495750232</ele></trkpt>
<trkpt lat="45.87422596972033" lon="8.676142693172197"><ele>260.04813677914893</ele></trkpt>
<trkpt lat="45.8741268284108" lon="8.676191484060997"><ele>259.15439213553753</ele></trkpt>
<trkpt lat="45.874023757786446" lon="8.67627385282924"><ele>258.30637961667117</ele></trkpt>
<trkpt lat="45.87382563781676" lon="8.676537870781742"><ele>256.8505413730019</ele></trkpt>
<trkpt lat="45.87373712647056" lon="8.676581506141705"><ele>256.47173788799</ele></trkpt>
<trkpt lat="45.87365791945913" lon="8.676570095490893"><ele>256.1856377804332</ele></trkpt>
<trkpt lat="45.87358639914961" lon="8.676524235449218"><ele>255.9287184733443</ele></trkpt>
<trkpt lat="45.87344081099819" lon="8.676342179240491"><ele>255.32533975891306</ele></trkpt>
<trkpt lat="45.87340623696368" lon="8.676263460000024"><ele>255.10072575865698</ele></trkpt>
<trkpt lat="45.87340245958316" lon="8.67621005259204"><ele>254.96953600380064</ele></trkpt>
<trkpt lat="45.87341064459194" lon="8.676144982792662"><ele>254.80892626532238</ele></trkpt>
<trkpt lat="45.873436186974" lon="8.676083032930865"><ele>254.64069451377375</ele></trkpt>
<trkpt lat="45.87394235987496" lon="8.675232513690057"><ele>252.9099759321676</ele></trkpt>
<trkpt lat="45.874561012661694" lon="8.674530908484346"><ele>253.68113684276827</ele></trkpt>
<trkpt lat="45.874904834056764" lon="8.674213470616385"><ele>254.70629921720928</ele></trkpt>
<trkpt lat="45.87501845477665" lon="8.674134985014843"><ele>255.06361637431252</ele></trkpt>
<trkpt lat="45.875340091540174" lon="8.673951910569324"><ele>256.25126225836374</ele></trkpt>
<trkpt lat="45.87563101654522" lon="8.67383164675384"><ele>257.7451369687135</ele></trkpt>
<trkpt lat="45.87597830842788" lon="8.67374142977955"><ele>258.965486075728</ele></trkpt>
<trkpt lat="45.87726784445735" lon="8.673519890070228"><ele>263.4169936987038</ele></trkpt>
<trkpt lat="45.87754246295804" lon="8.673457099612893"><ele>264.2050123560699</ele></trkpt>
<trkpt lat="45.87798579773596" lon="8.673271388811688"><ele>265.2004484537326</ele></trkpt>
<trkpt lat="45.87888483812342" lon="8.67285508224891"><ele>265.86530496161504</ele></trkpt>
<trkpt lat="45.88063696979925" lon="8.672110869818122"><ele>262.60852142241566</ele></trkpt>
<trkpt lat="45.88092024543017" lon="8.671974833673243"><ele>261.9106882281892</ele></trkpt>
<trkpt lat="45.88098842215361" lon="8.671937662829432"><ele>261.6939232638274</ele></trkpt>
<trkpt lat="45.88136050468496" lon="8.671650152820881"><ele>259.9519479093627</ele></trkpt>
<trkpt lat="45.881546365292" lon="8.67157826963983"><ele>259.0078725125371</ele></trkpt>
<trkpt lat="45.8818151669168" lon="8.671293419141609"><ele>256.764428343961</ele></trkpt>
<trkpt lat="45.88199055468521" lon="8.67120694160533"><ele>255.73665942686574</ele></trkpt>
<trkpt lat="45.882152319188634" lon="8.671186945958523"><ele>254.99685969857035</ele></trkpt>
<trkpt lat="45.88324994726669" lon="8.671334982110757"><ele>254.81494561655603</ele></trkpt>
<trkpt lat="45.88370982477848" lon="8.671299347495873"><ele>256.1933334987176</ele></trkpt>
<trkpt lat="45.88519976556391" lon="8.671059636232108"><ele>256.4126553356924</ele></trkpt>
<trkpt lat="45.88700904265795" lon="8.670710412525226"><ele>254.37684259292192</ele></trkpt>
<trkpt lat="45.89040371842397" lon="8.670128071491272"><ele>249.934403849961</ele></trkpt>
<trkpt lat="45.89048654817963" lon="8.670137545267192"><ele>249.81292426150242</ele></trkpt>
<trkpt lat="45.89061479506647" lon="8.670185686962409"><ele>249.6235767253634</ele></trkpt>
<trkpt lat="45.89074124746276" lon="8.670282787305664"><ele>249.4259842736201</ele></trkpt>
<trkpt lat="45.89085782746272" lon="8.67042770626357"><ele>249.25461369143434</ele></trkpt>
<trkpt lat="45.890955878342716" lon="8.670449286381938"><ele>249.17525672884952</ele></trkpt>
<trkpt lat="45.89101455925034" lon="8.670422827088185"><ele>249.13523400396045</ele></trkpt>
<trkpt lat="45.8910629608132" lon="8.670375721585485"><ele>249.09883318680107</ele></trkpt>
<trkpt lat="45.89122325267129" lon="8.670106332961819"><ele>248.81338645564873</ele></trkpt>
<trkpt lat="45.891326904545764" lon="8.670014197731225"><ele>248.5462111235709</ele></trkpt>
<trkpt lat="45.891401977294954" lon="8.66997105129127"><ele>248.35330983944618</ele></trkpt>
<trkpt lat="45.89351770806014" lon="8.66957207541448"><ele>245.22279720207104</ele></trkpt>
<trkpt lat="45.89367032087092" lon="8.669583129348117"><ele>245.09092407731137</ele></trkpt>
<trkpt lat="45.89389987441334" lon="8.669564703358066"><ele>244.9597540777269</ele></trkpt>
<trkpt lat="45.8940130702924" lon="8.669586057587795"><ele>244.99569242066266</ele></trkpt>
<trkpt lat="45.894076240622574" lon="8.669637034007671"><ele>245.0782984593921</ele></trkpt>
<trkpt lat="45.89411530701003" lon="8.669698244772281"><ele>245.17727475462968</ele></trkpt>
<trkpt lat="45.8941508714898" lon="8.669792238266345"><ele>245.3380603763531</ele></trkpt>
<trkpt lat="45.894170385721466" lon="8.669896294162813"><ele>245.5209607419941</ele></trkpt>
<trkpt lat="45.8941759186597" lon="8.670135658876989"><ele>245.93896221120065</ele></trkpt>
<trkpt lat="45.89402105260679" lon="8.67256801389427"><ele>252.0298323037821</ele></trkpt>
<trkpt lat="45.894014802644485" lon="8.672657957672824"><ele>252.31149887610837</ele></trkpt>
<trkpt lat="45.89400890168827" lon="8.672743014715655"><ele>252.5852674602356</ele></trkpt>
<trkpt lat="45.89400332148917" lon="8.672823672923903"><ele>252.85224210434808</ele></trkpt>
<trkpt lat="45.89399803379823" lon="8.672900420198177"><ele>253.11352685663005</ele></trkpt>
<trkpt lat="45.89399301036645" lon="8.672973744438634"><ele>253.37022576526584</ele></trkpt>
<trkpt lat="45.89398822294486" lon="8.673044133544975"><ele>253.62344287843973</ele></trkpt>
<trkpt lat="45.8939836432845" lon="8.673112075416515"><ele>253.87428224433597</ele></trkpt>
<trkpt lat="45.89397924313637" lon="8.673178057952216"><ele>254.1238479111389</ele></trkpt>
<trkpt lat="45.89397499425152" lon="8.673242569050695"><ele>254.37324392703272</ele></trkpt>
<trkpt lat="45.893970868380954" lon="8.673306096610268"><ele>254.6235743402018</ele></trkpt>
<trkpt lat="45.893966837275705" lon="8.67336912852896"><ele>254.87594319883038</ele></trkpt>
<trkpt lat="45.893962872686785" lon="8.673432152704512"><ele>255.13145455110273</ele></trkpt>
</trkseg>
</trk></gpx>
