<?xml version="1.0" encoding="utf-8"?>
<gpx xmlns:xsd="http://www.w3.org/2001/XMLSchema" xmlns:xsi="http://www.w3.org/2001/XMLSchema-instance" version="1.1" creator="Geo::Gpx" xsi:schemaLocation="http://www.topografix.com/GPX/1/1 http://www.topografix.com/GPX/1/1/gpx.xsd" xmlns="http://www.topografix.com/GPX/1/1">
<metadata>
<time>2026-09-20T20:11:15Z</time>
<keywords>processGPX</keywords>
<bounds maxlat="45.5352293696516" maxlon="-73.5041618165767" minlat="45.4647877804327" minlon="-73.5845584228103" />
</metadata>
<trk>
<name>TT WORLDS ð¥ð¨ð¦ð¤¯</name>
<trkseg>
<trkpt lat="45.51182293029" lon="-73.5787947833492">
<ele>54.2247336444298</ele>
</trkpt>
<trkpt lat="45.5116894081436" lon="-73.5785439673333">
<ele>53.4444787925285</ele>
</trkpt>
<trkpt lat="45.5116298473877" lon="-73.578349051751">
<ele>52.8933975388678</ele>
</trkpt>
<trkpt lat="45.5116406155243" lon="-73.5781732817525">
<ele>52.6321802276966</ele>
</trkpt>
<trkpt lat="45.5116716838979" lon="-73.5780941672039">
<ele>52.5672753440633</ele>
</trkpt>
<trkpt lat="45.5117185821312" lon="-73.5780283242062">
<ele>52.5441695025085</ele>
</trkpt>
<trkpt lat="45.5122037987458" lon="-73.5776255541087">
<ele>53.0531861641236</ele>
</trkpt>
<trkpt lat="45.5134303585813" lon="-73.576509581296">
<ele>51.5669745678523</ele>
</trkpt>
<trkpt lat="45.5136580807707" lon="-73.576296016836">
<ele>51.1480895542059</ele>
</trkpt>
<trkpt lat="45.5140113399205" lon="-73.5759906352095">
<ele>49.9907657505132</ele>
</trkpt>
<trkpt lat="45.514243336603" lon="-73.575791535554">
<ele>49.429368945112</ele>
</trkpt>
<trkpt lat="45.51486528093" lon="-73.5752653847341">
<ele>48.6053870077253</ele>
</trkpt>
<trkpt lat="45.5153033768382" lon="-73.5748898217942">
<ele>48.35057963225</ele>
</trkpt>
<trkpt lat="45.516081077609" lon="-73.5742288886449">
<ele>48.2021435974687</ele>
</trkpt>
<trkpt lat="45.5171893837081" lon="-73.5732977698279">
<ele>47.1859245322926</ele>
</trkpt>
<trkpt lat="45.5176696055002" lon="-73.5728809712588">
<ele>46.6270199043854</ele>
</trkpt>
<trkpt lat="45.5187205080505" lon="-73.5719363032639">
<ele>46.1994747948196</ele>
</trkpt>
<trkpt lat="45.5188042963911" lon="-73.571817917671">
<ele>46.1919869284838</ele>
</trkpt>
<trkpt lat="45.5188313285219" lon="-73.5716909664087">
<ele>46.1770062667915</ele>
</trkpt>
<trkpt lat="45.518807183025" lon="-73.5715641344163">
<ele>46.1536309470716</ele>
</trkpt>
<trkpt lat="45.5182861933265" lon="-73.5704825325188">
<ele>45.7998616885397</ele>
</trkpt>
<trkpt lat="45.5182482799124" lon="-73.5703627565222">
<ele>45.7247541502713</ele>
</trkpt>
<trkpt lat="45.5182355011365" lon="-73.5702222151413">
<ele>45.6113152624409</ele>
</trkpt>
<trkpt lat="45.5182467144775" lon="-73.5701332649513">
<ele>45.524656039633</ele>
</trkpt>
<trkpt lat="45.5182770369995" lon="-73.5700488063015">
<ele>45.4331305909922</ele>
</trkpt>
<trkpt lat="45.5183795754582" lon="-73.5698988824976">
<ele>45.2822605896679</ele>
</trkpt>
<trkpt lat="45.5185044017857" lon="-73.5697775199673">
<ele>45.2285198853892</ele>
</trkpt>
<trkpt lat="45.5187045591407" lon="-73.5696208074123">
<ele>45.3117227662795</ele>
</trkpt>
<trkpt lat="45.5188213216482" lon="-73.5695109293702">
<ele>45.4440157752072</ele>
</trkpt>
<trkpt lat="45.5188643510111" lon="-73.5694457821599">
<ele>45.4963571001464</ele>
</trkpt>
<trkpt lat="45.5189253876253" lon="-73.5692546315798">
<ele>45.5303295298486</ele>
</trkpt>
<trkpt lat="45.5189276749892" lon="-73.5691352116187">
<ele>45.4701905694089</ele>
</trkpt>
<trkpt lat="45.5189069894055" lon="-73.5690201187152">
<ele>45.3475170831245</ele>
</trkpt>
<trkpt lat="45.5188233574362" lon="-73.5688138637998">
<ele>44.9130510343715</ele>
</trkpt>
<trkpt lat="45.5186886503881" lon="-73.568542097052">
<ele>43.9130195460677</ele>
</trkpt>
<trkpt lat="45.5185442615114" lon="-73.5682335706669">
<ele>42.201004261328</ele>
</trkpt>
<trkpt lat="45.5183228590336" lon="-73.5677143569641">
<ele>38.9802545661217</ele>
</trkpt>
<trkpt lat="45.5182371657797" lon="-73.5675344301224">
<ele>38.0691923112747</ele>
</trkpt>
<trkpt lat="45.5181435132628" lon="-73.5673377471894">
<ele>37.3426953265922</ele>
</trkpt>
<trkpt lat="45.5179301162689" lon="-73.5668597718435">
<ele>36.3225571762386</ele>
</trkpt>
<trkpt lat="45.5178454139841" lon="-73.5666643063875">
<ele>35.7113853975604</ele>
</trkpt>
<trkpt lat="45.5177182537345" lon="-73.566368672515">
<ele>34.34170053067</ele>
</trkpt>
<trkpt lat="45.5174945533642" lon="-73.5658596212847">
<ele>31.5756845739328</ele>
</trkpt>
<trkpt lat="45.517353711729" lon="-73.5655614581061">
<ele>30.1812468659853</ele>
</trkpt>
<trkpt lat="45.5172673569597" lon="-73.565382067053">
<ele>29.6335318009068</ele>
</trkpt>
<trkpt lat="45.517160945847" lon="-73.5651343798646">
<ele>29.2006051787983</ele>
</trkpt>
<trkpt lat="45.5171270773178" lon="-73.5649992108714">
<ele>29.0568820461837</ele>
</trkpt>
<trkpt lat="45.5171250980966" lon="-73.5648647206581">
<ele>28.9249916981382</ele>
</trkpt>
<trkpt lat="45.5171712416517" lon="-73.5647246938048">
<ele>28.7913267908084</ele>
</trkpt>
<trkpt lat="45.5172150997734" lon="-73.5646670063013">
<ele>28.7341388528987</ele>
</trkpt>
<trkpt lat="45.5173077907169" lon="-73.5645934053107">
<ele>28.6446038484143</ele>
</trkpt>
<trkpt lat="45.5177302074619" lon="-73.5643810421085">
<ele>28.144804773219</ele>
</trkpt>
<trkpt lat="45.5183936445714" lon="-73.5639856190641">
<ele>27.8161747519511</ele>
</trkpt>
<trkpt lat="45.5188606730184" lon="-73.5637111267646">
<ele>27.9829240457573</ele>
</trkpt>
<trkpt lat="45.5195584389959" lon="-73.5632972440866">
<ele>28.6508226589059</ele>
</trkpt>
<trkpt lat="45.5199153985633" lon="-73.5630958364129">
<ele>28.5035807260731</ele>
</trkpt>
<trkpt lat="45.5200346170773" lon="-73.5629792601012">
<ele>28.3484859338543</ele>
</trkpt>
<trkpt lat="45.5200745257931" lon="-73.5628682703042">
<ele>28.2060535098359</ele>
</trkpt>
<trkpt lat="45.5200728419443" lon="-73.5627715364518">
<ele>28.0797273551453</ele>
</trkpt>
<trkpt lat="45.5200341621051" lon="-73.5626426114224">
<ele>27.9030926272623</ele>
</trkpt>
<trkpt lat="45.5198501605338" lon="-73.5622391249956">
<ele>27.4822045249644</ele>
</trkpt>
<trkpt lat="45.519467530165" lon="-73.5613879374504">
<ele>27.0189004914854</ele>
</trkpt>
<trkpt lat="45.519138886296" lon="-73.5606420961396">
<ele>27.4033164276227</ele>
</trkpt>
<trkpt lat="45.5184564084611" lon="-73.5591699409782">
<ele>28.1705003090833</ele>
</trkpt>
<trkpt lat="45.5181717891232" lon="-73.5585617255953">
<ele>28.215193468736</ele>
</trkpt>
<trkpt lat="45.5180922446457" lon="-73.5584092721861">
<ele>27.9439090895933</ele>
</trkpt>
<trkpt lat="45.5176160861797" lon="-73.5574107693208">
<ele>25.4737832652522</ele>
</trkpt>
<trkpt lat="45.5171629875067" lon="-73.556459951452">
<ele>23.5722243769507</ele>
</trkpt>
<trkpt lat="45.5169998945969" lon="-73.5561047556312">
<ele>23.1719354515944</ele>
</trkpt>
<trkpt lat="45.5167490364657" lon="-73.5555663002294">
<ele>22.9204112435613</ele>
</trkpt>
<trkpt lat="45.5162574411298" lon="-73.5545254276335">
<ele>22.0801208490861</ele>
</trkpt>
<trkpt lat="45.5158271737641" lon="-73.5535834635914">
<ele>20.5076556677278</ele>
</trkpt>
<trkpt lat="45.5155503389019" lon="-73.5529797820271">
<ele>19.2487702856142</ele>
</trkpt>
<trkpt lat="45.5152831149596" lon="-73.5523884310869">
<ele>18.6708215866427</ele>
</trkpt>
<trkpt lat="45.5150449026245" lon="-73.5519447372557">
<ele>18.3225757487233</ele>
</trkpt>
<trkpt lat="45.5150275970468" lon="-73.5518689352628">
<ele>18.2921481045607</ele>
</trkpt>
<trkpt lat="45.5150283916846" lon="-73.5517805062696">
<ele>18.2590093973297</ele>
</trkpt>
<trkpt lat="45.5150813751997" lon="-73.551656471169">
<ele>18.2024681578741</ele>
</trkpt>
<trkpt lat="45.5151458002362" lon="-73.5515892883323">
<ele>18.163605998172</ele>
</trkpt>
<trkpt lat="45.5154250394679" lon="-73.5513973086826">
<ele>18.2036209994887</ele>
</trkpt>
<trkpt lat="45.5157013800225" lon="-73.551138425703">
<ele>18.4163243328249</ele>
</trkpt>
<trkpt lat="45.5157883612055" lon="-73.5510095959884">
<ele>18.5955786700424</ele>
</trkpt>
<trkpt lat="45.5158226052454" lon="-73.5508816515975">
<ele>18.8706030884612</ele>
</trkpt>
<trkpt lat="45.5158125977987" lon="-73.5507009853242">
<ele>19.5299438323917</ele>
</trkpt>
<trkpt lat="45.5157584600893" lon="-73.5505412121144">
<ele>20.5523413975337</ele>
</trkpt>
<trkpt lat="45.5155010943723" lon="-73.5499801883788">
<ele>25.8735806394453</ele>
</trkpt>
<trkpt lat="45.5154276767519" lon="-73.5498662249631">
<ele>26.8450003921987</ele>
</trkpt>
<trkpt lat="45.515360025182" lon="-73.5498149756964">
<ele>27.3797605247183</ele>
</trkpt>
<trkpt lat="45.5152931219757" lon="-73.5498000061686">
<ele>27.7431208046056</ele>
</trkpt>
<trkpt lat="45.5151856678474" lon="-73.5498352570162">
<ele>28.1622941452021</ele>
</trkpt>
<trkpt lat="45.5149131809474" lon="-73.5499678428865">
<ele>28.8454097469739</ele>
</trkpt>
<trkpt lat="45.5145535247351" lon="-73.5501448058582">
<ele>29.3939280177861</ele>
</trkpt>
<trkpt lat="45.5134309912861" lon="-73.5507150997453">
<ele>30.0967012703283</ele>
</trkpt>
<trkpt lat="45.5129827393264" lon="-73.5509417264565">
<ele>29.8964265598974</ele>
</trkpt>
<trkpt lat="45.5121760686647" lon="-73.5513938382578">
<ele>29.1507001196881</ele>
</trkpt>
<trkpt lat="45.5113251780184" lon="-73.5519113732753">
<ele>28.8912573231543</ele>
</trkpt>
<trkpt lat="45.5108321093919" lon="-73.5522069050978">
<ele>28.4621764841777</ele>
</trkpt>
<trkpt lat="45.5104476489807" lon="-73.5524280906754">
<ele>27.9367798386872</ele>
</trkpt>
<trkpt lat="45.5101778915508" lon="-73.5525650915234">
<ele>27.7495858816862</ele>
</trkpt>
<trkpt lat="45.5100653559907" lon="-73.5526491025088">
<ele>27.8058072255262</ele>
</trkpt>
<trkpt lat="45.5094697583849" lon="-73.553135384738">
<ele>28.8509044188698</ele>
</trkpt>
<trkpt lat="45.5092362147809" lon="-73.5533108677681">
<ele>28.9459036309924</ele>
</trkpt>
<trkpt lat="45.5087714045989" lon="-73.5536598158224">
<ele>28.3666280084754</ele>
</trkpt>
<trkpt lat="45.5084134448387" lon="-73.5539808099528">
<ele>27.5808394926941</ele>
</trkpt>
<trkpt lat="45.5083099514961" lon="-73.5540449931939">
<ele>27.3073960560301</ele>
</trkpt>
<trkpt lat="45.5081977049952" lon="-73.5540404128661">
<ele>26.9490213793054</ele>
</trkpt>
<trkpt lat="45.508141775009" lon="-73.5539955292162">
<ele>26.6751160880663</ele>
</trkpt>
<trkpt lat="45.5081068536218" lon="-73.5539403846003">
<ele>26.4031075828565</ele>
</trkpt>
<trkpt lat="45.5080447439432" lon="-73.553771083834">
<ele>25.4867343510415</ele>
</trkpt>
<trkpt lat="45.5079296309432" lon="-73.5534372608133">
<ele>23.1942520740938</ele>
</trkpt>
<trkpt lat="45.5077493438436" lon="-73.5529730113141">
<ele>20.1903687343134</ele>
</trkpt>
<trkpt lat="45.50749366222" lon="-73.5522978268623">
<ele>16.9365528502607</ele>
</trkpt>
<trkpt lat="45.5074076775678" lon="-73.5521640353518">
<ele>16.1939942540345</ele>
</trkpt>
<trkpt lat="45.5073083093006" lon="-73.5521255815712">
<ele>15.7804506970734</ele>
</trkpt>
<trkpt lat="45.5071761913769" lon="-73.5521743221382">
<ele>15.5151231608448</ele>
</trkpt>
<trkpt lat="45.5068263033363" lon="-73.5523780925186">
<ele>15.4037714251883</ele>
</trkpt>
<trkpt lat="45.5060438277786" lon="-73.5529185057842">
<ele>15.7579185139371</ele>
</trkpt>
<trkpt lat="45.5054953189703" lon="-73.5532081443538">
<ele>15.8</ele>
</trkpt>
<trkpt lat="45.5046561041642" lon="-73.5535517244743">
<ele>15.7389664556472</ele>
</trkpt>
<trkpt lat="45.5040322804269" lon="-73.5537738087794">
<ele>15.7698066751269</ele>
</trkpt>
<trkpt lat="45.5035168191954" lon="-73.5539137243804">
<ele>15.7928448330936</ele>
</trkpt>
<trkpt lat="45.5032543138081" lon="-73.5539538362845">
<ele>15.7617001093106</ele>
</trkpt>
<trkpt lat="45.5029926168804" lon="-73.5539688241042">
<ele>15.6087538070744</ele>
</trkpt>
<trkpt lat="45.5028509667286" lon="-73.5539568456789">
<ele>15.5400878668058</ele>
</trkpt>
<trkpt lat="45.5019105862303" lon="-73.5538570692339">
<ele>15.6993389764835</ele>
</trkpt>
<trkpt lat="45.5015162576377" lon="-73.5537902483947">
<ele>15.6038948267217</ele>
</trkpt>
<trkpt lat="45.5008535655479" lon="-73.5536150604277">
<ele>15.5091806682801</ele>
</trkpt>
<trkpt lat="45.5004630782908" lon="-73.5535081349135">
<ele>15.6943600206315</ele>
</trkpt>
<trkpt lat="45.5002086402324" lon="-73.5533889366954">
<ele>15.8616122955465</ele>
</trkpt>
<trkpt lat="45.4998730272903" lon="-73.5531094505526">
<ele>15.8693077552308</ele>
</trkpt>
<trkpt lat="45.4997501482828" lon="-73.5530394304912">
<ele>15.8305565729771</ele>
</trkpt>
<trkpt lat="45.4993565090247" lon="-73.5529499064456">
<ele>15.7999956364535</ele>
</trkpt>
<trkpt lat="45.4990935837731" lon="-73.5529180816783">
<ele>15.7845075946079</ele>
</trkpt>
<trkpt lat="45.4989692404435" lon="-73.5529211413969">
<ele>15.7139177587871</ele>
</trkpt>
<trkpt lat="45.4989146108399" lon="-73.5529513710042">
<ele>15.6420444068391</ele>
</trkpt>
<trkpt lat="45.4988726816734" lon="-73.5530127488424">
<ele>15.5398597552419</ele>
</trkpt>
<trkpt lat="45.4988563641287" lon="-73.5530889627204">
<ele>15.4288156212785</ele>
</trkpt>
<trkpt lat="45.4988656640049" lon="-73.5531785628954">
<ele>15.3027345109617</ele>
</trkpt>
<trkpt lat="45.4989652159562" lon="-73.5534312673906">
<ele>15.060780823536</ele>
</trkpt>
<trkpt lat="45.4990541487414" lon="-73.5536764982986">
<ele>15.0435056381632</ele>
</trkpt>
<trkpt lat="45.4994102602053" lon="-73.5547133247024">
<ele>15.60597946214</ele>
</trkpt>
<trkpt lat="45.499427820684" lon="-73.5548048044639">
<ele>15.6936479369977</ele>
</trkpt>
<trkpt lat="45.4994244131165" lon="-73.5548946794801">
<ele>15.7978253518162</ele>
</trkpt>
<trkpt lat="45.4993976386834" lon="-73.5549684570198">
<ele>15.9018785340462</ele>
</trkpt>
<trkpt lat="45.4993621383241" lon="-73.5550156493249">
<ele>15.9835132729948</ele>
</trkpt>
<trkpt lat="45.4992781775508" lon="-73.5550778057502">
<ele>16.1052875078566</ele>
</trkpt>
<trkpt lat="45.4991169918881" lon="-73.5551599273261">
<ele>16.1802329532618</ele>
</trkpt>
<trkpt lat="45.4988175809392" lon="-73.5552797372841">
<ele>16.1780427596087</ele>
</trkpt>
<trkpt lat="45.4969316328841" lon="-73.5556323466636">
<ele>16.7578265141146</ele>
</trkpt>
<trkpt lat="45.4966937917408" lon="-73.5557018324745">
<ele>16.7174011037545</ele>
</trkpt>
<trkpt lat="45.4963866410731" lon="-73.5557219530022">
<ele>16.598996935269</ele>
</trkpt>
<trkpt lat="45.4962923987393" lon="-73.555688628438">
<ele>16.5766759026488</ele>
</trkpt>
<trkpt lat="45.4961954718572" lon="-73.5556014211165">
<ele>16.5775084105643</ele>
</trkpt>
<trkpt lat="45.4959024769341" lon="-73.5551554184837">
<ele>16.7957046778824</ele>
</trkpt>
<trkpt lat="45.4957235073267" lon="-73.5549289623495">
<ele>16.9596471375421</ele>
</trkpt>
<trkpt lat="45.4956114895017" lon="-73.5548200644747">
<ele>17.1014191619997</ele>
</trkpt>
<trkpt lat="45.4953976109833" lon="-73.5546685140447">
<ele>17.4309837866803</ele>
</trkpt>
<trkpt lat="45.4951542270559" lon="-73.554544376117">
<ele>17.7145616624987</ele>
</trkpt>
<trkpt lat="45.4946041869609" lon="-73.5543177556189">
<ele>18.2621670734483</ele>
</trkpt>
<trkpt lat="45.4940724389651" lon="-73.5541173232051">
<ele>17.9737103433571</ele>
</trkpt>
<trkpt lat="45.4935764027894" lon="-73.5539357411879">
<ele>18.2268944921888</ele>
</trkpt>
<trkpt lat="45.4933822486578" lon="-73.553868044851">
<ele>18.0110107855291</ele>
</trkpt>
<trkpt lat="45.4929741251947" lon="-73.5536841644627">
<ele>16.3473995124785</ele>
</trkpt>
<trkpt lat="45.4925570311998" lon="-73.5534480375518">
<ele>14.7353467415013</ele>
</trkpt>
<trkpt lat="45.4923450604406" lon="-73.5533055776236">
<ele>14.1365233171437</ele>
</trkpt>
<trkpt lat="45.491926680999" lon="-73.5529673172429">
<ele>13.3693832599426</ele>
</trkpt>
<trkpt lat="45.4917232197573" lon="-73.5527592490951">
<ele>12.7383972414044</ele>
</trkpt>
<trkpt lat="45.4914352330868" lon="-73.5524148919402">
<ele>11.3847961761431</ele>
</trkpt>
<trkpt lat="45.4912505038059" lon="-73.5521622666673">
<ele>10.9440929502801</ele>
</trkpt>
<trkpt lat="45.4911609653337" lon="-73.5520347513794">
<ele>11.0227198300344</ele>
</trkpt>
<trkpt lat="45.4910760692615" lon="-73.5519039875304">
<ele>11.2978892972664</ele>
</trkpt>
<trkpt lat="45.4909098720404" lon="-73.5516343609288">
<ele>12.1488402447095</ele>
</trkpt>
<trkpt lat="45.4908359717567" lon="-73.5514960816426">
<ele>12.4994837061263</ele>
</trkpt>
<trkpt lat="45.4906870552942" lon="-73.551213933699">
<ele>12.8796498194705</ele>
</trkpt>
<trkpt lat="45.4904854691984" lon="-73.5507584696383">
<ele>12.9635727813444</ele>
</trkpt>
<trkpt lat="45.4903719362607" lon="-73.5504507120875">
<ele>12.8164220967712</ele>
</trkpt>
<trkpt lat="45.4902228862184" lon="-73.5499555906677">
<ele>12.1564402858436</ele>
</trkpt>
<trkpt lat="45.4901760194285" lon="-73.549784359026">
<ele>12.0954553452553</ele>
</trkpt>
<trkpt lat="45.4901390236689" lon="-73.5496152629345">
<ele>12.3372405323901</ele>
</trkpt>
<trkpt lat="45.4901001220062" lon="-73.5494440923236">
<ele>12.8333307450115</ele>
</trkpt>
<trkpt lat="45.4900331420299" lon="-73.5491051280617">
<ele>14.1079865858682</ele>
</trkpt>
<trkpt lat="45.4899586367049" lon="-73.5487488537011">
<ele>15.7209610799022</ele>
</trkpt>
<trkpt lat="45.4899293436028" lon="-73.5485887489056">
<ele>16.2753354102958</ele>
</trkpt>
<trkpt lat="45.4898979462266" lon="-73.5484099895456">
<ele>16.5816776725179</ele>
</trkpt>
<trkpt lat="45.4898330661104" lon="-73.5480656002675">
<ele>16.4612880936356</ele>
</trkpt>
<trkpt lat="45.4897666740375" lon="-73.5477094711082">
<ele>15.7618607472128</ele>
</trkpt>
<trkpt lat="45.4897353306334" lon="-73.5475448078004">
<ele>15.5963945090283</ele>
</trkpt>
<trkpt lat="45.489698858131" lon="-73.5473589803276">
<ele>15.6720327664458</ele>
</trkpt>
<trkpt lat="45.4895394446973" lon="-73.5465046275669">
<ele>16.5373804228772</ele>
</trkpt>
<trkpt lat="45.4894050181391" lon="-73.5457983878349">
<ele>17.6206046234438</ele>
</trkpt>
<trkpt lat="45.4892341961141" lon="-73.5449248109398">
<ele>18.2306895426533</ele>
</trkpt>
<trkpt lat="45.4890997254445" lon="-73.5442074266109">
<ele>19.4215867090246</ele>
</trkpt>
<trkpt lat="45.4890289657718" lon="-73.5438516445586">
<ele>19.7420467970339</ele>
</trkpt>
<trkpt lat="45.4888899611737" lon="-73.5431037184276">
<ele>19.5777251634059</ele>
</trkpt>
<trkpt lat="45.4887614388829" lon="-73.5424366802801">
<ele>19.8043795646021</ele>
</trkpt>
<trkpt lat="45.4885476496453" lon="-73.5413169520019">
<ele>18.7893057780353</ele>
</trkpt>
<trkpt lat="45.4884759578489" lon="-73.5410028248685">
<ele>18.1906192646742</ele>
</trkpt>
<trkpt lat="45.4884258709025" lon="-73.5407935609332">
<ele>17.5481100027613</ele>
</trkpt>
<trkpt lat="45.488265326412" lon="-73.5402765437011">
<ele>15.1653682327615</ele>
</trkpt>
<trkpt lat="45.4881904973549" lon="-73.5400814428974">
<ele>14.5604566073836</ele>
</trkpt>
<trkpt lat="45.488076527614" lon="-73.5397851102226">
<ele>13.9210997692701</ele>
</trkpt>
<trkpt lat="45.4880378690611" lon="-73.5396945330133">
<ele>13.571203945374</ele>
</trkpt>
<trkpt lat="45.4879934919285" lon="-73.5395990219295">
<ele>12.9604826116442</ele>
</trkpt>
<trkpt lat="45.4879479251315" lon="-73.5395046183071">
<ele>12.0142814045571</ele>
</trkpt>
<trkpt lat="45.4878052619504" lon="-73.5392508628205">
<ele>8.31373997556828</ele>
</trkpt>
<trkpt lat="45.4877659966854" lon="-73.5391882262398">
<ele>7.48841108177674</ele>
</trkpt>
<trkpt lat="45.4876529142989" lon="-73.5390201139514">
<ele>6.00443485848548</ele>
</trkpt>
<trkpt lat="45.4875648117185" lon="-73.5389006595671">
<ele>5.75491501134198</ele>
</trkpt>
<trkpt lat="45.487452842847" lon="-73.5387568348405">
<ele>5.93143525289169</ele>
</trkpt>
<trkpt lat="45.4872413852677" lon="-73.5385121707821">
<ele>6.45868570892087</ele>
</trkpt>
<trkpt lat="45.4869929726276" lon="-73.5382710752414">
<ele>6.86782380823793</ele>
</trkpt>
<trkpt lat="45.486764268339" lon="-73.5380812908264">
<ele>7.04145108760472</ele>
</trkpt>
<trkpt lat="45.4863908272417" lon="-73.5378501696625">
<ele>7.55586754587007</ele>
</trkpt>
<trkpt lat="45.4861327654653" lon="-73.537737633867">
<ele>7.69370026432736</ele>
</trkpt>
<trkpt lat="45.4858805244586" lon="-73.5376538777388">
<ele>7.73943248196348</ele>
</trkpt>
<trkpt lat="45.4854977376549" lon="-73.5375692092951">
<ele>8.10276077078967</ele>
</trkpt>
<trkpt lat="45.4852358588845" lon="-73.5375452396116">
<ele>8.53455141823317</ele>
</trkpt>
<trkpt lat="45.48497995548" lon="-73.5375521579014">
<ele>9.07747079235284</ele>
</trkpt>
<trkpt lat="45.4845819063375" lon="-73.5376196970373">
<ele>9.60565487605996</ele>
</trkpt>
<trkpt lat="45.4842150878805" lon="-73.5377309726274">
<ele>9.91524838533768</ele>
</trkpt>
<trkpt lat="45.4839711531945" lon="-73.5378080626483">
<ele>10.4689069467664</ele>
</trkpt>
<trkpt lat="45.4838486030603" lon="-73.5378531488277">
<ele>11.1510566247417</ele>
</trkpt>
<trkpt lat="45.4834886084351" lon="-73.5379816718902">
<ele>13.9781879723582</ele>
</trkpt>
<trkpt lat="45.483242558403" lon="-73.5380658201832">
<ele>15.5694055043324</ele>
</trkpt>
<trkpt lat="45.4830009664409" lon="-73.5381498495265">
<ele>16.4088227431631</ele>
</trkpt>
<trkpt lat="45.4825144811371" lon="-73.5383328114292">
<ele>17.1567886270126</ele>
</trkpt>
<trkpt lat="45.4816511158054" lon="-73.5386314400718">
<ele>17.4128200867664</ele>
</trkpt>
<trkpt lat="45.4812882210988" lon="-73.5387596891816">
<ele>17.1177453528629</ele>
</trkpt>
<trkpt lat="45.4799210636194" lon="-73.5392354490157">
<ele>17</ele>
</trkpt>
<trkpt lat="45.4787008468541" lon="-73.5396925870424">
<ele>16.9000460704071</ele>
</trkpt>
<trkpt lat="45.4781027761847" lon="-73.5399472371524">
<ele>16.9</ele>
</trkpt>
<trkpt lat="45.4771309394461" lon="-73.5404131876769">
<ele>16.9005951083668</ele>
</trkpt>
<trkpt lat="45.4761552369033" lon="-73.5409099779993">
<ele>17.0937345489701</ele>
</trkpt>
<trkpt lat="45.4745757236748" lon="-73.5418252666072">
<ele>17.3381819396746</ele>
</trkpt>
<trkpt lat="45.4742096608919" lon="-73.542050620721">
<ele>17.73698562209</ele>
</trkpt>
<trkpt lat="45.4733269934251" lon="-73.5425740338598">
<ele>19.6914090095016</ele>
</trkpt>
<trkpt lat="45.4731985610413" lon="-73.5426481944198">
<ele>19.7753771265301</ele>
</trkpt>
<trkpt lat="45.4729450370876" lon="-73.542791974068">
<ele>19.6323768614696</ele>
</trkpt>
<trkpt lat="45.4724021600499" lon="-73.5430792699434">
<ele>18.6767612478969</ele>
</trkpt>
<trkpt lat="45.4719117296654" lon="-73.5432657687145">
<ele>17.9388889035149</ele>
</trkpt>
<trkpt lat="45.4717623245756" lon="-73.5432826097882">
<ele>17.8547810791434</ele>
</trkpt>
<trkpt lat="45.4716832591163" lon="-73.5432684303205">
<ele>17.8597784540359</ele>
</trkpt>
<trkpt lat="45.4715516516817" lon="-73.5432067105082">
<ele>17.9446094721743</ele>
</trkpt>
<trkpt lat="45.4714872953964" lon="-73.5431559787211">
<ele>18.0187715685972</ele>
</trkpt>
<trkpt lat="45.4714282670931" lon="-73.543093948888">
<ele>18.1033090008383</ele>
</trkpt>
<trkpt lat="45.4713325231377" lon="-73.5429462726734">
<ele>18.2710217189256</ele>
</trkpt>
<trkpt lat="45.4712629171597" lon="-73.542760120633">
<ele>18.4323489695675</ele>
</trkpt>
<trkpt lat="45.4712322668065" lon="-73.5425999598857">
<ele>18.5504581964147</ele>
</trkpt>
<trkpt lat="45.4711901126931" lon="-73.5422252801765">
<ele>18.7584701262125</ele>
</trkpt>
<trkpt lat="45.4711426146474" lon="-73.5416981952516">
<ele>18.7906214260995</ele>
</trkpt>
<trkpt lat="45.4709301100437" lon="-73.5397454156169">
<ele>18.1809970550892</ele>
</trkpt>
<trkpt lat="45.4708785218815" lon="-73.5391728225113">
<ele>18.6767704316711</ele>
</trkpt>
<trkpt lat="45.4708662760734" lon="-73.5389407339476">
<ele>18.9672921830061</ele>
</trkpt>
<trkpt lat="45.4708844743818" lon="-73.5387725509323">
<ele>19.1566940732572</ele>
</trkpt>
<trkpt lat="45.4709365758683" lon="-73.5385952241813">
<ele>19.3353391371265</ele>
</trkpt>
<trkpt lat="45.471096254052" lon="-73.5382799906038">
<ele>19.4647534950952</ele>
</trkpt>
<trkpt lat="45.4711252512777" lon="-73.5381407056067">
<ele>19.4653113073001</ele>
</trkpt>
<trkpt lat="45.4711224096598" lon="-73.5380454824539">
<ele>19.4600699516177</ele>
</trkpt>
<trkpt lat="45.4710429323575" lon="-73.5377689650378">
<ele>19.3122945718568</ele>
</trkpt>
<trkpt lat="45.4709663958788" lon="-73.5374992295946">
<ele>18.9086937758254</ele>
</trkpt>
<trkpt lat="45.4709481584501" lon="-73.5373102873752">
<ele>18.5577335440053</ele>
</trkpt>
<trkpt lat="45.4709287121018" lon="-73.5366235438602">
<ele>17.4977748473093</ele>
</trkpt>
<trkpt lat="45.4708856149993" lon="-73.5362548814781">
<ele>16.9799565451301</ele>
</trkpt>
<trkpt lat="45.4708121504421" lon="-73.5359179891205">
<ele>16.6136175422074</ele>
</trkpt>
<trkpt lat="45.4707243517727" lon="-73.5356906956168">
<ele>16.4127689405066</ele>
</trkpt>
<trkpt lat="45.4705996788835" lon="-73.5354434921657">
<ele>16.4500465219998</ele>
</trkpt>
<trkpt lat="45.4704368035822" lon="-73.5351706534585">
<ele>17.0592575495161</ele>
</trkpt>
<trkpt lat="45.4703337118838" lon="-73.5350376238926">
<ele>17.4184243490822</ele>
</trkpt>
<trkpt lat="45.4702310773206" lon="-73.5349067354661">
<ele>17.5344138498386</ele>
</trkpt>
<trkpt lat="45.4700848342675" lon="-73.5347572838315">
<ele>17.3643717253486</ele>
</trkpt>
<trkpt lat="45.4698440584771" lon="-73.5346361044365">
<ele>17.0894304792899</ele>
</trkpt>
<trkpt lat="45.4697359858794" lon="-73.5345280480701">
<ele>17.0866606730236</ele>
</trkpt>
<trkpt lat="45.4696765363249" lon="-73.5343902909582">
<ele>17.125555381697</ele>
</trkpt>
<trkpt lat="45.4696042822223" lon="-73.5339456543538">
<ele>17.1721727745811</ele>
</trkpt>
<trkpt lat="45.4695787449156" lon="-73.5338728672628">
<ele>17.1615223500488</ele>
</trkpt>
<trkpt lat="45.4695225408567" lon="-73.5337957076426">
<ele>17.1418467561971</ele>
</trkpt>
<trkpt lat="45.4693904675225" lon="-73.5337224929352">
<ele>17.112081223215</ele>
</trkpt>
<trkpt lat="45.4688975702317" lon="-73.5336086879061">
<ele>16.9473247499969</ele>
</trkpt>
<trkpt lat="45.4685418689957" lon="-73.5334879423033">
<ele>16.5186979301375</ele>
</trkpt>
<trkpt lat="45.468301183629" lon="-73.533403792145">
<ele>16.4420654291016</ele>
</trkpt>
<trkpt lat="45.4679216759007" lon="-73.5332543032637">
<ele>16.6861621859276</ele>
</trkpt>
<trkpt lat="45.4676972382377" lon="-73.5331417640206">
<ele>16.9503865380605</ele>
</trkpt>
<trkpt lat="45.4675722314766" lon="-73.5330088736571">
<ele>17.2983562375956</ele>
</trkpt>
<trkpt lat="45.4673949723582" lon="-73.5327015015607">
<ele>17.8045548113317</ele>
</trkpt>
<trkpt lat="45.467296296617" lon="-73.5325491148079">
<ele>17.8221416581196</ele>
</trkpt>
<trkpt lat="45.4670380071435" lon="-73.532273975612">
<ele>17.6677002851326</ele>
</trkpt>
<trkpt lat="45.4669802887233" lon="-73.5321575863312">
<ele>17.60214130216</ele>
</trkpt>
<trkpt lat="45.4669561125075" lon="-73.5320593643748">
<ele>17.5750969959538</ele>
</trkpt>
<trkpt lat="45.4668782698529" lon="-73.5312653415074">
<ele>17.7328831071674</ele>
</trkpt>
<trkpt lat="45.4667789932322" lon="-73.5300931553015">
<ele>18.367064415483</ele>
</trkpt>
<trkpt lat="45.4666951421476" lon="-73.5290421364111">
<ele>18.7000069407359</ele>
</trkpt>
<trkpt lat="45.4659400235572" lon="-73.519593135082">
<ele>23.5931062689686</ele>
</trkpt>
<trkpt lat="45.4655550069355" lon="-73.5148110769634">
<ele>23.7637074691179</ele>
</trkpt>
<trkpt lat="45.465264840808" lon="-73.5111611635754">
<ele>23.7006401838181</ele>
</trkpt>
<trkpt lat="45.464983135065" lon="-73.5077301183032">
<ele>23.8980742086225</ele>
</trkpt>
<trkpt lat="45.4649519793328" lon="-73.507335079553">
<ele>23.7883937945498</ele>
</trkpt>
<trkpt lat="45.4649280362305" lon="-73.5070440512087">
<ele>23.3268417056578</ele>
</trkpt>
<trkpt lat="45.4648069840311" lon="-73.5055842646315">
<ele>18.9432566146493</ele>
</trkpt>
<trkpt lat="45.4647931932947" lon="-73.50539942455">
<ele>18.6051430000481</ele>
</trkpt>
<trkpt lat="45.4647877804327" lon="-73.505184719624">
<ele>18.4870993316801</ele>
</trkpt>
<trkpt lat="45.4648060992201" lon="-73.5049869520099">
<ele>18.4611863031505</ele>
</trkpt>
<trkpt lat="45.464855681127" lon="-73.5047902854561">
<ele>18.415693231095</ele>
</trkpt>
<trkpt lat="45.4649393894677" lon="-73.5046066564583">
<ele>18.4177387983317</ele>
</trkpt>
<trkpt lat="45.4650337398324" lon="-73.504475425923">
<ele>18.4906868598276</ele>
</trkpt>
<trkpt lat="45.4651655931353" lon="-73.5043460057102">
<ele>18.462451655826</ele>
</trkpt>
<trkpt lat="45.4653300976555" lon="-73.5042073566307">
<ele>17.9954719721014</ele>
</trkpt>
<trkpt lat="45.4654892446284" lon="-73.5041618165767">
<ele>17.5641799592414</ele>
</trkpt>
<trkpt lat="45.4656836417163" lon="-73.5041976867467">
<ele>17.3516100081312</ele>
</trkpt>
<trkpt lat="45.4663687109946" lon="-73.5044409010659">
<ele>17.1402658267397</ele>
</trkpt>
<trkpt lat="45.4677282084124" lon="-73.5049611411033">
<ele>17.6201748896348</ele>
</trkpt>
<trkpt lat="45.4686529929772" lon="-73.5053880471192">
<ele>17.5940723162903</ele>
</trkpt>
<trkpt lat="45.4694291213213" lon="-73.5057869105588">
<ele>17.4000043246698</ele>
</trkpt>
<trkpt lat="45.4702110569041" lon="-73.5062240640433">
<ele>17.3913755512794</ele>
</trkpt>
<trkpt lat="45.4715032048281" lon="-73.5069922453073">
<ele>17.100433332494</ele>
</trkpt>
<trkpt lat="45.4740556848492" lon="-73.5085658093846">
<ele>17.541580889648</ele>
</trkpt>
<trkpt lat="45.4748250380248" lon="-73.509039983629">
<ele>17.3653940016889</ele>
</trkpt>
<trkpt lat="45.4758470575585" lon="-73.5096690598016">
<ele>17.6694227932197</ele>
</trkpt>
<trkpt lat="45.4767634985575" lon="-73.5102405436267">
<ele>17.3286611877391</ele>
</trkpt>
<trkpt lat="45.4775376364838" lon="-73.5107116145293">
<ele>17.3555719385461</ele>
</trkpt>
<trkpt lat="45.4784488354149" lon="-73.5112683404245">
<ele>16.9040898604984</ele>
</trkpt>
<trkpt lat="45.4794791765866" lon="-73.5119184802866">
<ele>17.0988479296256</ele>
</trkpt>
<trkpt lat="45.4802022948875" lon="-73.5123686853813">
<ele>16.905615939195</ele>
</trkpt>
<trkpt lat="45.4820761929096" lon="-73.5135213761656">
<ele>16.9965539010048</ele>
</trkpt>
<trkpt lat="45.4842911196585" lon="-73.5149118006509">
<ele>16.6659124214575</ele>
</trkpt>
<trkpt lat="45.4846722094643" lon="-73.5151333338888">
<ele>16.6917594270921</ele>
</trkpt>
<trkpt lat="45.485211002597" lon="-73.5154060437394">
<ele>17.061848371693</ele>
</trkpt>
<trkpt lat="45.4856083508623" lon="-73.515596100623">
<ele>17.065631344295</ele>
</trkpt>
<trkpt lat="45.4861491430273" lon="-73.5158020153198">
<ele>16.9003575364883</ele>
</trkpt>
<trkpt lat="45.4868324038927" lon="-73.5160330514232">
<ele>16.9090134394168</ele>
</trkpt>
<trkpt lat="45.4886146532504" lon="-73.5165841761456">
<ele>16.9938105123738</ele>
</trkpt>
<trkpt lat="45.4891684864219" lon="-73.5167599011683">
<ele>16.7364331534911</ele>
</trkpt>
<trkpt lat="45.4897046118496" lon="-73.5169308615002">
<ele>16.7951753438691</ele>
</trkpt>
<trkpt lat="45.4901136610857" lon="-73.5170675132576">
<ele>16.6413918426253</ele>
</trkpt>
<trkpt lat="45.4907985973015" lon="-73.517275893733">
<ele>16.7886107946489</ele>
</trkpt>
<trkpt lat="45.4913073675977" lon="-73.517419382586">
<ele>16.5803402571671</ele>
</trkpt>
<trkpt lat="45.4914403886628" lon="-73.5174260930335">
<ele>16.4059880002853</ele>
</trkpt>
<trkpt lat="45.4914783457859" lon="-73.5173812114762">
<ele>16.3245919192021</ele>
</trkpt>
<trkpt lat="45.4914832064104" lon="-73.5173160881544">
<ele>16.2455570016135</ele>
</trkpt>
<trkpt lat="45.4914657063958" lon="-73.5172752512961">
<ele>16.1735226162407</ele>
</trkpt>
<trkpt lat="45.4914321868802" lon="-73.5172480876">
<ele>16.0594466698203</ele>
</trkpt>
<trkpt lat="45.4911599174083" lon="-73.5171898236121">
<ele>14.6708769600639</ele>
</trkpt>
<trkpt lat="45.4910633449927" lon="-73.5171066917648">
<ele>14.0819557368103</ele>
</trkpt>
<trkpt lat="45.4910349986863" lon="-73.5170113324393">
<ele>13.7472251808705</ele>
</trkpt>
<trkpt lat="45.4910435724078" lon="-73.5169147145134">
<ele>13.5009450859144</ele>
</trkpt>
<trkpt lat="45.4910881109177" lon="-73.5168330854666">
<ele>13.3538475643109</ele>
</trkpt>
<trkpt lat="45.4911662721631" lon="-73.5167916878535">
<ele>13.3637353204711</ele>
</trkpt>
<trkpt lat="45.4912564653942" lon="-73.5167999467633">
<ele>13.565063281546</ele>
</trkpt>
<trkpt lat="45.4913512738272" lon="-73.5168353642371">
<ele>13.909339464152</ele>
</trkpt>
<trkpt lat="45.4917402590497" lon="-73.51705292188">
<ele>15.6083312250421</ele>
</trkpt>
<trkpt lat="45.4919730412681" lon="-73.5171337509755">
<ele>16.5598438900936</ele>
</trkpt>
<trkpt lat="45.4921997231537" lon="-73.5172101939663">
<ele>17.0844735693831</ele>
</trkpt>
<trkpt lat="45.4925488441585" lon="-73.517314352559">
<ele>16.8359958617479</ele>
</trkpt>
<trkpt lat="45.4928068796986" lon="-73.5173615787511">
<ele>16.5296780549532</ele>
</trkpt>
<trkpt lat="45.4931944296737" lon="-73.5173942029457">
<ele>16.0729598240453</ele>
</trkpt>
<trkpt lat="45.4934493476264" lon="-73.5174462006425">
<ele>15.7687746770793</ele>
</trkpt>
<trkpt lat="45.4939669566618" lon="-73.5176049009368">
<ele>15.1271210152574</ele>
</trkpt>
<trkpt lat="45.4942301774701" lon="-73.5176822297881">
<ele>14.967113845924</ele>
</trkpt>
<trkpt lat="45.4943563291748" lon="-73.5177327958934">
<ele>15.1606158185265</ele>
</trkpt>
<trkpt lat="45.494491535033" lon="-73.5177962433008">
<ele>15.6403375763888</ele>
</trkpt>
<trkpt lat="45.494869386372" lon="-73.5179966903658">
<ele>17.3694650240173</ele>
</trkpt>
<trkpt lat="45.4949991780118" lon="-73.5180841702409">
<ele>17.9314258065791</ele>
</trkpt>
<trkpt lat="45.4951285891087" lon="-73.5181764034261">
<ele>18.275384298486</ele>
</trkpt>
<trkpt lat="45.4952440439743" lon="-73.5182441965056">
<ele>18.2338490329952</ele>
</trkpt>
<trkpt lat="45.495509671939" lon="-73.51837779824">
<ele>17.6304081381708</ele>
</trkpt>
<trkpt lat="45.4959439736615" lon="-73.5185015725266">
<ele>17.1949091068083</ele>
</trkpt>
<trkpt lat="45.4961940933889" lon="-73.5186090461044">
<ele>16.9106855286073</ele>
</trkpt>
<trkpt lat="45.4963188750339" lon="-73.5186629534361">
<ele>16.4296131201739</ele>
</trkpt>
<trkpt lat="45.4964447550656" lon="-73.5187179718829">
<ele>15.3741803834631</ele>
</trkpt>
<trkpt lat="45.4966244602088" lon="-73.5188116242593">
<ele>13.4349155813748</ele>
</trkpt>
<trkpt lat="45.496722252508" lon="-73.5188741675401">
<ele>12.6812928109933</ele>
</trkpt>
<trkpt lat="45.4967813761819" lon="-73.5189313821556">
<ele>12.3060374899279</ele>
</trkpt>
<trkpt lat="45.4968158462035" lon="-73.5189922344967">
<ele>12.0923495622142</ele>
</trkpt>
<trkpt lat="45.4968299495739" lon="-73.5190644696122">
<ele>11.9671425719475</ele>
</trkpt>
<trkpt lat="45.4968106679082" lon="-73.5191520472784">
<ele>11.9407957545124</ele>
</trkpt>
<trkpt lat="45.4967402103221" lon="-73.51923155515">
<ele>12.153434661488</ele>
</trkpt>
<trkpt lat="45.4966652950608" lon="-73.5192906023237">
<ele>12.5931218854073</ele>
</trkpt>
<trkpt lat="45.4965662796498" lon="-73.5193870416931">
<ele>13.4711863314099</ele>
</trkpt>
<trkpt lat="45.4964858991476" lon="-73.5194970680053">
<ele>14.2818909664792</ele>
</trkpt>
<trkpt lat="45.4964228891221" lon="-73.519588906656">
<ele>14.7009170346154</ele>
</trkpt>
<trkpt lat="45.4963010043661" lon="-73.5198194574342">
<ele>14.9727157264841</ele>
</trkpt>
<trkpt lat="45.4962085928297" lon="-73.5200731490155">
<ele>15.1312883240259</ele>
</trkpt>
<trkpt lat="45.496168544029" lon="-73.5204001891332">
<ele>15.4209422226588</ele>
</trkpt>
<trkpt lat="45.4961693943706" lon="-73.5208916062063">
<ele>15.6434587137657</ele>
</trkpt>
<trkpt lat="45.4961952162755" lon="-73.5210835846567">
<ele>15.6024684731714</ele>
</trkpt>
<trkpt lat="45.4962603957831" lon="-73.5212199096042">
<ele>15.3834694127776</ele>
</trkpt>
<trkpt lat="45.4963413008463" lon="-73.5212771643282">
<ele>15.0357336461342</ele>
</trkpt>
<trkpt lat="45.4964042762941" lon="-73.5212844397758">
<ele>14.7011225524375</ele>
</trkpt>
<trkpt lat="45.4965711786644" lon="-73.521216446817">
<ele>13.6105843389489</ele>
</trkpt>
<trkpt lat="45.4966547705137" lon="-73.5211402816936">
<ele>13.0386019062292</ele>
</trkpt>
<trkpt lat="45.4967575771661" lon="-73.5210163742963">
<ele>12.4114308101427</ele>
</trkpt>
<trkpt lat="45.4969614401087" lon="-73.5208075800972">
<ele>11.7107369028161</ele>
</trkpt>
<trkpt lat="45.4970605915265" lon="-73.5207489656736">
<ele>11.5026029704021</ele>
</trkpt>
<trkpt lat="45.4973270134258" lon="-73.5206787080949">
<ele>10.9750973257559</ele>
</trkpt>
<trkpt lat="45.4975118817721" lon="-73.5206868818558">
<ele>10.6228595438692</ele>
</trkpt>
<trkpt lat="45.4976043970613" lon="-73.5207371946385">
<ele>10.4128926967798</ele>
</trkpt>
<trkpt lat="45.4977002180112" lon="-73.5208500529028">
<ele>10.177043963071</ele>
</trkpt>
<trkpt lat="45.497737562152" lon="-73.5209442536298">
<ele>10.0811784529752</ele>
</trkpt>
<trkpt lat="45.4977852185333" lon="-73.5212442799215">
<ele>10.0325573252229</ele>
</trkpt>
<trkpt lat="45.4978216378072" lon="-73.5213282814254">
<ele>10.0524693267813</ele>
</trkpt>
<trkpt lat="45.497900908223" lon="-73.5214146020903">
<ele>10.0795465053475</ele>
</trkpt>
<trkpt lat="45.4980366447526" lon="-73.5214712496781">
<ele>10.1054232823732</ele>
</trkpt>
<trkpt lat="45.4986202427245" lon="-73.5215946528875">
<ele>10.1998647865335</ele>
</trkpt>
<trkpt lat="45.4996296195762" lon="-73.5218963183756">
<ele>10.0999257321795</ele>
</trkpt>
<trkpt lat="45.49969855739" lon="-73.5219303943123">
<ele>10.0996361510805</ele>
</trkpt>
<trkpt lat="45.4997720882315" lon="-73.521999127436">
<ele>10.0982679436011</ele>
</trkpt>
<trkpt lat="45.4998313902632" lon="-73.5220922306352">
<ele>10.0943643196083</ele>
</trkpt>
<trkpt lat="45.4998716006004" lon="-73.522214244959">
<ele>10.0872599821372</ele>
</trkpt>
<trkpt lat="45.4998703895531" lon="-73.5223311099318">
<ele>10.0835158024787</ele>
</trkpt>
<trkpt lat="45.4998392581267" lon="-73.5224093621622">
<ele>10.0879041234883</ele>
</trkpt>
<trkpt lat="45.4997916201634" lon="-73.5224539880622">
<ele>10.1009575558776</ele>
</trkpt>
<trkpt lat="45.4997101896553" lon="-73.522469239623">
<ele>10.137340208929</ele>
</trkpt>
<trkpt lat="45.4988849152778" lon="-73.5222727601931">
<ele>10.8419766240173</ele>
</trkpt>
<trkpt lat="45.498211652055" lon="-73.5220883573406">
<ele>10.8099943716578</ele>
</trkpt>
<trkpt lat="45.4975017053751" lon="-73.5218957229421">
<ele>11.0721910243815</ele>
</trkpt>
<trkpt lat="45.4973345649749" lon="-73.5218992072001">
<ele>11.1276416382662</ele>
</trkpt>
<trkpt lat="45.4972726339787" lon="-73.521925781673">
<ele>11.1613793662833</ele>
</trkpt>
<trkpt lat="45.4971729501523" lon="-73.5220061094108">
<ele>11.2642513883494</ele>
</trkpt>
<trkpt lat="45.4970620738913" lon="-73.5221932511724">
<ele>11.5330722791656</ele>
</trkpt>
<trkpt lat="45.4970223034914" lon="-73.5223535601226">
<ele>11.7820863874368</ele>
</trkpt>
<trkpt lat="45.4970171615482" lon="-73.5225290414626">
<ele>12.0807284480428</ele>
</trkpt>
<trkpt lat="45.4970467827219" lon="-73.5227806822289">
<ele>12.6326723267196</ele>
</trkpt>
<trkpt lat="45.4971867378369" lon="-73.5234110585003">
<ele>14.1160815492285</ele>
</trkpt>
<trkpt lat="45.497314712334" lon="-73.5238744382618">
<ele>14.7536521834705</ele>
</trkpt>
<trkpt lat="45.4974240700302" lon="-73.5241802979558">
<ele>14.9876014850651</ele>
</trkpt>
<trkpt lat="45.4976375654132" lon="-73.5246088106706">
<ele>15.0988850894097</ele>
</trkpt>
<trkpt lat="45.498129615446" lon="-73.5254588886446">
<ele>15.100024203226</ele>
</trkpt>
<trkpt lat="45.4985820910005" lon="-73.5261256458317">
<ele>15.1199619712926</ele>
</trkpt>
<trkpt lat="45.4989853806188" lon="-73.5266501554903">
<ele>14.9665068018257</ele>
</trkpt>
<trkpt lat="45.4995327738883" lon="-73.5272657362801">
<ele>14.6311437160808</ele>
</trkpt>
<trkpt lat="45.5002325477079" lon="-73.5279163728287">
<ele>14.5909197661716</ele>
</trkpt>
<trkpt lat="45.5006017262141" lon="-73.5282161454847">
<ele>14.502267457314</ele>
</trkpt>
<trkpt lat="45.5014736668022" lon="-73.5288572518325">
<ele>14.2104886715524</ele>
</trkpt>
<trkpt lat="45.502271188116" lon="-73.5293089210601">
<ele>13.8725634837283</ele>
</trkpt>
<trkpt lat="45.5027016705886" lon="-73.5294921059637">
<ele>13.7126321806235</ele>
</trkpt>
<trkpt lat="45.5033779892286" lon="-73.5297419555809">
<ele>13.9072519766309</ele>
</trkpt>
<trkpt lat="45.5039324207398" lon="-73.5298582157828">
<ele>14.089266465966</ele>
</trkpt>
<trkpt lat="45.5044943905765" lon="-73.5299198390793">
<ele>14.2396007165442</ele>
</trkpt>
<trkpt lat="45.5052168921024" lon="-73.5299743448323">
<ele>14.0637922688788</ele>
</trkpt>
<trkpt lat="45.5058088430385" lon="-73.5299603950196">
<ele>14.2620940714712</ele>
</trkpt>
<trkpt lat="45.5063936688221" lon="-73.529901021316">
<ele>14.2657203164339</ele>
</trkpt>
<trkpt lat="45.5070963649356" lon="-73.5297478834105">
<ele>14.1008217659658</ele>
</trkpt>
<trkpt lat="45.5078790605901" lon="-73.5294895200642">
<ele>14.1804671157214</ele>
</trkpt>
<trkpt lat="45.5081684090471" lon="-73.5294308719662">
<ele>14.0987462860366</ele>
</trkpt>
<trkpt lat="45.5084668733102" lon="-73.5293184548741">
<ele>13.9411669496371</ele>
</trkpt>
<trkpt lat="45.5085616136904" lon="-73.5292432769242">
<ele>13.8983920329872</ele>
</trkpt>
<trkpt lat="45.5086569399031" lon="-73.529103365394">
<ele>13.849964352163</ele>
</trkpt>
<trkpt lat="45.508856103971" lon="-73.5285042750811">
<ele>13.6982718703417</ele>
</trkpt>
<trkpt lat="45.509010571697" lon="-73.5282808114875">
<ele>13.6321880531026</ele>
</trkpt>
<trkpt lat="45.5091854060409" lon="-73.5281469963744">
<ele>13.535442702752</ele>
</trkpt>
<trkpt lat="45.5093114979878" lon="-73.5280853156856">
<ele>13.5058863892351</ele>
</trkpt>
<trkpt lat="45.509850875386" lon="-73.5278760473951">
<ele>13.5057151482568</ele>
</trkpt>
<trkpt lat="45.5102698802613" lon="-73.5277382403943">
<ele>13.6353629971031</ele>
</trkpt>
<trkpt lat="45.5110975227583" lon="-73.5275020279688">
<ele>13.5000020027732</ele>
</trkpt>
<trkpt lat="45.5118169912983" lon="-73.5273687406007">
<ele>13.5009521495837</ele>
</trkpt>
<trkpt lat="45.5122249540087" lon="-73.5273376143424">
<ele>13.594167763727</ele>
</trkpt>
<trkpt lat="45.5125110055415" lon="-73.5273360963819">
<ele>13.694724180516</ele>
</trkpt>
<trkpt lat="45.5129385578646" lon="-73.5274028163273">
<ele>13.6956370645353</ele>
</trkpt>
<trkpt lat="45.5138956117489" lon="-73.5277040721169">
<ele>13.4464613198228</ele>
</trkpt>
<trkpt lat="45.5140713974138" lon="-73.5277367119035">
<ele>13.5481525683807</ele>
</trkpt>
<trkpt lat="45.5141783125231" lon="-73.5276826187406">
<ele>13.609184907715</ele>
</trkpt>
<trkpt lat="45.5142444574983" lon="-73.5275654239833">
<ele>13.621319980219</ele>
</trkpt>
<trkpt lat="45.5142573037153" lon="-73.52739922258">
<ele>13.542137740555</ele>
</trkpt>
<trkpt lat="45.5142161957963" lon="-73.5272721116814">
<ele>13.4035111234069</ele>
</trkpt>
<trkpt lat="45.5141391235321" lon="-73.5271856191927">
<ele>13.226007606645</ele>
</trkpt>
<trkpt lat="45.513995881961" lon="-73.5271274297973">
<ele>12.9576711826498</ele>
</trkpt>
<trkpt lat="45.5134338294916" lon="-73.5270653307252">
<ele>12.5725313251972</ele>
</trkpt>
<trkpt lat="45.5131909369462" lon="-73.5269835451288">
<ele>12.3961909216234</ele>
</trkpt>
<trkpt lat="45.5125946814803" lon="-73.5266477173485">
<ele>11.8385133296059</ele>
</trkpt>
<trkpt lat="45.5116168458597" lon="-73.5260894760795">
<ele>11.8844054307117</ele>
</trkpt>
<trkpt lat="45.5106211332892" lon="-73.5255800006788">
<ele>10.7881038126421</ele>
</trkpt>
<trkpt lat="45.5101106021776" lon="-73.5253245931561">
<ele>10.6340479693045</ele>
</trkpt>
<trkpt lat="45.5095853231073" lon="-73.5251450894051">
<ele>10.637329619617</ele>
</trkpt>
<trkpt lat="45.5072160276813" lon="-73.5244394065165">
<ele>10.1059305892719</ele>
</trkpt>
<trkpt lat="45.5059443391883" lon="-73.5240666592369">
<ele>10.2060397700795</ele>
</trkpt>
<trkpt lat="45.5043119040646" lon="-73.5235466179824">
<ele>10.6302367342016</ele>
</trkpt>
<trkpt lat="45.504135006381" lon="-73.5235225704111">
<ele>10.6747069103177</ele>
</trkpt>
<trkpt lat="45.504010511263" lon="-73.523536373763">
<ele>10.6751592146812</ele>
</trkpt>
<trkpt lat="45.5036964306413" lon="-73.5237284082794">
<ele>10.547593312623</ele>
</trkpt>
<trkpt lat="45.5036021932567" lon="-73.5237517643655">
<ele>10.490562822191</ele>
</trkpt>
<trkpt lat="45.5034862487541" lon="-73.523751517721">
<ele>10.4088932349694</ele>
</trkpt>
<trkpt lat="45.5031045126762" lon="-73.5236617766066">
<ele>10.1756744232648</ele>
</trkpt>
<trkpt lat="45.5026057199394" lon="-73.523518377665">
<ele>10.10008166095</ele>
</trkpt>
<trkpt lat="45.5002399159876" lon="-73.5227917998294">
<ele>10.2000419467327</ele>
</trkpt>
<trkpt lat="45.4997406394835" lon="-73.5226690125259">
<ele>10.278180467817</ele>
</trkpt>
<trkpt lat="45.499235222992" lon="-73.5226302379255">
<ele>10.4691914154726</ele>
</trkpt>
<trkpt lat="45.4989842512728" lon="-73.5226431878284">
<ele>10.5324681906756</ele>
</trkpt>
<trkpt lat="45.4984818090386" lon="-73.5227251590253">
<ele>10.7241894727928</ele>
</trkpt>
<trkpt lat="45.4982278710855" lon="-73.5227859549482">
<ele>10.7928446444722</ele>
</trkpt>
<trkpt lat="45.4981046568532" lon="-73.5228012648975">
<ele>10.7991828073246</ele>
</trkpt>
<trkpt lat="45.497987936109" lon="-73.5227846151408">
<ele>10.7999464925005</ele>
</trkpt>
<trkpt lat="45.4978740962289" lon="-73.5227196819553">
<ele>10.7999991962211</ele>
</trkpt>
<trkpt lat="45.4977847817566" lon="-73.522619187394">
<ele>10.8000000388876</ele>
</trkpt>
<trkpt lat="45.497620510035" lon="-73.52224787391">
<ele>10.800916613173</ele>
</trkpt>
<trkpt lat="45.4975185401151" lon="-73.52211246387">
<ele>10.8096242921394</ele>
</trkpt>
<trkpt lat="45.4974465636566" lon="-73.5220710311285">
<ele>10.8261981430676</ele>
</trkpt>
<trkpt lat="45.4973373113433" lon="-73.5220665002289">
<ele>10.8800837534245</ele>
</trkpt>
<trkpt lat="45.4972666878543" lon="-73.5220960735936">
<ele>10.9454854101756</ele>
</trkpt>
<trkpt lat="45.4971797807534" lon="-73.5221889854101">
<ele>11.0984634990179</ele>
</trkpt>
<trkpt lat="45.4971174376188" lon="-73.5223196095698">
<ele>11.327840459477</ele>
</trkpt>
<trkpt lat="45.4970876868771" lon="-73.5224623807824">
<ele>11.6007658827699</ele>
</trkpt>
<trkpt lat="45.4970855636946" lon="-73.5226217234333">
<ele>11.9400440008397</ele>
</trkpt>
<trkpt lat="45.4971072734963" lon="-73.5227771573407">
<ele>12.3167448869841</ele>
</trkpt>
<trkpt lat="45.4972718106073" lon="-73.5235166153973">
<ele>13.949522929667</ele>
</trkpt>
<trkpt lat="45.497346259358" lon="-73.5237982503624">
<ele>14.3234315659894</ele>
</trkpt>
<trkpt lat="45.4974475915054" lon="-73.5240972598818">
<ele>14.6518628145486</ele>
</trkpt>
<trkpt lat="45.4975679110756" lon="-73.5243773698619">
<ele>14.777515438496</ele>
</trkpt>
<trkpt lat="45.4977819771318" lon="-73.5247701285906">
<ele>14.7096072721292</ele>
</trkpt>
<trkpt lat="45.4982644652585" lon="-73.5255989511103">
<ele>14.6238580679705</ele>
</trkpt>
<trkpt lat="45.4984476727722" lon="-73.525871073451">
<ele>14.438969086107</ele>
</trkpt>
<trkpt lat="45.4985548496525" lon="-73.5259742389169">
<ele>14.2578790772864</ele>
</trkpt>
<trkpt lat="45.4986700210166" lon="-73.5260296891766">
<ele>14.0025573532062</ele>
</trkpt>
<trkpt lat="45.498815621085" lon="-73.5260440745142">
<ele>13.5818896471446</ele>
</trkpt>
<trkpt lat="45.4991252911513" lon="-73.5260429809205">
<ele>12.438413131887</ele>
</trkpt>
<trkpt lat="45.4992919077835" lon="-73.5261229578078">
<ele>11.7259789768539</ele>
</trkpt>
<trkpt lat="45.4994162936529" lon="-73.5262331157558">
<ele>11.18796169504</ele>
</trkpt>
<trkpt lat="45.499700044252" lon="-73.5265652730232">
<ele>10.2231404786092</ele>
</trkpt>
<trkpt lat="45.499982503986" lon="-73.5269390140375">
<ele>9.6865346164958</ele>
</trkpt>
<trkpt lat="45.5002471121421" lon="-73.5273369705736">
<ele>9.70775789266305</ele>
</trkpt>
<trkpt lat="45.5005195209119" lon="-73.5277154900115">
<ele>9.89815453264246</ele>
</trkpt>
<trkpt lat="45.500638356374" lon="-73.5278537810002">
<ele>9.94824342055061</ele>
</trkpt>
<trkpt lat="45.5008360793545" lon="-73.5280071621829">
<ele>10.000279097859</ele>
</trkpt>
<trkpt lat="45.5010504318501" lon="-73.528090625731">
<ele>10.0500836039909</ele>
</trkpt>
<trkpt lat="45.501426765259" lon="-73.5281134844706">
<ele>10.1341433469464</ele>
</trkpt>
<trkpt lat="45.501816295182" lon="-73.5281035004598">
<ele>10.4209840450343</ele>
</trkpt>
<trkpt lat="45.5021807274567" lon="-73.5280845394377">
<ele>10.9790979465523</ele>
</trkpt>
<trkpt lat="45.5024368292034" lon="-73.5280867036166">
<ele>11.5302912534023</ele>
</trkpt>
<trkpt lat="45.5026155024781" lon="-73.5281307125993">
<ele>11.8946399693297</ele>
</trkpt>
<trkpt lat="45.5027262943807" lon="-73.5282437803587">
<ele>12.1706312849269</ele>
</trkpt>
<trkpt lat="45.5027979175407" lon="-73.528380531008">
<ele>12.3879939899057</ele>
</trkpt>
<trkpt lat="45.5028256145578" lon="-73.5285489068579">
<ele>12.5835800965372</ele>
</trkpt>
<trkpt lat="45.5028360781046" lon="-73.5289687005892">
<ele>12.9741115545149</ele>
</trkpt>
<trkpt lat="45.5028986715681" lon="-73.5291810055494">
<ele>13.1821184897885</ele>
</trkpt>
<trkpt lat="45.5030289146465" lon="-73.5293771375041">
<ele>13.3906997832687</ele>
</trkpt>
<trkpt lat="45.5032373846668" lon="-73.5295558412578">
<ele>13.5877956799708</ele>
</trkpt>
<trkpt lat="45.5033564068611" lon="-73.5296155934468">
<ele>13.659884767222</ele>
</trkpt>
<trkpt lat="45.5036209656517" lon="-73.5296991479818">
<ele>13.777352368776</ele>
</trkpt>
<trkpt lat="45.5038752688003" lon="-73.5297599530031">
<ele>13.9003303389876</ele>
</trkpt>
<trkpt lat="45.5042734572477" lon="-73.529821860744">
<ele>13.9931947407859</ele>
</trkpt>
<trkpt lat="45.5049457029126" lon="-73.5298826662378">
<ele>13.8070458801499</ele>
</trkpt>
<trkpt lat="45.5053777249524" lon="-73.5298984255551">
<ele>13.8725749951167</ele>
</trkpt>
<trkpt lat="45.5062048707652" lon="-73.5298400085286">
<ele>13.9</ele>
</trkpt>
<trkpt lat="45.5066182409272" lon="-73.5297806363843">
<ele>13.9</ele>
</trkpt>
<trkpt lat="45.507176278614" lon="-73.5296591747868">
<ele>13.8743349869938</ele>
</trkpt>
<trkpt lat="45.508151214862" lon="-73.5293345706997">
<ele>13.919846333255</ele>
</trkpt>
<trkpt lat="45.5084144986682" lon="-73.5292116890424">
<ele>13.9392513585325</ele>
</trkpt>
<trkpt lat="45.5084880480115" lon="-73.529114440224">
<ele>14.011367577178</ele>
</trkpt>
<trkpt lat="45.5085258080646" lon="-73.5289677807149">
<ele>14.1594233632297</ele>
</trkpt>
<trkpt lat="45.5085038873464" lon="-73.5288216211031">
<ele>14.3705187762352</ele>
</trkpt>
<trkpt lat="45.5084184011886" lon="-73.5287057168082">
<ele>14.6857972693126</ele>
</trkpt>
<trkpt lat="45.5083377117323" lon="-73.5286717177037">
<ele>14.9663762807987</ele>
</trkpt>
<trkpt lat="45.5082034476124" lon="-73.5286911399504">
<ele>15.5400306291671</ele>
</trkpt>
<trkpt lat="45.5080841890443" lon="-73.5287818463862">
<ele>16.2466941507011</ele>
</trkpt>
<trkpt lat="45.5080078433285" lon="-73.5288942671457">
<ele>16.8699599186243</ele>
</trkpt>
<trkpt lat="45.5079680602725" lon="-73.5290260644128">
<ele>17.4457140269717</ele>
</trkpt>
<trkpt lat="45.5079647168292" lon="-73.5292033461015">
<ele>18.1302429336214</ele>
</trkpt>
<trkpt lat="45.5079953801062" lon="-73.5294558281626">
<ele>18.9312577460343</ele>
</trkpt>
<trkpt lat="45.5080396457021" lon="-73.5298226749837">
<ele>19.3656155246931</ele>
</trkpt>
<trkpt lat="45.5081202411402" lon="-73.530543814087">
<ele>19.2742036600311</ele>
</trkpt>
<trkpt lat="45.5082694329587" lon="-73.5318408941005">
<ele>18.7115453064658</ele>
</trkpt>
<trkpt lat="45.5083181244374" lon="-73.5321808621216">
<ele>18.7436826320038</ele>
</trkpt>
<trkpt lat="45.508352710055" lon="-73.532528091913">
<ele>18.9433205321005</ele>
</trkpt>
<trkpt lat="45.5083393196842" lon="-73.5328885814689">
<ele>19.3096101161099</ele>
</trkpt>
<trkpt lat="45.5082677563065" lon="-73.5332283067059">
<ele>19.659059843584</ele>
</trkpt>
<trkpt lat="45.5081652332418" lon="-73.5335403523601">
<ele>19.8234959612794</ele>
</trkpt>
<trkpt lat="45.5079114272116" lon="-73.5341566174397">
<ele>19.9927587806185</ele>
</trkpt>
<trkpt lat="45.5073747302552" lon="-73.5356018593611">
<ele>20.1263413851419</ele>
</trkpt>
<trkpt lat="45.506788239232" lon="-73.537193003588">
<ele>20.963257325728</ele>
</trkpt>
<trkpt lat="45.5064305547418" lon="-73.5381757083988">
<ele>21.2666969499062</ele>
</trkpt>
<trkpt lat="45.5058851142881" lon="-73.5396607500455">
<ele>21.1689629218709</ele>
</trkpt>
<trkpt lat="45.5055692936954" lon="-73.5405073711301">
<ele>20.8013887036339</ele>
</trkpt>
<trkpt lat="45.5050011137191" lon="-73.5420755729583">
<ele>19.608690180456</ele>
</trkpt>
<trkpt lat="45.5045981989878" lon="-73.5431665356437">
<ele>19.0898023844245</ele>
</trkpt>
<trkpt lat="45.5044378131826" lon="-73.5435042394665">
<ele>18.8212488911717</ele>
</trkpt>
<trkpt lat="45.504251812694" lon="-73.543747694479">
<ele>18.5323831824314</ele>
</trkpt>
<trkpt lat="45.5041670680046" lon="-73.5438294670899">
<ele>18.3963141999964</ele>
</trkpt>
<trkpt lat="45.5039619359522" lon="-73.5439399530296">
<ele>18.0946957485319</ele>
</trkpt>
<trkpt lat="45.5036711047009" lon="-73.5440201790781">
<ele>17.5895148869433</ele>
</trkpt>
<trkpt lat="45.5032509889543" lon="-73.5440590006164">
<ele>16.7555229954472</ele>
</trkpt>
<trkpt lat="45.5025844323691" lon="-73.5441140109092">
<ele>14.9039020699742</ele>
</trkpt>
<trkpt lat="45.5014250057812" lon="-73.544237999315">
<ele>12.45651239078</ele>
</trkpt>
<trkpt lat="45.5011903947599" lon="-73.5442645131091">
<ele>12.1717987272578</ele>
</trkpt>
<trkpt lat="45.5002775205632" lon="-73.5443715062432">
<ele>11.9171079128142</ele>
</trkpt>
<trkpt lat="45.4976271215774" lon="-73.5446835462471">
<ele>11.9000036533852</ele>
</trkpt>
<trkpt lat="45.4973579471265" lon="-73.5447001103289">
<ele>11.9054866790195</ele>
</trkpt>
<trkpt lat="45.4964043438827" lon="-73.5448140592634">
<ele>12.193660002045</ele>
</trkpt>
<trkpt lat="45.4954584387467" lon="-73.5449268438408">
<ele>12.2</ele>
</trkpt>
<trkpt lat="45.4946584516412" lon="-73.5449819879007">
<ele>12.1995613515346</ele>
</trkpt>
<trkpt lat="45.4931848079326" lon="-73.5451420054957">
<ele>12.2063895186417</ele>
</trkpt>
<trkpt lat="45.4929193372203" lon="-73.5451578160713">
<ele>12.2717777943572</ele>
</trkpt>
<trkpt lat="45.4923961378856" lon="-73.5451059397448">
<ele>12.2999725675098</ele>
</trkpt>
<trkpt lat="45.4920131041341" lon="-73.5450191819388">
<ele>12.2696506172055</ele>
</trkpt>
<trkpt lat="45.491611506505" lon="-73.544870752012">
<ele>12.0922144447517</ele>
</trkpt>
<trkpt lat="45.4903112737671" lon="-73.5443686896014">
<ele>10.9633246433794</ele>
</trkpt>
<trkpt lat="45.4897981712234" lon="-73.5441764720018">
<ele>10.9230117165701</ele>
</trkpt>
<trkpt lat="45.489669391884" lon="-73.5442022539926">
<ele>10.9880308202041</ele>
</trkpt>
<trkpt lat="45.4896040490738" lon="-73.5442560368228">
<ele>11.0562758062775</ele>
</trkpt>
<trkpt lat="45.4895556107908" lon="-73.544328413054">
<ele>11.1380966468219</ele>
</trkpt>
<trkpt lat="45.4895136457571" lon="-73.5444638643655">
<ele>11.2774197647585</ele>
</trkpt>
<trkpt lat="45.489513652606" lon="-73.5446156871901">
<ele>11.4213138111536</ele>
</trkpt>
<trkpt lat="45.4896828783385" lon="-73.5454356278215">
<ele>12.0769738705952</ele>
</trkpt>
<trkpt lat="45.4897356795012" lon="-73.5457765045899">
<ele>12.3184699097652</ele>
</trkpt>
<trkpt lat="45.4897417259305" lon="-73.5459505236573">
<ele>12.7509758909921</ele>
</trkpt>
<trkpt lat="45.4897242269174" lon="-73.5462976440954">
<ele>14.2231941605678</ele>
</trkpt>
<trkpt lat="45.4897203720849" lon="-73.5464806546599">
<ele>14.7112274475674</ele>
</trkpt>
<trkpt lat="45.4897302198694" lon="-73.5466455801795">
<ele>14.8591034397905</ele>
</trkpt>
<trkpt lat="45.4897720405004" lon="-73.5469399709134">
<ele>14.5510985326672</ele>
</trkpt>
<trkpt lat="45.4899425006048" lon="-73.5478789286899">
<ele>12.0339421756505</ele>
</trkpt>
<trkpt lat="45.4899743161666" lon="-73.5481297382859">
<ele>11.512543367402</ele>
</trkpt>
<trkpt lat="45.4899952638693" lon="-73.5482601297797">
<ele>11.5167052333822</ele>
</trkpt>
<trkpt lat="45.490012374743" lon="-73.5483992955836">
<ele>11.9079505865817</ele>
</trkpt>
<trkpt lat="45.4900499495026" lon="-73.5486722596863">
<ele>13.5058483081711</ele>
</trkpt>
<trkpt lat="45.4900688071671" lon="-73.5488129089681">
<ele>14.1062733315402</ele>
</trkpt>
<trkpt lat="45.4900915471033" lon="-73.5489699886556">
<ele>14.2087144651087</ele>
</trkpt>
<trkpt lat="45.4901124469549" lon="-73.5491034673898">
<ele>13.9176918252809</ele>
</trkpt>
<trkpt lat="45.4902081170222" lon="-73.5495839129528">
<ele>12.3513037095032</ele>
</trkpt>
<trkpt lat="45.4902491457172" lon="-73.5497507002606">
<ele>12.1080547360656</ele>
</trkpt>
<trkpt lat="45.4902879178369" lon="-73.5499109750017">
<ele>12.1622051436161</ele>
</trkpt>
<trkpt lat="45.490386135766" lon="-73.5502389403528">
<ele>12.6503477256327</ele>
</trkpt>
<trkpt lat="45.4904989655053" lon="-73.5505586835342">
<ele>12.9503558844843</ele>
</trkpt>
<trkpt lat="45.4906926035344" lon="-73.5510320888318">
<ele>12.9619779444473</ele>
</trkpt>
<trkpt lat="45.490845352309" lon="-73.551354602128">
<ele>12.6757945533553</ele>
</trkpt>
<trkpt lat="45.4911931102271" lon="-73.5519560274965">
<ele>11.0363074238702</ele>
</trkpt>
<trkpt lat="45.4912878437513" lon="-73.5520937822222">
<ele>10.9380529832402</ele>
</trkpt>
<trkpt lat="45.4913849064406" lon="-73.5522357040614">
<ele>11.0967528531156</ele>
</trkpt>
<trkpt lat="45.4914931705282" lon="-73.5523692340717">
<ele>11.4824195991469</ele>
</trkpt>
<trkpt lat="45.4918121608753" lon="-73.5527354760107">
<ele>12.9652520418478</ele>
</trkpt>
<trkpt lat="45.4919943287453" lon="-73.5529120533739">
<ele>13.4821232014686</ele>
</trkpt>
<trkpt lat="45.4923127549223" lon="-73.5531869767584">
<ele>14.032238131783</ele>
</trkpt>
<trkpt lat="45.4925701766628" lon="-73.553362804497">
<ele>14.719456540647</ele>
</trkpt>
<trkpt lat="45.4928335241296" lon="-73.5535299553768">
<ele>15.7936420220383</ele>
</trkpt>
<trkpt lat="45.4931007036787" lon="-73.5536622957992">
<ele>16.8067838811864</ele>
</trkpt>
<trkpt lat="45.4934370619661" lon="-73.553797188606">
<ele>18.1468933285461</ele>
</trkpt>
<trkpt lat="45.4940038536474" lon="-73.5539943256486">
<ele>17.966491010496</ele>
</trkpt>
<trkpt lat="45.4946965855764" lon="-73.5542721415143">
<ele>18.2187385034381</ele>
</trkpt>
<trkpt lat="45.4952404390264" lon="-73.5544929804426">
<ele>17.6484829579361</ele>
</trkpt>
<trkpt lat="45.4954659112156" lon="-73.5546067996121">
<ele>17.385721577003</ele>
</trkpt>
<trkpt lat="45.4956325308156" lon="-73.5547294362367">
<ele>17.1469313645119</ele>
</trkpt>
<trkpt lat="45.4958175866109" lon="-73.5549189617118">
<ele>16.9529472129982</ele>
</trkpt>
<trkpt lat="45.4959853639953" lon="-73.5551513792624">
<ele>16.7973163273124</ele>
</trkpt>
<trkpt lat="45.4961650067636" lon="-73.5554715797141">
<ele>16.5971536953446</ele>
</trkpt>
<trkpt lat="45.4962842346331" lon="-73.5555920113618">
<ele>16.5507359969525</ele>
</trkpt>
<trkpt lat="45.4966745121097" lon="-73.5556941686252">
<ele>16.7296193924766</ele>
</trkpt>
<trkpt lat="45.4968914342197" lon="-73.5556887894679">
<ele>16.7558338746143</ele>
</trkpt>
<trkpt lat="45.4975442103905" lon="-73.5555496701942">
<ele>16.5407875589282</ele>
</trkpt>
<trkpt lat="45.4978487062026" lon="-73.5554664542793">
<ele>16.3967502707927</ele>
</trkpt>
<trkpt lat="45.4981115396292" lon="-73.5554472203389">
<ele>16.326433099868</ele>
</trkpt>
<trkpt lat="45.4986342376818" lon="-73.5553515232246">
<ele>16.2232562731743</ele>
</trkpt>
<trkpt lat="45.4988911548881" lon="-73.5552748522929">
<ele>16.1621487385514</ele>
</trkpt>
<trkpt lat="45.4992128535154" lon="-73.5550976744262">
<ele>16.1254111619967</ele>
</trkpt>
<trkpt lat="45.4993113664871" lon="-73.5549397367952">
<ele>15.9161918110109</ele>
</trkpt>
<trkpt lat="45.4993282547537" lon="-73.5548534100148">
<ele>15.7947586336571</ele>
</trkpt>
<trkpt lat="45.4993238915411" lon="-73.554753580641">
<ele>15.6658062824276</ele>
</trkpt>
<trkpt lat="45.4991235186234" lon="-73.5541635915619">
<ele>15.2063747843355</ele>
</trkpt>
<trkpt lat="45.4989677637375" lon="-73.5537498127163">
<ele>15.0439204419788</ele>
</trkpt>
<trkpt lat="45.4988110406834" lon="-73.5532293571314">
<ele>15.1866923681073</ele>
</trkpt>
<trkpt lat="45.4987786530745" lon="-73.5530696280305">
<ele>15.3415282842804</ele>
</trkpt>
<trkpt lat="45.4987837995515" lon="-73.5529785743084">
<ele>15.455192856916</ele>
</trkpt>
<trkpt lat="45.4988129659648" lon="-73.5529102411898">
<ele>15.5563217425042</ele>
</trkpt>
<trkpt lat="45.4988776912608" lon="-73.5528586187292">
<ele>15.6693816415512</ele>
</trkpt>
<trkpt lat="45.4990973332875" lon="-73.5528448829644">
<ele>15.7941064229204</ele>
</trkpt>
<trkpt lat="45.4995436906464" lon="-73.552900310079">
<ele>15.8015485619582</ele>
</trkpt>
<trkpt lat="45.4997621657186" lon="-73.5529759011754">
<ele>15.8314403635614</ele>
</trkpt>
<trkpt lat="45.4998778392589" lon="-73.5530371379965">
<ele>15.8674450477894</ele>
</trkpt>
<trkpt lat="45.5003666641244" lon="-73.5533482028365">
<ele>15.7589349662362</ele>
</trkpt>
<trkpt lat="45.5008288499165" lon="-73.553496247146">
<ele>15.5065277976436</ele>
</trkpt>
<trkpt lat="45.5014734930083" lon="-73.5536927408208">
<ele>15.5983427336143</ele>
</trkpt>
<trkpt lat="45.5020071610787" lon="-73.5537708919624">
<ele>15.6999765267675</ele>
</trkpt>
<trkpt lat="45.5026782055949" lon="-73.553831703526">
<ele>15.5507403957259</ele>
</trkpt>
<trkpt lat="45.5029524143882" lon="-73.5538473184814">
<ele>15.5992208348846</ele>
</trkpt>
<trkpt lat="45.5032352373573" lon="-73.553840907056">
<ele>15.7649012714916</ele>
</trkpt>
<trkpt lat="45.5035083309889" lon="-73.5538028821726">
<ele>15.7939554106283</ele>
</trkpt>
<trkpt lat="45.5039106970146" lon="-73.5536990028969">
<ele>15.735180560409</ele>
</trkpt>
<trkpt lat="45.50484024885" lon="-73.5533764231045">
<ele>15.7725076950168</ele>
</trkpt>
<trkpt lat="45.5052280007269" lon="-73.5532189306223">
<ele>15.7999969308292</ele>
</trkpt>
<trkpt lat="45.5060120825298" lon="-73.5528527918975">
<ele>15.7643833108735</ele>
</trkpt>
<trkpt lat="45.5066283399236" lon="-73.5524231905384">
<ele>15.4354049297784</ele>
</trkpt>
<trkpt lat="45.5069798109557" lon="-73.5521982963492">
<ele>15.4079196526103</ele>
</trkpt>
<trkpt lat="45.507324590899" lon="-73.5520207394837">
<ele>15.5706723614791</ele>
</trkpt>
<trkpt lat="45.5074190345413" lon="-73.5519907018815">
<ele>15.7074204300951</ele>
</trkpt>
<trkpt lat="45.5074988542206" lon="-73.5519944143051">
<ele>15.9017634825043</ele>
</trkpt>
<trkpt lat="45.5075499618862" lon="-73.5520207501888">
<ele>16.0924066642507</ele>
</trkpt>
<trkpt lat="45.507627125681" lon="-73.55212472186">
<ele>16.6296115412826</ele>
</trkpt>
<trkpt lat="45.5078860228197" lon="-73.5528341544795">
<ele>20.4853386409994</ele>
</trkpt>
<trkpt lat="45.5081763519567" lon="-73.5536022377826">
<ele>25.3727431557864</ele>
</trkpt>
<trkpt lat="45.5082655399237" lon="-73.5538146482934">
<ele>26.6292098211256</ele>
</trkpt>
<trkpt lat="45.5083401563739" lon="-73.5538880514156">
<ele>27.1427449230995</ele>
</trkpt>
<trkpt lat="45.5083898107646" lon="-73.5538911874853">
<ele>27.3610146434903</ele>
</trkpt>
<trkpt lat="45.5084480679493" lon="-73.5538662774592">
<ele>27.5767264962735</ele>
</trkpt>
<trkpt lat="45.5088998229749" lon="-73.5534946071356">
<ele>28.7268071168814</ele>
</trkpt>
<trkpt lat="45.5092303947993" lon="-73.5532073825063">
<ele>29.1046930760235</ele>
</trkpt>
<trkpt lat="45.5095807976561" lon="-73.5529398870468">
<ele>28.8570470048755</ele>
</trkpt>
<trkpt lat="45.5099991742946" lon="-73.5526184487379">
<ele>27.9524811227848</ele>
</trkpt>
<trkpt lat="45.5101043385174" lon="-73.5525247777873">
<ele>27.8616794312894</ele>
</trkpt>
<trkpt lat="45.5103141296904" lon="-73.5523572695507">
<ele>28.034822094194</ele>
</trkpt>
<trkpt lat="45.5106548688309" lon="-73.5521512471048">
<ele>28.4909414509344</ele>
</trkpt>
<trkpt lat="45.5111242076128" lon="-73.5518990082528">
<ele>28.8442063128883</ele>
</trkpt>
<trkpt lat="45.511608925367" lon="-73.5516409129619">
<ele>28.701227687081</ele>
</trkpt>
<trkpt lat="45.5122097015448" lon="-73.5512806628352">
<ele>28.7159288831722</ele>
</trkpt>
<trkpt lat="45.5130708668604" lon="-73.5508017463206">
<ele>29.4960619481</ele>
</trkpt>
<trkpt lat="45.5133209823833" lon="-73.5506794491472">
<ele>29.6608892853704</ele>
</trkpt>
<trkpt lat="45.5137086067904" lon="-73.5504856318528">
<ele>29.6624238883382</ele>
</trkpt>
<trkpt lat="45.5144861506396" lon="-73.5500979783904">
<ele>29.1407112610963</ele>
</trkpt>
<trkpt lat="45.5149465920395" lon="-73.5498746955619">
<ele>28.6599270178707</ele>
</trkpt>
<trkpt lat="45.5152709938592" lon="-73.549700713014">
<ele>27.9125341730181</ele>
</trkpt>
<trkpt lat="45.5154762133089" lon="-73.5495913811896">
<ele>27.2523641518999</ele>
</trkpt>
<trkpt lat="45.5159015509363" lon="-73.5493699777969">
<ele>25.5649428127312</ele>
</trkpt>
<trkpt lat="45.5162621790656" lon="-73.5491764202185">
<ele>24.6991116383907</ele>
</trkpt>
<trkpt lat="45.5172121268664" lon="-73.5486574425615">
<ele>23.5729318625848</ele>
</trkpt>
<trkpt lat="45.5184906161499" lon="-73.5480227521491">
<ele>21.932469590627</ele>
</trkpt>
<trkpt lat="45.5201062643599" lon="-73.5471477139362">
<ele>19.2432571904508</ele>
</trkpt>
<trkpt lat="45.5204043848756" lon="-73.546979352873">
<ele>18.9997703968337</ele>
</trkpt>
<trkpt lat="45.5209862808809" lon="-73.546683422539">
<ele>18.703185860721</ele>
</trkpt>
<trkpt lat="45.5214325396428" lon="-73.5464206578235">
<ele>18.4991768919642</ele>
</trkpt>
<trkpt lat="45.5216973076283" lon="-73.5462106065824">
<ele>18.4434278325786</ele>
</trkpt>
<trkpt lat="45.5220926585108" lon="-73.5458822614303">
<ele>18.7457779920166</ele>
</trkpt>
<trkpt lat="45.5222054233218" lon="-73.5458029226873">
<ele>18.8572627632154</ele>
</trkpt>
<trkpt lat="45.5224707402297" lon="-73.5456634205242">
<ele>19.0821841231165</ele>
</trkpt>
<trkpt lat="45.5227617375844" lon="-73.5456023015112">
<ele>19.2353837229211</ele>
</trkpt>
<trkpt lat="45.5233341132619" lon="-73.5455863671796">
<ele>19.9499402999691</ele>
</trkpt>
<trkpt lat="45.5236211876537" lon="-73.5455558724546">
<ele>20.2957467344621</ele>
</trkpt>
<trkpt lat="45.5245961039854" lon="-73.5453811029959">
<ele>20.8995344587055</ele>
</trkpt>
<trkpt lat="45.5251532989069" lon="-73.5453189095922">
<ele>21.2327277878816</ele>
</trkpt>
<trkpt lat="45.526005305843" lon="-73.545188764114">
<ele>21.7718036466859</ele>
</trkpt>
<trkpt lat="45.5264304151164" lon="-73.5450902095084">
<ele>21.8544719377013</ele>
</trkpt>
<trkpt lat="45.5267025827765" lon="-73.5450025713236">
<ele>21.7001551155264</ele>
</trkpt>
<trkpt lat="45.5272671156796" lon="-73.5448030133853">
<ele>21.0926864792997</ele>
</trkpt>
<trkpt lat="45.5276211882389" lon="-73.5446739414507">
<ele>20.5163823454433</ele>
</trkpt>
<trkpt lat="45.528057032131" lon="-73.5445174879259">
<ele>19.4900974990796</ele>
</trkpt>
<trkpt lat="45.528347557362" lon="-73.5444144829069">
<ele>19.227641752456</ele>
</trkpt>
<trkpt lat="45.5288580612863" lon="-73.5442357998034">
<ele>19.890809651712</ele>
</trkpt>
<trkpt lat="45.5291402485082" lon="-73.5441430780974">
<ele>20.0566599977978</ele>
</trkpt>
<trkpt lat="45.5300646255589" lon="-73.5438044342858">
<ele>19.3787394370575</ele>
</trkpt>
<trkpt lat="45.5309689346901" lon="-73.5434548953481">
<ele>19.8568877368514</ele>
</trkpt>
<trkpt lat="45.5312442031147" lon="-73.5433489127938">
<ele>20.4255980004034</ele>
</trkpt>
<trkpt lat="45.5315219677407" lon="-73.5432516742546">
<ele>21.5914535408636</ele>
</trkpt>
<trkpt lat="45.5316443736024" lon="-73.5432091900021">
<ele>21.9005845060002</ele>
</trkpt>
<trkpt lat="45.5317740715021" lon="-73.5431619893981">
<ele>21.921748305793</ele>
</trkpt>
<trkpt lat="45.5319691931356" lon="-73.5430934333813">
<ele>21.4346644652175</ele>
</trkpt>
<trkpt lat="45.5325267811694" lon="-73.5428935481871">
<ele>18.9141905608819</ele>
</trkpt>
<trkpt lat="45.532746064047" lon="-73.5428078967077">
<ele>18.4059233137997</ele>
</trkpt>
<trkpt lat="45.533058255411" lon="-73.5427017966537">
<ele>17.9357512808607</ele>
</trkpt>
<trkpt lat="45.5345385538534" lon="-73.5421833649698">
<ele>17.599289434075</ele>
</trkpt>
<trkpt lat="45.5350797264051" lon="-73.5419748337251">
<ele>17.5082938300938</ele>
</trkpt>
<trkpt lat="45.5351721654798" lon="-73.5419622730013">
<ele>17.5024908456518</ele>
</trkpt>
<trkpt lat="45.5352153550021" lon="-73.5419966289743">
<ele>17.501325685927</ele>
</trkpt>
<trkpt lat="45.5352293696516" lon="-73.5420412304414">
<ele>17.5009240481705</ele>
</trkpt>
<trkpt lat="45.5352240424636" lon="-73.5420897928609">
<ele>17.5006364644688</ele>
</trkpt>
<trkpt lat="45.5352032645987" lon="-73.5421255111059">
<ele>17.5004182669523</ele>
</trkpt>
<trkpt lat="45.5351593101886" lon="-73.5421506827429">
<ele>17.5002130566548</ele>
</trkpt>
<trkpt lat="45.5347513041846" lon="-73.5422479912544">
<ele>17.5476836811733</ele>
</trkpt>
<trkpt lat="45.533103194402" lon="-73.5428098113618">
<ele>17.8578926410327</ele>
</trkpt>
<trkpt lat="45.5327457807263" lon="-73.5429282363618">
<ele>18.4187942525613</ele>
</trkpt>
<trkpt lat="45.5325119944438" lon="-73.5430057030726">
<ele>18.9928605271311</ele>
</trkpt>
<trkpt lat="45.5319737392222" lon="-73.5431555266327">
<ele>21.4049587990854</ele>
</trkpt>
<trkpt lat="45.531778708206" lon="-73.5432237699772">
<ele>21.9066444026717</ele>
</trkpt>
<trkpt lat="45.5316628587823" lon="-73.5432729797546">
<ele>21.882138770825</ele>
</trkpt>
<trkpt lat="45.5315714562058" lon="-73.5433078525294">
<ele>21.6814106771079</ele>
</trkpt>
<trkpt lat="45.5312266500472" lon="-73.5434478955748">
<ele>20.2816703514959</ele>
</trkpt>
<trkpt lat="45.5309981416377" lon="-73.543541948585">
<ele>19.8502005829674</ele>
</trkpt>
<trkpt lat="45.5304882784542" lon="-73.5437693766932">
<ele>19.6705590461779</ele>
</trkpt>
<trkpt lat="45.5297618741427" lon="-73.5441872785883">
<ele>19.8023904624911</ele>
</trkpt>
<trkpt lat="45.529647980207" lon="-73.5442162642523">
<ele>19.8164254684056</ele>
</trkpt>
<trkpt lat="45.5291501116187" lon="-73.5442627637909">
<ele>20.0524994964394</ele>
</trkpt>
<trkpt lat="45.5289036743583" lon="-73.5443362357356">
<ele>19.8936788355612</ele>
</trkpt>
<trkpt lat="45.5283948998386" lon="-73.5445137720194">
<ele>19.1946917644931</ele>
</trkpt>
<trkpt lat="45.5281381771086" lon="-73.5445976626899">
<ele>19.346366618257</ele>
</trkpt>
<trkpt lat="45.5276325940671" lon="-73.5447728215955">
<ele>20.5265957262053</ele>
</trkpt>
<trkpt lat="45.5272609762665" lon="-73.5449054487322">
<ele>21.1639319799076</ele>
</trkpt>
<trkpt lat="45.526421449608" lon="-73.5451774361686">
<ele>21.8756512881554</ele>
</trkpt>
<trkpt lat="45.5257998809112" lon="-73.5453250028486">
<ele>21.5985954850537</ele>
</trkpt>
<trkpt lat="45.5250360786015" lon="-73.5454250346897">
<ele>21.1876288323146</ele>
</trkpt>
<trkpt lat="45.5245210085969" lon="-73.5454714566414">
<ele>20.8015632557569</ele>
</trkpt>
<trkpt lat="45.5238840116321" lon="-73.5455908867953">
<ele>20.4967350004419</ele>
</trkpt>
<trkpt lat="45.5234976822062" lon="-73.5456820546579">
<ele>20.2063873236628</ele>
</trkpt>
<trkpt lat="45.5228512640186" lon="-73.5457747401238">
<ele>19.8776851712028</ele>
</trkpt>
<trkpt lat="45.5225819062638" lon="-73.5457912499202">
<ele>19.4515074624674</ele>
</trkpt>
<trkpt lat="45.522324713722" lon="-73.5458639715196">
<ele>19.0116786709782</ele>
</trkpt>
<trkpt lat="45.5220897684187" lon="-73.5460058781574">
<ele>18.6858058699088</ele>
</trkpt>
<trkpt lat="45.5217193372222" lon="-73.5462903788067">
<ele>18.4115418134867</ele>
</trkpt>
<trkpt lat="45.5212338912506" lon="-73.5466125472885">
<ele>18.6034677546244</ele>
</trkpt>
<trkpt lat="45.5204937614781" lon="-73.5470397203588">
<ele>18.9180118723781</ele>
</trkpt>
<trkpt lat="45.5199988826299" lon="-73.5473045230397">
<ele>19.4071212341943</ele>
</trkpt>
<trkpt lat="45.519635081655" lon="-73.5474866098923">
<ele>19.9370811768824</ele>
</trkpt>
<trkpt lat="45.5184758441592" lon="-73.5481240821698">
<ele>21.9793338847719</ele>
</trkpt>
<trkpt lat="45.5174602446441" lon="-73.5486631892731">
<ele>23.2666293761225</ele>
</trkpt>
<trkpt lat="45.5167858059467" lon="-73.5489697515636">
<ele>24.0907252294161</ele>
</trkpt>
<trkpt lat="45.5165341295294" lon="-73.549141077107">
<ele>24.3100157668425</ele>
</trkpt>
<trkpt lat="45.5164264771081" lon="-73.5492485196721">
<ele>24.2178054576425</ele>
</trkpt>
<trkpt lat="45.5163680879187" lon="-73.5493717190376">
<ele>23.8921151847052</ele>
</trkpt>
<trkpt lat="45.5163456844562" lon="-73.5494929829072">
<ele>23.4305209173186</ele>
</trkpt>
<trkpt lat="45.5163279167788" lon="-73.5497941078272">
<ele>21.9942664358891</ele>
</trkpt>
<trkpt lat="45.5162814743686" lon="-73.5500227091889">
<ele>20.9203452404485</ele>
</trkpt>
<trkpt lat="45.5161322524295" lon="-73.550437254384">
<ele>19.3434559616368</ele>
</trkpt>
<trkpt lat="45.5160665245953" lon="-73.5505898904956">
<ele>19.0143060622027</ele>
</trkpt>
<trkpt lat="45.5158950326513" lon="-73.5509211806854">
<ele>18.5945740964667</ele>
</trkpt>
<trkpt lat="45.5156999452872" lon="-73.5512237109664">
<ele>18.376034805042</ele>
</trkpt>
<trkpt lat="45.5155765353637" lon="-73.5513576850607">
<ele>18.2858428144149</ele>
</trkpt>
<trkpt lat="45.5152412478987" lon="-73.5516260627328">
<ele>18.1627094847879</ele>
</trkpt>
<trkpt lat="45.5151533798243" lon="-73.5517333515503">
<ele>18.2237854347772</ele>
</trkpt>
<trkpt lat="45.5151327133038" lon="-73.5517906855923">
<ele>18.255685418812</ele>
</trkpt>
<trkpt lat="45.5151247616995" lon="-73.551879299154">
<ele>18.3035671221152</ele>
</trkpt>
<trkpt lat="45.51517049878" lon="-73.552055473174">
<ele>18.4137089881567</ele>
</trkpt>
<trkpt lat="45.5155814241231" lon="-73.5528761244806">
<ele>19.1690673946634</ele>
</trkpt>
<trkpt lat="45.5159604342" lon="-73.5536711145921">
<ele>20.7714517409938</ele>
</trkpt>
<trkpt lat="45.516418711084" lon="-73.5546429028556">
<ele>22.2934088214268</ele>
</trkpt>
<trkpt lat="45.5170085458216" lon="-73.5559666677147">
<ele>23.1130289685374</ele>
</trkpt>
<trkpt lat="45.5172230420122" lon="-73.5564264939924">
<ele>23.6208149613678</ele>
</trkpt>
<trkpt lat="45.5176691609095" lon="-73.5574444931226">
<ele>25.6051533076248</ele>
</trkpt>
<trkpt lat="45.5180627172728" lon="-73.5583107938329">
<ele>27.730483105885</ele>
</trkpt>
<trkpt lat="45.5182001468754" lon="-73.5585950904278">
<ele>28.2422687741359</ele>
</trkpt>
<trkpt lat="45.5185239241053" lon="-73.5593276680686">
<ele>28.1004815747041</ele>
</trkpt>
<trkpt lat="45.519138886296" lon="-73.5606420961396">
<ele>27.4033164276212</ele>
</trkpt>
<trkpt lat="45.519467530165" lon="-73.5613879374504">
<ele>27.0189006309569</ele>
</trkpt>
<trkpt lat="45.5197329011132" lon="-73.5619732717258">
<ele>27.297770388666</ele>
</trkpt>
<trkpt lat="45.5200538901602" lon="-73.5625998820875">
<ele>27.8346788454098</ele>
</trkpt>
<trkpt lat="45.5201282067616" lon="-73.5627676560346">
<ele>28.0372484861476</ele>
</trkpt>
<trkpt lat="45.5201503040588" lon="-73.5628862803348">
<ele>28.1752138989634</ele>
</trkpt>
<trkpt lat="45.520139130993" lon="-73.5629619445938">
<ele>28.2616072893273</ele>
</trkpt>
<trkpt lat="45.5201061527723" lon="-73.5630305564417">
<ele>28.3461711474642</ele>
</trkpt>
<trkpt lat="45.5200027893396" lon="-73.5631224400506">
<ele>28.482370360912</ele>
</trkpt>
<trkpt lat="45.5195123128078" lon="-73.5633965218577">
<ele>28.6506622938111</ele>
</trkpt>
<trkpt lat="45.5188653923289" lon="-73.5637705255408">
<ele>27.9833622665807</ele>
</trkpt>
<trkpt lat="45.5182890455791" lon="-73.5640879880372">
<ele>27.8334150155099</ele>
</trkpt>
<trkpt lat="45.5178037495456" lon="-73.5643786200372">
<ele>28.108895735002</ele>
</trkpt>
<trkpt lat="45.517319532854" lon="-73.5646787777792">
<ele>28.6381513808925</ele>
</trkpt>
<trkpt lat="45.5172209281123" lon="-73.5647725982757">
<ele>28.6901023341657</ele>
</trkpt>
<trkpt lat="45.5171803749706" lon="-73.5648808091992">
<ele>28.7213630277325</ele>
</trkpt>
<trkpt lat="45.5171827257761" lon="-73.5649656448705">
<ele>28.7558374839586</ele>
</trkpt>
<trkpt lat="45.5172265630463" lon="-73.5651052031012">
<ele>28.8798401019839</ele>
</trkpt>
<trkpt lat="45.5173482230931" lon="-73.5653668689451">
<ele>29.5009678091954</ele>
</trkpt>
<trkpt lat="45.5175111700822" lon="-73.5657310895281">
<ele>31.1427017033563</ele>
</trkpt>
<trkpt lat="45.5178167296989" lon="-73.566348535544">
<ele>34.7557720022734</ele>
</trkpt>
<trkpt lat="45.5179119242188" lon="-73.5665479537249">
<ele>35.7717643907619</ele>
</trkpt>
<trkpt lat="45.5180123362795" lon="-73.5667624712377">
<ele>36.5877064736317</ele>
</trkpt>
<trkpt lat="45.5182469997615" lon="-73.567291652735">
<ele>37.7846797779956</ele>
</trkpt>
<trkpt lat="45.5183533605735" lon="-73.5675228866655">
<ele>38.6454781974947</ele>
</trkpt>
<trkpt lat="45.518462461062" lon="-73.5677462724898">
<ele>39.7908051111769</ele>
</trkpt>
<trkpt lat="45.5187178454728" lon="-73.5682872618115">
<ele>43.0245391829087</ele>
</trkpt>
<trkpt lat="45.5188486809512" lon="-73.5685712073215">
<ele>44.3354344062176</ele>
</trkpt>
<trkpt lat="45.5189343154801" lon="-73.5687855383674">
<ele>44.8859569204607</ele>
</trkpt>
<trkpt lat="45.5190455195356" lon="-73.5690606940125">
<ele>45.2773692897162</ele>
</trkpt>
<trkpt lat="45.5190735836194" lon="-73.5691797490249">
<ele>45.4134059800788</ele>
</trkpt>
<trkpt lat="45.5190730608265" lon="-73.5692582582994">
<ele>45.4931352445934</ele>
</trkpt>
<trkpt lat="45.518995783018" lon="-73.5694844344454">
<ele>45.6471839165008</ele>
</trkpt>
<trkpt lat="45.518761848662" lon="-73.5697744434681">
<ele>45.6475325275292</ele>
</trkpt>
<trkpt lat="45.5184147965965" lon="-73.5701469031464">
<ele>45.6662996117905</ele>
</trkpt>
<trkpt lat="45.5183572980352" lon="-73.5702672645563">
<ele>45.6940738183221</ele>
</trkpt>
<trkpt lat="45.518340989778" lon="-73.5703539100609">
<ele>45.728864014485</ele>
</trkpt>
<trkpt lat="45.518350095307" lon="-73.5704921342459">
<ele>45.798221424778</ele>
</trkpt>
<trkpt lat="45.5183788727432" lon="-73.5705824340584">
<ele>45.8519886851884</ele>
</trkpt>
<trkpt lat="45.5186050513589" lon="-73.5710180984012">
<ele>46.0878209997195</ele>
</trkpt>
<trkpt lat="45.5188572971796" lon="-73.5715618654191">
<ele>46.1949290635135</ele>
</trkpt>
<trkpt lat="45.5188852381" lon="-73.5717211649866">
<ele>46.1761442340465</ele>
</trkpt>
<trkpt lat="45.5188522631253" lon="-73.5718447082098">
<ele>46.123494841511</ele>
</trkpt>
<trkpt lat="45.5186814437178" lon="-73.5720421433498">
<ele>45.9953737403524</ele>
</trkpt>
<trkpt lat="45.518281140258" lon="-73.5723868670288">
<ele>46.009014491538</ele>
</trkpt>
<trkpt lat="45.5178825897036" lon="-73.572758891901">
<ele>46.1084126513202</ele>
</trkpt>
<trkpt lat="45.5176690002733" lon="-73.5729350037899">
<ele>46.2180466353946</ele>
</trkpt>
<trkpt lat="45.5170148315385" lon="-73.5735078740236">
<ele>46.9369742741821</ele>
</trkpt>
<trkpt lat="45.5159969043291" lon="-73.5743540720441">
<ele>47.9978781032922</ele>
</trkpt>
<trkpt lat="45.5153157075539" lon="-73.5749483033619">
<ele>48.2283316705152</ele>
</trkpt>
<trkpt lat="45.5148567986931" lon="-73.5753323800047">
<ele>48.5101076598528</ele>
</trkpt>
<trkpt lat="45.5142793437599" lon="-73.5758194352564">
<ele>49.3445710237498</ele>
</trkpt>
<trkpt lat="45.5137234858777" lon="-73.5762717950331">
<ele>51.0132034672631</ele>
</trkpt>
<trkpt lat="45.5131088995927" lon="-73.5767981958247">
<ele>51.9174545368498</ele>
</trkpt>
<trkpt lat="45.5128968257763" lon="-73.5769883620991">
<ele>52.1844392581793</ele>
</trkpt>
<trkpt lat="45.5126767404542" lon="-73.5772226326075">
<ele>52.4082755689635</ele>
</trkpt>
<trkpt lat="45.5122156590101" lon="-73.5776393250061">
<ele>53.1224283838972</ele>
</trkpt>
<trkpt lat="45.5121056760091" lon="-73.5777420159849">
<ele>53.1651857688867</ele>
</trkpt>
<trkpt lat="45.5118710145716" lon="-73.5779432070132">
<ele>52.8140756926849</ele>
</trkpt>
<trkpt lat="45.5118047391429" lon="-73.5780494601422">
<ele>52.70850836467</ele>
</trkpt>
<trkpt lat="45.5117789878042" lon="-73.5781423931237">
<ele>52.6960271303368</ele>
</trkpt>
<trkpt lat="45.511773766334" lon="-73.5782363664027">
<ele>52.7434119357084</ele>
</trkpt>
<trkpt lat="45.5117949559906" lon="-73.5783586895992">
<ele>52.9076506340304</ele>
</trkpt>
<trkpt lat="45.5118607791948" lon="-73.5785074061439">
<ele>53.3371640777524</ele>
</trkpt>
<trkpt lat="45.5119272923544" lon="-73.5786274605866">
<ele>53.8777716185827</ele>
</trkpt>
<trkpt lat="45.5120962975186" lon="-73.5789642806032">
<ele>55.8876685797784</ele>
</trkpt>
<trkpt lat="45.5122571117681" lon="-73.5793173513438">
<ele>58.5108327957337</ele>
</trkpt>
<trkpt lat="45.5123009043685" lon="-73.5794171080585">
<ele>59.0703332704649</ele>
</trkpt>
<trkpt lat="45.5123595266273" lon="-73.5795375777614">
<ele>59.4936960951449</ele>
</trkpt>
<trkpt lat="45.5124052395117" lon="-73.5796342140379">
<ele>59.6504168888083</ele>
</trkpt>
<trkpt lat="45.5126102172487" lon="-73.5800774719671">
<ele>60.04021844725</ele>
</trkpt>
<trkpt lat="45.5127136095585" lon="-73.5802993522772">
<ele>60.6790569017888</ele>
</trkpt>
<trkpt lat="45.5128176556755" lon="-73.5805323174522">
<ele>61.7319115723394</ele>
</trkpt>
<trkpt lat="45.5129725575845" lon="-73.5808678231779">
<ele>63.8353758816716</ele>
</trkpt>
<trkpt lat="45.5133926031234" lon="-73.5817777771108">
<ele>70.8234269289096</ele>
</trkpt>
<trkpt lat="45.5134951962084" lon="-73.5819981199982">
<ele>72.1870668095894</ele>
</trkpt>
<trkpt lat="45.5135465020939" lon="-73.5821071876524">
<ele>72.5902300554038</ele>
</trkpt>
<trkpt lat="45.5137516297214" lon="-73.5825561233498">
<ele>73.6261434939754</ele>
</trkpt>
<trkpt lat="45.5140778648494" lon="-73.5832539700036">
<ele>76.3810157885039</ele>
</trkpt>
<trkpt lat="45.5142367736535" lon="-73.5835954220776">
<ele>77.5352577469478</ele>
</trkpt>
<trkpt lat="45.5145180250826" lon="-73.5842040535662">
<ele>79.0486356361425</ele>
</trkpt>
<trkpt lat="45.5146847221327" lon="-73.5845584228103">
<ele>79.5450953021228</ele>
</trkpt>
</trkseg>
<type>cycling</type>
</trk>
</gpx>
