<?xml version='1.0' encoding='UTF-8'?>
<gpx version="1.1"
  creator="GPXmagic"
  xmlns="http://www.topografix.com/GPX/1/1"
  xmlns:rgt="http://www.rgtcycling.com/XML/GpxExtensions/v1"
  xmlns:xsi="http://www.w3.org/2001/XMLSchema-instance" xsi:schemaLocation="http://www.topografix.com/GPX/1/1
  http://www.topografix.com/GPX/1/1/gpx.xsd">
  <metadata>
    <name>Smoothed with GPXmagic</name>
    <author>
      <link href="https://www.stepwiserefinement.co.uk">
        <text>GPXmagic v3</text>
        <type>text/html</type>
      </link>
    </author>
  </metadata>
<trk>  <name>Giro&amp;#32;13-26&amp;#32;-&amp;#32;Segment&amp;#32;2&amp;#32;of&amp;#32;3</name>
<trkseg>
<trkpt lat="45.7345648050298" lon="8.504263907743011"><ele>364.408270091796</ele></trkpt>
<trkpt lat="45.7349357061432" lon="8.504862857117768"><ele>366.788494723108</ele></trkpt>
<trkpt lat="45.735476456345694" lon="8.505732018108402"><ele>368.771780221183</ele></trkpt>
<trkpt lat="45.7359136503811" lon="8.50639565620509"><ele>369.759801177273</ele></trkpt>
<trkpt lat="45.73608900541619" lon="8.50665962998167"><ele>369.581105557783</ele></trkpt>
<trkpt lat="45.7363234086237" lon="8.50701243105976"><ele>367.100435370257</ele></trkpt>
<trkpt lat="45.7366167360356" lon="8.507453958485822"><ele>361.825236535947</ele></trkpt>
<trkpt lat="45.7371921614198" lon="8.50832155457436"><ele>353.12845548943</ele></trkpt>
<trkpt lat="45.7374905604936" lon="8.50875481420411"><ele>349.88309784445</ele></trkpt>
<trkpt lat="45.7378050638345" lon="8.5092099008195"><ele>347.681080964383</ele></trkpt>
<trkpt lat="45.7381814592459" lon="8.509754510446426"><ele>346.179631956031</ele></trkpt>
<trkpt lat="45.73846995704851" lon="8.51017116226368"><ele>342.754566625953</ele></trkpt>
<trkpt lat="45.7387706131917" lon="8.510600730188079"><ele>339.829810153516</ele></trkpt>
<trkpt lat="45.7390490341143" lon="8.511012548643718"><ele>338.814161089147</ele></trkpt>
<trkpt lat="45.7392139099644" lon="8.511226582024111"><ele>338.128389757351</ele></trkpt>
<trkpt lat="45.7395125656337" lon="8.51153709645385"><ele>335.309302248401</ele></trkpt>
<trkpt lat="45.7397838797295" lon="8.5117692285333"><ele>333.540972986477</ele></trkpt>
<trkpt lat="45.7399830808379" lon="8.51190257503901"><ele>332.84689052813</ele></trkpt>
<trkpt lat="45.740413939113395" lon="8.51215677013534"><ele>330.943016851701</ele></trkpt>
<trkpt lat="45.74065458386241" lon="8.512298981621068"><ele>328.268306926187</ele></trkpt>
<trkpt lat="45.7407963778196" lon="8.51239679943167"><ele>326.319922268888</ele></trkpt>
<trkpt lat="45.7410846428914" lon="8.512632038466531"><ele>322.669862263795</ele></trkpt>
<trkpt lat="45.7412616553999" lon="8.51280872969384"><ele>320.728033064969</ele></trkpt>
<trkpt lat="45.7413819764248" lon="8.512947700013978"><ele>319.56537694761</ele></trkpt>
<trkpt lat="45.74155987902951" lon="8.5131879066261"><ele>318.001074980822</ele></trkpt>
<trkpt lat="45.7417032497704" lon="8.51341733680659"><ele>316.790463131824</ele></trkpt>
<trkpt lat="45.7419331850782" lon="8.51386691480021"><ele>315.34719670022</ele></trkpt>
<trkpt lat="45.74202896069679" lon="8.514111781029019"><ele>314.16256358792</ele></trkpt>
<trkpt lat="45.7421662694818" lon="8.51450186082955"><ele>310.830347008001</ele></trkpt>
<trkpt lat="45.74240256200561" lon="8.51517176327776"><ele>303.911731515528</ele></trkpt>
<trkpt lat="45.74248132750821" lon="8.51539506911905"><ele>302.299389552074</ele></trkpt>
<trkpt lat="45.74267812389011" lon="8.515952866710949"><ele>299.650367695561</ele></trkpt>
<trkpt lat="45.7429155818271" lon="8.516624727514788"><ele>297.78093169344</ele></trkpt>
<trkpt lat="45.7432276118189" lon="8.51748589592067"><ele>295.827758787536</ele></trkpt>
<trkpt lat="45.7433950732943" lon="8.517900569767832"><ele>295.690855330434</ele></trkpt>
<trkpt lat="45.74348265514271" lon="8.51807765463672"><ele>295.877366442757</ele></trkpt>
<trkpt lat="45.7437594309218" lon="8.51860830339327"><ele>295.533354575071</ele></trkpt>
<trkpt lat="45.744001219713695" lon="8.51906908304746"><ele>296.397872220861</ele></trkpt>
<trkpt lat="45.74427436825" lon="8.519592320849"><ele>295.786378641715</ele></trkpt>
<trkpt lat="45.74464673300739" lon="8.52029683532014"><ele>294.106122712361</ele></trkpt>
<trkpt lat="45.74505280617821" lon="8.521072279478812"><ele>294.617211841834</ele></trkpt>
<trkpt lat="45.7451428335053" lon="8.52125803381149"><ele>294.620771171855</ele></trkpt>
<trkpt lat="45.7454042104134" lon="8.52175470081591"><ele>294.350983255995</ele></trkpt>
<trkpt lat="45.74575694813681" lon="8.52245454061168"><ele>295.402917262418</ele></trkpt>
<trkpt lat="45.7461326073152" lon="8.52319489662618"><ele>294.556013561887</ele></trkpt>
<trkpt lat="45.746438911557696" lon="8.52380188097561"><ele>294.670387874216</ele></trkpt>
<trkpt lat="45.7466965809091" lon="8.524311512896984"><ele>293.970161573427</ele></trkpt>
<trkpt lat="45.746866876176206" lon="8.524652066629722"><ele>293.140112082534</ele></trkpt>
<trkpt lat="45.7469187523831" lon="8.524861486510337"><ele>292.757958699677</ele></trkpt>
<trkpt lat="45.74692458067079" lon="8.52500345839406"><ele>292.58989724088</ele></trkpt>
<trkpt lat="45.7469730941302" lon="8.525104330389102"><ele>292.53514488034</ele></trkpt>
<trkpt lat="45.747147565224" lon="8.52526849315381"><ele>292.668854910555</ele></trkpt>
<trkpt lat="45.7473073924411" lon="8.52549281451433"><ele>292.75968265161</ele></trkpt>
<trkpt lat="45.7476010108302" lon="8.526066201544051"><ele>292.609047786927</ele></trkpt>
<trkpt lat="45.7479097666962" lon="8.52665627266961"><ele>293.364488005363</ele></trkpt>
<trkpt lat="45.74830253207689" lon="8.52742468945989"><ele>292.826898719413</ele></trkpt>
<trkpt lat="45.748581063333006" lon="8.52795766898852"><ele>293.270837003312</ele></trkpt>
<trkpt lat="45.748716215150104" lon="8.52822035281571"><ele>293.945021747261</ele></trkpt>
<trkpt lat="45.7489392697739" lon="8.52868241093319"><ele>295.375584038166</ele></trkpt>
<trkpt lat="45.7489934858884" lon="8.52882803528169"><ele>296.40649748527</ele></trkpt>
<trkpt lat="45.7490765364711" lon="8.529109922171061"><ele>298.97836325878</ele></trkpt>
<trkpt lat="45.7491300544159" lon="8.52944281000333"><ele>300.298239012559</ele></trkpt>
<trkpt lat="45.749113166636306" lon="8.5297180459615"><ele>299.298453758563</ele></trkpt>
<trkpt lat="45.7490208572988" lon="8.53011701867408"><ele>296.910679001073</ele></trkpt>
<trkpt lat="45.7489863186301" lon="8.530298232889598"><ele>295.985331297038</ele></trkpt>
<trkpt lat="45.7489667295052" lon="8.53051973997104"><ele>295.076240763918</ele></trkpt>
<trkpt lat="45.7489605789609" lon="8.530937361131409"><ele>294.58557283033</ele></trkpt>
<trkpt lat="45.74896469733811" lon="8.53136265404594"><ele>296.219697213681</ele></trkpt>
<trkpt lat="45.7489675929553" lon="8.53180735066175"><ele>298.917894370159</ele></trkpt>
<trkpt lat="45.7489678409015" lon="8.53204298921617"><ele>299.672907905233</ele></trkpt>
<trkpt lat="45.748965964357794" lon="8.53281836909534"><ele>299.380170911825</ele></trkpt>
<trkpt lat="45.7489643369695" lon="8.533323126346891"><ele>296.977828644772</ele></trkpt>
<trkpt lat="45.7489631071892" lon="8.533702121712501"><ele>293.361983965099</ele></trkpt>
<trkpt lat="45.74896187740901" lon="8.53408111706139"><ele>291.056650273536</ele></trkpt>
<trkpt lat="45.7489585979951" lon="8.53509177124347"><ele>289.288491844379</ele></trkpt>
<trkpt lat="45.748956166730395" lon="8.53583919515443"><ele>283.555572774088</ele></trkpt>
<trkpt lat="45.748953870729" lon="8.536535914316273"><ele>278.626205188378</ele></trkpt>
<trkpt lat="45.748951818537904" lon="8.537168505104079"><ele>275.445486936235</ele></trkpt>
<trkpt lat="45.7489504333437" lon="8.53781927130125"><ele>269.689201724334</ele></trkpt>
<trkpt lat="45.7489566470657" lon="8.53808025414761"><ele>268.219951526012</ele></trkpt>
<trkpt lat="45.7489813797591" lon="8.53829486241285"><ele>267.227082102163</ele></trkpt>
<trkpt lat="45.7490544624886" lon="8.53850687359175"><ele>265.714162225531</ele></trkpt>
<trkpt lat="45.7491193991972" lon="8.538602318913538"><ele>264.668278649215</ele></trkpt>
<trkpt lat="45.7492285833968" lon="8.53868795754621"><ele>263.303132597716</ele></trkpt>
<trkpt lat="45.749343739928705" lon="8.53872221893812"><ele>262.352637599976</ele></trkpt>
<trkpt lat="45.7495081354365" lon="8.53867769561082"><ele>261.70250621231</ele></trkpt>
<trkpt lat="45.7496175068225" lon="8.538557570896472"><ele>261.433736312806</ele></trkpt>
<trkpt lat="45.7496759937482" lon="8.53842750712462"><ele>261.162021093206</ele></trkpt>
<trkpt lat="45.7499326671323" lon="8.537660068884586"><ele>259.108255549367</ele></trkpt>
<trkpt lat="45.7500205520291" lon="8.537397566901461"><ele>259.5320141149</ele></trkpt>
<trkpt lat="45.750100493818" lon="8.5371871358034"><ele>260.413758977935</ele></trkpt>
<trkpt lat="45.7501996864547" lon="8.537009070758636"><ele>261.087520641006</ele></trkpt>
<trkpt lat="45.7502895606655" lon="8.53690203916663"><ele>261.407971814972</ele></trkpt>
<trkpt lat="45.7503874438002" lon="8.536818082241762"><ele>261.690372220452</ele></trkpt>
<trkpt lat="45.75049159850851" lon="8.53676062105231"><ele>261.957888637044</ele></trkpt>
<trkpt lat="45.7506581859829" lon="8.536736377041642"><ele>262.020069833421</ele></trkpt>
<trkpt lat="45.7508247041128" lon="8.536769069943277"><ele>261.154155945368</ele></trkpt>
<trkpt lat="45.75103205854061" lon="8.53686378367223"><ele>258.322410485316</ele></trkpt>
<trkpt lat="45.75120196668901" lon="8.53701173087011"><ele>254.276643683002</ele></trkpt>
<trkpt lat="45.7513122391459" lon="8.537231637443979"><ele>250.131441975765</ele></trkpt>
<trkpt lat="45.7513606740332" lon="8.5374158957166"><ele>247.560247704089</ele></trkpt>
<trkpt lat="45.7514099502612" lon="8.537779269392088"><ele>244.088988428765</ele></trkpt>
<trkpt lat="45.7514691294078" lon="8.538239040768723"><ele>241.70491956342</ele></trkpt>
<trkpt lat="45.7515275515438" lon="8.538491654362169"><ele>239.915260151161</ele></trkpt>
<trkpt lat="45.7515991230937" lon="8.53871097460507"><ele>237.820572356597</ele></trkpt>
<trkpt lat="45.751755040767605" lon="8.53908248472018"><ele>234.061280161857</ele></trkpt>
<trkpt lat="45.7519243264789" lon="8.539434681829443"><ele>231.83408095868</ele></trkpt>
<trkpt lat="45.7521549430728" lon="8.539908594326812"><ele>230.114365027708</ele></trkpt>
<trkpt lat="45.7524701712881" lon="8.54059539563397"><ele>226.624927156698</ele></trkpt>
<trkpt lat="45.7527525841235" lon="8.54121073331103"><ele>226.445472541733</ele></trkpt>
<trkpt lat="45.7529164230921" lon="8.54155741015893"><ele>225.624290533721</ele></trkpt>
<trkpt lat="45.753181108588606" lon="8.54204106143517"><ele>224.143791464882</ele></trkpt>
<trkpt lat="45.7534562081856" lon="8.542524646512721"><ele>227.347557913095</ele></trkpt>
<trkpt lat="45.7535507797766" lon="8.54268234591091"><ele>226.943495108334</ele></trkpt>
<trkpt lat="45.7539217998785" lon="8.54329632335138"><ele>221.080554561026</ele></trkpt>
<trkpt lat="45.75407128724219" lon="8.54354762711682"><ele>219.628932835395</ele></trkpt>
<trkpt lat="45.7542198921383" lon="8.543817578774549"><ele>219.304550877775</ele></trkpt>
<trkpt lat="45.7543684041976" lon="8.54415196944315"><ele>218.943332127832</ele></trkpt>
<trkpt lat="45.7544442261835" lon="8.54437723480151"><ele>218.448019718123</ele></trkpt>
<trkpt lat="45.7544819723768" lon="8.544530315601852"><ele>218.098188739169</ele></trkpt>
<trkpt lat="45.7545356572934" lon="8.544939344657342"><ele>217.350400911071</ele></trkpt>
<trkpt lat="45.7545440887523" lon="8.545139407868321"><ele>217.096357583505</ele></trkpt>
<trkpt lat="45.754536704786794" lon="8.545318399362936"><ele>217.025121614265</ele></trkpt>
<trkpt lat="45.7544962433546" lon="8.54573967376854"><ele>217.200396159721</ele></trkpt>
<trkpt lat="45.75444742740811" lon="8.546230762280231"><ele>216.347803497971</ele></trkpt>
<trkpt lat="45.7544102712856" lon="8.54661198918177"><ele>216.36153241732</ele></trkpt>
<trkpt lat="45.7544031005814" lon="8.5469920372748"><ele>216.538651309598</ele></trkpt>
<trkpt lat="45.7544401080636" lon="8.547356544897218"><ele>216.650471647238</ele></trkpt>
<trkpt lat="45.7544983636089" lon="8.54772478974604"><ele>216.532314394786</ele></trkpt>
<trkpt lat="45.7545529037129" lon="8.54793113795902"><ele>216.578454743587</ele></trkpt>
<trkpt lat="45.7546609118595" lon="8.548436537748762"><ele>216.680880521943</ele></trkpt>
<trkpt lat="45.7547629333942" lon="8.548894766363492"><ele>215.453245309925</ele></trkpt>
<trkpt lat="45.7549858508041" lon="8.549941448298611"><ele>213.216935112481</ele></trkpt>
<trkpt lat="45.7550772844152" lon="8.550339178379101"><ele>212.105572185005</ele></trkpt>
<trkpt lat="45.755184204268396" lon="8.55069545106981"><ele>211.780425290992</ele></trkpt>
<trkpt lat="45.75531501362651" lon="8.55108856496736"><ele>212.498079668926</ele></trkpt>
<trkpt lat="45.7554070118894" lon="8.5513758352339"><ele>212.335682645516</ele></trkpt>
<trkpt lat="45.7555980510782" lon="8.55193562662771"><ele>210.507423697514</ele></trkpt>
<trkpt lat="45.7556646316966" lon="8.55214151371236"><ele>210.228587969763</ele></trkpt>
<trkpt lat="45.7557731378285" lon="8.552514485245881"><ele>211.034551891613</ele></trkpt>
<trkpt lat="45.75582859014631" lon="8.55280641888827"><ele>211.774408899534</ele></trkpt>
<trkpt lat="45.755914203942694" lon="8.5534108060545"><ele>211.300699944582</ele></trkpt>
<trkpt lat="45.755988969469" lon="8.553700700922368"><ele>211.493564322774</ele></trkpt>
<trkpt lat="45.7560430609659" lon="8.553818079513778"><ele>211.363403974072</ele></trkpt>
<trkpt lat="45.7561913367378" lon="8.55400530453601"><ele>210.607999100413</ele></trkpt>
<trkpt lat="45.7562885353236" lon="8.554075980620192"><ele>210.174998340929</ele></trkpt>
<trkpt lat="45.75649338392199" lon="8.554174095215089"><ele>209.450122517546</ele></trkpt>
<trkpt lat="45.7571021616152" lon="8.554354593385042"><ele>207.073469426742</ele></trkpt>
<trkpt lat="45.75727203675599" lon="8.554430839069889"><ele>206.643263241451</ele></trkpt>
<trkpt lat="45.7573699903336" lon="8.55450178256565"><ele>206.498147128262</ele></trkpt>
<trkpt lat="45.75746074657479" lon="8.55460652693101"><ele>206.552676752614</ele></trkpt>
<trkpt lat="45.7575598883374" lon="8.554771333448342"><ele>206.950071282921</ele></trkpt>
<trkpt lat="45.757627696496506" lon="8.55493019644476"><ele>207.494791802818</ele></trkpt>
<trkpt lat="45.7577376227085" lon="8.55525916648545"><ele>208.687756799112</ele></trkpt>
<trkpt lat="45.75780202067321" lon="8.55535113889774"><ele>208.956168731952</ele></trkpt>
<trkpt lat="45.7579360239774" lon="8.55535742174937"><ele>209.137966199322</ele></trkpt>
<trkpt lat="45.7582675456569" lon="8.55510823377166"><ele>210.736306942493</ele></trkpt>
<trkpt lat="45.75849142948281" lon="8.55488054123223"><ele>212.052269244425</ele></trkpt>
<trkpt lat="45.75876587401589" lon="8.55459429131833"><ele>212.36328578265</ele></trkpt>
<trkpt lat="45.7589067506858" lon="8.55447831401961"><ele>212.16977062674</ele></trkpt>
<trkpt lat="45.759194185116705" lon="8.554257370087532"><ele>210.975201415868</ele></trkpt>
<trkpt lat="45.75933725946061" lon="8.554149088383898"><ele>211.224384050225</ele></trkpt>
<trkpt lat="45.7594937279276" lon="8.554029027516519"><ele>213.012546787411</ele></trkpt>
<trkpt lat="45.7598066178963" lon="8.553779058419362"><ele>217.536437429815</ele></trkpt>
<trkpt lat="45.759930668360006" lon="8.55368392496082"><ele>217.737123330749</ele></trkpt>
<trkpt lat="45.76022144440589" lon="8.55346623991183"><ele>215.385557369354</ele></trkpt>
<trkpt lat="45.7604043747893" lon="8.55333688438668"><ele>214.667077958883</ele></trkpt>
<trkpt lat="45.76053395866481" lon="8.553322246332801"><ele>214.764053856502</ele></trkpt>
<trkpt lat="45.760718359270804" lon="8.55340953257867"><ele>215.300438842387</ele></trkpt>
<trkpt lat="45.760981318918795" lon="8.55335998214859"><ele>216.789156031367</ele></trkpt>
<trkpt lat="45.76118511567859" lon="8.55333676783554"><ele>218.625268818773</ele></trkpt>
<trkpt lat="45.7612778591869" lon="8.55334264990895"><ele>219.433669434084</ele></trkpt>
<trkpt lat="45.76135099137581" lon="8.55337989621162"><ele>219.906567371135</ele></trkpt>
<trkpt lat="45.7614075092401" lon="8.5534488008255"><ele>220.09252692436</ele></trkpt>
<trkpt lat="45.761495630242095" lon="8.55361446637458"><ele>219.76967103292</ele></trkpt>
<trkpt lat="45.7615548016261" lon="8.55378449961174"><ele>219.247429770903</ele></trkpt>
<trkpt lat="45.76164313430039" lon="8.55393479365961"><ele>219.165252451161</ele></trkpt>
<trkpt lat="45.761843559394194" lon="8.55441480387335"><ele>219.450673505046</ele></trkpt>
<trkpt lat="45.7620128733279" lon="8.5548161763121"><ele>217.963042756413</ele></trkpt>
<trkpt lat="45.76214203681641" lon="8.555120550173498"><ele>218.499179314029</ele></trkpt>
<trkpt lat="45.7623225827141" lon="8.55555508393133"><ele>221.980312760045</ele></trkpt>
<trkpt lat="45.7624561324715" lon="8.55587324718324"><ele>222.369211880178</ele></trkpt>
<trkpt lat="45.7626284255806" lon="8.55627995822015"><ele>218.967567694312</ele></trkpt>
<trkpt lat="45.7628658804971" lon="8.55655107768176"><ele>216.351070866094</ele></trkpt>
<trkpt lat="45.762929890463" lon="8.55659759771379"><ele>216.100094871071</ele></trkpt>
<trkpt lat="45.7631883729621" lon="8.55666686413449"><ele>217.770384047288</ele></trkpt>
<trkpt lat="45.7635736235516" lon="8.556725991045859"><ele>222.321892113261</ele></trkpt>
<trkpt lat="45.7638506663971" lon="8.55678262856229"><ele>222.898310669339</ele></trkpt>
<trkpt lat="45.76404951216819" lon="8.556835387054498"><ele>222.020502788403</ele></trkpt>
<trkpt lat="45.76415872928641" lon="8.55684712879212"><ele>221.677844443074</ele></trkpt>
<trkpt lat="45.7643807394815" lon="8.556765622710651"><ele>221.760753956678</ele></trkpt>
<trkpt lat="45.7645186012532" lon="8.55667365626468"><ele>221.072490122916</ele></trkpt>
<trkpt lat="45.764656926270604" lon="8.55657395784962"><ele>219.025670370386</ele></trkpt>
<trkpt lat="45.7649175976823" lon="8.55637647606685"><ele>213.456361485418</ele></trkpt>
<trkpt lat="45.7651029518245" lon="8.55618780473988"><ele>209.381906317413</ele></trkpt>
<trkpt lat="45.7651960030223" lon="8.55605658702685"><ele>208.079643615511</ele></trkpt>
<trkpt lat="45.7652668721554" lon="8.55589802077071"><ele>207.974929021443</ele></trkpt>
<trkpt lat="45.765368760972" lon="8.55559593073353"><ele>208.248927981746</ele></trkpt>
<trkpt lat="45.7654746112742" lon="8.55527373952539"><ele>207.153625474933</ele></trkpt>
<trkpt lat="45.7656401936531" lon="8.55476306511707"><ele>205.844579668409</ele></trkpt>
<trkpt lat="45.76575576934239" lon="8.55439527231873"><ele>202.52313300745</ele></trkpt>
<trkpt lat="45.765881337398" lon="8.554025189037363"><ele>200.574481586515</ele></trkpt>
<trkpt lat="45.7659634350836" lon="8.5538060002618"><ele>199.817458324772</ele></trkpt>
<trkpt lat="45.7660489669039" lon="8.55360782058446"><ele>199.704593930747</ele></trkpt>
<trkpt lat="45.76618562817" lon="8.553381553697132"><ele>200.812402873383</ele></trkpt>
<trkpt lat="45.76651824362809" lon="8.55297404435493"><ele>203.139371118665</ele></trkpt>
<trkpt lat="45.7667623788546" lon="8.55267971546551"><ele>203.640708298535</ele></trkpt>
<trkpt lat="45.76705591576891" lon="8.552356866552937"><ele>204.016653377256</ele></trkpt>
<trkpt lat="45.767238245500494" lon="8.552118463191029"><ele>203.784959387</ele></trkpt>
<trkpt lat="45.7673353948835" lon="8.551958674503203"><ele>203.439690346955</ele></trkpt>
<trkpt lat="45.767562911833" lon="8.55154998086497"><ele>202.847720436187</ele></trkpt>
<trkpt lat="45.76788143360321" lon="8.55097206481152"><ele>203.547508739819</ele></trkpt>
<trkpt lat="45.768150897664" lon="8.55048284449872"><ele>202.499670344331</ele></trkpt>
<trkpt lat="45.7683661171686" lon="8.55009210358018"><ele>202.874046308563</ele></trkpt>
<trkpt lat="45.7686087762934" lon="8.54965207254905"><ele>205.231656268274</ele></trkpt>
<trkpt lat="45.768698936039996" lon="8.54948866631064"><ele>205.494349176219</ele></trkpt>
<trkpt lat="45.7689882685778" lon="8.54896689426459"><ele>204.119857204417</ele></trkpt>
<trkpt lat="45.7691283377727" lon="8.54873157083965"><ele>203.95129226881</ele></trkpt>
<trkpt lat="45.7692644719005" lon="8.548539923994483"><ele>203.683607843421</ele></trkpt>
<trkpt lat="45.769439764483" lon="8.54833225142911"><ele>203.034977158387</ele></trkpt>
<trkpt lat="45.769822189151206" lon="8.547912736412252"><ele>202.445309376715</ele></trkpt>
<trkpt lat="45.769896000730505" lon="8.54782411881258"><ele>202.778089859112</ele></trkpt>
<trkpt lat="45.7701501395553" lon="8.54748394034349"><ele>205.396521698732</ele></trkpt>
<trkpt lat="45.7703822512071" lon="8.547165967483881"><ele>206.511154212834</ele></trkpt>
<trkpt lat="45.77070264912" lon="8.54673309659717"><ele>206.691216415984</ele></trkpt>
<trkpt lat="45.7709638627045" lon="8.546405694394577"><ele>208.118003621956</ele></trkpt>
<trkpt lat="45.7712168935715" lon="8.546122148719352"><ele>208.251406215958</ele></trkpt>
<trkpt lat="45.7713874371801" lon="8.545941156159259"><ele>207.614619121294</ele></trkpt>
<trkpt lat="45.7717157953912" lon="8.545609441463952"><ele>205.82468298138</ele></trkpt>
<trkpt lat="45.7718846379309" lon="8.54545653450065"><ele>204.448863583774</ele></trkpt>
<trkpt lat="45.772164169106" lon="8.545269244926882"><ele>202.562258785969</ele></trkpt>
<trkpt lat="45.77253572291009" lon="8.54511223649604"><ele>200.491688086489</ele></trkpt>
<trkpt lat="45.77301074220081" lon="8.54492284666069"><ele>201.78080127994</ele></trkpt>
<trkpt lat="45.7735883760878" lon="8.544687205444953"><ele>200.71662580034</ele></trkpt>
<trkpt lat="45.7739591471002" lon="8.54452759582974"><ele>201.568535613895</ele></trkpt>
<trkpt lat="45.7741057754299" lon="8.54442506876152"><ele>201.961889855846</ele></trkpt>
<trkpt lat="45.7742539043785" lon="8.544279154122108"><ele>202.386069260051</ele></trkpt>
<trkpt lat="45.774619926969606" lon="8.54387496594867"><ele>204.714855457718</ele></trkpt>
<trkpt lat="45.77478352890369" lon="8.543725422499554"><ele>206.601078126231</ele></trkpt>
<trkpt lat="45.7750725214365" lon="8.543503407056512"><ele>207.940193794126</ele></trkpt>
<trkpt lat="45.7754456839684" lon="8.54322796653521"><ele>207.224064767233</ele></trkpt>
<trkpt lat="45.77567275958079" lon="8.543061498633701"><ele>208.648316086447</ele></trkpt>
<trkpt lat="45.7758851156114" lon="8.54290724755235"><ele>208.406267457408</ele></trkpt>
<trkpt lat="45.7760976838151" lon="8.542753003254"><ele>206.240959224257</ele></trkpt>
<trkpt lat="45.776424188850406" lon="8.542528544830368"><ele>204.643523942133</ele></trkpt>
<trkpt lat="45.7765832016935" lon="8.54244459387313"><ele>204.378256570614</ele></trkpt>
<trkpt lat="45.7767615177592" lon="8.54237840381225"><ele>203.7939310108</ele></trkpt>
<trkpt lat="45.7769674310767" lon="8.54233652560908"><ele>203.339543696271</ele></trkpt>
<trkpt lat="45.77722684367791" lon="8.54231103325784"><ele>203.165924405774</ele></trkpt>
<trkpt lat="45.7775668792058" lon="8.54227839379983"><ele>201.235712245758</ele></trkpt>
<trkpt lat="45.7780044329913" lon="8.542235548849877"><ele>200.73797079785</ele></trkpt>
<trkpt lat="45.7783571659828" lon="8.542200846007068"><ele>199.662764288764</ele></trkpt>
<trkpt lat="45.7789582370039" lon="8.54214194635903"><ele>201.062391547832</ele></trkpt>
<trkpt lat="45.7797062445027" lon="8.54207070248263"><ele>200.748384653148</ele></trkpt>
<trkpt lat="45.7801520853408" lon="8.542029571689582"><ele>201.471707015942</ele></trkpt>
<trkpt lat="45.7805791259768" lon="8.541988569598132"><ele>199.674082770582</ele></trkpt>
<trkpt lat="45.78110890573901" lon="8.54191171803653"><ele>198.728222105598</ele></trkpt>
<trkpt lat="45.7815289532717" lon="8.541841132488749"><ele>195.345615094201</ele></trkpt>
<trkpt lat="45.78176459932531" lon="8.5417982209293"><ele>193.932649241696</ele></trkpt>
<trkpt lat="45.7819248420396" lon="8.541767036530729"><ele>193.831109038013</ele></trkpt>
<trkpt lat="45.7822625979831" lon="8.54169870529424"><ele>195.008270026282</ele></trkpt>
<trkpt lat="45.7828607866088" lon="8.54157684495642"><ele>199.783022317278</ele></trkpt>
<trkpt lat="45.7831945729826" lon="8.541505654414237"><ele>199.845950584969</ele></trkpt>
<trkpt lat="45.783337291414405" lon="8.54146814033049"><ele>200.307996995649</ele></trkpt>
<trkpt lat="45.7834479144935" lon="8.541421088249198"><ele>201.253267959018</ele></trkpt>
<trkpt lat="45.78362672690721" lon="8.54129818283966"><ele>203.561243271834</ele></trkpt>
<trkpt lat="45.7838875223746" lon="8.54107637259279"><ele>206.363218563493</ele></trkpt>
<trkpt lat="45.7840434122109" lon="8.540951946474678"><ele>206.629993327101</ele></trkpt>
<trkpt lat="45.7842744122314" lon="8.5408275736282"><ele>204.545020715806</ele></trkpt>
<trkpt lat="45.7845701605817" lon="8.54074362176885"><ele>200.088749942705</ele></trkpt>
<trkpt lat="45.784797444877604" lon="8.54068717180632"><ele>198.051787407451</ele></trkpt>
<trkpt lat="45.7849534091878" lon="8.54064882211818"><ele>198.287364078878</ele></trkpt>
<trkpt lat="45.7854116814456" lon="8.5405484131863"><ele>200.530975980627</ele></trkpt>
<trkpt lat="45.78593476403461" lon="8.54048696185438"><ele>201.276394607037</ele></trkpt>
<trkpt lat="45.7860532550788" lon="8.54045788269758"><ele>201.427887610064</ele></trkpt>
<trkpt lat="45.7863116162194" lon="8.54036121409591"><ele>201.930858027599</ele></trkpt>
<trkpt lat="45.7866312123679" lon="8.54022215419927"><ele>202.132313648667</ele></trkpt>
<trkpt lat="45.7869631398034" lon="8.540084765683343"><ele>202.735128856709</ele></trkpt>
<trkpt lat="45.7871178434013" lon="8.54002974966273"><ele>202.72324448772</ele></trkpt>
<trkpt lat="45.787354344091" lon="8.53996805305002"><ele>202.321811968594</ele></trkpt>
<trkpt lat="45.7875316796733" lon="8.53995680211635"><ele>202.135466246837</ele></trkpt>
<trkpt lat="45.7878084861106" lon="8.539972497016599"><ele>202.592216922355</ele></trkpt>
<trkpt lat="45.7880175977822" lon="8.540019311367102"><ele>203.225355510344</ele></trkpt>
<trkpt lat="45.7884928770224" lon="8.54017875318959"><ele>202.377570118142</ele></trkpt>
<trkpt lat="45.78872022248" lon="8.540254089358458"><ele>202.397113128084</ele></trkpt>
<trkpt lat="45.7888778620499" lon="8.540284745487961"><ele>202.32696764389</ele></trkpt>
<trkpt lat="45.7889613914295" lon="8.54027947496045"><ele>202.12455828967</ele></trkpt>
<trkpt lat="45.7890678093673" lon="8.5402371455393"><ele>201.779970939399</ele></trkpt>
<trkpt lat="45.7895239150913" lon="8.539977077295411"><ele>202.174207190853</ele></trkpt>
<trkpt lat="45.789928971725395" lon="8.53973626377634"><ele>201.831537238129</ele></trkpt>
<trkpt lat="45.7904017757008" lon="8.53947382346169"><ele>202.265953284945</ele></trkpt>
<trkpt lat="45.7905266455265" lon="8.539439050579333"><ele>202.311082688925</ele></trkpt>
<trkpt lat="45.7906250788894" lon="8.53943718326901"><ele>202.366742884666</ele></trkpt>
<trkpt lat="45.7910345523773" lon="8.53953360213435"><ele>200.920897711122</ele></trkpt>
<trkpt lat="45.79119604198489" lon="8.539535971180541"><ele>200.300799103888</ele></trkpt>
<trkpt lat="45.791384282782204" lon="8.53947345329271"><ele>201.157302770944</ele></trkpt>
<trkpt lat="45.7916345225927" lon="8.539371576688442"><ele>203.668421442631</ele></trkpt>
<trkpt lat="45.7918812755082" lon="8.539270848245637"><ele>204.909641708428</ele></trkpt>
<trkpt lat="45.79229244050709" lon="8.539103002741449"><ele>204.555401422189</ele></trkpt>
<trkpt lat="45.7926171110778" lon="8.538973095210192"><ele>202.61293670447</ele></trkpt>
<trkpt lat="45.793315591502" lon="8.538693079740312"><ele>201.199845775121</ele></trkpt>
<trkpt lat="45.7937891812317" lon="8.538506421154239"><ele>202.267500325014</ele></trkpt>
<trkpt lat="45.7943411298424" lon="8.53828566876979"><ele>201.56752498511</ele></trkpt>
<trkpt lat="45.79479565022239" lon="8.538105095596253"><ele>199.839135638415</ele></trkpt>
<trkpt lat="45.7950600265095" lon="8.537995596751509"><ele>200.003900249306</ele></trkpt>
<trkpt lat="45.795502295986" lon="8.53781885947621"><ele>201.369080781692</ele></trkpt>
<trkpt lat="45.7959582231292" lon="8.53763974229027"><ele>201.389801237102</ele></trkpt>
<trkpt lat="45.79622739002771" lon="8.53754042089478"><ele>202.054391626512</ele></trkpt>
<trkpt lat="45.796464651543204" lon="8.537493544603333"><ele>202.419694213462</ele></trkpt>
<trkpt lat="45.7966829497727" lon="8.53750601321396"><ele>202.124628107724</ele></trkpt>
<trkpt lat="45.7970995157702" lon="8.53758425189073"><ele>201.24129884312</ele></trkpt>
<trkpt lat="45.797293449994996" lon="8.53758596196417"><ele>200.958556163885</ele></trkpt>
<trkpt lat="45.7974759207672" lon="8.537543292888829"><ele>201.250829459864</ele></trkpt>
<trkpt lat="45.7978363255746" lon="8.53743695837854"><ele>202.871287947366</ele></trkpt>
<trkpt lat="45.7981315933527" lon="8.537345746758298"><ele>203.598006393186</ele></trkpt>
<trkpt lat="45.79855542791151" lon="8.53723208089063"><ele>203.407126424825</ele></trkpt>
<trkpt lat="45.7987341175944" lon="8.537204794328051"><ele>203.067615011096</ele></trkpt>
<trkpt lat="45.7988917407895" lon="8.53721415523105"><ele>202.443786348373</ele></trkpt>
<trkpt lat="45.799086234962196" lon="8.53726168862836"><ele>201.409168160192</ele></trkpt>
<trkpt lat="45.7993173443091" lon="8.53735431801826"><ele>201.094622185423</ele></trkpt>
<trkpt lat="45.799837298248306" lon="8.53758305884573"><ele>202.608819060925</ele></trkpt>
<trkpt lat="45.8001094537311" lon="8.537719755733328"><ele>203.663094357715</ele></trkpt>
<trkpt lat="45.800807600683406" lon="8.538080209097577"><ele>207.710385464989</ele></trkpt>
<trkpt lat="45.801322485906" lon="8.5383491850743"><ele>208.128265929223</ele></trkpt>
<trkpt lat="45.801562595534904" lon="8.538481040935118"><ele>208.643095307949</ele></trkpt>
<trkpt lat="45.8018024989483" lon="8.53864789414448"><ele>209.122627825877</ele></trkpt>
<trkpt lat="45.8020703308715" lon="8.538874945973582"><ele>209.707427236079</ele></trkpt>
<trkpt lat="45.8024746640866" lon="8.53922732147052"><ele>211.146539367714</ele></trkpt>
<trkpt lat="45.80282858037" lon="8.53954943147022"><ele>212.582454690148</ele></trkpt>
<trkpt lat="45.8029715244192" lon="8.53967805695182"><ele>212.654291197846</ele></trkpt>
<trkpt lat="45.80332732151619" lon="8.53999369530931"><ele>211.08527842686</ele></trkpt>
<trkpt lat="45.80359306764979" lon="8.54022617661402"><ele>209.01216606197</ele></trkpt>
<trkpt lat="45.8037526689948" lon="8.540346784785593"><ele>207.625888694521</ele></trkpt>
<trkpt lat="45.8039872868311" lon="8.54046629435028"><ele>206.647293771969</ele></trkpt>
<trkpt lat="45.80418082506281" lon="8.54050742219241"><ele>206.604568181948</ele></trkpt>
<trkpt lat="45.8043296232838" lon="8.540522828741851"><ele>206.485978749557</ele></trkpt>
<trkpt lat="45.8047891371811" lon="8.540546778540332"><ele>204.975861555317</ele></trkpt>
<trkpt lat="45.805346846645705" lon="8.540568768865539"><ele>203.748410688005</ele></trkpt>
<trkpt lat="45.8058582307807" lon="8.540600202678823"><ele>202.94532301824</ele></trkpt>
<trkpt lat="45.806046961223" lon="8.54062451176765"><ele>203.206947088857</ele></trkpt>
<trkpt lat="45.8062389686344" lon="8.540686069613018"><ele>203.321826281747</ele></trkpt>
<trkpt lat="45.806382998614495" lon="8.540783765674687"><ele>202.993744029238</ele></trkpt>
<trkpt lat="45.806549317115795" lon="8.540940731198818"><ele>202.729972792759</ele></trkpt>
<trkpt lat="45.8067269991116" lon="8.54116452082618"><ele>202.712649356564</ele></trkpt>
<trkpt lat="45.8068435686917" lon="8.54137003218638"><ele>202.308708136279</ele></trkpt>
<trkpt lat="45.8069279900807" lon="8.54155925167765"><ele>202.022376257559</ele></trkpt>
<trkpt lat="45.8069924357394" lon="8.54175227296566"><ele>201.729485853018</ele></trkpt>
<trkpt lat="45.807202130714295" lon="8.54252703699213"><ele>199.816380925956</ele></trkpt>
<trkpt lat="45.8072641204674" lon="8.542711298782509"><ele>199.233319413905</ele></trkpt>
<trkpt lat="45.8073183661299" lon="8.542829048403012"><ele>198.827735960927</ele></trkpt>
<trkpt lat="45.8074119722007" lon="8.542973348057359"><ele>198.485173422089</ele></trkpt>
<trkpt lat="45.807559209630305" lon="8.54310662999992"><ele>198.5537576442</ele></trkpt>
<trkpt lat="45.8077593057189" lon="8.54319804459812"><ele>199.128304941336</ele></trkpt>
<trkpt lat="45.8081215159665" lon="8.543330852308419"><ele>200.426163477424</ele></trkpt>
<trkpt lat="45.8084275300126" lon="8.543442384702741"><ele>200.559413541163</ele></trkpt>
<trkpt lat="45.8086524649803" lon="8.54352019074947"><ele>200.031736629423</ele></trkpt>
<trkpt lat="45.80884700382341" lon="8.543558226535158"><ele>200.400907833721</ele></trkpt>
<trkpt lat="45.8090755229007" lon="8.543553147883332"><ele>201.691887211622</ele></trkpt>
<trkpt lat="45.8093879906491" lon="8.54350053104532"><ele>202.882880418175</ele></trkpt>
<trkpt lat="45.8099424909579" lon="8.54339318286767"><ele>200.747958234181</ele></trkpt>
<trkpt lat="45.810178905702706" lon="8.543350133933348"><ele>200.411754676109</ele></trkpt>
<trkpt lat="45.81055325701309" lon="8.54331610380541"><ele>201.640152536821</ele></trkpt>
<trkpt lat="45.81072096894789" lon="8.54330825328909"><ele>202.143953626791</ele></trkpt>
<trkpt lat="45.8108994925415" lon="8.54333593400506"><ele>202.287140779087</ele></trkpt>
<trkpt lat="45.811048084546" lon="8.543400896531"><ele>202.073086975901</ele></trkpt>
<trkpt lat="45.8112643872505" lon="8.54351859238523"><ele>201.661512810705</ele></trkpt>
<trkpt lat="45.81171493679539" lon="8.54379808896022"><ele>200.466610676513</ele></trkpt>
<trkpt lat="45.811867881875706" lon="8.54389467389406"><ele>201.169230593372</ele></trkpt>
<trkpt lat="45.8120962619499" lon="8.54405875282056"><ele>202.77751074459</ele></trkpt>
<trkpt lat="45.8123734664" lon="8.54435567519111"><ele>203.538748180788</ele></trkpt>
<trkpt lat="45.81256538575761" lon="8.54449929531052"><ele>204.305818342912</ele></trkpt>
<trkpt lat="45.8127421401397" lon="8.54458256436809"><ele>204.74783765239</ele></trkpt>
<trkpt lat="45.8131493466479" lon="8.544748391380882"><ele>205.086276599187</ele></trkpt>
<trkpt lat="45.813375258679" lon="8.544814822841529"><ele>205.158765240498</ele></trkpt>
<trkpt lat="45.8138000793636" lon="8.544912119347991"><ele>205.675358535464</ele></trkpt>
<trkpt lat="45.8140099302685" lon="8.544971523675102"><ele>206.801806286999</ele></trkpt>
<trkpt lat="45.8142045654062" lon="8.54503805940645"><ele>207.030636340261</ele></trkpt>
<trkpt lat="45.8143391151342" lon="8.545110116052594"><ele>206.588888758511</ele></trkpt>
<trkpt lat="45.8146142129467" lon="8.545325581418249"><ele>205.292878243027</ele></trkpt>
<trkpt lat="45.8148670105973" lon="8.54556083758529"><ele>203.530143984286</ele></trkpt>
<trkpt lat="45.8151339595974" lon="8.545817164495348"><ele>202.71579757698</ele></trkpt>
<trkpt lat="45.8153337234509" lon="8.546021279898708"><ele>203.04651514255</ele></trkpt>
<trkpt lat="45.815516197682705" lon="8.546230653001928"><ele>203.285145054686</ele></trkpt>
<trkpt lat="45.81572538502989" lon="8.546490364681437"><ele>203.290006494386</ele></trkpt>
<trkpt lat="45.8160477760963" lon="8.54691124516743"><ele>201.828531972162</ele></trkpt>
<trkpt lat="45.8162261234877" lon="8.54722937874655"><ele>201.056820842729</ele></trkpt>
<trkpt lat="45.81631923139899" lon="8.54745976102624"><ele>201.30686704054</ele></trkpt>
<trkpt lat="45.8164077861093" lon="8.5477927649477"><ele>202.652129718136</ele></trkpt>
<trkpt lat="45.816458191142" lon="8.54820532670851"><ele>202.54589086095</ele></trkpt>
<trkpt lat="45.8165095822214" lon="8.54851754283772"><ele>201.746928137295</ele></trkpt>
<trkpt lat="45.81655474256" lon="8.54869566315562"><ele>201.646914246785</ele></trkpt>
<trkpt lat="45.81665116555471" lon="8.54893416695693"><ele>202.487728420747</ele></trkpt>
<trkpt lat="45.8167951043426" lon="8.54915335438015"><ele>203.939331241881</ele></trkpt>
<trkpt lat="45.8169540579726" lon="8.549385727858"><ele>204.19364414565</ele></trkpt>
<trkpt lat="45.8172198202852" lon="8.549762480990564"><ele>203.391073481342</ele></trkpt>
<trkpt lat="45.8177033179092" lon="8.55047095263201"><ele>205.05975450257</ele></trkpt>
<trkpt lat="45.8179581059836" lon="8.55086290180347"><ele>205.4094924119</ele></trkpt>
<trkpt lat="45.81823131736561" lon="8.551284733946003"><ele>204.681516438333</ele></trkpt>
<trkpt lat="45.8186013740342" lon="8.55184136131605"><ele>206.014112280467</ele></trkpt>
<trkpt lat="45.8188966310322" lon="8.552262802274269"><ele>208.043311556277</ele></trkpt>
<trkpt lat="45.819049940118" lon="8.552488081683597"><ele>208.733120461531</ele></trkpt>
<trkpt lat="45.8193475655901" lon="8.55294572517881"><ele>208.720612648131</ele></trkpt>
<trkpt lat="45.8198627271583" lon="8.55373481100975"><ele>209.879445675155</ele></trkpt>
<trkpt lat="45.820088829513004" lon="8.55408101818493"><ele>210.865408644905</ele></trkpt>
<trkpt lat="45.8203794545341" lon="8.55452886137215"><ele>210.769184762783</ele></trkpt>
<trkpt lat="45.8208110648701" lon="8.55518452689335"><ele>211.430249937161</ele></trkpt>
<trkpt lat="45.8212097908321" lon="8.55577062583924"><ele>212.58553069841</ele></trkpt>
<trkpt lat="45.821491666184" lon="8.55619850246206"><ele>213.968387127406</ele></trkpt>
<trkpt lat="45.8216556630891" lon="8.55643204845482"><ele>214.723143272696</ele></trkpt>
<trkpt lat="45.8219445014962" lon="8.55686965269523"><ele>216.31895433788</ele></trkpt>
<trkpt lat="45.82229597646461" lon="8.55740467720192"><ele>216.928951456057</ele></trkpt>
<trkpt lat="45.8225441945387" lon="8.55779258588406"><ele>218.555887069904</ele></trkpt>
<trkpt lat="45.8228860288986" lon="8.55831829434383"><ele>217.997155488292</ele></trkpt>
<trkpt lat="45.82306303206249" lon="8.55858727911335"><ele>218.211855268207</ele></trkpt>
<trkpt lat="45.823358257831494" lon="8.559035926219428"><ele>219.539514234371</ele></trkpt>
<trkpt lat="45.823640618833" lon="8.559473238269828"><ele>219.51479665743</ele></trkpt>
<trkpt lat="45.8239600095642" lon="8.559952020555878"><ele>218.257643707484</ele></trkpt>
<trkpt lat="45.82421906169899" lon="8.560348847311104"><ele>217.338561031288</ele></trkpt>
<trkpt lat="45.824465114853" lon="8.56074271032198"><ele>215.274584219116</ele></trkpt>
<trkpt lat="45.824797473289394" lon="8.561242398724069"><ele>215.014241499252</ele></trkpt>
<trkpt lat="45.8253103734622" lon="8.56202859634844"><ele>213.695195873991</ele></trkpt>
<trkpt lat="45.82564748864961" lon="8.56255275923077"><ele>214.69252264994</ele></trkpt>
<trkpt lat="45.825931384088406" lon="8.56300371192861"><ele>214.334843482182</ele></trkpt>
<trkpt lat="45.8264412708803" lon="8.563759266416548"><ele>212.235495722467</ele></trkpt>
<trkpt lat="45.826657719577" lon="8.564088666089768"><ele>212.408076197885</ele></trkpt>
<trkpt lat="45.826843868948" lon="8.56435871851568"><ele>213.049308333209</ele></trkpt>
<trkpt lat="45.8270306463001" lon="8.56462956763831"><ele>212.656430368741</ele></trkpt>
<trkpt lat="45.8272889870063" lon="8.56502467733496"><ele>211.019138791818</ele></trkpt>
<trkpt lat="45.8275311182139" lon="8.565391439324536"><ele>210.813870723758</ele></trkpt>
<trkpt lat="45.8277560613657" lon="8.56572399694314"><ele>209.257113932004</ele></trkpt>
<trkpt lat="45.82787691440019" lon="8.56587509991517"><ele>207.517772915399</ele></trkpt>
<trkpt lat="45.8280300827383" lon="8.566007424179482"><ele>204.981596394254</ele></trkpt>
<trkpt lat="45.828196216311" lon="8.566057248645382"><ele>202.886566832955</ele></trkpt>
<trkpt lat="45.8282948094861" lon="8.566053046622821"><ele>202.063420377371</ele></trkpt>
<trkpt lat="45.8284968274616" lon="8.565981523175708"><ele>200.985775112272</ele></trkpt>
<trkpt lat="45.8287260902913" lon="8.56585395361249"><ele>200.02008885708</ele></trkpt>
<trkpt lat="45.8290365223111" lon="8.56566336617833"><ele>200.177042891977</ele></trkpt>
<trkpt lat="45.82957261120979" lon="8.56524835186654"><ele>202.18560749524</ele></trkpt>
<trkpt lat="45.8298247567527" lon="8.565087165464622"><ele>202.349310031276</ele></trkpt>
<trkpt lat="45.8300538293126" lon="8.56500225387259"><ele>201.440363167652</ele></trkpt>
<trkpt lat="45.8303115861865" lon="8.564932878318608"><ele>200.748012141898</ele></trkpt>
<trkpt lat="45.83045257997809" lon="8.56490636595646"><ele>200.685367191069</ele></trkpt>
<trkpt lat="45.830636984460696" lon="8.564917522270658"><ele>200.795617547008</ele></trkpt>
<trkpt lat="45.8307449691108" lon="8.56494152273634"><ele>200.877443653053</ele></trkpt>
<trkpt lat="45.83088554768089" lon="8.565018030173572"><ele>200.847977999306</ele></trkpt>
<trkpt lat="45.8309995980988" lon="8.56512949988213"><ele>200.761997215071</ele></trkpt>
<trkpt lat="45.8315023275702" lon="8.56567334885153"><ele>201.784107489532</ele></trkpt>
<trkpt lat="45.8317897784039" lon="8.56599075401114"><ele>200.922643325991</ele></trkpt>
<trkpt lat="45.8322072176447" lon="8.56645804253133"><ele>200.518318162162</ele></trkpt>
<trkpt lat="45.8325869199356" lon="8.566883540295489"><ele>203.378741758186</ele></trkpt>
<trkpt lat="45.8327885999658" lon="8.56710555006139"><ele>203.899386379288</ele></trkpt>
<trkpt lat="45.8332521866235" lon="8.56762331334206"><ele>203.52707811244</ele></trkpt>
<trkpt lat="45.8336666353651" lon="8.56808068390401"><ele>200.698847531581</ele></trkpt>
<trkpt lat="45.834051976578" lon="8.56849608022583"><ele>199.20366969182</ele></trkpt>
<trkpt lat="45.8342576488238" lon="8.56871077926213"><ele>199.479959301905</ele></trkpt>
<trkpt lat="45.8343760409833" lon="8.56881083011849"><ele>200.218533875266</ele></trkpt>
<trkpt lat="45.83457137764769" lon="8.568945488579303"><ele>201.469410681491</ele></trkpt>
<trkpt lat="45.8351671880048" lon="8.56932437044058"><ele>202.851350909259</ele></trkpt>
<trkpt lat="45.8353248258989" lon="8.56944058996997"><ele>202.456720963454</ele></trkpt>
<trkpt lat="45.8355724034396" lon="8.569661447803762"><ele>202.723731730807</ele></trkpt>
<trkpt lat="45.8357346600336" lon="8.56984221691807"><ele>203.737260095903</ele></trkpt>
<trkpt lat="45.8359377227277" lon="8.57011550800582"><ele>202.882740091413</ele></trkpt>
<trkpt lat="45.8361627548289" lon="8.570421357339669"><ele>199.634628934471</ele></trkpt>
<trkpt lat="45.83632533285711" lon="8.570641933666503"><ele>198.417046405379</ele></trkpt>
<trkpt lat="45.83652814972741" lon="8.570870487588108"><ele>198.290139214782</ele></trkpt>
<trkpt lat="45.83672302599591" lon="8.57103956785323"><ele>199.430637729569</ele></trkpt>
<trkpt lat="45.836869439272796" lon="8.571132123080988"><ele>200.639660536039</ele></trkpt>
<trkpt lat="45.837173623279604" lon="8.57129209943824"><ele>202.355427209633</ele></trkpt>
<trkpt lat="45.837512898203194" lon="8.57150257482295"><ele>202.196237066898</ele></trkpt>
<trkpt lat="45.8378215723303" lon="8.57169340078097"><ele>202.721233088249</ele></trkpt>
<trkpt lat="45.8379679685774" lon="8.57180855626244"><ele>202.414099283424</ele></trkpt>
<trkpt lat="45.8382255724615" lon="8.572029407466628"><ele>201.186866606162</ele></trkpt>
<trkpt lat="45.8386734113205" lon="8.572437440083224"><ele>200.541619114767</ele></trkpt>
<trkpt lat="45.8391248648606" lon="8.57285126809712"><ele>201.639457856374</ele></trkpt>
<trkpt lat="45.8393468443634" lon="8.57304223701564"><ele>200.707101861457</ele></trkpt>
<trkpt lat="45.8395322899975" lon="8.57318239664365"><ele>200.214078929621</ele></trkpt>
<trkpt lat="45.83979706717199" lon="8.573321340548462"><ele>200.255488367392</ele></trkpt>
<trkpt lat="45.84024998603801" lon="8.57349628422939"><ele>200.284961954282</ele></trkpt>
<trkpt lat="45.840493004086" lon="8.573576280845522"><ele>200.024613214085</ele></trkpt>
<trkpt lat="45.840625456397305" lon="8.57360449722927"><ele>199.729235732131</ele></trkpt>
<trkpt lat="45.8407989488489" lon="8.57361073461923"><ele>199.195173780229</ele></trkpt>
<trkpt lat="45.840914185664694" lon="8.57359770367884"><ele>198.722109567729</ele></trkpt>
<trkpt lat="45.84129004454741" lon="8.57352160622293"><ele>196.747274839937</ele></trkpt>
<trkpt lat="45.8414448178477" lon="8.573488235568508"><ele>196.467855319256</ele></trkpt>
<trkpt lat="45.8417654993925" lon="8.573411609552181"><ele>197.302949403044</ele></trkpt>
<trkpt lat="45.842146985668094" lon="8.573317074478902"><ele>199.193720364732</ele></trkpt>
<trkpt lat="45.8424707566757" lon="8.5732336460613"><ele>199.433039771076</ele></trkpt>
<trkpt lat="45.8428812785514" lon="8.573113529371179"><ele>198.189945675421</ele></trkpt>
<trkpt lat="45.8431239305228" lon="8.5730223656201"><ele>196.684293873429</ele></trkpt>
<trkpt lat="45.8434543173752" lon="8.57287271947084"><ele>195.310331072249</ele></trkpt>
<trkpt lat="45.8437605474548" lon="8.572728221456"><ele>197.3850404379</ele></trkpt>
<trkpt lat="45.8441475239898" lon="8.57254637030696"><ele>197.560871754852</ele></trkpt>
<trkpt lat="45.8443305199872" lon="8.57247513459697"><ele>197.916716860081</ele></trkpt>
<trkpt lat="45.844531703750505" lon="8.57244465616143"><ele>198.519365057676</ele></trkpt>
<trkpt lat="45.8449624483736" lon="8.572435564176969"><ele>200.273068601626</ele></trkpt>
<trkpt lat="45.845185856808406" lon="8.5724002625728"><ele>201.462769028967</ele></trkpt>
<trkpt lat="45.8452488291451" lon="8.57237727506646"><ele>201.886161835461</ele></trkpt>
<trkpt lat="45.8455182804337" lon="8.57223680929457"><ele>204.23671693979</ele></trkpt>
<trkpt lat="45.84574774960561" lon="8.572116958598228"><ele>205.328114052721</ele></trkpt>
<trkpt lat="45.845906884997" lon="8.572034012529897"><ele>204.965865182846</ele></trkpt>
<trkpt lat="45.846305359997" lon="8.57182631376729"><ele>202.369963578778</ele></trkpt>
<trkpt lat="45.846464749997" lon="8.57174323343001"><ele>202.099177394988</ele></trkpt>
<trkpt lat="45.8469331852379" lon="8.57149872314618"><ele>202.960958121877</ele></trkpt>
<trkpt lat="45.8472848244609" lon="8.571313607191392"><ele>205.509937739245</ele></trkpt>
<trkpt lat="45.84769236302711" lon="8.57110020881317"><ele>207.355084889723</ele></trkpt>
<trkpt lat="45.8478370318905" lon="8.57104189517436"><ele>207.929316095493</ele></trkpt>
<trkpt lat="45.8481093747797" lon="8.57097754064861"><ele>207.686353840152</ele></trkpt>
<trkpt lat="45.848438637473706" lon="8.57090921226864"><ele>205.663482704252</ele></trkpt>
<trkpt lat="45.8488785239504" lon="8.570817155575648"><ele>201.658195695393</ele></trkpt>
<trkpt lat="45.849132038365795" lon="8.570742554018908"><ele>200.690676488504</ele></trkpt>
<trkpt lat="45.84939254377049" lon="8.570608338363982"><ele>201.574661155815</ele></trkpt>
<trkpt lat="45.8495482056096" lon="8.57052071892571"><ele>201.465509201064</ele></trkpt>
<trkpt lat="45.85001413392239" lon="8.57025890271523"><ele>198.18085220029</ele></trkpt>
<trkpt lat="45.8503293238342" lon="8.57008299379727"><ele>196.565685617897</ele></trkpt>
<trkpt lat="45.8505706166672" lon="8.56995605709343"><ele>196.554132928683</ele></trkpt>
<trkpt lat="45.8507313026892" lon="8.56988913182964"><ele>195.852540167679</ele></trkpt>
<trkpt lat="45.85086496032909" lon="8.56985312153851"><ele>194.978774619443</ele></trkpt>
<trkpt lat="45.851143332408505" lon="8.5698141185901"><ele>194.257989470989</ele></trkpt>
<trkpt lat="45.85172603195531" lon="8.56978862662589"><ele>194.548795023609</ele></trkpt>
<trkpt lat="45.8520002905995" lon="8.569771449268238"><ele>194.844753645847</ele></trkpt>
<trkpt lat="45.852313497755205" lon="8.56971944843911"><ele>195.786722130418</ele></trkpt>
<trkpt lat="45.8527065158601" lon="8.56962523152889"><ele>197.410139669812</ele></trkpt>
<trkpt lat="45.8532132842261" lon="8.56949708117389"><ele>200.817992560536</ele></trkpt>
<trkpt lat="45.85371096294789" lon="8.569360190624549"><ele>202.324205457559</ele></trkpt>
<trkpt lat="45.85409211578891" lon="8.56924356226704"><ele>201.122873607312</ele></trkpt>
<trkpt lat="45.8543963963788" lon="8.569148392639168"><ele>200.810918726911</ele></trkpt>
<trkpt lat="45.8547977036354" lon="8.569020991941978"><ele>199.678574385083</ele></trkpt>
<trkpt lat="45.8556519517096" lon="8.568744726690102"><ele>199.392094949184</ele></trkpt>
<trkpt lat="45.8560959283679" lon="8.568603468824913"><ele>197.507699738376</ele></trkpt>
<trkpt lat="45.8564294408439" lon="8.568499786504681"><ele>196.944368204125</ele></trkpt>
<trkpt lat="45.8567842198721" lon="8.56841569693056"><ele>195.027331507809</ele></trkpt>
<trkpt lat="45.8570396716649" lon="8.568378238298656"><ele>195.222321355844</ele></trkpt>
<trkpt lat="45.8577111541315" lon="8.56830057947473"><ele>198.037068245901</ele></trkpt>
<trkpt lat="45.85795539351841" lon="8.56827300970972"><ele>198.362644968819</ele></trkpt>
<trkpt lat="45.8582825445343" lon="8.56823619027056"><ele>197.324723809296</ele></trkpt>
<trkpt lat="45.8586550187171" lon="8.568192097673851"><ele>194.329926813636</ele></trkpt>
<trkpt lat="45.8589842542461" lon="8.56812288512812"><ele>193.077203764629</ele></trkpt>
<trkpt lat="45.8594412237692" lon="8.56799730198355"><ele>193.037794319605</ele></trkpt>
<trkpt lat="45.8597794205493" lon="8.567903963750402"><ele>193.706237570477</ele></trkpt>
<trkpt lat="45.860027863402" lon="8.567834887155627"><ele>194.982447753069</ele></trkpt>
<trkpt lat="45.860512299458506" lon="8.56769789702866"><ele>198.329686743216</ele></trkpt>
<trkpt lat="45.8608352946717" lon="8.56760664763229"><ele>198.678800484648</ele></trkpt>
<trkpt lat="45.861075232896695" lon="8.56754061548571"><ele>197.40318452076</ele></trkpt>
<trkpt lat="45.86128574597869" lon="8.56748519611177"><ele>197.436398158832</ele></trkpt>
<trkpt lat="45.8614523142716" lon="8.56745782266849"><ele>198.111042001314</ele></trkpt>
<trkpt lat="45.8616289218382" lon="8.567448058477432"><ele>199.120123461061</ele></trkpt>
<trkpt lat="45.8620237971924" lon="8.56743773210815"><ele>203.30614679036</ele></trkpt>
<trkpt lat="45.86226927523091" lon="8.56742770335396"><ele>204.830604013266</ele></trkpt>
<trkpt lat="45.8624287785372" lon="8.56742449679197"><ele>204.401059887254</ele></trkpt>
<trkpt lat="45.8628300748142" lon="8.567409849942942"><ele>198.901301151832</ele></trkpt>
<trkpt lat="45.8630807477501" lon="8.5673836513153"><ele>197.133211718315</ele></trkpt>
<trkpt lat="45.863556249146605" lon="8.567326685647803"><ele>198.080555377686</ele></trkpt>
<trkpt lat="45.8640547213958" lon="8.56727253954974"><ele>200.858110214136</ele></trkpt>
<trkpt lat="45.864469946321805" lon="8.56722101212715"><ele>200.630416878075</ele></trkpt>
<trkpt lat="45.8646836718935" lon="8.56718637728346"><ele>200.474715727272</ele></trkpt>
<trkpt lat="45.8648248424957" lon="8.56714696699329"><ele>200.104207396083</ele></trkpt>
<trkpt lat="45.86502656622239" lon="8.567053214720431"><ele>199.067249541571</ele></trkpt>
<trkpt lat="45.86524362881569" lon="8.56691379866627"><ele>197.509723779198</ele></trkpt>
<trkpt lat="45.865458671874606" lon="8.56676677771932"><ele>197.01312748153</ele></trkpt>
<trkpt lat="45.8658335921815" lon="8.56651124240794"><ele>197.647380106086</ele></trkpt>
<trkpt lat="45.8664681470722" lon="8.56607418066142"><ele>200.217236990453</ele></trkpt>
<trkpt lat="45.8668291978778" lon="8.56585077247333"><ele>201.416356303501</ele></trkpt>
<trkpt lat="45.867061871873396" lon="8.56573737273134"><ele>202.725830462601</ele></trkpt>
<trkpt lat="45.867341697565394" lon="8.56561529230163"><ele>203.801117237197</ele></trkpt>
<trkpt lat="45.867735424919594" lon="8.565463114488079"><ele>206.361690351407</ele></trkpt>
<trkpt lat="45.8679069334946" lon="8.56539871131641"><ele>206.818671300486</ele></trkpt>
<trkpt lat="45.868249966008506" lon="8.56526989804044"><ele>203.887503003189</ele></trkpt>
<trkpt lat="45.86842164453729" lon="8.56520551562357"><ele>203.003065547947</ele></trkpt>
<trkpt lat="45.8688364640231" lon="8.56504983951654"><ele>206.31032168814</ele></trkpt>
<trkpt lat="45.8689984492898" lon="8.56498896055254"><ele>206.824964390704</ele></trkpt>
<trkpt lat="45.86939163245199" lon="8.5648393856342"><ele>203.869008660766</ele></trkpt>
<trkpt lat="45.86969814362039" lon="8.564702808464821"><ele>202.571071308196</ele></trkpt>
<trkpt lat="45.8700047332169" lon="8.56456239336019"><ele>199.963220465293</ele></trkpt>
<trkpt lat="45.8704856965999" lon="8.56434191338211"><ele>198.86071030875</ele></trkpt>
<trkpt lat="45.8708074137158" lon="8.564192994853219"><ele>200.118451284981</ele></trkpt>
<trkpt lat="45.8709309152603" lon="8.56411946538233"><ele>200.641564669281</ele></trkpt>
<trkpt lat="45.8710493077446" lon="8.56401204051562"><ele>201.077560927371</ele></trkpt>
<trkpt lat="45.8711269508108" lon="8.563915678358132"><ele>201.42208328207</ele></trkpt>
<trkpt lat="45.8713492771409" lon="8.56358526342204"><ele>202.574603546877</ele></trkpt>
<trkpt lat="45.87154676421629" lon="8.563299478767401"><ele>202.067859700167</ele></trkpt>
<trkpt lat="45.8716408924065" lon="8.56319351629751"><ele>201.162773339968</ele></trkpt>
<trkpt lat="45.87181533685991" lon="8.563041905929188"><ele>198.887753375039</ele></trkpt>
<trkpt lat="45.8720800041721" lon="8.562880509341369"><ele>196.478758221784</ele></trkpt>
<trkpt lat="45.8725109432624" lon="8.56264073048286"><ele>197.540676781879</ele></trkpt>
<trkpt lat="45.872793024395" lon="8.562480250757869"><ele>197.893745182013</ele></trkpt>
<trkpt lat="45.872945478905" lon="8.562382044628878"><ele>198.465592904918</ele></trkpt>
<trkpt lat="45.8731869616752" lon="8.56217713380026"><ele>198.435786130309</ele></trkpt>
<trkpt lat="45.8732965615866" lon="8.562043527762944"><ele>198.12040947982</ele></trkpt>
<trkpt lat="45.873451560933" lon="8.56182521459291"><ele>198.550699349248</ele></trkpt>
<trkpt lat="45.8736810574994" lon="8.56148619339483"><ele>197.308219319731</ele></trkpt>
<trkpt lat="45.8738803622098" lon="8.561211491069113"><ele>200.15035668621</ele></trkpt>
<trkpt lat="45.8740149257312" lon="8.561064365100169"><ele>202.298139214715</ele></trkpt>
<trkpt lat="45.8742769427168" lon="8.560805853436683"><ele>202.975618291184</ele></trkpt>
<trkpt lat="45.8745705575221" lon="8.56053402345295"><ele>201.552882444343</ele></trkpt>
<trkpt lat="45.87508192727239" lon="8.56006091496202"><ele>200.168554290652</ele></trkpt>
<trkpt lat="45.87548456857339" lon="8.55966969736731"><ele>196.560004330454</ele></trkpt>
<trkpt lat="45.8756997147111" lon="8.559461370095848"><ele>196.636303837788</ele></trkpt>
<trkpt lat="45.87598727264209" lon="8.559182925089893"><ele>201.151643997693</ele></trkpt>
<trkpt lat="45.8761307646572" lon="8.55904408037043"><ele>201.537014959859</ele></trkpt>
<trkpt lat="45.8764203452997" lon="8.55876821504753"><ele>200.856094742475</ele></trkpt>
<trkpt lat="45.8769006371352" lon="8.55831679500588"><ele>201.996703070043</ele></trkpt>
<trkpt lat="45.87715046230419" lon="8.558062357293222"><ele>201.486386860347</ele></trkpt>
<trkpt lat="45.8772801909045" lon="8.557898311465488"><ele>201.492165703769</ele></trkpt>
<trkpt lat="45.8774046266043" lon="8.55771920752876"><ele>203.117574734901</ele></trkpt>
<trkpt lat="45.8775938622907" lon="8.557435387138192"><ele>207.051077724</ele></trkpt>
<trkpt lat="45.8777176314121" lon="8.557249390635222"><ele>207.325656589129</ele></trkpt>
<trkpt lat="45.8780593145979" lon="8.55674610648719"><ele>204.054500629337</ele></trkpt>
<trkpt lat="45.8782350414053" lon="8.55652016001294"><ele>202.480215791576</ele></trkpt>
<trkpt lat="45.8785066818999" lon="8.55620518449703"><ele>202.174655054231</ele></trkpt>
<trkpt lat="45.8787926946296" lon="8.555913376761"><ele>201.614278667798</ele></trkpt>
<trkpt lat="45.8789709118382" lon="8.55572404883027"><ele>200.583916114111</ele></trkpt>
<trkpt lat="45.8791205823378" lon="8.5554875473478"><ele>200.80030324968</ele></trkpt>
<trkpt lat="45.8792449099122" lon="8.55520740406277"><ele>202.74299213904</ele></trkpt>
<trkpt lat="45.8793638566027" lon="8.55492149304186"><ele>203.767749123675</ele></trkpt>
<trkpt lat="45.879531390140706" lon="8.55453228837119"><ele>203.602830576657</ele></trkpt>
<trkpt lat="45.8797692585531" lon="8.55411145662903"><ele>201.954206193589</ele></trkpt>
<trkpt lat="45.8800810718888" lon="8.5535829413674"><ele>203.449576061892</ele></trkpt>
<trkpt lat="45.880362881938" lon="8.55309578405253"><ele>203.962835850337</ele></trkpt>
<trkpt lat="45.8806631936066" lon="8.552566420978131"><ele>202.583176363975</ele></trkpt>
<trkpt lat="45.8807412612338" lon="8.55241814704228"><ele>202.29424621144</ele></trkpt>
<trkpt lat="45.8808261841194" lon="8.55214196983387"><ele>202.65448357268</ele></trkpt>
<trkpt lat="45.8809189814124" lon="8.55161988096402"><ele>204.119797384262</ele></trkpt>
<trkpt lat="45.881022910769595" lon="8.55102421605"><ele>207.027594189225</ele></trkpt>
<trkpt lat="45.8810762491107" lon="8.55071845765684"><ele>207.383056393231</ele></trkpt>
<trkpt lat="45.881218435092" lon="8.54997884816131"><ele>206.157465262548</ele></trkpt>
<trkpt lat="45.8812945003166" lon="8.549647665922468"><ele>205.297819115536</ele></trkpt>
<trkpt lat="45.8813881380606" lon="8.54938490433776"><ele>204.3403561203</ele></trkpt>
<trkpt lat="45.881656382507906" lon="8.54879216028842"><ele>203.546161601742</ele></trkpt>
<trkpt lat="45.8819473989463" lon="8.54816242424544"><ele>204.912427214613</ele></trkpt>
<trkpt lat="45.88212186266009" lon="8.54776801249982"><ele>205.973643501335</ele></trkpt>
<trkpt lat="45.88230951362489" lon="8.54735980867333"><ele>205.635492708509</ele></trkpt>
<trkpt lat="45.8824949698469" lon="8.54701652526561"><ele>206.524799043139</ele></trkpt>
<trkpt lat="45.882598260561" lon="8.546854750426448"><ele>206.371994451211</ele></trkpt>
<trkpt lat="45.88275523390641" lon="8.546616621935529"><ele>204.696128334669</ele></trkpt>
<trkpt lat="45.8828453950289" lon="8.54645681202274"><ele>203.42193912492</ele></trkpt>
<trkpt lat="45.8829260994173" lon="8.54623179811929"><ele>202.439058863531</ele></trkpt>
<trkpt lat="45.8829672451634" lon="8.546027907778488"><ele>202.443880360901</ele></trkpt>
<trkpt lat="45.883024197590004" lon="8.545574649799331"><ele>202.967146471574</ele></trkpt>
<trkpt lat="45.88308092078021" lon="8.54507601747747"><ele>202.097767215746</ele></trkpt>
<trkpt lat="45.8831599244185" lon="8.54440100668771"><ele>201.644952021917</ele></trkpt>
<trkpt lat="45.8833138760603" lon="8.54312397120159"><ele>202.36732079423</ele></trkpt>
<trkpt lat="45.8833807254729" lon="8.542861965599899"><ele>202.352500040807</ele></trkpt>
<trkpt lat="45.8836521901453" lon="8.54220989906772"><ele>202.052744094837</ele></trkpt>
<trkpt lat="45.88388906140481" lon="8.541641072089039"><ele>204.919589214947</ele></trkpt>
<trkpt lat="45.8840677279122" lon="8.5411948468644"><ele>203.086207328656</ele></trkpt>
<trkpt lat="45.884128960879" lon="8.54103444560405"><ele>203.007750103748</ele></trkpt>
<trkpt lat="45.88427358884789" lon="8.54062784017682"><ele>204.297008837005</ele></trkpt>
<trkpt lat="45.8844739322634" lon="8.54003525668166"><ele>205.724302491781</ele></trkpt>
<trkpt lat="45.8845587821827" lon="8.53978457368469"><ele>205.77102821962</ele></trkpt>
<trkpt lat="45.884730279751" lon="8.53919294384779"><ele>201.827420507859</ele></trkpt>
<trkpt lat="45.88483031340719" lon="8.538842170318821"><ele>200.494703611589</ele></trkpt>
<trkpt lat="45.8850683454458" lon="8.53802422474057"><ele>200.430470915133</ele></trkpt>
<trkpt lat="45.88519890216111" lon="8.53753378217328"><ele>200.625109812489</ele></trkpt>
<trkpt lat="45.8853670400749" lon="8.53691911007496"><ele>199.415824024767</ele></trkpt>
<trkpt lat="45.8855761920389" lon="8.53626319929583"><ele>199.362539784766</ele></trkpt>
<trkpt lat="45.885729820273994" lon="8.535812925860359"><ele>199.608966155187</ele></trkpt>
<trkpt lat="45.885907524507" lon="8.53534418657455"><ele>200.106482433034</ele></trkpt>
<trkpt lat="45.8861215960089" lon="8.53482416200182"><ele>200.202760357621</ele></trkpt>
<trkpt lat="45.886299423433094" lon="8.534448377003628"><ele>200.331873093113</ele></trkpt>
<trkpt lat="45.8865363359254" lon="8.53400015737834"><ele>200.16467198927</ele></trkpt>
<trkpt lat="45.8866961536663" lon="8.53373216285875"><ele>200.109845795425</ele></trkpt>
<trkpt lat="45.88696817563219" lon="8.533305691082854"><ele>199.556230926867</ele></trkpt>
<trkpt lat="45.88754157720891" lon="8.53240730555724"><ele>199.119613565368</ele></trkpt>
<trkpt lat="45.8879405503289" lon="8.53177944289836"><ele>199.390722391532</ele></trkpt>
<trkpt lat="45.8881481447848" lon="8.5314481275557"><ele>199.12541576645</ele></trkpt>
<trkpt lat="45.8882571042716" lon="8.53125360026535"><ele>199.108745472541</ele></trkpt>
<trkpt lat="45.88831237704339" lon="8.53112813835839"><ele>199.40126455335</ele></trkpt>
<trkpt lat="45.88837536405149" lon="8.530923840168239"><ele>200.436377508294</ele></trkpt>
<trkpt lat="45.888414189959" lon="8.530723977945868"><ele>201.697385143132</ele></trkpt>
<trkpt lat="45.888433660612705" lon="8.530394775416362"><ele>202.876049392277</ele></trkpt>
<trkpt lat="45.8884142875868" lon="8.52993962666481"><ele>204.056028864959</ele></trkpt>
<trkpt lat="45.88836774779809" lon="8.52895143668184"><ele>209.596610153352</ele></trkpt>
<trkpt lat="45.88834802840551" lon="8.52852936242266"><ele>211.65960998608</ele></trkpt>
<trkpt lat="45.8883268382626" lon="8.52806911569738"><ele>213.066380547564</ele></trkpt>
<trkpt lat="45.888251454368" lon="8.52659839101732"><ele>214.99095836755</ele></trkpt>
<trkpt lat="45.888212862725" lon="8.525817773359769"><ele>213.66378749018</ele></trkpt>
<trkpt lat="45.8881991973407" lon="8.52551970931965"><ele>214.035241851755</ele></trkpt>
<trkpt lat="45.88819830292509" lon="8.525313831073388"><ele>214.786783096067</ele></trkpt>
<trkpt lat="45.888227018992794" lon="8.52510015580159"><ele>215.125120293469</ele></trkpt>
<trkpt lat="45.8883004558398" lon="8.524857260036868"><ele>214.740683229322</ele></trkpt>
<trkpt lat="45.88856670269269" lon="8.52423871959789"><ele>213.532205096188</ele></trkpt>
<trkpt lat="45.8890563283467" lon="8.523141795348932"><ele>207.440132119432</ele></trkpt>
<trkpt lat="45.8892553671559" lon="8.52269821280009"><ele>205.356352314893</ele></trkpt>
<trkpt lat="45.889545671751605" lon="8.522053196276858"><ele>205.517902464612</ele></trkpt>
<trkpt lat="45.8897318194049" lon="8.521639679454669"><ele>204.739231041176</ele></trkpt>
<trkpt lat="45.890058306363" lon="8.52091415225158"><ele>204.549178122774</ele></trkpt>
<trkpt lat="45.89014166715079" lon="8.520726003266072"><ele>203.997052487485</ele></trkpt>
<trkpt lat="45.89035183532129" lon="8.520248969393117"><ele>200.280763062214</ele></trkpt>
<trkpt lat="45.890435855373696" lon="8.52005488322254"><ele>199.540307356196</ele></trkpt>
<trkpt lat="45.8905716761418" lon="8.51975650712379"><ele>199.908750713244</ele></trkpt>
<trkpt lat="45.8906847628244" lon="8.51956361055004"><ele>201.118456431304</ele></trkpt>
<trkpt lat="45.8908098994102" lon="8.51941014187543"><ele>202.492097390147</ele></trkpt>
<trkpt lat="45.89095605099791" lon="8.51927570306833"><ele>203.873960479403</ele></trkpt>
<trkpt lat="45.8912003025111" lon="8.51910061314244"><ele>205.171675579229</ele></trkpt>
<trkpt lat="45.891326217791004" lon="8.519014912608261"><ele>204.913127633961</ele></trkpt>
<trkpt lat="45.8916876765304" lon="8.51877515676883"><ele>202.170717276777</ele></trkpt>
<trkpt lat="45.891852604876505" lon="8.51867375371805"><ele>201.649789295304</ele></trkpt>
<trkpt lat="45.89221006688649" lon="8.518427555724331"><ele>202.819013526415</ele></trkpt>
<trkpt lat="45.8926196453692" lon="8.51816138495702"><ele>202.615504953886</ele></trkpt>
<trkpt lat="45.8927818438311" lon="8.51803008739694"><ele>202.305713534591</ele></trkpt>
<trkpt lat="45.8929266972063" lon="8.517858380088471"><ele>201.992738332554</ele></trkpt>
<trkpt lat="45.8930008243003" lon="8.51769210255051"><ele>201.760962243724</ele></trkpt>
<trkpt lat="45.8930810246582" lon="8.517464309485879"><ele>201.276632940853</ele></trkpt>
<trkpt lat="45.8932670820094" lon="8.51683865157382"><ele>200.796379346304</ele></trkpt>
<trkpt lat="45.893343124618006" lon="8.51664117600087"><ele>201.13296735204</ele></trkpt>
<trkpt lat="45.89342382485761" lon="8.51648505945258"><ele>201.705071857289</ele></trkpt>
<trkpt lat="45.8935422774415" lon="8.51630898033186"><ele>202.478131045461</ele></trkpt>
<trkpt lat="45.8936609992174" lon="8.516184278455869"><ele>202.903387684796</ele></trkpt>
<trkpt lat="45.8941529714354" lon="8.515762578118183"><ele>204.948491567465</ele></trkpt>
<trkpt lat="45.8944395213832" lon="8.51552841911812"><ele>207.132005212623</ele></trkpt>
<trkpt lat="45.8945842761721" lon="8.51543595064569"><ele>207.790242576397</ele></trkpt>
<trkpt lat="45.894838215173" lon="8.515289831969712"><ele>207.738182425526</ele></trkpt>
<trkpt lat="45.8951506063424" lon="8.51513770092019"><ele>205.512752366372</ele></trkpt>
<trkpt lat="45.8954181149824" lon="8.51500303237456"><ele>202.145918923054</ele></trkpt>
<trkpt lat="45.8955600076735" lon="8.51492782637597"><ele>201.061149086002</ele></trkpt>
<trkpt lat="45.8958624868459" lon="8.51476208921863"><ele>201.622674486322</ele></trkpt>
<trkpt lat="45.8959913470702" lon="8.51467872556399"><ele>202.24541901682</ele></trkpt>
<trkpt lat="45.89612832280721" lon="8.51456857397337"><ele>202.912314647968</ele></trkpt>
<trkpt lat="45.89635988127589" lon="8.51435326957094"><ele>203.055875394202</ele></trkpt>
<trkpt lat="45.8968508410267" lon="8.51389925839343"><ele>201.101225809116</ele></trkpt>
<trkpt lat="45.8971699647295" lon="8.513598627303258"><ele>202.042723553442</ele></trkpt>
<trkpt lat="45.8973080597092" lon="8.51346804152674"><ele>201.353899564903</ele></trkpt>
<trkpt lat="45.897515256032" lon="8.51327190046834"><ele>198.913812440465</ele></trkpt>
<trkpt lat="45.8977186951522" lon="8.51307519376398"><ele>197.976323942223</ele></trkpt>
<trkpt lat="45.8980240162045" lon="8.512766342541639"><ele>198.034901247419</ele></trkpt>
<trkpt lat="45.89863425371511" lon="8.51210357374651"><ele>199.237859835244</ele></trkpt>
<trkpt lat="45.898897671250204" lon="8.51180603672893"><ele>200.411972372077</ele></trkpt>
<trkpt lat="45.899072372994105" lon="8.51158963928435"><ele>201.667857698807</ele></trkpt>
<trkpt lat="45.8992177119455" lon="8.51138304057496"><ele>202.80641076217</ele></trkpt>
<trkpt lat="45.8995746021687" lon="8.510838020990391"><ele>203.435529968882</ele></trkpt>
<trkpt lat="45.8998155017595" lon="8.510485311407269"><ele>202.950815629861</ele></trkpt>
<trkpt lat="45.9001146484353" lon="8.51006292505336"><ele>203.894621719775</ele></trkpt>
<trkpt lat="45.9002147623709" lon="8.5099451523533"><ele>203.992502979731</ele></trkpt>
<trkpt lat="45.9004711094041" lon="8.509714342679679"><ele>203.992306594732</ele></trkpt>
<trkpt lat="45.901028639710404" lon="8.509279250160931"><ele>204.933598488687</ele></trkpt>
<trkpt lat="45.9011722774846" lon="8.509167914816981"><ele>204.649503926967</ele></trkpt>
<trkpt lat="45.901471251946106" lon="8.508941219119603"><ele>201.962338275945</ele></trkpt>
<trkpt lat="45.9016616797319" lon="8.50882215407541"><ele>200.583748466607</ele></trkpt>
<trkpt lat="45.90197143497781" lon="8.50868218194393"><ele>199.568701614466</ele></trkpt>
<trkpt lat="45.90228131229169" lon="8.508544075154811"><ele>200.122022026354</ele></trkpt>
<trkpt lat="45.9025975854736" lon="8.50840322124607"><ele>199.806555875329</ele></trkpt>
<trkpt lat="45.9032101180919" lon="8.50812781320144"><ele>201.057601272759</ele></trkpt>
<trkpt lat="45.90377331755419" lon="8.507869412919923"><ele>203.105004664581</ele></trkpt>
<trkpt lat="45.9038960819276" lon="8.50780651987015"><ele>203.441026498862</ele></trkpt>
<trkpt lat="45.9040098292514" lon="8.50769964505595"><ele>203.794818314569</ele></trkpt>
<trkpt lat="45.90409469774111" lon="8.50757287752958"><ele>204.035471934817</ele></trkpt>
<trkpt lat="45.9042401801067" lon="8.5072854683855"><ele>203.738235273659</ele></trkpt>
<trkpt lat="45.9044217606948" lon="8.506812436127731"><ele>202.844064572257</ele></trkpt>
<trkpt lat="45.9045808840743" lon="8.506388016921441"><ele>204.010060585579</ele></trkpt>
<trkpt lat="45.9047020938804" lon="8.50610440109522"><ele>204.21407689276</ele></trkpt>
<trkpt lat="45.9048566463763" lon="8.505859329313"><ele>203.611950164454</ele></trkpt>
<trkpt lat="45.90495274679299" lon="8.505761606617641"><ele>203.01704346297</ele></trkpt>
<trkpt lat="45.9051495576421" lon="8.50563790857252"><ele>202.032917488152</ele></trkpt>
<trkpt lat="45.9053932234153" lon="8.50557699502359"><ele>201.571112461941</ele></trkpt>
<trkpt lat="45.9057345307054" lon="8.50555931080594"><ele>202.177262399068</ele></trkpt>
<trkpt lat="45.9059754928753" lon="8.50554785195596"><ele>201.936025592058</ele></trkpt>
<trkpt lat="45.9063175665295" lon="8.50553121048229"><ele>200.416461203709</ele></trkpt>
<trkpt lat="45.9070896429693" lon="8.505493340324438"><ele>198.470903804441</ele></trkpt>
<trkpt lat="45.9073043298429" lon="8.505478289592917"><ele>198.197082334889</ele></trkpt>
<trkpt lat="45.9077344730987" lon="8.50545786718628"><ele>198.333362168007</ele></trkpt>
<trkpt lat="45.908127860111804" lon="8.505462168169911"><ele>198.996113728192</ele></trkpt>
<trkpt lat="45.9084257262476" lon="8.50549344032328"><ele>199.111515993385</ele></trkpt>
<trkpt lat="45.90870106983971" lon="8.50554965672894"><ele>199.37591320995</ele></trkpt>
<trkpt lat="45.9089361651312" lon="8.50559279044576"><ele>200.234652124778</ele></trkpt>
<trkpt lat="45.9091649696769" lon="8.505623926623041"><ele>201.934540062044</ele></trkpt>
<trkpt lat="45.9093298704308" lon="8.50562278994218"><ele>203.463928029242</ele></trkpt>
<trkpt lat="45.9094505249676" lon="8.505603238730448"><ele>204.335564771221</ele></trkpt>
<trkpt lat="45.909623731947" lon="8.50555193041724"><ele>204.80739204691</ele></trkpt>
<trkpt lat="45.9097929140262" lon="8.50545577356603"><ele>204.951134658518</ele></trkpt>
<trkpt lat="45.909943246272" lon="8.505315056328563"><ele>205.643751261081</ele></trkpt>
<trkpt lat="45.9101138293549" lon="8.50512511632322"><ele>206.713884324173</ele></trkpt>
<trkpt lat="45.91022788982669" lon="8.50497575547112"><ele>206.680712266863</ele></trkpt>
<trkpt lat="45.9104057051693" lon="8.50474282615875"><ele>205.186962393623</ele></trkpt>
<trkpt lat="45.910589117740095" lon="8.50450379178826"><ele>204.960300874316</ele></trkpt>
<trkpt lat="45.9108348308958" lon="8.50418343879518"><ele>206.783644157468</ele></trkpt>
<trkpt lat="45.91117016357569" lon="8.50374150901157"><ele>207.694629725492</ele></trkpt>
<trkpt lat="45.91153690209801" lon="8.503259725354612"><ele>210.718461075252</ele></trkpt>
<trkpt lat="45.91165593788111" lon="8.50310737713305"><ele>211.318418174799</ele></trkpt>
<trkpt lat="45.911835159846206" lon="8.5028988719654"><ele>211.410602432171</ele></trkpt>
<trkpt lat="45.9120971397299" lon="8.50266160875952"><ele>210.216344054497</ele></trkpt>
<trkpt lat="45.9122468184994" lon="8.50255507765964"><ele>209.472963302559</ele></trkpt>
<trkpt lat="45.91240386627259" lon="8.50246567103791"><ele>208.456392584169</ele></trkpt>
<trkpt lat="45.91255623629619" lon="8.50228726931799"><ele>206.76775724559</ele></trkpt>
<trkpt lat="45.9127738526955" lon="8.50211135613242"><ele>205.268698970191</ele></trkpt>
<trkpt lat="45.9129048638176" lon="8.502008865111659"><ele>205.647278822852</ele></trkpt>
<trkpt lat="45.9131678300541" lon="8.501814925674882"><ele>208.504228718516</ele></trkpt>
<trkpt lat="45.9133025778674" lon="8.50175033895877"><ele>209.510360774945</ele></trkpt>
<trkpt lat="45.9135288449098" lon="8.501705838639182"><ele>209.691959281839</ele></trkpt>
<trkpt lat="45.9138106996334" lon="8.50171576303291"><ele>209.309953108203</ele></trkpt>
<trkpt lat="45.9142862590888" lon="8.50173184658769"><ele>209.968645358428</ele></trkpt>
<trkpt lat="45.9144520865484" lon="8.5017349115328"><ele>209.421324078566</ele></trkpt>
<trkpt lat="45.9147858241031" lon="8.501741263033297"><ele>206.879243936009</ele></trkpt>
<trkpt lat="45.9153750923967" lon="8.50176190420236"><ele>203.160773233108</ele></trkpt>
<trkpt lat="45.9155323564036" lon="8.501756852184348"><ele>202.858905676544</ele></trkpt>
<trkpt lat="45.9156471912065" lon="8.50173171197541"><ele>202.722070019647</ele></trkpt>
<trkpt lat="45.915758677856395" lon="8.50167728464212"><ele>202.43576380736</ele></trkpt>
<trkpt lat="45.9159710516256" lon="8.50150456498734"><ele>201.309145638326</ele></trkpt>
<trkpt lat="45.9161092637151" lon="8.50133923027416"><ele>200.427270430824</ele></trkpt>
<trkpt lat="45.916333787116805" lon="8.50098938685108"><ele>199.713710308914</ele></trkpt>
<trkpt lat="45.9164393946135" lon="8.50078976911648"><ele>200.163009246506</ele></trkpt>
<trkpt lat="45.9165506829511" lon="8.50052150357414"><ele>200.819789250364</ele></trkpt>
<trkpt lat="45.916618828259004" lon="8.500329065654222"><ele>200.812808801178</ele></trkpt>
<trkpt lat="45.91673854045629" lon="8.499946147764708"><ele>200.435413508819</ele></trkpt>
<trkpt lat="45.916933698266895" lon="8.49930180544038"><ele>200.486862903005</ele></trkpt>
<trkpt lat="45.917082967073206" lon="8.49881439482494"><ele>201.52469800705</ele></trkpt>
<trkpt lat="45.9171951353071" lon="8.498535987929412"><ele>202.079472204805</ele></trkpt>
<trkpt lat="45.91741630709771" lon="8.498151835518907"><ele>201.344925714894</ele></trkpt>
<trkpt lat="45.9176416506324" lon="8.497811918100108"><ele>200.000080024359</ele></trkpt>
<trkpt lat="45.918034413232505" lon="8.497231287594"><ele>200.209673351445</ele></trkpt>
<trkpt lat="45.9181747993295" lon="8.49702125219335"><ele>200.906620440599</ele></trkpt>
<trkpt lat="45.91846789445869" lon="8.4965905630132"><ele>203.621449322811</ele></trkpt>
<trkpt lat="45.918617601460404" lon="8.496362434262739"><ele>202.96382437321</ele></trkpt>
<trkpt lat="45.9187931807788" lon="8.49603705622959"><ele>201.453939808301</ele></trkpt>
<trkpt lat="45.918907608222" lon="8.495970862420329"><ele>200.957869568677</ele></trkpt>
<trkpt lat="45.9189684696952" lon="8.495885550393881"><ele>200.756740846196</ele></trkpt>
<trkpt lat="45.919002757792" lon="8.49575295215178"><ele>200.696540520677</ele></trkpt>
<trkpt lat="45.9190500502861" lon="8.495674520342513"><ele>200.736951654391</ele></trkpt>
<trkpt lat="45.91971169749179" lon="8.49482570447591"><ele>202.733784056916</ele></trkpt>
<trkpt lat="45.9199763715796" lon="8.49448495450351"><ele>204.290287704025</ele></trkpt>
<trkpt lat="45.920495762163206" lon="8.493811821480802"><ele>204.655400584787</ele></trkpt>
<trkpt lat="45.9207479071258" lon="8.493488812462019"><ele>204.609848448252</ele></trkpt>
<trkpt lat="45.921308402883" lon="8.492789853277351"><ele>203.243958802423</ele></trkpt>
<trkpt lat="45.921623567246094" lon="8.49238357686698"><ele>202.359245833917</ele></trkpt>
<trkpt lat="45.92195407870919" lon="8.49196545573506"><ele>203.549193569549</ele></trkpt>
<trkpt lat="45.922288644802" lon="8.49154417687017"><ele>203.275696839812</ele></trkpt>
<trkpt lat="45.92254431000259" lon="8.491217364699969"><ele>201.889157094651</ele></trkpt>
<trkpt lat="45.92267000161261" lon="8.491055839482941"><ele>201.819816827382</ele></trkpt>
<trkpt lat="45.9229706422335" lon="8.490668446663458"><ele>205.334823782693</ele></trkpt>
<trkpt lat="45.923120145616394" lon="8.490472617657506"><ele>206.653520673077</ele></trkpt>
<trkpt lat="45.92328994820699" lon="8.490240058434738"><ele>206.882834955017</ele></trkpt>
<trkpt lat="45.9236238717333" lon="8.489747368582108"><ele>206.126706390897</ele></trkpt>
<trkpt lat="45.9239241123014" lon="8.489276741359232"><ele>206.716494493538</ele></trkpt>
<trkpt lat="45.9240582576533" lon="8.48904638799325"><ele>206.490150262896</ele></trkpt>
<trkpt lat="45.924492544209194" lon="8.4882732095729"><ele>204.257954850152</ele></trkpt>
<trkpt lat="45.9247101483833" lon="8.48788307559695"><ele>201.920260065821</ele></trkpt>
<trkpt lat="45.92492874611241" lon="8.487494285740713"><ele>201.648874591281</ele></trkpt>
<trkpt lat="45.9252037232542" lon="8.48700033905626"><ele>203.135453333657</ele></trkpt>
<trkpt lat="45.925407554957594" lon="8.48661578310678"><ele>203.137645485887</ele></trkpt>
<trkpt lat="45.925491017063" lon="8.486424091926754"><ele>203.346874121633</ele></trkpt>
<trkpt lat="45.92562216410159" lon="8.486047365686437"><ele>203.794869096686</ele></trkpt>
<trkpt lat="45.9257591276427" lon="8.485629562544972"><ele>203.857332174615</ele></trkpt>
<trkpt lat="45.92601157009501" lon="8.484895376376642"><ele>202.241120829479</ele></trkpt>
<trkpt lat="45.9261436684966" lon="8.484552780038879"><ele>202.04656948157</ele></trkpt>
<trkpt lat="45.92623241240061" lon="8.48440323563032"><ele>202.261933555097</ele></trkpt>
<trkpt lat="45.9267115843083" lon="8.4836914937282"><ele>203.113958809205</ele></trkpt>
<trkpt lat="45.9269693058139" lon="8.48326374963155"><ele>204.967990104819</ele></trkpt>
<trkpt lat="45.9271650850976" lon="8.48280613210363"><ele>207.872456703075</ele></trkpt>
<trkpt lat="45.9273377029723" lon="8.482380015030802"><ele>209.371481609227</ele></trkpt>
<trkpt lat="45.9274588695424" lon="8.48207943854461"><ele>209.689413967402</ele></trkpt>
<trkpt lat="45.9277024936432" lon="8.48147612577911"><ele>209.103782242889</ele></trkpt>
<trkpt lat="45.9278699033417" lon="8.48106552992894"><ele>209.416045347063</ele></trkpt>
<trkpt lat="45.9280103268438" lon="8.480736566940282"><ele>210.623171073064</ele></trkpt>
<trkpt lat="45.928103146219" lon="8.480548496534361"><ele>211.11749467899</ele></trkpt>
<trkpt lat="45.92827556414521" lon="8.48030032267092"><ele>210.730374447714</ele></trkpt>
<trkpt lat="45.9284658853501" lon="8.48008553818424"><ele>209.240875844246</ele></trkpt>
<trkpt lat="45.9287363656488" lon="8.47980230161575"><ele>206.77123896575</ele></trkpt>
<trkpt lat="45.9289790212373" lon="8.47954314746221"><ele>206.07224194975</ele></trkpt>
<trkpt lat="45.9290447369684" lon="8.47948506313217"><ele>206.313826017017</ele></trkpt>
<trkpt lat="45.9291822203613" lon="8.47941699917587"><ele>207.167110340479</ele></trkpt>
<trkpt lat="45.9293143164495" lon="8.4793042339274"><ele>208.351633618951</ele></trkpt>
<trkpt lat="45.9295322354505" lon="8.47920328743742"><ele>209.606918910227</ele></trkpt>
<trkpt lat="45.9296508935208" lon="8.47915919971696"><ele>209.69639564815</ele></trkpt>
<trkpt lat="45.9298303433102" lon="8.47913013522586"><ele>209.367855362152</ele></trkpt>
<trkpt lat="45.93000851777211" lon="8.479151592859868"><ele>209.14306526838</ele></trkpt>
<trkpt lat="45.930395047733306" lon="8.47926125578244"><ele>209.401880924812</ele></trkpt>
<trkpt lat="45.9306043750882" lon="8.47934577529107"><ele>209.433938185406</ele></trkpt>
<trkpt lat="45.9308008681861" lon="8.47944655925976"><ele>209.049846583373</ele></trkpt>
<trkpt lat="45.9311439685425" lon="8.479638654531557"><ele>207.011787960212</ele></trkpt>
<trkpt lat="45.9316301439525" lon="8.47993285984813"><ele>203.188748392664</ele></trkpt>
<trkpt lat="45.9319684155379" lon="8.480142210766022"><ele>200.826182441268</ele></trkpt>
<trkpt lat="45.9323445848024" lon="8.48037433406454"><ele>199.73479547577</ele></trkpt>
<trkpt lat="45.9331922825022" lon="8.48089957831602"><ele>200.160213458989</ele></trkpt>
<trkpt lat="45.9335673052426" lon="8.48113626121944"><ele>199.312617389294</ele></trkpt>
<trkpt lat="45.93445527528739" lon="8.48168029468147"><ele>200.227034410432</ele></trkpt>
<trkpt lat="45.9348186087777" lon="8.48190506824621"><ele>199.277307614832</ele></trkpt>
<trkpt lat="45.9352561791244" lon="8.48218595930466"><ele>199.276131435748</ele></trkpt>
<trkpt lat="45.9357002638372" lon="8.48243381468481"><ele>197.824913243025</ele></trkpt>
<trkpt lat="45.9364599221554" lon="8.482882200672691"><ele>197.924916512798</ele></trkpt>
<trkpt lat="45.93741357908291" lon="8.483454208069068"><ele>198.317807431092</ele></trkpt>
<trkpt lat="45.9378144553433" lon="8.48369475141612"><ele>197.836212852114</ele></trkpt>
<trkpt lat="45.938039580120204" lon="8.48383030640091"><ele>198.619862262044</ele></trkpt>
<trkpt lat="45.93847290416" lon="8.484092223996214"><ele>201.382241189568</ele></trkpt>
<trkpt lat="45.93917848892839" lon="8.484517027932279"><ele>203.446321317068</ele></trkpt>
<trkpt lat="45.9394824634299" lon="8.48470094164799"><ele>202.696233899439</ele></trkpt>
<trkpt lat="45.93986540174001" lon="8.48493479237833"><ele>195.212504657201</ele></trkpt>
<trkpt lat="45.94002755819691" lon="8.4850343665442"><ele>193.470131153196</ele></trkpt>
<trkpt lat="45.94018971729749" lon="8.48513394291567"><ele>193.036140929784</ele></trkpt>
<trkpt lat="45.940676192411" lon="8.48543267418027"><ele>193.072073483811</ele></trkpt>
<trkpt lat="45.94098773773639" lon="8.485624755342066"><ele>194.766932964218</ele></trkpt>
<trkpt lat="45.9414275766683" lon="8.48589939722392"><ele>199.885994237294</ele></trkpt>
<trkpt lat="45.9416391859071" lon="8.486033857650067"><ele>200.366360672948</ele></trkpt>
<trkpt lat="45.9423239570258" lon="8.48647398178054"><ele>198.996796879011</ele></trkpt>
<trkpt lat="45.942756887849605" lon="8.48677002651841"><ele>198.775701236263</ele></trkpt>
<trkpt lat="45.9432194465863" lon="8.48710524385448"><ele>197.955092150813</ele></trkpt>
<trkpt lat="45.94363670875261" lon="8.487413894226329"><ele>198.434338027792</ele></trkpt>
<trkpt lat="45.9439809422032" lon="8.48767796837964"><ele>200.270558749675</ele></trkpt>
<trkpt lat="45.944181067091" lon="8.48783471075205"><ele>200.687745040916</ele></trkpt>
<trkpt lat="45.9447077536081" lon="8.488257084954338"><ele>200.425252941124</ele></trkpt>
<trkpt lat="45.9451579943363" lon="8.48862842083949"><ele>198.856533730644</ele></trkpt>
<trkpt lat="45.9455054666747" lon="8.488953882170268"><ele>199.278533311524</ele></trkpt>
<trkpt lat="45.94561191219061" lon="8.48910858709162"><ele>199.339652955455</ele></trkpt>
<trkpt lat="45.9457373405272" lon="8.48941596803106"><ele>199.350713260912</ele></trkpt>
<trkpt lat="45.9457951384606" lon="8.48966885609444"><ele>199.398434564156</ele></trkpt>
<trkpt lat="45.94581808059311" lon="8.48985062659377"><ele>199.487724395173</ele></trkpt>
<trkpt lat="45.9458191580595" lon="8.49012293194293"><ele>199.558606527151</ele></trkpt>
<trkpt lat="45.945770714572795" lon="8.49067638371612"><ele>199.274352552576</ele></trkpt>
<trkpt lat="45.9457915744157" lon="8.490910981950288"><ele>199.545515378324</ele></trkpt>
<trkpt lat="45.945856391505" lon="8.49100501135155"><ele>200.054771983452</ele></trkpt>
<trkpt lat="45.9459184582005" lon="8.49103016329812"><ele>200.568757678929</ele></trkpt>
<trkpt lat="45.9460149629319" lon="8.49099577307466"><ele>201.544661832113</ele></trkpt>
<trkpt lat="45.9460613873597" lon="8.490939131690011"><ele>202.173492202877</ele></trkpt>
<trkpt lat="45.946191816853606" lon="8.49063905888561"><ele>204.196148065369</ele></trkpt>
<trkpt lat="45.9462981766735" lon="8.490353301547103"><ele>204.867776278715</ele></trkpt>
<trkpt lat="45.946395010271" lon="8.490160045053011"><ele>205.095290968103</ele></trkpt>
<trkpt lat="45.94651699517281" lon="8.490014731859649"><ele>205.522464098508</ele></trkpt>
<trkpt lat="45.9466086242539" lon="8.48998016589148"><ele>205.999312882094</ele></trkpt>
<trkpt lat="45.9467363212181" lon="8.48999156675717"><ele>206.876519228243</ele></trkpt>
<trkpt lat="45.9472152387734" lon="8.49018843490142"><ele>211.274615332892</ele></trkpt>
<trkpt lat="45.9473358070289" lon="8.490291057676242"><ele>212.946570138336</ele></trkpt>
<trkpt lat="45.94736572124901" lon="8.490420843234302"><ele>214.107299366927</ele></trkpt>
<trkpt lat="45.9473461227751" lon="8.490528056570898"><ele>214.920173212531</ele></trkpt>
<trkpt lat="45.9472996396748" lon="8.490598726439039"><ele>215.491586689544</ele></trkpt>
<trkpt lat="45.9471428731516" lon="8.49071536644642"><ele>216.566936388672</ele></trkpt>
<trkpt lat="45.9470616077719" lon="8.490834155223352"><ele>217.35394770682</ele></trkpt>
<trkpt lat="45.947039473107004" lon="8.490928592169508"><ele>217.928561196651</ele></trkpt>
<trkpt lat="45.9470220118897" lon="8.491295618126438"><ele>220.332331112947</ele></trkpt>
<trkpt lat="45.946994168154205" lon="8.492000058093142"><ele>224.229754392803</ele></trkpt>
<trkpt lat="45.946964388517" lon="8.49239246564572"><ele>226.207434313186</ele></trkpt>
<trkpt lat="45.9469005530544" lon="8.49279477952352"><ele>227.49271070974</ele></trkpt>
<trkpt lat="45.946798606081295" lon="8.49328135673448"><ele>228.674973215117</ele></trkpt>
<trkpt lat="45.94679588371629" lon="8.493479583626447"><ele>229.859983579554</ele></trkpt>
<trkpt lat="45.9468466505229" lon="8.493560384748578"><ele>230.968178303805</ele></trkpt>
<trkpt lat="45.9469790892321" lon="8.49356241477634"><ele>233.279922384555</ele></trkpt>
<trkpt lat="45.94704740257409" lon="8.493495768525108"><ele>234.536148008443</ele></trkpt>
<trkpt lat="45.9471082097192" lon="8.49335722955764"><ele>235.782267801568</ele></trkpt>
<trkpt lat="45.9474188495909" lon="8.49247282821434"><ele>239.605993174735</ele></trkpt>
<trkpt lat="45.9474695560781" lon="8.492357748904231"><ele>240.28492949134</ele></trkpt>
<trkpt lat="45.94752905685439" lon="8.49227786463419"><ele>241.082750926832</ele></trkpt>
<trkpt lat="45.947633299300996" lon="8.49223386350623"><ele>242.436149419663</ele></trkpt>
<trkpt lat="45.94772855711629" lon="8.49227133983798"><ele>243.759225452983</ele></trkpt>
<trkpt lat="45.94780600939859" lon="8.49239663583516"><ele>245.215339073334</ele></trkpt>
<trkpt lat="45.9478327861976" lon="8.492555681944488"><ele>246.543206390582</ele></trkpt>
<trkpt lat="45.94787216260529" lon="8.49300769524144"><ele>250.728904535721</ele></trkpt>
<trkpt lat="45.94790417183079" lon="8.49319048273289"><ele>252.522559290109</ele></trkpt>
<trkpt lat="45.9479511095442" lon="8.49335078581174"><ele>254.224459840582</ele></trkpt>
<trkpt lat="45.9481131089097" lon="8.493794312087209"><ele>259.386577239044</ele></trkpt>
<trkpt lat="45.948194583357" lon="8.494062089738183"><ele>262.106146513299</ele></trkpt>
<trkpt lat="45.9482703747411" lon="8.494446705565784"><ele>264.07576597674</ele></trkpt>
<trkpt lat="45.94832666668749" lon="8.494827462741872"><ele>264.395139555002</ele></trkpt>
<trkpt lat="45.94839265992821" lon="8.495291399844067"><ele>264.071455223208</ele></trkpt>
<trkpt lat="45.9484624078749" lon="8.49578297076761"><ele>265.568880450286</ele></trkpt>
<trkpt lat="45.94852549797821" lon="8.496229068135602"><ele>268.583843191849</ele></trkpt>
<trkpt lat="45.9486022870844" lon="8.49681680892362"><ele>272.408108988167</ele></trkpt>
<trkpt lat="45.948663074051204" lon="8.497283484697759"><ele>276.742145497889</ele></trkpt>
<trkpt lat="45.9487389550243" lon="8.497873834488441"><ele>283.222248697811</ele></trkpt>
<trkpt lat="45.9487704262782" lon="8.498137439588602"><ele>285.351703160664</ele></trkpt>
<trkpt lat="45.9487978027732" lon="8.49846392942342"><ele>287.141273807438</ele></trkpt>
<trkpt lat="45.9488673837422" lon="8.499380233043482"><ele>290.262120857887</ele></trkpt>
<trkpt lat="45.9488875474327" lon="8.4996372799899"><ele>291.65773379411</ele></trkpt>
<trkpt lat="45.948950248612405" lon="8.50039796850052"><ele>297.928772651383</ele></trkpt>
<trkpt lat="45.9490274873067" lon="8.501224045292092"><ele>304.958344469631</ele></trkpt>
<trkpt lat="45.9490597237555" lon="8.501562466746769"><ele>306.170508682428</ele></trkpt>
<trkpt lat="45.9491139689376" lon="8.50211539458477"><ele>306.829503661087</ele></trkpt>
<trkpt lat="45.9491558203044" lon="8.502546611121318"><ele>309.910488831096</ele></trkpt>
<trkpt lat="45.9491887124614" lon="8.503109181756058"><ele>316.304493401787</ele></trkpt>
<trkpt lat="45.9492129610399" lon="8.5036834598569"><ele>320.860800907432</ele></trkpt>
<trkpt lat="45.9492285340754" lon="8.504270070113629"><ele>322.930625204957</ele></trkpt>
<trkpt lat="45.949221306987994" lon="8.5049944937253"><ele>323.604945992945</ele></trkpt>
<trkpt lat="45.949202975452195" lon="8.505835140127562"><ele>326.058523082424</ele></trkpt>
<trkpt lat="45.9491934177451" lon="8.506353068893768"><ele>326.138978822131</ele></trkpt>
<trkpt lat="45.94919318432099" lon="8.506570646456451"><ele>325.516703631987</ele></trkpt>
<trkpt lat="45.9492055760594" lon="8.50691254392611"><ele>324.041122042528</ele></trkpt>
<trkpt lat="45.949228263755" lon="8.50713865239262"><ele>323.459414377499</ele></trkpt>
<trkpt lat="45.949306725785306" lon="8.50774017926039"><ele>324.729101688232</ele></trkpt>
<trkpt lat="45.9493692120665" lon="8.50820567703765"><ele>325.4260576026</ele></trkpt>
<trkpt lat="45.9493859368236" lon="8.50839342699507"><ele>325.581260229268</ele></trkpt>
<trkpt lat="45.949380826036" lon="8.50853265731176"><ele>325.725192824605</ele></trkpt>
<trkpt lat="45.9493205752636" lon="8.50889267989449"><ele>326.11786398488</ele></trkpt>
<trkpt lat="45.94921161752859" lon="8.509474594121711"><ele>326.317638659786</ele></trkpt>
<trkpt lat="45.949194089033" lon="8.50971652251677"><ele>327.317879700852</ele></trkpt>
<trkpt lat="45.9492067742319" lon="8.50987393888636"><ele>328.484640889861</ele></trkpt>
<trkpt lat="45.9492726278514" lon="8.51019100513339"><ele>331.159482827916</ele></trkpt>
<trkpt lat="45.9493523180271" lon="8.510522170798161"><ele>332.666966553678</ele></trkpt>
<trkpt lat="45.9495086009695" lon="8.51117671526835"><ele>333.558011370531</ele></trkpt>
<trkpt lat="45.9495612078815" lon="8.511582913299339"><ele>334.446624364592</ele></trkpt>
<trkpt lat="45.9495884404255" lon="8.511818273522263"><ele>334.12174835374</ele></trkpt>
<trkpt lat="45.9496257368297" lon="8.51230643045189"><ele>333.534424718974</ele></trkpt>
<trkpt lat="45.949637857716894" lon="8.51253111266769"><ele>334.154776588084</ele></trkpt>
<trkpt lat="45.949630303882" lon="8.513229488234341"><ele>337.673514206245</ele></trkpt>
<trkpt lat="45.9496300037866" lon="8.5136491914148"><ele>339.515513642116</ele></trkpt>
<trkpt lat="45.9496367181373" lon="8.51418398670193"><ele>340.970836830109</ele></trkpt>
<trkpt lat="45.9496493578904" lon="8.51485964380564"><ele>340.830146940794</ele></trkpt>
<trkpt lat="45.94964633927331" lon="8.515196418249309"><ele>340.292148819081</ele></trkpt>
<trkpt lat="45.94962900678949" lon="8.51538148204794"><ele>339.778186746853</ele></trkpt>
<trkpt lat="45.9495396620866" lon="8.515925406027963"><ele>339.229458405938</ele></trkpt>
<trkpt lat="45.9495123589351" lon="8.51613375508165"><ele>339.542356722642</ele></trkpt>
<trkpt lat="45.949504710054704" lon="8.516386925507176"><ele>339.602993930964</ele></trkpt>
<trkpt lat="45.9495270198062" lon="8.51703102721406"><ele>337.465617862837</ele></trkpt>
<trkpt lat="45.9495506732409" lon="8.51744730617304"><ele>334.885247644728</ele></trkpt>
<trkpt lat="45.949596941499806" lon="8.51797549932803"><ele>333.267781851625</ele></trkpt>
</trkseg>
</trk></gpx>
