<?xml version="1.0" encoding="UTF-8"?><gpx xmlns="http://www.topografix.com/GPX/1/1" xmlns:xsi="http://www.w3.org/2001/XMLSchema-instance" creator="StravaGPX" version="1.1" xsi:schemaLocation="http://www.topografix.com/GPX/1/1 http://www.topografix.com/GPX/1/1/gpx.xsd">
 <metadata>
  <name>Heda</name>
  <author>
   <name>Ryan Yates</name>
   <link href="https://www.strava.com/athletes/462432"/>
  </author>
  <copyright author="OpenStreetMap contributors">
   <year>2020</year>
   <license>https://www.openstreetmap.org/copyright</license>
  </copyright>
  <link href="https://www.strava.com/routes/3485027301409345524"/>
 </metadata>
 <trk>
  <name>Heda</name>
  <link href="https://www.strava.com/routes/3485027301409345524"/>
  <type>cycling</type>
  <trkseg>
   <trkpt lat="34.971180000000004" lon="138.7769">
    <ele>0.54</ele>
   </trkpt>
   <trkpt lat="34.97169500021422" lon="138.7770749989299">
    <ele>1.49</ele>
   </trkpt>
   <trkpt lat="34.972210000000004" lon="138.77725">
    <ele>2.58</ele>
   </trkpt>
   <trkpt lat="34.97224" lon="138.77724">
    <ele>2.65</ele>
   </trkpt>
   <trkpt lat="34.97288" lon="138.77708">
    <ele>1.89</ele>
   </trkpt>
   <trkpt lat="34.97292" lon="138.77743">
    <ele>3.70</ele>
   </trkpt>
   <trkpt lat="34.97338999996716" lon="138.7772300012314">
    <ele>3.17</ele>
   </trkpt>
   <trkpt lat="34.97386" lon="138.77703000000002">
    <ele>1.74</ele>
   </trkpt>
   <trkpt lat="34.9745350004946" lon="138.7766500031865">
    <ele>3.09</ele>
   </trkpt>
   <trkpt lat="34.975210000000004" lon="138.77627">
    <ele>3.42</ele>
   </trkpt>
   <trkpt lat="34.975640000000006" lon="138.77606">
    <ele>3.83</ele>
   </trkpt>
   <trkpt lat="34.976020000000005" lon="138.77591">
    <ele>3.12</ele>
   </trkpt>
   <trkpt lat="34.976710000000004" lon="138.7757">
    <ele>8.09</ele>
   </trkpt>
   <trkpt lat="34.976940000000006" lon="138.7757">
    <ele>10.48</ele>
   </trkpt>
   <trkpt lat="34.97721" lon="138.77575000000002">
    <ele>12.04</ele>
   </trkpt>
   <trkpt lat="34.97748" lon="138.77586000000002">
    <ele>12.69</ele>
   </trkpt>
   <trkpt lat="34.97775" lon="138.77604000000002">
    <ele>12.25</ele>
   </trkpt>
   <trkpt lat="34.97816" lon="138.77641">
    <ele>10.73</ele>
   </trkpt>
   <trkpt lat="34.978530000000006" lon="138.77683000000002">
    <ele>8.45</ele>
   </trkpt>
   <trkpt lat="34.9789" lon="138.77734">
    <ele>7.50</ele>
   </trkpt>
   <trkpt lat="34.97934500227591" lon="138.77807499610745">
    <ele>17.52</ele>
   </trkpt>
   <trkpt lat="34.97979" lon="138.77881000000002">
    <ele>36.36</ele>
   </trkpt>
   <trkpt lat="34.97984" lon="138.77887">
    <ele>37.42</ele>
   </trkpt>
   <trkpt lat="34.979910000000004" lon="138.77892">
    <ele>36.93</ele>
   </trkpt>
   <trkpt lat="34.97999" lon="138.77893">
    <ele>34.40</ele>
   </trkpt>
   <trkpt lat="34.980070000000005" lon="138.77892">
    <ele>35.63</ele>
   </trkpt>
   <trkpt lat="34.9802" lon="138.77885">
    <ele>38.58</ele>
   </trkpt>
   <trkpt lat="34.98033" lon="138.77873000000002">
    <ele>42.91</ele>
   </trkpt>
   <trkpt lat="34.98039" lon="138.77864000000002">
    <ele>44.86</ele>
   </trkpt>
   <trkpt lat="34.98046" lon="138.77844000000002">
    <ele>47.65</ele>
   </trkpt>
   <trkpt lat="34.98048" lon="138.77833">
    <ele>48.33</ele>
   </trkpt>
   <trkpt lat="34.980465002036205" lon="138.7776249998156">
    <ele>48.09</ele>
   </trkpt>
   <trkpt lat="34.980450000000005" lon="138.77692000000002">
    <ele>50.94</ele>
   </trkpt>
   <trkpt lat="34.98048" lon="138.77684000000002">
    <ele>50.46</ele>
   </trkpt>
   <trkpt lat="34.98096" lon="138.77615">
    <ele>58.06</ele>
   </trkpt>
   <trkpt lat="34.981" lon="138.77598">
    <ele>61.11</ele>
   </trkpt>
   <trkpt lat="34.981" lon="138.77587">
    <ele>62.62</ele>
   </trkpt>
   <trkpt lat="34.98078" lon="138.77547">
    <ele>66.21</ele>
   </trkpt>
   <trkpt lat="34.98069" lon="138.77525">
    <ele>68.53</ele>
   </trkpt>
   <trkpt lat="34.98067" lon="138.77494000000002">
    <ele>72.04</ele>
   </trkpt>
   <trkpt lat="34.98066" lon="138.77408">
    <ele>81.31</ele>
   </trkpt>
   <trkpt lat="34.98064" lon="138.77385">
    <ele>82.30</ele>
   </trkpt>
   <trkpt lat="34.98058" lon="138.77368">
    <ele>80.37</ele>
   </trkpt>
   <trkpt lat="34.98037" lon="138.77333000000002">
    <ele>79.53</ele>
   </trkpt>
   <trkpt lat="34.980340000000005" lon="138.77319">
    <ele>81.27</ele>
   </trkpt>
   <trkpt lat="34.980360000000005" lon="138.77307000000002">
    <ele>84.86</ele>
   </trkpt>
   <trkpt lat="34.980430000000005" lon="138.77292">
    <ele>85.63</ele>
   </trkpt>
   <trkpt lat="34.980540000000005" lon="138.77283">
    <ele>90.43</ele>
   </trkpt>
   <trkpt lat="34.980610000000006" lon="138.77281000000002">
    <ele>90.61</ele>
   </trkpt>
   <trkpt lat="34.980720000000005" lon="138.77281000000002">
    <ele>89.65</ele>
   </trkpt>
   <trkpt lat="34.980850000000004" lon="138.77288000000001">
    <ele>90.37</ele>
   </trkpt>
   <trkpt lat="34.981190000000005" lon="138.77318000000002">
    <ele>97.00</ele>
   </trkpt>
   <trkpt lat="34.98133" lon="138.77325000000002">
    <ele>100.79</ele>
   </trkpt>
   <trkpt lat="34.981730000000006" lon="138.77326000000002">
    <ele>105.12</ele>
   </trkpt>
   <trkpt lat="34.981930000000006" lon="138.77322">
    <ele>101.49</ele>
   </trkpt>
   <trkpt lat="34.982130000000005" lon="138.77316000000002">
    <ele>106.29</ele>
   </trkpt>
   <trkpt lat="34.982330000000005" lon="138.77303">
    <ele>108.24</ele>
   </trkpt>
   <trkpt lat="34.9825" lon="138.77286">
    <ele>110.06</ele>
   </trkpt>
   <trkpt lat="34.982690000000005" lon="138.77262000000002">
    <ele>112.37</ele>
   </trkpt>
   <trkpt lat="34.98295" lon="138.77225">
    <ele>116.90</ele>
   </trkpt>
   <trkpt lat="34.98303" lon="138.77202">
    <ele>118.76</ele>
   </trkpt>
   <trkpt lat="34.983150001916044" lon="138.77134000088034">
    <ele>126.21</ele>
   </trkpt>
   <trkpt lat="34.983270000000005" lon="138.77066000000002">
    <ele>121.81</ele>
   </trkpt>
   <trkpt lat="34.983320000000006" lon="138.77054">
    <ele>114.53</ele>
   </trkpt>
   <trkpt lat="34.9834" lon="138.77048000000002">
    <ele>101.15</ele>
   </trkpt>
   <trkpt lat="34.98353" lon="138.77045">
    <ele>85.02</ele>
   </trkpt>
   <trkpt lat="34.983540000000005" lon="138.77045">
    <ele>84.07</ele>
   </trkpt>
   <trkpt lat="34.984260000000006" lon="138.77082000000001">
    <ele>63.94</ele>
   </trkpt>
   <trkpt lat="34.984320000000004" lon="138.77089">
    <ele>69.03</ele>
   </trkpt>
   <trkpt lat="34.98438" lon="138.77101000000002">
    <ele>81.47</ele>
   </trkpt>
   <trkpt lat="34.98462" lon="138.77205">
    <ele>149.57</ele>
   </trkpt>
   <trkpt lat="34.98476" lon="138.77231">
    <ele>149.42</ele>
   </trkpt>
   <trkpt lat="34.984820000000006" lon="138.77259">
    <ele>148.44</ele>
   </trkpt>
   <trkpt lat="34.98487" lon="138.77323">
    <ele>139.25</ele>
   </trkpt>
   <trkpt lat="34.984950000000005" lon="138.7734">
    <ele>136.84</ele>
   </trkpt>
   <trkpt lat="34.9851" lon="138.77355">
    <ele>136.99</ele>
   </trkpt>
   <trkpt lat="34.98523" lon="138.77374">
    <ele>138.22</ele>
   </trkpt>
   <trkpt lat="34.9853" lon="138.77394">
    <ele>139.29</ele>
   </trkpt>
   <trkpt lat="34.985310000000005" lon="138.77419">
    <ele>140.63</ele>
   </trkpt>
   <trkpt lat="34.985260000000004" lon="138.77449000000001">
    <ele>142.11</ele>
   </trkpt>
   <trkpt lat="34.985170000000004" lon="138.77488000000002">
    <ele>147.50</ele>
   </trkpt>
   <trkpt lat="34.985240000000005" lon="138.77526">
    <ele>149.27</ele>
   </trkpt>
   <trkpt lat="34.985310000000005" lon="138.77539000000002">
    <ele>148.58</ele>
   </trkpt>
   <trkpt lat="34.98539" lon="138.77545">
    <ele>147.06</ele>
   </trkpt>
   <trkpt lat="34.985580000000006" lon="138.77547">
    <ele>141.07</ele>
   </trkpt>
   <trkpt lat="34.98581" lon="138.77547">
    <ele>136.96</ele>
   </trkpt>
   <trkpt lat="34.98613" lon="138.77544">
    <ele>138.74</ele>
   </trkpt>
   <trkpt lat="34.98666" lon="138.77533000000003">
    <ele>125.20</ele>
   </trkpt>
   <trkpt lat="34.98677" lon="138.77521000000002">
    <ele>131.02</ele>
   </trkpt>
   <trkpt lat="34.98709" lon="138.77464">
    <ele>137.87</ele>
   </trkpt>
   <trkpt lat="34.987140000000004" lon="138.77446">
    <ele>137.85</ele>
   </trkpt>
   <trkpt lat="34.987140000000004" lon="138.77403">
    <ele>134.96</ele>
   </trkpt>
   <trkpt lat="34.987170000000006" lon="138.77387000000002">
    <ele>135.06</ele>
   </trkpt>
   <trkpt lat="34.98725" lon="138.77368">
    <ele>134.12</ele>
   </trkpt>
   <trkpt lat="34.98733" lon="138.77360000000002">
    <ele>133.12</ele>
   </trkpt>
   <trkpt lat="34.98743" lon="138.77357">
    <ele>133.46</ele>
   </trkpt>
   <trkpt lat="34.98754" lon="138.77359">
    <ele>133.72</ele>
   </trkpt>
   <trkpt lat="34.98763" lon="138.77368">
    <ele>134.19</ele>
   </trkpt>
   <trkpt lat="34.98799" lon="138.77419">
    <ele>136.89</ele>
   </trkpt>
   <trkpt lat="34.98816" lon="138.7744">
    <ele>138.88</ele>
   </trkpt>
   <trkpt lat="34.988200000000006" lon="138.77443000000002">
    <ele>138.84</ele>
   </trkpt>
   <trkpt lat="34.988310000000006" lon="138.77442000000002">
    <ele>136.42</ele>
   </trkpt>
   <trkpt lat="34.988580000000006" lon="138.7743">
    <ele>134.93</ele>
   </trkpt>
   <trkpt lat="34.98865" lon="138.77433000000002">
    <ele>134.34</ele>
   </trkpt>
   <trkpt lat="34.988710000000005" lon="138.77441000000002">
    <ele>133.79</ele>
   </trkpt>
   <trkpt lat="34.98877" lon="138.77469000000002">
    <ele>139.69</ele>
   </trkpt>
   <trkpt lat="34.98872" lon="138.77539000000002">
    <ele>152.21</ele>
   </trkpt>
   <trkpt lat="34.98874" lon="138.77549000000002">
    <ele>153.06</ele>
   </trkpt>
   <trkpt lat="34.98888" lon="138.77561">
    <ele>145.65</ele>
   </trkpt>
   <trkpt lat="34.98892" lon="138.77574">
    <ele>145.07</ele>
   </trkpt>
   <trkpt lat="34.988870000000006" lon="138.77613000000002">
    <ele>146.92</ele>
   </trkpt>
   <trkpt lat="34.98888" lon="138.77634">
    <ele>148.32</ele>
   </trkpt>
   <trkpt lat="34.9889" lon="138.77644">
    <ele>148.67</ele>
   </trkpt>
   <trkpt lat="34.98899" lon="138.77664000000001">
    <ele>149.06</ele>
   </trkpt>
   <trkpt lat="34.989050000000006" lon="138.77672">
    <ele>149.51</ele>
   </trkpt>
   <trkpt lat="34.98912" lon="138.7768">
    <ele>150.18</ele>
   </trkpt>
   <trkpt lat="34.98932" lon="138.77692000000002">
    <ele>148.81</ele>
   </trkpt>
   <trkpt lat="34.9894" lon="138.77702000000002">
    <ele>149.09</ele>
   </trkpt>
   <trkpt lat="34.989630000000005" lon="138.77753">
    <ele>150.17</ele>
   </trkpt>
   <trkpt lat="34.98964" lon="138.77791000000002">
    <ele>151.60</ele>
   </trkpt>
   <trkpt lat="34.989810000000006" lon="138.77818000000002">
    <ele>150.10</ele>
   </trkpt>
   <trkpt lat="34.98987" lon="138.77848">
    <ele>153.73</ele>
   </trkpt>
   <trkpt lat="34.989920000000005" lon="138.77854000000002">
    <ele>151.84</ele>
   </trkpt>
   <trkpt lat="34.99007" lon="138.77856">
    <ele>149.71</ele>
   </trkpt>
   <trkpt lat="34.990100000000005" lon="138.77854000000002">
    <ele>150.36</ele>
   </trkpt>
   <trkpt lat="34.990190000000005" lon="138.77841">
    <ele>150.75</ele>
   </trkpt>
   <trkpt lat="34.99027" lon="138.77818000000002">
    <ele>149.41</ele>
   </trkpt>
   <trkpt lat="34.990320000000004" lon="138.77791000000002">
    <ele>148.41</ele>
   </trkpt>
   <trkpt lat="34.99042" lon="138.77773000000002">
    <ele>150.14</ele>
   </trkpt>
   <trkpt lat="34.990550000000006" lon="138.77756000000002">
    <ele>151.25</ele>
   </trkpt>
   <trkpt lat="34.990610000000004" lon="138.77716">
    <ele>146.36</ele>
   </trkpt>
   <trkpt lat="34.99094" lon="138.77662">
    <ele>148.97</ele>
   </trkpt>
   <trkpt lat="34.99096" lon="138.77652">
    <ele>149.20</ele>
   </trkpt>
   <trkpt lat="34.990970000000004" lon="138.77609">
    <ele>143.65</ele>
   </trkpt>
   <trkpt lat="34.991240000000005" lon="138.77558000000002">
    <ele>145.02</ele>
   </trkpt>
   <trkpt lat="34.991260000000004" lon="138.77550000000002">
    <ele>144.99</ele>
   </trkpt>
   <trkpt lat="34.99125" lon="138.77523000000002">
    <ele>141.74</ele>
   </trkpt>
   <trkpt lat="34.991260000000004" lon="138.77518">
    <ele>141.04</ele>
   </trkpt>
   <trkpt lat="34.991530000000004" lon="138.77458000000001">
    <ele>139.06</ele>
   </trkpt>
   <trkpt lat="34.99157" lon="138.77453">
    <ele>138.54</ele>
   </trkpt>
   <trkpt lat="34.99175" lon="138.77447">
    <ele>138.36</ele>
   </trkpt>
   <trkpt lat="34.991870000000006" lon="138.77445">
    <ele>137.09</ele>
   </trkpt>
   <trkpt lat="34.99208" lon="138.77446">
    <ele>133.34</ele>
   </trkpt>
   <trkpt lat="34.992360000000005" lon="138.77471">
    <ele>134.01</ele>
   </trkpt>
   <trkpt lat="34.99242" lon="138.77474">
    <ele>133.42</ele>
   </trkpt>
   <trkpt lat="34.9925" lon="138.77473">
    <ele>130.64</ele>
   </trkpt>
   <trkpt lat="34.992580000000004" lon="138.77468000000002">
    <ele>131.66</ele>
   </trkpt>
   <trkpt lat="34.99269" lon="138.77455">
    <ele>130.69</ele>
   </trkpt>
   <trkpt lat="34.99279" lon="138.77449000000001">
    <ele>130.46</ele>
   </trkpt>
   <trkpt lat="34.99286" lon="138.77447">
    <ele>129.45</ele>
   </trkpt>
   <trkpt lat="34.992990000000006" lon="138.77448">
    <ele>129.35</ele>
   </trkpt>
   <trkpt lat="34.993030000000005" lon="138.77451000000002">
    <ele>130.42</ele>
   </trkpt>
   <trkpt lat="34.993140000000004" lon="138.77467000000001">
    <ele>134.04</ele>
   </trkpt>
   <trkpt lat="34.99327" lon="138.77477000000002">
    <ele>133.38</ele>
   </trkpt>
   <trkpt lat="34.993610000000004" lon="138.77489">
    <ele>125.76</ele>
   </trkpt>
   <trkpt lat="34.99372" lon="138.77498">
    <ele>122.59</ele>
   </trkpt>
   <trkpt lat="34.993750000000006" lon="138.77505000000002">
    <ele>120.67</ele>
   </trkpt>
   <trkpt lat="34.99376" lon="138.77506000000002">
    <ele>120.03</ele>
   </trkpt>
   <trkpt lat="34.993770000000005" lon="138.77514000000002">
    <ele>118.33</ele>
   </trkpt>
   <trkpt lat="34.993700000000004" lon="138.77538">
    <ele>116.43</ele>
   </trkpt>
   <trkpt lat="34.99365" lon="138.77543">
    <ele>116.60</ele>
   </trkpt>
   <trkpt lat="34.99324" lon="138.77565">
    <ele>123.69</ele>
   </trkpt>
   <trkpt lat="34.9932" lon="138.77572">
    <ele>123.60</ele>
   </trkpt>
   <trkpt lat="34.99309" lon="138.77603000000002">
    <ele>120.56</ele>
   </trkpt>
   <trkpt lat="34.992850000000004" lon="138.77631000000002">
    <ele>118.14</ele>
   </trkpt>
   <trkpt lat="34.992740000000005" lon="138.77652">
    <ele>116.39</ele>
   </trkpt>
   <trkpt lat="34.99271" lon="138.77672">
    <ele>117.55</ele>
   </trkpt>
   <trkpt lat="34.992720000000006" lon="138.77683000000002">
    <ele>118.02</ele>
   </trkpt>
   <trkpt lat="34.992760000000004" lon="138.77693000000002">
    <ele>115.84</ele>
   </trkpt>
   <trkpt lat="34.99295" lon="138.77723">
    <ele>116.34</ele>
   </trkpt>
   <trkpt lat="34.99297" lon="138.77738000000002">
    <ele>116.42</ele>
   </trkpt>
   <trkpt lat="34.992940000000004" lon="138.77752">
    <ele>118.39</ele>
   </trkpt>
   <trkpt lat="34.99287" lon="138.77762">
    <ele>119.94</ele>
   </trkpt>
   <trkpt lat="34.99262" lon="138.77781000000002">
    <ele>129.88</ele>
   </trkpt>
   <trkpt lat="34.99257" lon="138.77787">
    <ele>132.44</ele>
   </trkpt>
   <trkpt lat="34.992560000000005" lon="138.77793">
    <ele>132.58</ele>
   </trkpt>
   <trkpt lat="34.992580000000004" lon="138.77805">
    <ele>130.28</ele>
   </trkpt>
   <trkpt lat="34.99284" lon="138.77838">
    <ele>121.75</ele>
   </trkpt>
   <trkpt lat="34.99288" lon="138.77852000000001">
    <ele>121.57</ele>
   </trkpt>
   <trkpt lat="34.99287" lon="138.77859">
    <ele>122.71</ele>
   </trkpt>
   <trkpt lat="34.9928" lon="138.77872000000002">
    <ele>123.61</ele>
   </trkpt>
   <trkpt lat="34.99275" lon="138.77878">
    <ele>125.15</ele>
   </trkpt>
   <trkpt lat="34.99241" lon="138.77908000000002">
    <ele>127.93</ele>
   </trkpt>
   <trkpt lat="34.99235" lon="138.77926000000002">
    <ele>128.10</ele>
   </trkpt>
   <trkpt lat="34.99242" lon="138.77945000000003">
    <ele>120.92</ele>
   </trkpt>
   <trkpt lat="34.9925" lon="138.77959">
    <ele>116.48</ele>
   </trkpt>
   <trkpt lat="34.99259" lon="138.77966">
    <ele>116.32</ele>
   </trkpt>
   <trkpt lat="34.992740000000005" lon="138.77970000000002">
    <ele>114.67</ele>
   </trkpt>
   <trkpt lat="34.99282" lon="138.77972">
    <ele>113.26</ele>
   </trkpt>
   <trkpt lat="34.99289" lon="138.77982">
    <ele>112.99</ele>
   </trkpt>
   <trkpt lat="34.992900000000006" lon="138.77988000000002">
    <ele>113.69</ele>
   </trkpt>
   <trkpt lat="34.99273" lon="138.78056">
    <ele>126.23</ele>
   </trkpt>
   <trkpt lat="34.992740000000005" lon="138.78064">
    <ele>126.47</ele>
   </trkpt>
   <trkpt lat="34.99278" lon="138.78070000000002">
    <ele>124.86</ele>
   </trkpt>
   <trkpt lat="34.99287" lon="138.78074">
    <ele>126.36</ele>
   </trkpt>
   <trkpt lat="34.99297" lon="138.78072">
    <ele>126.16</ele>
   </trkpt>
   <trkpt lat="34.99363" lon="138.77998000000002">
    <ele>106.88</ele>
   </trkpt>
   <trkpt lat="34.99378" lon="138.77993">
    <ele>106.94</ele>
   </trkpt>
   <trkpt lat="34.99428" lon="138.77991">
    <ele>107.68</ele>
   </trkpt>
   <trkpt lat="34.99436" lon="138.77988000000002">
    <ele>106.94</ele>
   </trkpt>
   <trkpt lat="34.994550000000004" lon="138.77963">
    <ele>95.45</ele>
   </trkpt>
   <trkpt lat="34.99472" lon="138.77955">
    <ele>93.84</ele>
   </trkpt>
   <trkpt lat="34.99542" lon="138.77914">
    <ele>90.73</ele>
   </trkpt>
   <trkpt lat="34.99564" lon="138.77906000000002">
    <ele>90.89</ele>
   </trkpt>
   <trkpt lat="34.995810000000006" lon="138.77904">
    <ele>88.43</ele>
   </trkpt>
   <trkpt lat="34.996" lon="138.77906000000002">
    <ele>84.42</ele>
   </trkpt>
   <trkpt lat="34.996230000000004" lon="138.77918000000003">
    <ele>85.58</ele>
   </trkpt>
   <trkpt lat="34.99636" lon="138.77934000000002">
    <ele>89.05</ele>
   </trkpt>
   <trkpt lat="34.99644" lon="138.77954">
    <ele>86.01</ele>
   </trkpt>
   <trkpt lat="34.996460000000006" lon="138.77972">
    <ele>82.03</ele>
   </trkpt>
   <trkpt lat="34.99645" lon="138.77992">
    <ele>82.03</ele>
   </trkpt>
   <trkpt lat="34.99638" lon="138.78038">
    <ele>79.31</ele>
   </trkpt>
   <trkpt lat="34.99638" lon="138.78055">
    <ele>75.72</ele>
   </trkpt>
   <trkpt lat="34.996410000000004" lon="138.78070000000002">
    <ele>74.58</ele>
   </trkpt>
   <trkpt lat="34.99658" lon="138.78099">
    <ele>74.12</ele>
   </trkpt>
   <trkpt lat="34.99698" lon="138.78134">
    <ele>66.11</ele>
   </trkpt>
   <trkpt lat="34.99716" lon="138.78164">
    <ele>63.39</ele>
   </trkpt>
   <trkpt lat="34.9972" lon="138.78179">
    <ele>62.47</ele>
   </trkpt>
   <trkpt lat="34.99721" lon="138.78202000000002">
    <ele>63.45</ele>
   </trkpt>
   <trkpt lat="34.99718" lon="138.78226">
    <ele>62.31</ele>
   </trkpt>
   <trkpt lat="34.997080000000004" lon="138.78264000000001">
    <ele>54.01</ele>
   </trkpt>
   <trkpt lat="34.997040000000005" lon="138.7829">
    <ele>51.30</ele>
   </trkpt>
   <trkpt lat="34.99705" lon="138.78317">
    <ele>50.95</ele>
   </trkpt>
   <trkpt lat="34.997080000000004" lon="138.78334">
    <ele>52.45</ele>
   </trkpt>
   <trkpt lat="34.997150000000005" lon="138.78352">
    <ele>53.98</ele>
   </trkpt>
   <trkpt lat="34.997330000000005" lon="138.78378">
    <ele>50.24</ele>
   </trkpt>
   <trkpt lat="34.997490000000006" lon="138.78391000000002">
    <ele>45.84</ele>
   </trkpt>
   <trkpt lat="34.997620000000005" lon="138.78399000000002">
    <ele>47.36</ele>
   </trkpt>
   <trkpt lat="34.998160000000006" lon="138.78428000000002">
    <ele>47.62</ele>
   </trkpt>
   <trkpt lat="34.99868" lon="138.78478">
    <ele>47.43</ele>
   </trkpt>
   <trkpt lat="34.99918" lon="138.7852">
    <ele>52.80</ele>
   </trkpt>
   <trkpt lat="34.999460000000006" lon="138.7854">
    <ele>47.20</ele>
   </trkpt>
   <trkpt lat="34.999550000000006" lon="138.78556">
    <ele>47.36</ele>
   </trkpt>
   <trkpt lat="34.999570000000006" lon="138.78565">
    <ele>47.10</ele>
   </trkpt>
   <trkpt lat="34.99958" lon="138.78581">
    <ele>47.92</ele>
   </trkpt>
   <trkpt lat="34.99954" lon="138.78645">
    <ele>50.29</ele>
   </trkpt>
   <trkpt lat="34.999550000000006" lon="138.78660000000002">
    <ele>49.87</ele>
   </trkpt>
   <trkpt lat="34.9996" lon="138.78671">
    <ele>46.51</ele>
   </trkpt>
   <trkpt lat="34.999840000000006" lon="138.78684">
    <ele>39.40</ele>
   </trkpt>
   <trkpt lat="35.00003" lon="138.78688000000002">
    <ele>41.74</ele>
   </trkpt>
   <trkpt lat="35.0002" lon="138.78684">
    <ele>46.01</ele>
   </trkpt>
   <trkpt lat="35.00034" lon="138.78675">
    <ele>49.40</ele>
   </trkpt>
   <trkpt lat="35.00045" lon="138.78662">
    <ele>52.01</ele>
   </trkpt>
   <trkpt lat="35.00058" lon="138.78633000000002">
    <ele>50.67</ele>
   </trkpt>
   <trkpt lat="35.00081" lon="138.78545">
    <ele>50.72</ele>
   </trkpt>
   <trkpt lat="35.00095" lon="138.78498000000002">
    <ele>54.93</ele>
   </trkpt>
   <trkpt lat="35.001020000000004" lon="138.78478">
    <ele>53.85</ele>
   </trkpt>
   <trkpt lat="35.001110000000004" lon="138.78468">
    <ele>54.29</ele>
   </trkpt>
   <trkpt lat="35.00121" lon="138.78463000000002">
    <ele>55.61</ele>
   </trkpt>
   <trkpt lat="35.001310000000004" lon="138.78461000000001">
    <ele>57.10</ele>
   </trkpt>
   <trkpt lat="35.001760000000004" lon="138.78462000000002">
    <ele>66.44</ele>
   </trkpt>
   <trkpt lat="35.00188" lon="138.78466">
    <ele>68.38</ele>
   </trkpt>
   <trkpt lat="35.002010000000006" lon="138.78473000000002">
    <ele>69.78</ele>
   </trkpt>
   <trkpt lat="35.002230000000004" lon="138.78500000000003">
    <ele>77.04</ele>
   </trkpt>
   <trkpt lat="35.00236" lon="138.78509000000003">
    <ele>78.60</ele>
   </trkpt>
   <trkpt lat="35.00247" lon="138.78511">
    <ele>75.60</ele>
   </trkpt>
   <trkpt lat="35.00258" lon="138.78507000000002">
    <ele>74.76</ele>
   </trkpt>
   <trkpt lat="35.002680000000005" lon="138.78501">
    <ele>75.44</ele>
   </trkpt>
   <trkpt lat="35.002880000000005" lon="138.78470000000002">
    <ele>79.93</ele>
   </trkpt>
   <trkpt lat="35.00292" lon="138.78449">
    <ele>83.78</ele>
   </trkpt>
   <trkpt lat="35.00291" lon="138.78437000000002">
    <ele>86.22</ele>
   </trkpt>
   <trkpt lat="35.00285" lon="138.78426000000002">
    <ele>87.29</ele>
   </trkpt>
   <trkpt lat="35.00276" lon="138.78416">
    <ele>87.35</ele>
   </trkpt>
   <trkpt lat="35.002340000000004" lon="138.78382000000002">
    <ele>94.55</ele>
   </trkpt>
   <trkpt lat="35.002010000000006" lon="138.78342">
    <ele>105.09</ele>
   </trkpt>
   <trkpt lat="35.001630000000006" lon="138.78310000000002">
    <ele>100.13</ele>
   </trkpt>
   <trkpt lat="35.001450000000006" lon="138.78284000000002">
    <ele>103.23</ele>
   </trkpt>
   <trkpt lat="35.00142" lon="138.78263">
    <ele>104.58</ele>
   </trkpt>
   <trkpt lat="35.001430000000006" lon="138.78245">
    <ele>106.40</ele>
   </trkpt>
   <trkpt lat="35.00146" lon="138.78232">
    <ele>107.32</ele>
   </trkpt>
   <trkpt lat="35.001520000000006" lon="138.78217">
    <ele>109.39</ele>
   </trkpt>
   <trkpt lat="35.0018" lon="138.78173">
    <ele>117.48</ele>
   </trkpt>
   <trkpt lat="35.001990000000006" lon="138.78150000000002">
    <ele>117.71</ele>
   </trkpt>
   <trkpt lat="35.00215" lon="138.78136">
    <ele>117.26</ele>
   </trkpt>
   <trkpt lat="35.00235" lon="138.78124000000003">
    <ele>117.67</ele>
   </trkpt>
   <trkpt lat="35.00294" lon="138.78106000000002">
    <ele>119.96</ele>
   </trkpt>
   <trkpt lat="35.00323" lon="138.78102">
    <ele>123.12</ele>
   </trkpt>
   <trkpt lat="35.00367" lon="138.78105000000002">
    <ele>129.26</ele>
   </trkpt>
   <trkpt lat="35.004220000000004" lon="138.78104000000002">
    <ele>128.03</ele>
   </trkpt>
   <trkpt lat="35.00469000009738" lon="138.7809200006796">
    <ele>133.66</ele>
   </trkpt>
   <trkpt lat="35.005160000000004" lon="138.7808">
    <ele>134.47</ele>
   </trkpt>
   <trkpt lat="35.005280000000006" lon="138.7808">
    <ele>135.24</ele>
   </trkpt>
   <trkpt lat="35.00544" lon="138.78087000000002">
    <ele>136.93</ele>
   </trkpt>
   <trkpt lat="35.00598" lon="138.78130000000002">
    <ele>138.96</ele>
   </trkpt>
   <trkpt lat="35.006190000000004" lon="138.78140000000002">
    <ele>139.22</ele>
   </trkpt>
   <trkpt lat="35.006945000141016" lon="138.7815799983407">
    <ele>153.81</ele>
   </trkpt>
   <trkpt lat="35.0077" lon="138.78176000000002">
    <ele>158.81</ele>
   </trkpt>
   <trkpt lat="35.00813" lon="138.78181">
    <ele>163.39</ele>
   </trkpt>
   <trkpt lat="35.008480000000006" lon="138.7818">
    <ele>165.59</ele>
   </trkpt>
   <trkpt lat="35.008590000000005" lon="138.78177000000002">
    <ele>166.09</ele>
   </trkpt>
   <trkpt lat="35.00874" lon="138.78167000000002">
    <ele>167.79</ele>
   </trkpt>
   <trkpt lat="35.00883" lon="138.78157000000002">
    <ele>169.29</ele>
   </trkpt>
   <trkpt lat="35.00891" lon="138.78142000000003">
    <ele>168.01</ele>
   </trkpt>
   <trkpt lat="35.00896" lon="138.78126">
    <ele>168.17</ele>
   </trkpt>
   <trkpt lat="35.00898" lon="138.7811">
    <ele>167.62</ele>
   </trkpt>
   <trkpt lat="35.008950000000006" lon="138.78057">
    <ele>171.87</ele>
   </trkpt>
   <trkpt lat="35.00898" lon="138.78040000000001">
    <ele>174.06</ele>
   </trkpt>
   <trkpt lat="35.00902" lon="138.78032000000002">
    <ele>175.22</ele>
   </trkpt>
   <trkpt lat="35.009100000000004" lon="138.78022">
    <ele>175.74</ele>
   </trkpt>
   <trkpt lat="35.009240000000005" lon="138.78016000000002">
    <ele>176.51</ele>
   </trkpt>
   <trkpt lat="35.009330000000006" lon="138.78015000000002">
    <ele>177.58</ele>
   </trkpt>
   <trkpt lat="35.00934" lon="138.78015000000002">
    <ele>177.71</ele>
   </trkpt>
   <trkpt lat="35.00947" lon="138.78018">
    <ele>179.75</ele>
   </trkpt>
   <trkpt lat="35.00988500019325" lon="138.78041499878893">
    <ele>185.65</ele>
   </trkpt>
   <trkpt lat="35.0103" lon="138.78065">
    <ele>192.39</ele>
   </trkpt>
   <trkpt lat="35.010450000000006" lon="138.78078000000002">
    <ele>192.87</ele>
   </trkpt>
   <trkpt lat="35.010560000000005" lon="138.7809">
    <ele>193.29</ele>
   </trkpt>
   <trkpt lat="35.010670000000005" lon="138.78115000000003">
    <ele>195.85</ele>
   </trkpt>
   <trkpt lat="35.01071" lon="138.78131000000002">
    <ele>197.57</ele>
   </trkpt>
   <trkpt lat="35.01077" lon="138.78219">
    <ele>201.19</ele>
   </trkpt>
   <trkpt lat="35.01104" lon="138.78267000000002">
    <ele>237.90</ele>
   </trkpt>
   <trkpt lat="35.01165" lon="138.78311000000002">
    <ele>267.14</ele>
   </trkpt>
   <trkpt lat="35.012460000000004" lon="138.78342">
    <ele>254.91</ele>
   </trkpt>
   <trkpt lat="35.013290000000005" lon="138.78369">
    <ele>218.77</ele>
   </trkpt>
   <trkpt lat="35.0138" lon="138.78381000000002">
    <ele>199.22</ele>
   </trkpt>
   <trkpt lat="35.014410000000005" lon="138.78379">
    <ele>183.16</ele>
   </trkpt>
   <trkpt lat="35.01458" lon="138.7838">
    <ele>182.33</ele>
   </trkpt>
   <trkpt lat="35.015060000000005" lon="138.78388">
    <ele>184.18</ele>
   </trkpt>
   <trkpt lat="35.01555499997411" lon="138.78401499915543">
    <ele>181.93</ele>
   </trkpt>
   <trkpt lat="35.01605" lon="138.78415">
    <ele>182.96</ele>
   </trkpt>
   <trkpt lat="35.01615" lon="138.78414">
    <ele>181.74</ele>
   </trkpt>
   <trkpt lat="35.01625" lon="138.78408000000002">
    <ele>180.70</ele>
   </trkpt>
   <trkpt lat="35.016420000000004" lon="138.78391000000002">
    <ele>174.72</ele>
   </trkpt>
   <trkpt lat="35.01657" lon="138.7838">
    <ele>173.48</ele>
   </trkpt>
   <trkpt lat="35.016780000000004" lon="138.78374000000002">
    <ele>170.73</ele>
   </trkpt>
   <trkpt lat="35.017360000000004" lon="138.78419000000002">
    <ele>164.78</ele>
   </trkpt>
   <trkpt lat="35.017480000000006" lon="138.78423">
    <ele>162.46</ele>
   </trkpt>
   <trkpt lat="35.01805" lon="138.78419000000002">
    <ele>149.52</ele>
   </trkpt>
   <trkpt lat="35.018170000000005" lon="138.7842">
    <ele>149.20</ele>
   </trkpt>
   <trkpt lat="35.018350000000005" lon="138.78428000000002">
    <ele>149.90</ele>
   </trkpt>
   <trkpt lat="35.01843" lon="138.78447">
    <ele>152.09</ele>
   </trkpt>
   <trkpt lat="35.018460000000005" lon="138.78478">
    <ele>153.70</ele>
   </trkpt>
   <trkpt lat="35.01843" lon="138.78505">
    <ele>154.31</ele>
   </trkpt>
   <trkpt lat="35.01836" lon="138.78526000000002">
    <ele>152.86</ele>
   </trkpt>
   <trkpt lat="35.01829" lon="138.78532">
    <ele>153.01</ele>
   </trkpt>
   <trkpt lat="35.01822" lon="138.78535000000002">
    <ele>153.29</ele>
   </trkpt>
   <trkpt lat="35.017430000000004" lon="138.78537">
    <ele>153.75</ele>
   </trkpt>
   <trkpt lat="35.01726" lon="138.78535000000002">
    <ele>155.04</ele>
   </trkpt>
   <trkpt lat="35.017070000000004" lon="138.7854">
    <ele>151.38</ele>
   </trkpt>
   <trkpt lat="35.01693" lon="138.78554">
    <ele>143.98</ele>
   </trkpt>
   <trkpt lat="35.01688" lon="138.78569000000002">
    <ele>143.08</ele>
   </trkpt>
   <trkpt lat="35.016850000000005" lon="138.78619">
    <ele>146.54</ele>
   </trkpt>
   <trkpt lat="35.016890000000004" lon="138.78628">
    <ele>147.97</ele>
   </trkpt>
   <trkpt lat="35.017070000000004" lon="138.78643000000002">
    <ele>146.84</ele>
   </trkpt>
   <trkpt lat="35.01718" lon="138.78649000000001">
    <ele>145.91</ele>
   </trkpt>
   <trkpt lat="35.01764" lon="138.78664">
    <ele>141.69</ele>
   </trkpt>
   <trkpt lat="35.017810000000004" lon="138.78674">
    <ele>139.07</ele>
   </trkpt>
   <trkpt lat="35.01812" lon="138.78719">
    <ele>135.54</ele>
   </trkpt>
   <trkpt lat="35.0183" lon="138.78725">
    <ele>134.48</ele>
   </trkpt>
   <trkpt lat="35.01843" lon="138.78726">
    <ele>133.98</ele>
   </trkpt>
   <trkpt lat="35.01859" lon="138.78722000000002">
    <ele>131.20</ele>
   </trkpt>
   <trkpt lat="35.01876" lon="138.78721000000002">
    <ele>129.55</ele>
   </trkpt>
   <trkpt lat="35.0189" lon="138.78722000000002">
    <ele>128.70</ele>
   </trkpt>
   <trkpt lat="35.018980000000006" lon="138.78726">
    <ele>128.27</ele>
   </trkpt>
   <trkpt lat="35.01905" lon="138.78735">
    <ele>127.96</ele>
   </trkpt>
   <trkpt lat="35.01916" lon="138.78773">
    <ele>124.00</ele>
   </trkpt>
   <trkpt lat="35.01924" lon="138.78789">
    <ele>126.26</ele>
   </trkpt>
   <trkpt lat="35.01937" lon="138.78805">
    <ele>129.05</ele>
   </trkpt>
   <trkpt lat="35.01966" lon="138.78814">
    <ele>126.23</ele>
   </trkpt>
   <trkpt lat="35.01975" lon="138.78809">
    <ele>122.51</ele>
   </trkpt>
   <trkpt lat="35.019920000000006" lon="138.78801">
    <ele>117.57</ele>
   </trkpt>
   <trkpt lat="35.020270000000004" lon="138.788">
    <ele>111.21</ele>
   </trkpt>
   <trkpt lat="35.020360000000004" lon="138.78803000000002">
    <ele>109.63</ele>
   </trkpt>
   <trkpt lat="35.02042" lon="138.78808">
    <ele>109.22</ele>
   </trkpt>
   <trkpt lat="35.02046" lon="138.78816">
    <ele>109.51</ele>
   </trkpt>
   <trkpt lat="35.02056" lon="138.78866000000002">
    <ele>107.97</ele>
   </trkpt>
   <trkpt lat="35.020700000000005" lon="138.78878">
    <ele>106.54</ele>
   </trkpt>
   <trkpt lat="35.0208" lon="138.7888">
    <ele>105.21</ele>
   </trkpt>
   <trkpt lat="35.021240000000006" lon="138.78872">
    <ele>102.06</ele>
   </trkpt>
   <trkpt lat="35.02131" lon="138.78871">
    <ele>100.71</ele>
   </trkpt>
   <trkpt lat="35.021390000000004" lon="138.78875000000002">
    <ele>100.95</ele>
   </trkpt>
   <trkpt lat="35.02158" lon="138.78892000000002">
    <ele>100.98</ele>
   </trkpt>
   <trkpt lat="35.02192" lon="138.78911000000002">
    <ele>95.04</ele>
   </trkpt>
   <trkpt lat="35.02199" lon="138.78919000000002">
    <ele>94.91</ele>
   </trkpt>
   <trkpt lat="35.022110000000005" lon="138.78959">
    <ele>98.20</ele>
   </trkpt>
   <trkpt lat="35.022670000000005" lon="138.79022">
    <ele>92.42</ele>
   </trkpt>
   <trkpt lat="35.02279" lon="138.79044000000002">
    <ele>90.29</ele>
   </trkpt>
   <trkpt lat="35.02288" lon="138.79049">
    <ele>86.75</ele>
   </trkpt>
   <trkpt lat="35.022980000000004" lon="138.79048">
    <ele>83.79</ele>
   </trkpt>
   <trkpt lat="35.02304" lon="138.79041">
    <ele>82.19</ele>
   </trkpt>
   <trkpt lat="35.023050000000005" lon="138.79031">
    <ele>82.15</ele>
   </trkpt>
   <trkpt lat="35.023" lon="138.7902">
    <ele>81.67</ele>
   </trkpt>
   <trkpt lat="35.02254" lon="138.78973000000002">
    <ele>79.65</ele>
   </trkpt>
   <trkpt lat="35.02241" lon="138.78957">
    <ele>81.73</ele>
   </trkpt>
   <trkpt lat="35.02237" lon="138.78948">
    <ele>81.74</ele>
   </trkpt>
   <trkpt lat="35.022360000000006" lon="138.78939">
    <ele>81.33</ele>
   </trkpt>
   <trkpt lat="35.02244" lon="138.78908">
    <ele>75.30</ele>
   </trkpt>
   <trkpt lat="35.02241" lon="138.7889">
    <ele>73.67</ele>
   </trkpt>
   <trkpt lat="35.02232" lon="138.7888">
    <ele>73.16</ele>
   </trkpt>
   <trkpt lat="35.02206" lon="138.78864000000002">
    <ele>77.20</ele>
   </trkpt>
   <trkpt lat="35.022020000000005" lon="138.7886">
    <ele>77.73</ele>
   </trkpt>
   <trkpt lat="35.021890000000006" lon="138.78823">
    <ele>69.43</ele>
   </trkpt>
   <trkpt lat="35.021840000000005" lon="138.78816">
    <ele>67.59</ele>
   </trkpt>
   <trkpt lat="35.021750000000004" lon="138.78812000000002">
    <ele>67.39</ele>
   </trkpt>
   <trkpt lat="35.021440000000005" lon="138.78805">
    <ele>64.58</ele>
   </trkpt>
   <trkpt lat="35.02136" lon="138.78801">
    <ele>64.28</ele>
   </trkpt>
   <trkpt lat="35.021300000000004" lon="138.78791">
    <ele>63.84</ele>
   </trkpt>
   <trkpt lat="35.0212" lon="138.78741000000002">
    <ele>61.41</ele>
   </trkpt>
   <trkpt lat="35.02113" lon="138.78725">
    <ele>61.60</ele>
   </trkpt>
   <trkpt lat="35.021080000000005" lon="138.78719">
    <ele>61.50</ele>
   </trkpt>
   <trkpt lat="35.02096" lon="138.78711">
    <ele>61.74</ele>
   </trkpt>
   <trkpt lat="35.02074" lon="138.78705000000002">
    <ele>65.01</ele>
   </trkpt>
   <trkpt lat="35.02066" lon="138.78699">
    <ele>65.17</ele>
   </trkpt>
   <trkpt lat="35.020610000000005" lon="138.78692">
    <ele>64.49</ele>
   </trkpt>
   <trkpt lat="35.0206" lon="138.78683">
    <ele>62.18</ele>
   </trkpt>
   <trkpt lat="35.020610000000005" lon="138.78675">
    <ele>59.62</ele>
   </trkpt>
   <trkpt lat="35.02069" lon="138.78667000000002">
    <ele>55.47</ele>
   </trkpt>
   <trkpt lat="35.020770000000006" lon="138.78666">
    <ele>53.47</ele>
   </trkpt>
   <trkpt lat="35.02089" lon="138.78674">
    <ele>52.38</ele>
   </trkpt>
   <trkpt lat="35.0212" lon="138.78701">
    <ele>52.81</ele>
   </trkpt>
   <trkpt lat="35.02177000119782" lon="138.78756499606706">
    <ele>47.10</ele>
   </trkpt>
   <trkpt lat="35.02234" lon="138.78812000000002">
    <ele>46.97</ele>
   </trkpt>
   <trkpt lat="35.022450000000006" lon="138.78821000000002">
    <ele>45.05</ele>
   </trkpt>
   <trkpt lat="35.02291" lon="138.78843">
    <ele>39.24</ele>
   </trkpt>
   <trkpt lat="35.02299" lon="138.78851">
    <ele>39.36</ele>
   </trkpt>
   <trkpt lat="35.02302" lon="138.78858000000002">
    <ele>40.17</ele>
   </trkpt>
   <trkpt lat="35.02306" lon="138.78892000000002">
    <ele>42.43</ele>
   </trkpt>
   <trkpt lat="35.023140000000005" lon="138.78908">
    <ele>41.11</ele>
   </trkpt>
   <trkpt lat="35.0235900010594" lon="138.78957999728573">
    <ele>42.28</ele>
   </trkpt>
   <trkpt lat="35.02404" lon="138.79008000000002">
    <ele>35.90</ele>
   </trkpt>
   <trkpt lat="35.024190000000004" lon="138.79018000000002">
    <ele>32.90</ele>
   </trkpt>
   <trkpt lat="35.02447" lon="138.79029">
    <ele>34.83</ele>
   </trkpt>
   <trkpt lat="35.024570000000004" lon="138.79036000000002">
    <ele>34.79</ele>
   </trkpt>
   <trkpt lat="35.024640000000005" lon="138.79044000000002">
    <ele>34.26</ele>
   </trkpt>
   <trkpt lat="35.0247" lon="138.79057">
    <ele>33.18</ele>
   </trkpt>
   <trkpt lat="35.024730000000005" lon="138.79079000000002">
    <ele>31.18</ele>
   </trkpt>
   <trkpt lat="35.024730000000005" lon="138.79080000000002">
    <ele>31.17</ele>
   </trkpt>
   <trkpt lat="35.024730000000005" lon="138.79090000000002">
    <ele>28.55</ele>
   </trkpt>
   <trkpt lat="35.024680000000004" lon="138.79103">
    <ele>27.37</ele>
   </trkpt>
   <trkpt lat="35.0246" lon="138.79115000000002">
    <ele>29.55</ele>
   </trkpt>
   <trkpt lat="35.024170000000005" lon="138.79161000000002">
    <ele>26.65</ele>
   </trkpt>
   <trkpt lat="35.024060000000006" lon="138.79176">
    <ele>23.88</ele>
   </trkpt>
   <trkpt lat="35.023990000000005" lon="138.79189000000002">
    <ele>25.51</ele>
   </trkpt>
   <trkpt lat="35.02394" lon="138.79203">
    <ele>27.74</ele>
   </trkpt>
   <trkpt lat="35.02387" lon="138.79231000000001">
    <ele>30.01</ele>
   </trkpt>
   <trkpt lat="35.023830000000004" lon="138.79258000000002">
    <ele>30.08</ele>
   </trkpt>
   <trkpt lat="35.023830000000004" lon="138.79282">
    <ele>29.17</ele>
   </trkpt>
   <trkpt lat="35.02389" lon="138.79349000000002">
    <ele>32.67</ele>
   </trkpt>
   <trkpt lat="35.02385" lon="138.79368000000002">
    <ele>31.05</ele>
   </trkpt>
   <trkpt lat="35.0238" lon="138.79377000000002">
    <ele>30.10</ele>
   </trkpt>
   <trkpt lat="35.023630000000004" lon="138.79394000000002">
    <ele>29.27</ele>
   </trkpt>
   <trkpt lat="35.02356" lon="138.79397">
    <ele>28.22</ele>
   </trkpt>
   <trkpt lat="35.02349" lon="138.79398">
    <ele>26.87</ele>
   </trkpt>
   <trkpt lat="35.023120000000006" lon="138.79395000000002">
    <ele>22.88</ele>
   </trkpt>
   <trkpt lat="35.023" lon="138.79397">
    <ele>22.18</ele>
   </trkpt>
   <trkpt lat="35.02284" lon="138.79410000000001">
    <ele>22.18</ele>
   </trkpt>
   <trkpt lat="35.022760000000005" lon="138.79423">
    <ele>23.61</ele>
   </trkpt>
   <trkpt lat="35.022740000000006" lon="138.79433">
    <ele>25.13</ele>
   </trkpt>
   <trkpt lat="35.02275" lon="138.79452">
    <ele>26.77</ele>
   </trkpt>
   <trkpt lat="35.02301667041748" lon="138.79519666223968">
    <ele>28.14</ele>
   </trkpt>
   <trkpt lat="35.02328333707913" lon="138.79587332889355">
    <ele>39.09</ele>
   </trkpt>
   <trkpt lat="35.02355" lon="138.79655000000002">
    <ele>39.01</ele>
   </trkpt>
   <trkpt lat="35.023610000000005" lon="138.79678">
    <ele>37.85</ele>
   </trkpt>
   <trkpt lat="35.0236" lon="138.79711">
    <ele>37.22</ele>
   </trkpt>
   <trkpt lat="35.02357" lon="138.79725000000002">
    <ele>37.00</ele>
   </trkpt>
   <trkpt lat="35.023430000000005" lon="138.79760000000002">
    <ele>29.06</ele>
   </trkpt>
   <trkpt lat="35.023320000000005" lon="138.79769000000002">
    <ele>23.37</ele>
   </trkpt>
   <trkpt lat="35.023230000000005" lon="138.79771000000002">
    <ele>20.34</ele>
   </trkpt>
   <trkpt lat="35.02313" lon="138.79771000000002">
    <ele>18.68</ele>
   </trkpt>
   <trkpt lat="35.02268" lon="138.79749">
    <ele>31.40</ele>
   </trkpt>
   <trkpt lat="35.02255" lon="138.79749">
    <ele>27.33</ele>
   </trkpt>
   <trkpt lat="35.02244" lon="138.79753000000002">
    <ele>24.73</ele>
   </trkpt>
   <trkpt lat="35.022330000000004" lon="138.79763">
    <ele>23.78</ele>
   </trkpt>
   <trkpt lat="35.02223" lon="138.79777">
    <ele>23.78</ele>
   </trkpt>
   <trkpt lat="35.022200000000005" lon="138.79793">
    <ele>26.28</ele>
   </trkpt>
   <trkpt lat="35.02219" lon="138.79848">
    <ele>28.04</ele>
   </trkpt>
   <trkpt lat="35.0221" lon="138.79866">
    <ele>30.12</ele>
   </trkpt>
   <trkpt lat="35.022020000000005" lon="138.79873">
    <ele>30.82</ele>
   </trkpt>
   <trkpt lat="35.021930000000005" lon="138.79876000000002">
    <ele>31.48</ele>
   </trkpt>
   <trkpt lat="35.02178" lon="138.79875">
    <ele>33.77</ele>
   </trkpt>
   <trkpt lat="35.02128000018313" lon="138.79853999871676">
    <ele>29.89</ele>
   </trkpt>
   <trkpt lat="35.02078" lon="138.79833000000002">
    <ele>17.46</ele>
   </trkpt>
   <trkpt lat="35.02066" lon="138.79833000000002">
    <ele>16.73</ele>
   </trkpt>
   <trkpt lat="35.020590000000006" lon="138.79836">
    <ele>15.65</ele>
   </trkpt>
   <trkpt lat="35.02053" lon="138.79841000000002">
    <ele>14.92</ele>
   </trkpt>
   <trkpt lat="35.02046" lon="138.79854">
    <ele>14.56</ele>
   </trkpt>
   <trkpt lat="35.02046" lon="138.79870000000003">
    <ele>15.81</ele>
   </trkpt>
   <trkpt lat="35.020540000000004" lon="138.79887000000002">
    <ele>16.40</ele>
   </trkpt>
   <trkpt lat="35.020630000000004" lon="138.79898">
    <ele>16.93</ele>
   </trkpt>
   <trkpt lat="35.02078" lon="138.79923000000002">
    <ele>18.42</ele>
   </trkpt>
   <trkpt lat="35.020830000000004" lon="138.79940000000002">
    <ele>20.26</ele>
   </trkpt>
   <trkpt lat="35.02096" lon="138.80038000000002">
    <ele>19.03</ele>
   </trkpt>
   <trkpt lat="35.021060000000006" lon="138.80076000000003">
    <ele>19.94</ele>
   </trkpt>
   <trkpt lat="35.0212" lon="138.80139">
    <ele>18.34</ele>
   </trkpt>
   <trkpt lat="35.021260000000005" lon="138.80185">
    <ele>17.65</ele>
   </trkpt>
   <trkpt lat="35.021260000000005" lon="138.80222">
    <ele>17.85</ele>
   </trkpt>
   <trkpt lat="35.021240000000006" lon="138.8025">
    <ele>18.89</ele>
   </trkpt>
   <trkpt lat="35.02105" lon="138.80323">
    <ele>18.05</ele>
   </trkpt>
   <trkpt lat="35.02104000123854" lon="138.80378000018257">
    <ele>16.94</ele>
   </trkpt>
   <trkpt lat="35.02103" lon="138.80433000000002">
    <ele>14.04</ele>
   </trkpt>
   <trkpt lat="35.02096" lon="138.80465">
    <ele>8.77</ele>
   </trkpt>
   <trkpt lat="35.02070000135036" lon="138.80524500212454">
    <ele>2.82</ele>
   </trkpt>
   <trkpt lat="35.02044" lon="138.80584000000002">
    <ele>3.44</ele>
   </trkpt>
   <trkpt lat="35.02029" lon="138.80686">
    <ele>16.14</ele>
   </trkpt>
   <trkpt lat="35.020300000000006" lon="138.80762000000001">
    <ele>16.73</ele>
   </trkpt>
   <trkpt lat="35.02035" lon="138.80824">
    <ele>19.24</ele>
   </trkpt>
   <trkpt lat="35.02035" lon="138.80851">
    <ele>19.27</ele>
   </trkpt>
   <trkpt lat="35.020320000000005" lon="138.80867">
    <ele>20.01</ele>
   </trkpt>
   <trkpt lat="35.0202" lon="138.80902">
    <ele>18.41</ele>
   </trkpt>
   <trkpt lat="35.020120000000006" lon="138.80914">
    <ele>14.16</ele>
   </trkpt>
   <trkpt lat="35.01986" lon="138.80939">
    <ele>7.48</ele>
   </trkpt>
   <trkpt lat="35.01964" lon="138.80963">
    <ele>4.25</ele>
   </trkpt>
   <trkpt lat="35.01953" lon="138.80970000000002">
    <ele>3.83</ele>
   </trkpt>
   <trkpt lat="35.01924" lon="138.80979000000002">
    <ele>3.95</ele>
   </trkpt>
   <trkpt lat="35.0191" lon="138.80997000000002">
    <ele>4.41</ele>
   </trkpt>
   <trkpt lat="35.01903" lon="138.81016000000002">
    <ele>4.57</ele>
   </trkpt>
   <trkpt lat="35.01897" lon="138.81047">
    <ele>3.83</ele>
   </trkpt>
   <trkpt lat="35.01883" lon="138.81134">
    <ele>9.47</ele>
   </trkpt>
   <trkpt lat="35.01883" lon="138.81135">
    <ele>9.69</ele>
   </trkpt>
   <trkpt lat="35.018840000000004" lon="138.81156000000001">
    <ele>20.40</ele>
   </trkpt>
   <trkpt lat="35.01892" lon="138.81168000000002">
    <ele>23.81</ele>
   </trkpt>
   <trkpt lat="35.01903" lon="138.81177000000002">
    <ele>24.83</ele>
   </trkpt>
   <trkpt lat="35.01941" lon="138.81198">
    <ele>19.96</ele>
   </trkpt>
   <trkpt lat="35.019510000000004" lon="138.81208">
    <ele>22.93</ele>
   </trkpt>
   <trkpt lat="35.01962" lon="138.81224">
    <ele>25.77</ele>
   </trkpt>
   <trkpt lat="35.019850000000005" lon="138.81268">
    <ele>27.33</ele>
   </trkpt>
   <trkpt lat="35.0199" lon="138.81274000000002">
    <ele>26.56</ele>
   </trkpt>
   <trkpt lat="35.020010000000006" lon="138.81279">
    <ele>24.49</ele>
   </trkpt>
   <trkpt lat="35.02009" lon="138.81278">
    <ele>24.01</ele>
   </trkpt>
   <trkpt lat="35.02044" lon="138.81265000000002">
    <ele>18.91</ele>
   </trkpt>
   <trkpt lat="35.02051" lon="138.81266000000002">
    <ele>19.26</ele>
   </trkpt>
   <trkpt lat="35.02062" lon="138.81284000000002">
    <ele>26.43</ele>
   </trkpt>
   <trkpt lat="35.02071" lon="138.8129">
    <ele>26.07</ele>
   </trkpt>
   <trkpt lat="35.020950000000006" lon="138.81299">
    <ele>20.29</ele>
   </trkpt>
   <trkpt lat="35.02105" lon="138.81306">
    <ele>19.44</ele>
   </trkpt>
   <trkpt lat="35.02125" lon="138.81333">
    <ele>25.13</ele>
   </trkpt>
   <trkpt lat="35.021330000000006" lon="138.8134">
    <ele>27.31</ele>
   </trkpt>
   <trkpt lat="35.02178" lon="138.81344">
    <ele>18.15</ele>
   </trkpt>
   <trkpt lat="35.02203" lon="138.8135">
    <ele>21.00</ele>
   </trkpt>
   <trkpt lat="35.022180000000006" lon="138.81364000000002">
    <ele>28.39</ele>
   </trkpt>
   <trkpt lat="35.02244" lon="138.81374000000002">
    <ele>26.57</ele>
   </trkpt>
   <trkpt lat="35.0225" lon="138.81378">
    <ele>25.70</ele>
   </trkpt>
   <trkpt lat="35.02257" lon="138.81392000000002">
    <ele>25.02</ele>
   </trkpt>
   <trkpt lat="35.022600000000004" lon="138.81403">
    <ele>23.36</ele>
   </trkpt>
   <trkpt lat="35.02261" lon="138.81424">
    <ele>23.57</ele>
   </trkpt>
   <trkpt lat="35.022470000000006" lon="138.81472000000002">
    <ele>32.12</ele>
   </trkpt>
   <trkpt lat="35.022450000000006" lon="138.81486">
    <ele>34.11</ele>
   </trkpt>
   <trkpt lat="35.022470000000006" lon="138.81496">
    <ele>32.14</ele>
   </trkpt>
   <trkpt lat="35.02257" lon="138.81511">
    <ele>24.85</ele>
   </trkpt>
   <trkpt lat="35.022600000000004" lon="138.81523">
    <ele>23.34</ele>
   </trkpt>
   <trkpt lat="35.022580000000005" lon="138.81537">
    <ele>23.86</ele>
   </trkpt>
   <trkpt lat="35.02216" lon="138.81607000000002">
    <ele>31.54</ele>
   </trkpt>
   <trkpt lat="35.02212" lon="138.81619">
    <ele>31.09</ele>
   </trkpt>
   <trkpt lat="35.02217" lon="138.81641000000002">
    <ele>27.94</ele>
   </trkpt>
   <trkpt lat="35.022270000000006" lon="138.81652000000003">
    <ele>27.75</ele>
   </trkpt>
   <trkpt lat="35.0225" lon="138.8167">
    <ele>30.85</ele>
   </trkpt>
   <trkpt lat="35.022560000000006" lon="138.81679">
    <ele>29.26</ele>
   </trkpt>
   <trkpt lat="35.02262" lon="138.81693">
    <ele>29.11</ele>
   </trkpt>
   <trkpt lat="35.022670000000005" lon="138.81724">
    <ele>32.54</ele>
   </trkpt>
   <trkpt lat="35.022920000000006" lon="138.81775000000002">
    <ele>27.75</ele>
   </trkpt>
   <trkpt lat="35.023010000000006" lon="138.81803000000002">
    <ele>28.80</ele>
   </trkpt>
   <trkpt lat="35.023030000000006" lon="138.81828000000002">
    <ele>30.07</ele>
   </trkpt>
   <trkpt lat="35.023" lon="138.81846000000002">
    <ele>34.73</ele>
   </trkpt>
   <trkpt lat="35.02304" lon="138.81899">
    <ele>31.47</ele>
   </trkpt>
   <trkpt lat="35.02317" lon="138.81931">
    <ele>23.98</ele>
   </trkpt>
   <trkpt lat="35.02318" lon="138.81961">
    <ele>23.88</ele>
   </trkpt>
   <trkpt lat="35.02306" lon="138.81985">
    <ele>32.49</ele>
   </trkpt>
   <trkpt lat="35.023050000000005" lon="138.81993">
    <ele>33.87</ele>
   </trkpt>
   <trkpt lat="35.0231" lon="138.82013">
    <ele>29.80</ele>
   </trkpt>
   <trkpt lat="35.02308" lon="138.82029">
    <ele>29.17</ele>
   </trkpt>
   <trkpt lat="35.022960000000005" lon="138.82045000000002">
    <ele>29.98</ele>
   </trkpt>
   <trkpt lat="35.022690000000004" lon="138.82067">
    <ele>30.45</ele>
   </trkpt>
   <trkpt lat="35.02263" lon="138.82082">
    <ele>26.14</ele>
   </trkpt>
   <trkpt lat="35.02262" lon="138.82091">
    <ele>24.53</ele>
   </trkpt>
   <trkpt lat="35.02281" lon="138.82131">
    <ele>14.65</ele>
   </trkpt>
   <trkpt lat="35.022980000000004" lon="138.82151000000002">
    <ele>20.31</ele>
   </trkpt>
   <trkpt lat="35.02331" lon="138.82168000000001">
    <ele>26.34</ele>
   </trkpt>
   <trkpt lat="35.0234" lon="138.82177000000001">
    <ele>21.36</ele>
   </trkpt>
   <trkpt lat="35.023480000000006" lon="138.82196000000002">
    <ele>14.60</ele>
   </trkpt>
   <trkpt lat="35.023480000000006" lon="138.8221">
    <ele>14.79</ele>
   </trkpt>
   <trkpt lat="35.02331" lon="138.82255">
    <ele>25.62</ele>
   </trkpt>
   <trkpt lat="35.02318" lon="138.82324">
    <ele>19.97</ele>
   </trkpt>
   <trkpt lat="35.02297" lon="138.82365000000001">
    <ele>20.48</ele>
   </trkpt>
   <trkpt lat="35.02297" lon="138.82401000000002">
    <ele>21.62</ele>
   </trkpt>
   <trkpt lat="35.023070000000004" lon="138.82507">
    <ele>12.58</ele>
   </trkpt>
   <trkpt lat="35.023070000000004" lon="138.8253">
    <ele>11.37</ele>
   </trkpt>
   <trkpt lat="35.02302" lon="138.82546000000002">
    <ele>13.22</ele>
   </trkpt>
   <trkpt lat="35.022940000000006" lon="138.82559">
    <ele>17.19</ele>
   </trkpt>
   <trkpt lat="35.022800000000004" lon="138.82575">
    <ele>19.92</ele>
   </trkpt>
   <trkpt lat="35.02239" lon="138.82616000000002">
    <ele>20.91</ele>
   </trkpt>
   <trkpt lat="35.02223" lon="138.82643000000002">
    <ele>13.99</ele>
   </trkpt>
   <trkpt lat="35.022200000000005" lon="138.82664">
    <ele>13.35</ele>
   </trkpt>
   <trkpt lat="35.02221" lon="138.82677">
    <ele>16.27</ele>
   </trkpt>
   <trkpt lat="35.0223" lon="138.82701">
    <ele>20.25</ele>
   </trkpt>
   <trkpt lat="35.022690000000004" lon="138.82761000000002">
    <ele>16.16</ele>
   </trkpt>
   <trkpt lat="35.023160000000004" lon="138.82827">
    <ele>13.38</ele>
   </trkpt>
   <trkpt lat="35.02319" lon="138.82835">
    <ele>13.62</ele>
   </trkpt>
   <trkpt lat="35.023210000000006" lon="138.82849000000002">
    <ele>13.19</ele>
   </trkpt>
   <trkpt lat="35.0232" lon="138.8287">
    <ele>12.22</ele>
   </trkpt>
   <trkpt lat="35.02319" lon="138.82871">
    <ele>12.32</ele>
   </trkpt>
   <trkpt lat="35.02308" lon="138.82892">
    <ele>11.42</ele>
   </trkpt>
   <trkpt lat="35.02259" lon="138.82927">
    <ele>7.47</ele>
   </trkpt>
   <trkpt lat="35.02244" lon="138.82936">
    <ele>6.44</ele>
   </trkpt>
   <trkpt lat="35.021910000000005" lon="138.82945">
    <ele>5.18</ele>
   </trkpt>
   <trkpt lat="35.0217" lon="138.82949000000002">
    <ele>6.21</ele>
   </trkpt>
   <trkpt lat="35.02154" lon="138.82958000000002">
    <ele>6.30</ele>
   </trkpt>
   <trkpt lat="35.02121" lon="138.82984000000002">
    <ele>10.82</ele>
   </trkpt>
   <trkpt lat="35.02067" lon="138.83044">
    <ele>10.14</ele>
   </trkpt>
   <trkpt lat="35.020320000000005" lon="138.83078">
    <ele>4.63</ele>
   </trkpt>
   <trkpt lat="35.020160000000004" lon="138.83097">
    <ele>3.74</ele>
   </trkpt>
   <trkpt lat="35.020070000000004" lon="138.83115">
    <ele>3.49</ele>
   </trkpt>
   <trkpt lat="35.019980000000004" lon="138.83154000000002">
    <ele>3.14</ele>
   </trkpt>
   <trkpt lat="35.019960000000005" lon="138.83241">
    <ele>6.22</ele>
   </trkpt>
   <trkpt lat="35.019920000000006" lon="138.83265">
    <ele>7.32</ele>
   </trkpt>
   <trkpt lat="35.019800000000004" lon="138.833">
    <ele>7.37</ele>
   </trkpt>
   <trkpt lat="35.01975" lon="138.83374">
    <ele>6.90</ele>
   </trkpt>
   <trkpt lat="35.01971" lon="138.83397000000002">
    <ele>2.35</ele>
   </trkpt>
   <trkpt lat="35.01962" lon="138.83407000000003">
    <ele>1.17</ele>
   </trkpt>
   <trkpt lat="35.01952" lon="138.8341">
    <ele>1.80</ele>
   </trkpt>
   <trkpt lat="35.0191" lon="138.83406000000002">
    <ele>9.10</ele>
   </trkpt>
   <trkpt lat="35.01896" lon="138.83409">
    <ele>12.18</ele>
   </trkpt>
   <trkpt lat="35.018840000000004" lon="138.8342">
    <ele>10.22</ele>
   </trkpt>
   <trkpt lat="35.01874" lon="138.83448">
    <ele>5.63</ele>
   </trkpt>
   <trkpt lat="35.01874" lon="138.83468000000002">
    <ele>6.04</ele>
   </trkpt>
   <trkpt lat="35.018890000000006" lon="138.83525">
    <ele>8.48</ele>
   </trkpt>
   <trkpt lat="35.019070000000006" lon="138.83574000000002">
    <ele>14.50</ele>
   </trkpt>
   <trkpt lat="35.019070000000006" lon="138.83587">
    <ele>15.53</ele>
   </trkpt>
   <trkpt lat="35.01903" lon="138.83595000000003">
    <ele>14.75</ele>
   </trkpt>
   <trkpt lat="35.01897" lon="138.83601000000002">
    <ele>15.30</ele>
   </trkpt>
   <trkpt lat="35.01867" lon="138.83611000000002">
    <ele>13.89</ele>
   </trkpt>
   <trkpt lat="35.01834" lon="138.83643">
    <ele>5.45</ele>
   </trkpt>
   <trkpt lat="35.018040000000006" lon="138.83686">
    <ele>3.86</ele>
   </trkpt>
   <trkpt lat="35.01782" lon="138.83747000000002">
    <ele>3.34</ele>
   </trkpt>
   <trkpt lat="35.01767" lon="138.83807000000002">
    <ele>4.16</ele>
   </trkpt>
   <trkpt lat="35.017570000000006" lon="138.83870000000002">
    <ele>6.84</ele>
   </trkpt>
   <trkpt lat="35.01753" lon="138.83885">
    <ele>6.56</ele>
   </trkpt>
   <trkpt lat="35.01744" lon="138.83907000000002">
    <ele>8.87</ele>
   </trkpt>
   <trkpt lat="35.017300000000006" lon="138.8393">
    <ele>10.38</ele>
   </trkpt>
   <trkpt lat="35.01724" lon="138.83945">
    <ele>8.67</ele>
   </trkpt>
   <trkpt lat="35.01724" lon="138.83973">
    <ele>13.44</ele>
   </trkpt>
   <trkpt lat="35.01731" lon="138.84021">
    <ele>15.70</ele>
   </trkpt>
   <trkpt lat="35.01737" lon="138.84040000000002">
    <ele>12.51</ele>
   </trkpt>
   <trkpt lat="35.017480000000006" lon="138.84063">
    <ele>11.99</ele>
   </trkpt>
   <trkpt lat="35.017590000000006" lon="138.84078000000002">
    <ele>18.89</ele>
   </trkpt>
   <trkpt lat="35.0180250008451" lon="138.84124999743403">
    <ele>27.68</ele>
   </trkpt>
   <trkpt lat="35.018460000000005" lon="138.84172">
    <ele>12.69</ele>
   </trkpt>
   <trkpt lat="35.01849" lon="138.8418">
    <ele>13.40</ele>
   </trkpt>
   <trkpt lat="35.01849" lon="138.8419">
    <ele>15.74</ele>
   </trkpt>
   <trkpt lat="35.01843" lon="138.84215">
    <ele>17.49</ele>
   </trkpt>
   <trkpt lat="35.0184" lon="138.84246000000002">
    <ele>12.21</ele>
   </trkpt>
   <trkpt lat="35.018370000000004" lon="138.84255000000002">
    <ele>10.93</ele>
   </trkpt>
   <trkpt lat="35.01814" lon="138.84292000000002">
    <ele>6.61</ele>
   </trkpt>
   <trkpt lat="35.01791" lon="138.84313">
    <ele>3.90</ele>
   </trkpt>
   <trkpt lat="35.01765" lon="138.84322">
    <ele>6.58</ele>
   </trkpt>
   <trkpt lat="35.01715" lon="138.84333">
    <ele>7.73</ele>
   </trkpt>
   <trkpt lat="35.01699" lon="138.84335000000002">
    <ele>6.65</ele>
   </trkpt>
   <trkpt lat="35.016580000000005" lon="138.84335000000002">
    <ele>7.27</ele>
   </trkpt>
   <trkpt lat="35.0163" lon="138.84342">
    <ele>4.92</ele>
   </trkpt>
   <trkpt lat="35.016040000000004" lon="138.84353000000002">
    <ele>2.71</ele>
   </trkpt>
   <trkpt lat="35.015260000000005" lon="138.84401">
    <ele>4.17</ele>
   </trkpt>
   <trkpt lat="35.014920000000004" lon="138.84415">
    <ele>5.80</ele>
   </trkpt>
   <trkpt lat="35.014320000000005" lon="138.84425000000002">
    <ele>4.05</ele>
   </trkpt>
   <trkpt lat="35.014230000000005" lon="138.84433">
    <ele>3.78</ele>
   </trkpt>
   <trkpt lat="35.014120000000005" lon="138.84456">
    <ele>3.17</ele>
   </trkpt>
   <trkpt lat="35.014100000000006" lon="138.84464">
    <ele>2.98</ele>
   </trkpt>
   <trkpt lat="35.014070000000004" lon="138.845">
    <ele>1.93</ele>
   </trkpt>
   <trkpt lat="35.01402" lon="138.84519">
    <ele>2.19</ele>
   </trkpt>
   <trkpt lat="35.0138" lon="138.84582">
    <ele>3.79</ele>
   </trkpt>
   <trkpt lat="35.0138" lon="138.84606000000002">
    <ele>3.67</ele>
   </trkpt>
   <trkpt lat="35.01382" lon="138.84623000000002">
    <ele>5.73</ele>
   </trkpt>
   <trkpt lat="35.014050000000005" lon="138.84687000000002">
    <ele>13.96</ele>
   </trkpt>
   <trkpt lat="35.014120000000005" lon="138.84726">
    <ele>15.89</ele>
   </trkpt>
   <trkpt lat="35.01418" lon="138.84738000000002">
    <ele>18.05</ele>
   </trkpt>
   <trkpt lat="35.014300000000006" lon="138.84753">
    <ele>20.59</ele>
   </trkpt>
   <trkpt lat="35.014430000000004" lon="138.84764">
    <ele>21.62</ele>
   </trkpt>
   <trkpt lat="35.01467" lon="138.84776000000002">
    <ele>16.90</ele>
   </trkpt>
   <trkpt lat="35.01478" lon="138.84778">
    <ele>14.34</ele>
   </trkpt>
   <trkpt lat="35.01516" lon="138.8478">
    <ele>13.01</ele>
   </trkpt>
   <trkpt lat="35.015440000000005" lon="138.84793000000002">
    <ele>23.47</ele>
   </trkpt>
   <trkpt lat="35.015510000000006" lon="138.84793000000002">
    <ele>23.45</ele>
   </trkpt>
   <trkpt lat="35.01574" lon="138.84782">
    <ele>8.49</ele>
   </trkpt>
   <trkpt lat="35.01583" lon="138.84785000000002">
    <ele>7.23</ele>
   </trkpt>
   <trkpt lat="35.0159" lon="138.84791">
    <ele>8.01</ele>
   </trkpt>
   <trkpt lat="35.01621" lon="138.84836">
    <ele>20.58</ele>
   </trkpt>
   <trkpt lat="35.01632" lon="138.84845">
    <ele>19.25</ele>
   </trkpt>
   <trkpt lat="35.01668" lon="138.84863">
    <ele>5.39</ele>
   </trkpt>
   <trkpt lat="35.016870000000004" lon="138.84884000000002">
    <ele>6.97</ele>
   </trkpt>
   <trkpt lat="35.017050000000005" lon="138.84931">
    <ele>11.84</ele>
   </trkpt>
   <trkpt lat="35.017070000000004" lon="138.84944000000002">
    <ele>11.38</ele>
   </trkpt>
   <trkpt lat="35.01706" lon="138.84957">
    <ele>9.35</ele>
   </trkpt>
   <trkpt lat="35.01702" lon="138.84969">
    <ele>9.32</ele>
   </trkpt>
   <trkpt lat="35.01686" lon="138.85001">
    <ele>13.30</ele>
   </trkpt>
   <trkpt lat="35.01653" lon="138.85056">
    <ele>11.09</ele>
   </trkpt>
   <trkpt lat="35.01632" lon="138.85082">
    <ele>9.50</ele>
   </trkpt>
   <trkpt lat="35.01596" lon="138.85121">
    <ele>4.54</ele>
   </trkpt>
   <trkpt lat="35.01586" lon="138.85139">
    <ele>4.21</ele>
   </trkpt>
   <trkpt lat="35.015840000000004" lon="138.85149">
    <ele>4.21</ele>
   </trkpt>
   <trkpt lat="35.015840000000004" lon="138.85160000000002">
    <ele>4.10</ele>
   </trkpt>
   <trkpt lat="35.01601" lon="138.85244">
    <ele>3.23</ele>
   </trkpt>
   <trkpt lat="35.01623" lon="138.85343">
    <ele>4.33</ele>
   </trkpt>
   <trkpt lat="35.01628" lon="138.85354">
    <ele>4.67</ele>
   </trkpt>
   <trkpt lat="35.01634" lon="138.8536">
    <ele>4.54</ele>
   </trkpt>
   <trkpt lat="35.0165" lon="138.85366000000002">
    <ele>8.00</ele>
   </trkpt>
   <trkpt lat="35.016870000000004" lon="138.85372">
    <ele>17.78</ele>
   </trkpt>
   <trkpt lat="35.01711" lon="138.85372">
    <ele>20.73</ele>
   </trkpt>
   <trkpt lat="35.01756" lon="138.85367000000002">
    <ele>24.02</ele>
   </trkpt>
   <trkpt lat="35.01765" lon="138.85368000000003">
    <ele>21.98</ele>
   </trkpt>
   <trkpt lat="35.018100000000004" lon="138.8539">
    <ele>26.56</ele>
   </trkpt>
   <trkpt lat="35.01838" lon="138.85391">
    <ele>17.91</ele>
   </trkpt>
   <trkpt lat="35.018530000000005" lon="138.85394000000002">
    <ele>15.55</ele>
   </trkpt>
   <trkpt lat="35.01865" lon="138.85406">
    <ele>14.62</ele>
   </trkpt>
   <trkpt lat="35.01868" lon="138.85416">
    <ele>15.35</ele>
   </trkpt>
   <trkpt lat="35.0187" lon="138.85463000000001">
    <ele>22.12</ele>
   </trkpt>
   <trkpt lat="35.01872" lon="138.85474000000002">
    <ele>21.52</ele>
   </trkpt>
   <trkpt lat="35.01876" lon="138.85484000000002">
    <ele>21.00</ele>
   </trkpt>
   <trkpt lat="35.01894" lon="138.85505">
    <ele>18.77</ele>
   </trkpt>
   <trkpt lat="35.019110000000005" lon="138.85516">
    <ele>18.65</ele>
   </trkpt>
   <trkpt lat="35.019290000000005" lon="138.85522">
    <ele>14.28</ele>
   </trkpt>
   <trkpt lat="35.019420000000004" lon="138.85533">
    <ele>11.41</ele>
   </trkpt>
   <trkpt lat="35.01971" lon="138.85568">
    <ele>10.22</ele>
   </trkpt>
   <trkpt lat="35.019830000000006" lon="138.85585">
    <ele>10.01</ele>
   </trkpt>
   <trkpt lat="35.02" lon="138.85668">
    <ele>12.85</ele>
   </trkpt>
   <trkpt lat="35.020210000000006" lon="138.85725000000002">
    <ele>10.26</ele>
   </trkpt>
   <trkpt lat="35.020230000000005" lon="138.85752000000002">
    <ele>9.55</ele>
   </trkpt>
   <trkpt lat="35.020210000000006" lon="138.85767">
    <ele>8.90</ele>
   </trkpt>
   <trkpt lat="35.02009500116678" lon="138.8582050007855">
    <ele>12.77</ele>
   </trkpt>
   <trkpt lat="35.019980000000004" lon="138.85874">
    <ele>11.96</ele>
   </trkpt>
   <trkpt lat="35.019890000000004" lon="138.85943">
    <ele>3.54</ele>
   </trkpt>
   <trkpt lat="35.019650000000006" lon="138.86">
    <ele>5.03</ele>
   </trkpt>
   <trkpt lat="35.01961" lon="138.86033">
    <ele>5.41</ele>
   </trkpt>
   <trkpt lat="35.01964" lon="138.86081000000001">
    <ele>4.61</ele>
   </trkpt>
   <trkpt lat="35.019740000000006" lon="138.86121">
    <ele>5.67</ele>
   </trkpt>
   <trkpt lat="35.01988" lon="138.86153000000002">
    <ele>6.40</ele>
   </trkpt>
   <trkpt lat="35.020270000000004" lon="138.86227000000002">
    <ele>18.65</ele>
   </trkpt>
   <trkpt lat="35.020590000000006" lon="138.86281000000002">
    <ele>11.36</ele>
   </trkpt>
   <trkpt lat="35.02071" lon="138.86306000000002">
    <ele>9.35</ele>
   </trkpt>
   <trkpt lat="35.02074" lon="138.86318">
    <ele>8.67</ele>
   </trkpt>
   <trkpt lat="35.02075" lon="138.86346">
    <ele>6.91</ele>
   </trkpt>
   <trkpt lat="35.020570000000006" lon="138.86423000000002">
    <ele>8.17</ele>
   </trkpt>
   <trkpt lat="35.020540000000004" lon="138.86459000000002">
    <ele>11.71</ele>
   </trkpt>
   <trkpt lat="35.02055" lon="138.86537">
    <ele>11.95</ele>
   </trkpt>
   <trkpt lat="35.020500000000006" lon="138.86559">
    <ele>10.86</ele>
   </trkpt>
   <trkpt lat="35.02024" lon="138.86625">
    <ele>11.71</ele>
   </trkpt>
   <trkpt lat="35.02024" lon="138.86639000000002">
    <ele>10.90</ele>
   </trkpt>
   <trkpt lat="35.020270000000004" lon="138.86656000000002">
    <ele>9.20</ele>
   </trkpt>
   <trkpt lat="35.02033" lon="138.8667">
    <ele>9.08</ele>
   </trkpt>
   <trkpt lat="35.020590000000006" lon="138.86716">
    <ele>9.36</ele>
   </trkpt>
   <trkpt lat="35.02064" lon="138.86729000000003">
    <ele>9.56</ele>
   </trkpt>
   <trkpt lat="35.0208" lon="138.86790000000002">
    <ele>5.80</ele>
   </trkpt>
   <trkpt lat="35.02112" lon="138.86859">
    <ele>6.80</ele>
   </trkpt>
   <trkpt lat="35.02116" lon="138.86878000000002">
    <ele>9.10</ele>
   </trkpt>
   <trkpt lat="35.02114" lon="138.86943000000002">
    <ele>3.56</ele>
   </trkpt>
   <trkpt lat="35.021040000000006" lon="138.87040000000002">
    <ele>2.56</ele>
   </trkpt>
   <trkpt lat="35.021060000000006" lon="138.87060000000002">
    <ele>2.51</ele>
   </trkpt>
   <trkpt lat="35.02111" lon="138.87079">
    <ele>3.13</ele>
   </trkpt>
   <trkpt lat="35.021190000000004" lon="138.87095000000002">
    <ele>3.94</ele>
   </trkpt>
   <trkpt lat="35.02129" lon="138.87109">
    <ele>5.83</ele>
   </trkpt>
   <trkpt lat="35.021460000000005" lon="138.87121000000002">
    <ele>10.32</ele>
   </trkpt>
   <trkpt lat="35.021980000000006" lon="138.87140000000002">
    <ele>9.13</ele>
   </trkpt>
   <trkpt lat="35.02239" lon="138.87159">
    <ele>6.21</ele>
   </trkpt>
   <trkpt lat="35.02315" lon="138.87215">
    <ele>1.91</ele>
   </trkpt>
   <trkpt lat="35.02342" lon="138.87249">
    <ele>6.84</ele>
   </trkpt>
   <trkpt lat="35.023770000000006" lon="138.87279">
    <ele>7.40</ele>
   </trkpt>
   <trkpt lat="35.024010000000004" lon="138.87292000000002">
    <ele>6.15</ele>
   </trkpt>
   <trkpt lat="35.024280000000005" lon="138.87318000000002">
    <ele>8.42</ele>
   </trkpt>
   <trkpt lat="35.02463" lon="138.87358">
    <ele>11.23</ele>
   </trkpt>
   <trkpt lat="35.0247" lon="138.87378">
    <ele>13.32</ele>
   </trkpt>
   <trkpt lat="35.024710000000006" lon="138.87379">
    <ele>13.23</ele>
   </trkpt>
   <trkpt lat="35.02472" lon="138.87388">
    <ele>14.56</ele>
   </trkpt>
   <trkpt lat="35.02469" lon="138.87459">
    <ele>11.78</ele>
   </trkpt>
   <trkpt lat="35.0247850017857" lon="138.87524999922678">
    <ele>6.63</ele>
   </trkpt>
   <trkpt lat="35.02488" lon="138.87591">
    <ele>9.59</ele>
   </trkpt>
   <trkpt lat="35.02488" lon="138.87612000000001">
    <ele>8.74</ele>
   </trkpt>
   <trkpt lat="35.02461" lon="138.87646">
    <ele>7.22</ele>
   </trkpt>
   <trkpt lat="35.02454" lon="138.87651000000002">
    <ele>7.21</ele>
   </trkpt>
   <trkpt lat="35.024210000000004" lon="138.87660000000002">
    <ele>7.50</ele>
   </trkpt>
   <trkpt lat="35.024" lon="138.87657000000002">
    <ele>6.46</ele>
   </trkpt>
   <trkpt lat="35.02357" lon="138.8767">
    <ele>4.36</ele>
   </trkpt>
   <trkpt lat="35.022800000000004" lon="138.87720000000002">
    <ele>6.15</ele>
   </trkpt>
   <trkpt lat="35.02246" lon="138.87722000000002">
    <ele>3.48</ele>
   </trkpt>
   <trkpt lat="35.02215" lon="138.87712000000002">
    <ele>5.67</ele>
   </trkpt>
   <trkpt lat="35.02203" lon="138.87711000000002">
    <ele>4.98</ele>
   </trkpt>
   <trkpt lat="35.0215950004479" lon="138.8773150009608">
    <ele>2.55</ele>
   </trkpt>
   <trkpt lat="35.02116" lon="138.87752">
    <ele>4.75</ele>
   </trkpt>
   <trkpt lat="35.02103" lon="138.87756000000002">
    <ele>5.72</ele>
   </trkpt>
   <trkpt lat="35.02062" lon="138.87754">
    <ele>6.93</ele>
   </trkpt>
   <trkpt lat="35.020450000000004" lon="138.87756000000002">
    <ele>5.33</ele>
   </trkpt>
   <trkpt lat="35.020250000000004" lon="138.87769">
    <ele>3.38</ele>
   </trkpt>
   <trkpt lat="35.02008" lon="138.87786">
    <ele>3.36</ele>
   </trkpt>
  </trkseg>
 </trk>
</gpx>