<?xml version="1.0" encoding="UTF-8"?>
<gpx creator="StravaGPX" version="1.1" schemaLocation="http://www.topografix.com/GPX/1/1 http://www.topografix.com/GPX/1/1/gpx.xsd" xmlns="http://www.topografix.com/GPX/1/1" xmlns:xsi="http://www.w3.org/2001/XMLSchema-instance" xsi:schemaLocation="http://www.topografix.com/GPX/1/1 http://www.topografix.com/GPX/1/1/gpx.xsd http://www.garmin.com/xmlschemas/GpxExtensions/v3 http://www.garmin.com/xmlschemas/GpxExtensionsv3.xsd http://www.garmin.com/xmlschemas/TrackPointExtension/v1 http://www.garmin.com/xmlschemas/TrackPointExtensionv1.xsd http://www.garmin.com/xmlschemas/PowerExtension/v1 http://www.garmin.com/xmlschemas/PowerExtensionv1.xsd http://www.topografix.com/GPX/gpx_style/0/2 http://www.topografix.com/GPX/gpx_style/0/2/gpx_style.xsd" xmlns:gpxtpx="http://www.garmin.com/xmlschemas/TrackPointExtension/v1" xmlns:gpxx="http://www.garmin.com/xmlschemas/GpxExtensions/v3" xmlns:gpxpx="http://www.garmin.com/xmlschemas/PowerExtension/v1" xmlns:gpx_style="http://www.topografix.com/GPX/gpx_style/0/2">
  <metadata>
    <name>Tirreno Stage 2</name>
    <author>
      <name>gpx.studio</name>
      <link href="https://gpx.studio"/>
    </author>
  </metadata>
  <trk>
    <name>Sortie vélo le matin</name>
    <type>cycling</type>
    <trkseg>
      <trkpt lat="43.217053" lon="10.924736">
        <ele>367.4</ele>
      </trkpt>
      <trkpt lat="43.217193" lon="10.924756">
        <ele>365.6</ele>
      </trkpt>
      <trkpt lat="43.217329" lon="10.924732">
        <ele>364.2</ele>
      </trkpt>
      <trkpt lat="43.217459" lon="10.924661">
        <ele>362.6</ele>
      </trkpt>
      <trkpt lat="43.218172" lon="10.924072">
        <ele>355.4</ele>
      </trkpt>
      <trkpt lat="43.218427" lon="10.923977">
        <ele>353.8</ele>
      </trkpt>
      <trkpt lat="43.218688" lon="10.923986">
        <ele>352</ele>
      </trkpt>
      <trkpt lat="43.219211" lon="10.924091">
        <ele>349.4</ele>
      </trkpt>
      <trkpt lat="43.221485" lon="10.924656">
        <ele>345.2</ele>
      </trkpt>
      <trkpt lat="43.221833" lon="10.924766">
        <ele>345.2</ele>
      </trkpt>
      <trkpt lat="43.222158" lon="10.924933">
        <ele>345.6</ele>
      </trkpt>
      <trkpt lat="43.223614" lon="10.925765">
        <ele>347.4</ele>
      </trkpt>
      <trkpt lat="43.224599" lon="10.926367">
        <ele>348</ele>
      </trkpt>
      <trkpt lat="43.225051" lon="10.926574">
        <ele>348.2</ele>
      </trkpt>
      <trkpt lat="43.226102" lon="10.926927">
        <ele>348.8</ele>
      </trkpt>
      <trkpt lat="43.226559" lon="10.927154">
        <ele>349</ele>
      </trkpt>
      <trkpt lat="43.226998" lon="10.927474">
        <ele>349.2</ele>
      </trkpt>
      <trkpt lat="43.228747" lon="10.92908">
        <ele>349.2</ele>
      </trkpt>
      <trkpt lat="43.229183" lon="10.929442">
        <ele>349.8</ele>
      </trkpt>
      <trkpt lat="43.230393" lon="10.93019">
        <ele>353.6</ele>
      </trkpt>
      <trkpt lat="43.230924" lon="10.930582">
        <ele>355.2</ele>
      </trkpt>
      <trkpt lat="43.231163" lon="10.930812">
        <ele>356</ele>
      </trkpt>
      <trkpt lat="43.231613" lon="10.931341">
        <ele>357.8</ele>
      </trkpt>
      <trkpt lat="43.231897" lon="10.93176">
        <ele>358.8</ele>
      </trkpt>
      <trkpt lat="43.2323" lon="10.932289">
        <ele>359.8</ele>
      </trkpt>
      <trkpt lat="43.232569" lon="10.932546">
        <ele>360.4</ele>
      </trkpt>
      <trkpt lat="43.232855" lon="10.93272">
        <ele>360.8</ele>
      </trkpt>
      <trkpt lat="43.233339" lon="10.932937">
        <ele>362</ele>
      </trkpt>
      <trkpt lat="43.233522" lon="10.933059">
        <ele>362.4</ele>
      </trkpt>
      <trkpt lat="43.233592" lon="10.933149">
        <ele>362.4</ele>
      </trkpt>
      <trkpt lat="43.233646" lon="10.933263">
        <ele>362.6</ele>
      </trkpt>
      <trkpt lat="43.233705" lon="10.933525">
        <ele>363</ele>
      </trkpt>
      <trkpt lat="43.23381" lon="10.933776">
        <ele>363.2</ele>
      </trkpt>
      <trkpt lat="43.233896" lon="10.933854">
        <ele>363.4</ele>
      </trkpt>
      <trkpt lat="43.234214" lon="10.93393">
        <ele>364</ele>
      </trkpt>
      <trkpt lat="43.234414" lon="10.934075">
        <ele>364.4</ele>
      </trkpt>
      <trkpt lat="43.234586" lon="10.934283">
        <ele>364.8</ele>
      </trkpt>
      <trkpt lat="43.234911" lon="10.934765">
        <ele>365.4</ele>
      </trkpt>
      <trkpt lat="43.235456" lon="10.935403">
        <ele>366</ele>
      </trkpt>
      <trkpt lat="43.235533" lon="10.935523">
        <ele>366.2</ele>
      </trkpt>
      <trkpt lat="43.235649" lon="10.935784">
        <ele>366.6</ele>
      </trkpt>
      <trkpt lat="43.23578" lon="10.93619">
        <ele>367</ele>
      </trkpt>
      <trkpt lat="43.235886" lon="10.936454">
        <ele>367.2</ele>
      </trkpt>
      <trkpt lat="43.236236" lon="10.937053">
        <ele>367.6</ele>
      </trkpt>
      <trkpt lat="43.236265" lon="10.937201">
        <ele>367.8</ele>
      </trkpt>
      <trkpt lat="43.236269" lon="10.937355">
        <ele>368</ele>
      </trkpt>
      <trkpt lat="43.236246" lon="10.937503">
        <ele>368</ele>
      </trkpt>
      <trkpt lat="43.235894" lon="10.938502">
        <ele>368.6</ele>
      </trkpt>
      <trkpt lat="43.235873" lon="10.938658">
        <ele>368.8</ele>
      </trkpt>
      <trkpt lat="43.235871" lon="10.939453">
        <ele>369.6</ele>
      </trkpt>
      <trkpt lat="43.235931" lon="10.939915">
        <ele>369.8</ele>
      </trkpt>
      <trkpt lat="43.235929" lon="10.940066">
        <ele>369.8</ele>
      </trkpt>
      <trkpt lat="43.235871" lon="10.940361">
        <ele>370.2</ele>
      </trkpt>
      <trkpt lat="43.23567" lon="10.941055">
        <ele>370.6</ele>
      </trkpt>
      <trkpt lat="43.235668" lon="10.941352">
        <ele>370.8</ele>
      </trkpt>
      <trkpt lat="43.235872" lon="10.942397">
        <ele>372.4</ele>
      </trkpt>
      <trkpt lat="43.23588" lon="10.943057">
        <ele>373.6</ele>
      </trkpt>
      <trkpt lat="43.235834" lon="10.944116">
        <ele>375.4</ele>
      </trkpt>
      <trkpt lat="43.235808" lon="10.944353">
        <ele>376</ele>
      </trkpt>
      <trkpt lat="43.235683" lon="10.944946">
        <ele>377</ele>
      </trkpt>
      <trkpt lat="43.235565" lon="10.945272">
        <ele>377.6</ele>
      </trkpt>
      <trkpt lat="43.235431" lon="10.945436">
        <ele>378</ele>
      </trkpt>
      <trkpt lat="43.234649" lon="10.946121">
        <ele>380</ele>
      </trkpt>
      <trkpt lat="43.23451" lon="10.94629">
        <ele>380.2</ele>
      </trkpt>
      <trkpt lat="43.234014" lon="10.947219">
        <ele>381.4</ele>
      </trkpt>
      <trkpt lat="43.233886" lon="10.947395">
        <ele>381.8</ele>
      </trkpt>
      <trkpt lat="43.233526" lon="10.947788">
        <ele>382.6</ele>
      </trkpt>
      <trkpt lat="43.233392" lon="10.947971">
        <ele>383</ele>
      </trkpt>
      <trkpt lat="43.233017" lon="10.948827">
        <ele>384.2</ele>
      </trkpt>
      <trkpt lat="43.232886" lon="10.949011">
        <ele>384.4</ele>
      </trkpt>
      <trkpt lat="43.232704" lon="10.949101">
        <ele>384.6</ele>
      </trkpt>
      <trkpt lat="43.232" lon="10.949188">
        <ele>385.4</ele>
      </trkpt>
      <trkpt lat="43.231723" lon="10.949277">
        <ele>386</ele>
      </trkpt>
      <trkpt lat="43.231559" lon="10.94943">
        <ele>386.2</ele>
      </trkpt>
      <trkpt lat="43.231275" lon="10.949836">
        <ele>386.4</ele>
      </trkpt>
      <trkpt lat="43.230846" lon="10.950367">
        <ele>387.2</ele>
      </trkpt>
      <trkpt lat="43.230275" lon="10.950841">
        <ele>388.2</ele>
      </trkpt>
      <trkpt lat="43.23018" lon="10.950896">
        <ele>388.2</ele>
      </trkpt>
      <trkpt lat="43.230078" lon="10.950926">
        <ele>388.4</ele>
      </trkpt>
      <trkpt lat="43.229881" lon="10.950916">
        <ele>388.6</ele>
      </trkpt>
      <trkpt lat="43.229698" lon="10.950846">
        <ele>388.6</ele>
      </trkpt>
      <trkpt lat="43.229179" lon="10.950576">
        <ele>389.6</ele>
      </trkpt>
      <trkpt lat="43.22901" lon="10.950517">
        <ele>390</ele>
      </trkpt>
      <trkpt lat="43.228935" lon="10.950514">
        <ele>390</ele>
      </trkpt>
      <trkpt lat="43.228867" lon="10.950544">
        <ele>390.2</ele>
      </trkpt>
      <trkpt lat="43.22881" lon="10.950606">
        <ele>390.2</ele>
      </trkpt>
      <trkpt lat="43.228732" lon="10.950812">
        <ele>390.6</ele>
      </trkpt>
      <trkpt lat="43.228683" lon="10.951062">
        <ele>390.8</ele>
      </trkpt>
      <trkpt lat="43.228536" lon="10.952466">
        <ele>391.6</ele>
      </trkpt>
      <trkpt lat="43.228461" lon="10.952775">
        <ele>391.6</ele>
      </trkpt>
      <trkpt lat="43.228115" lon="10.953452">
        <ele>391.4</ele>
      </trkpt>
      <trkpt lat="43.227901" lon="10.954061">
        <ele>391.2</ele>
      </trkpt>
      <trkpt lat="43.22778" lon="10.954348">
        <ele>391</ele>
      </trkpt>
      <trkpt lat="43.227291" lon="10.955045">
        <ele>390.6</ele>
      </trkpt>
      <trkpt lat="43.22715" lon="10.955311">
        <ele>390.4</ele>
      </trkpt>
      <trkpt lat="43.226687" lon="10.956527">
        <ele>389.4</ele>
      </trkpt>
      <trkpt lat="43.22664" lon="10.956682">
        <ele>389.2</ele>
      </trkpt>
      <trkpt lat="43.226589" lon="10.957001">
        <ele>389.2</ele>
      </trkpt>
      <trkpt lat="43.22659" lon="10.957169">
        <ele>389</ele>
      </trkpt>
      <trkpt lat="43.226644" lon="10.957517">
        <ele>388.6</ele>
      </trkpt>
      <trkpt lat="43.226689" lon="10.957694">
        <ele>388.2</ele>
      </trkpt>
      <trkpt lat="43.226756" lon="10.957857">
        <ele>388</ele>
      </trkpt>
      <trkpt lat="43.22753" lon="10.959306">
        <ele>387</ele>
      </trkpt>
      <trkpt lat="43.227687" lon="10.959531">
        <ele>387.2</ele>
      </trkpt>
      <trkpt lat="43.227782" lon="10.959615">
        <ele>387.2</ele>
      </trkpt>
      <trkpt lat="43.228007" lon="10.959716">
        <ele>387.2</ele>
      </trkpt>
      <trkpt lat="43.229495" lon="10.960078">
        <ele>385.8</ele>
      </trkpt>
      <trkpt lat="43.229997" lon="10.960156">
        <ele>384.8</ele>
      </trkpt>
      <trkpt lat="43.23021" lon="10.960266">
        <ele>384.6</ele>
      </trkpt>
      <trkpt lat="43.230377" lon="10.960493">
        <ele>384.2</ele>
      </trkpt>
      <trkpt lat="43.230592" lon="10.960946">
        <ele>383.6</ele>
      </trkpt>
      <trkpt lat="43.230987" lon="10.961517">
        <ele>382.6</ele>
      </trkpt>
      <trkpt lat="43.231237" lon="10.961927">
        <ele>381.8</ele>
      </trkpt>
      <trkpt lat="43.232068" lon="10.962939">
        <ele>381</ele>
      </trkpt>
      <trkpt lat="43.232146" lon="10.963012">
        <ele>381</ele>
      </trkpt>
      <trkpt lat="43.232321" lon="10.9631">
        <ele>381</ele>
      </trkpt>
      <trkpt lat="43.232551" lon="10.963328">
        <ele>381</ele>
      </trkpt>
      <trkpt lat="43.232618" lon="10.963427">
        <ele>381.2</ele>
      </trkpt>
      <trkpt lat="43.23278" lon="10.963841">
        <ele>381.6</ele>
      </trkpt>
      <trkpt lat="43.23294" lon="10.964099">
        <ele>382</ele>
      </trkpt>
      <trkpt lat="43.233866" lon="10.96514">
        <ele>383.2</ele>
      </trkpt>
      <trkpt lat="43.233981" lon="10.965333">
        <ele>383.6</ele>
      </trkpt>
      <trkpt lat="43.234283" lon="10.965964">
        <ele>384.4</ele>
      </trkpt>
      <trkpt lat="43.234405" lon="10.966168">
        <ele>384.6</ele>
      </trkpt>
      <trkpt lat="43.234908" lon="10.966709">
        <ele>385.4</ele>
      </trkpt>
      <trkpt lat="43.235212" lon="10.966989">
        <ele>385.6</ele>
      </trkpt>
      <trkpt lat="43.235683" lon="10.967239">
        <ele>385.4</ele>
      </trkpt>
      <trkpt lat="43.23621" lon="10.967574">
        <ele>385.6</ele>
      </trkpt>
      <trkpt lat="43.237055" lon="10.968022">
        <ele>386</ele>
      </trkpt>
      <trkpt lat="43.237497" lon="10.968165">
        <ele>386.6</ele>
      </trkpt>
      <trkpt lat="43.237668" lon="10.968194">
        <ele>386.8</ele>
      </trkpt>
      <trkpt lat="43.238271" lon="10.968145">
        <ele>388</ele>
      </trkpt>
      <trkpt lat="43.238441" lon="10.968094">
        <ele>388.4</ele>
      </trkpt>
      <trkpt lat="43.238753" lon="10.96794">
        <ele>389</ele>
      </trkpt>
      <trkpt lat="43.239069" lon="10.967745">
        <ele>390</ele>
      </trkpt>
      <trkpt lat="43.239543" lon="10.967568">
        <ele>390.6</ele>
      </trkpt>
      <trkpt lat="43.239673" lon="10.967441">
        <ele>391.2</ele>
      </trkpt>
      <trkpt lat="43.239887" lon="10.966997">
        <ele>392.2</ele>
      </trkpt>
      <trkpt lat="43.240011" lon="10.966843">
        <ele>392.4</ele>
      </trkpt>
      <trkpt lat="43.240181" lon="10.966758">
        <ele>392.6</ele>
      </trkpt>
      <trkpt lat="43.240461" lon="10.96674">
        <ele>393.2</ele>
      </trkpt>
      <trkpt lat="43.240637" lon="10.966662">
        <ele>393.4</ele>
      </trkpt>
      <trkpt lat="43.241087" lon="10.966173">
        <ele>394.4</ele>
      </trkpt>
      <trkpt lat="43.241174" lon="10.966112">
        <ele>394.4</ele>
      </trkpt>
      <trkpt lat="43.241365" lon="10.966037">
        <ele>394.8</ele>
      </trkpt>
      <trkpt lat="43.241462" lon="10.966028">
        <ele>395</ele>
      </trkpt>
      <trkpt lat="43.242978" lon="10.966196">
        <ele>396.6</ele>
      </trkpt>
      <trkpt lat="43.243085" lon="10.966178">
        <ele>396.6</ele>
      </trkpt>
      <trkpt lat="43.243282" lon="10.966098">
        <ele>396.8</ele>
      </trkpt>
      <trkpt lat="43.243465" lon="10.965964">
        <ele>397</ele>
      </trkpt>
      <trkpt lat="43.243662" lon="10.965864">
        <ele>397.4</ele>
      </trkpt>
      <trkpt lat="43.244534" lon="10.965654">
        <ele>397.8</ele>
      </trkpt>
      <trkpt lat="43.245334" lon="10.96514">
        <ele>397.8</ele>
      </trkpt>
      <trkpt lat="43.245912" lon="10.964719">
        <ele>397.6</ele>
      </trkpt>
      <trkpt lat="43.246096" lon="10.964543">
        <ele>397.4</ele>
      </trkpt>
      <trkpt lat="43.246434" lon="10.964132">
        <ele>396.8</ele>
      </trkpt>
      <trkpt lat="43.246647" lon="10.963988">
        <ele>396.2</ele>
      </trkpt>
      <trkpt lat="43.247736" lon="10.963737">
        <ele>393.8</ele>
      </trkpt>
      <trkpt lat="43.247873" lon="10.963672">
        <ele>393.4</ele>
      </trkpt>
      <trkpt lat="43.248003" lon="10.963577">
        <ele>393</ele>
      </trkpt>
      <trkpt lat="43.248377" lon="10.963219">
        <ele>391.8</ele>
      </trkpt>
      <trkpt lat="43.248514" lon="10.963125">
        <ele>391.4</ele>
      </trkpt>
      <trkpt lat="43.2488" lon="10.962986">
        <ele>390.4</ele>
      </trkpt>
      <trkpt lat="43.249679" lon="10.962654">
        <ele>388.2</ele>
      </trkpt>
      <trkpt lat="43.250143" lon="10.962624">
        <ele>387.2</ele>
      </trkpt>
      <trkpt lat="43.250289" lon="10.962592">
        <ele>387</ele>
      </trkpt>
      <trkpt lat="43.250551" lon="10.962455">
        <ele>386.4</ele>
      </trkpt>
      <trkpt lat="43.250894" lon="10.962203">
        <ele>386</ele>
      </trkpt>
      <trkpt lat="43.251149" lon="10.961898">
        <ele>385.6</ele>
      </trkpt>
      <trkpt lat="43.2524" lon="10.959281">
        <ele>384.8</ele>
      </trkpt>
      <trkpt lat="43.252527" lon="10.959077">
        <ele>384.8</ele>
      </trkpt>
      <trkpt lat="43.252691" lon="10.958933">
        <ele>384.8</ele>
      </trkpt>
      <trkpt lat="43.253107" lon="10.958755">
        <ele>384.8</ele>
      </trkpt>
      <trkpt lat="43.253423" lon="10.958586">
        <ele>385</ele>
      </trkpt>
      <trkpt lat="43.253894" lon="10.95819">
        <ele>385.4</ele>
      </trkpt>
      <trkpt lat="43.254338" lon="10.957897">
        <ele>386</ele>
      </trkpt>
      <trkpt lat="43.254879" lon="10.957508">
        <ele>386.6</ele>
      </trkpt>
      <trkpt lat="43.255086" lon="10.957458">
        <ele>386.6</ele>
      </trkpt>
      <trkpt lat="43.25541" lon="10.957539">
        <ele>386.6</ele>
      </trkpt>
      <trkpt lat="43.256404" lon="10.95788">
        <ele>385.8</ele>
      </trkpt>
      <trkpt lat="43.257361" lon="10.958342">
        <ele>386.2</ele>
      </trkpt>
      <trkpt lat="43.257651" lon="10.958391">
        <ele>386.8</ele>
      </trkpt>
      <trkpt lat="43.257935" lon="10.958337">
        <ele>387.4</ele>
      </trkpt>
      <trkpt lat="43.258311" lon="10.958137">
        <ele>388.6</ele>
      </trkpt>
      <trkpt lat="43.259027" lon="10.957555">
        <ele>390.6</ele>
      </trkpt>
      <trkpt lat="43.259326" lon="10.957351">
        <ele>392</ele>
      </trkpt>
      <trkpt lat="43.259402" lon="10.957338">
        <ele>392.2</ele>
      </trkpt>
      <trkpt lat="43.259476" lon="10.957369">
        <ele>392.6</ele>
      </trkpt>
      <trkpt lat="43.259536" lon="10.957438">
        <ele>392.8</ele>
      </trkpt>
      <trkpt lat="43.259576" lon="10.957542">
        <ele>393</ele>
      </trkpt>
      <trkpt lat="43.259694" lon="10.95825">
        <ele>394</ele>
      </trkpt>
      <trkpt lat="43.259787" lon="10.958562">
        <ele>394.2</ele>
      </trkpt>
      <trkpt lat="43.259928" lon="10.958867">
        <ele>394</ele>
      </trkpt>
      <trkpt lat="43.260208" lon="10.959309">
        <ele>393.6</ele>
      </trkpt>
      <trkpt lat="43.26043" lon="10.959604">
        <ele>393.2</ele>
      </trkpt>
      <trkpt lat="43.260794" lon="10.960042">
        <ele>392</ele>
      </trkpt>
      <trkpt lat="43.261067" lon="10.960293">
        <ele>391.2</ele>
      </trkpt>
      <trkpt lat="43.261189" lon="10.960442">
        <ele>391</ele>
      </trkpt>
      <trkpt lat="43.261287" lon="10.960616">
        <ele>390.6</ele>
      </trkpt>
      <trkpt lat="43.261357" lon="10.96081">
        <ele>390</ele>
      </trkpt>
      <trkpt lat="43.261403" lon="10.961015">
        <ele>389.4</ele>
      </trkpt>
      <trkpt lat="43.261485" lon="10.961742">
        <ele>387</ele>
      </trkpt>
      <trkpt lat="43.261541" lon="10.961892">
        <ele>386.4</ele>
      </trkpt>
      <trkpt lat="43.261633" lon="10.962003">
        <ele>385.6</ele>
      </trkpt>
      <trkpt lat="43.261748" lon="10.962073">
        <ele>385.2</ele>
      </trkpt>
      <trkpt lat="43.262006" lon="10.962106">
        <ele>384</ele>
      </trkpt>
      <trkpt lat="43.262134" lon="10.962157">
        <ele>383.2</ele>
      </trkpt>
      <trkpt lat="43.262251" lon="10.962243">
        <ele>382.6</ele>
      </trkpt>
      <trkpt lat="43.262331" lon="10.962383">
        <ele>382</ele>
      </trkpt>
      <trkpt lat="43.262371" lon="10.962552">
        <ele>381.6</ele>
      </trkpt>
      <trkpt lat="43.262373" lon="10.962729">
        <ele>381</ele>
      </trkpt>
      <trkpt lat="43.262228" lon="10.963462">
        <ele>378.2</ele>
      </trkpt>
      <trkpt lat="43.262203" lon="10.963663">
        <ele>377.4</ele>
      </trkpt>
      <trkpt lat="43.262207" lon="10.963871">
        <ele>376.8</ele>
      </trkpt>
      <trkpt lat="43.262239" lon="10.964077">
        <ele>376.2</ele>
      </trkpt>
      <trkpt lat="43.262305" lon="10.964262">
        <ele>375.6</ele>
      </trkpt>
      <trkpt lat="43.26249" lon="10.96459">
        <ele>374</ele>
      </trkpt>
      <trkpt lat="43.262553" lon="10.964772">
        <ele>373.2</ele>
      </trkpt>
      <trkpt lat="43.262587" lon="10.964965">
        <ele>372.8</ele>
      </trkpt>
      <trkpt lat="43.262585" lon="10.965169">
        <ele>372</ele>
      </trkpt>
      <trkpt lat="43.262552" lon="10.965371">
        <ele>371.2</ele>
      </trkpt>
      <trkpt lat="43.262172" lon="10.966521">
        <ele>365.6</ele>
      </trkpt>
      <trkpt lat="43.262152" lon="10.966721">
        <ele>364.8</ele>
      </trkpt>
      <trkpt lat="43.262163" lon="10.966923">
        <ele>363.8</ele>
      </trkpt>
      <trkpt lat="43.262208" lon="10.967113">
        <ele>363.2</ele>
      </trkpt>
      <trkpt lat="43.262289" lon="10.967286">
        <ele>362.2</ele>
      </trkpt>
      <trkpt lat="43.262507" lon="10.967593">
        <ele>360.2</ele>
      </trkpt>
      <trkpt lat="43.263137" lon="10.968333">
        <ele>355.8</ele>
      </trkpt>
      <trkpt lat="43.263255" lon="10.968508">
        <ele>355</ele>
      </trkpt>
      <trkpt lat="43.263355" lon="10.968702">
        <ele>353.6</ele>
      </trkpt>
      <trkpt lat="43.263698" lon="10.969541">
        <ele>349.6</ele>
      </trkpt>
      <trkpt lat="43.26381" lon="10.969711">
        <ele>348.6</ele>
      </trkpt>
      <trkpt lat="43.26395" lon="10.969828">
        <ele>347.6</ele>
      </trkpt>
      <trkpt lat="43.264102" lon="10.969904">
        <ele>346.4</ele>
      </trkpt>
      <trkpt lat="43.265281" lon="10.970097">
        <ele>339.8</ele>
      </trkpt>
      <trkpt lat="43.265416" lon="10.970167">
        <ele>339.2</ele>
      </trkpt>
      <trkpt lat="43.265538" lon="10.970271">
        <ele>338.6</ele>
      </trkpt>
      <trkpt lat="43.265774" lon="10.970534">
        <ele>337.6</ele>
      </trkpt>
      <trkpt lat="43.266103" lon="10.970969">
        <ele>335.8</ele>
      </trkpt>
      <trkpt lat="43.266187" lon="10.971136">
        <ele>335.4</ele>
      </trkpt>
      <trkpt lat="43.266251" lon="10.971321">
        <ele>334.8</ele>
      </trkpt>
      <trkpt lat="43.266286" lon="10.97152">
        <ele>334.4</ele>
      </trkpt>
      <trkpt lat="43.266301" lon="10.97194">
        <ele>333.6</ele>
      </trkpt>
      <trkpt lat="43.266332" lon="10.972153">
        <ele>333</ele>
      </trkpt>
      <trkpt lat="43.266386" lon="10.972349">
        <ele>332.6</ele>
      </trkpt>
      <trkpt lat="43.26656" lon="10.972696">
        <ele>331.8</ele>
      </trkpt>
      <trkpt lat="43.266674" lon="10.972841">
        <ele>331.4</ele>
      </trkpt>
      <trkpt lat="43.266806" lon="10.972951">
        <ele>331</ele>
      </trkpt>
      <trkpt lat="43.266948" lon="10.973029">
        <ele>330.6</ele>
      </trkpt>
      <trkpt lat="43.267097" lon="10.973067">
        <ele>330.4</ele>
      </trkpt>
      <trkpt lat="43.26754" lon="10.973112">
        <ele>328.8</ele>
      </trkpt>
      <trkpt lat="43.267687" lon="10.973165">
        <ele>328.4</ele>
      </trkpt>
      <trkpt lat="43.267971" lon="10.973318">
        <ele>327.8</ele>
      </trkpt>
      <trkpt lat="43.268243" lon="10.973493">
        <ele>327</ele>
      </trkpt>
      <trkpt lat="43.268375" lon="10.973605">
        <ele>326.6</ele>
      </trkpt>
      <trkpt lat="43.26849" lon="10.973745">
        <ele>326</ele>
      </trkpt>
      <trkpt lat="43.268584" lon="10.973914">
        <ele>325.6</ele>
      </trkpt>
      <trkpt lat="43.268653" lon="10.974101">
        <ele>325.2</ele>
      </trkpt>
      <trkpt lat="43.2687" lon="10.974301">
        <ele>324.8</ele>
      </trkpt>
      <trkpt lat="43.268709" lon="10.974513">
        <ele>324.6</ele>
      </trkpt>
      <trkpt lat="43.268661" lon="10.974919">
        <ele>324.2</ele>
      </trkpt>
      <trkpt lat="43.268527" lon="10.975521">
        <ele>323.4</ele>
      </trkpt>
      <trkpt lat="43.268512" lon="10.975738">
        <ele>323</ele>
      </trkpt>
      <trkpt lat="43.268566" lon="10.97617">
        <ele>322.2</ele>
      </trkpt>
      <trkpt lat="43.268636" lon="10.976359">
        <ele>322</ele>
      </trkpt>
      <trkpt lat="43.268727" lon="10.976533">
        <ele>321.6</ele>
      </trkpt>
      <trkpt lat="43.269156" lon="10.977169">
        <ele>320.4</ele>
      </trkpt>
      <trkpt lat="43.269501" lon="10.977653">
        <ele>319.4</ele>
      </trkpt>
      <trkpt lat="43.26958" lon="10.977845">
        <ele>318.8</ele>
      </trkpt>
      <trkpt lat="43.269623" lon="10.978061">
        <ele>318.4</ele>
      </trkpt>
      <trkpt lat="43.269638" lon="10.978289">
        <ele>317.8</ele>
      </trkpt>
      <trkpt lat="43.269616" lon="10.978519">
        <ele>317.2</ele>
      </trkpt>
      <trkpt lat="43.269571" lon="10.978733">
        <ele>316.6</ele>
      </trkpt>
      <trkpt lat="43.269439" lon="10.979167">
        <ele>315.4</ele>
      </trkpt>
      <trkpt lat="43.269411" lon="10.979405">
        <ele>314.6</ele>
      </trkpt>
      <trkpt lat="43.269422" lon="10.979646">
        <ele>313.8</ele>
      </trkpt>
      <trkpt lat="43.269537" lon="10.980097">
        <ele>312.4</ele>
      </trkpt>
      <trkpt lat="43.269618" lon="10.980319">
        <ele>311.8</ele>
      </trkpt>
      <trkpt lat="43.269736" lon="10.980519">
        <ele>311</ele>
      </trkpt>
      <trkpt lat="43.269874" lon="10.980701">
        <ele>310</ele>
      </trkpt>
      <trkpt lat="43.270456" lon="10.981333">
        <ele>306.4</ele>
      </trkpt>
      <trkpt lat="43.270692" lon="10.981664">
        <ele>304.8</ele>
      </trkpt>
      <trkpt lat="43.270776" lon="10.981846">
        <ele>304.6</ele>
      </trkpt>
      <trkpt lat="43.270831" lon="10.982048">
        <ele>303.4</ele>
      </trkpt>
      <trkpt lat="43.270851" lon="10.982256">
        <ele>302.4</ele>
      </trkpt>
      <trkpt lat="43.27083" lon="10.982465">
        <ele>301.2</ele>
      </trkpt>
      <trkpt lat="43.270695" lon="10.983051">
        <ele>299.2</ele>
      </trkpt>
      <trkpt lat="43.270569" lon="10.983497">
        <ele>297.2</ele>
      </trkpt>
      <trkpt lat="43.270561" lon="10.983623">
        <ele>296.4</ele>
      </trkpt>
      <trkpt lat="43.270581" lon="10.983742">
        <ele>295.6</ele>
      </trkpt>
      <trkpt lat="43.270638" lon="10.983837">
        <ele>294.6</ele>
      </trkpt>
      <trkpt lat="43.270733" lon="10.983881">
        <ele>293.6</ele>
      </trkpt>
      <trkpt lat="43.270835" lon="10.983875">
        <ele>292.6</ele>
      </trkpt>
      <trkpt lat="43.27094" lon="10.983828">
        <ele>291.8</ele>
      </trkpt>
      <trkpt lat="43.271263" lon="10.983592">
        <ele>289.4</ele>
      </trkpt>
      <trkpt lat="43.271582" lon="10.983292">
        <ele>287</ele>
      </trkpt>
      <trkpt lat="43.271657" lon="10.983169">
        <ele>286.2</ele>
      </trkpt>
      <trkpt lat="43.271705" lon="10.983019">
        <ele>285.4</ele>
      </trkpt>
      <trkpt lat="43.271714" lon="10.982859">
        <ele>284.4</ele>
      </trkpt>
      <trkpt lat="43.271678" lon="10.982522">
        <ele>282.8</ele>
      </trkpt>
      <trkpt lat="43.271699" lon="10.982343">
        <ele>281.8</ele>
      </trkpt>
      <trkpt lat="43.271759" lon="10.982188">
        <ele>280.8</ele>
      </trkpt>
      <trkpt lat="43.271848" lon="10.982064">
        <ele>279.8</ele>
      </trkpt>
      <trkpt lat="43.271975" lon="10.981997">
        <ele>279</ele>
      </trkpt>
      <trkpt lat="43.272101" lon="10.981974">
        <ele>278.2</ele>
      </trkpt>
      <trkpt lat="43.27266" lon="10.982059">
        <ele>275</ele>
      </trkpt>
      <trkpt lat="43.272929" lon="10.98213">
        <ele>273.2</ele>
      </trkpt>
      <trkpt lat="43.273215" lon="10.98233">
        <ele>270.8</ele>
      </trkpt>
      <trkpt lat="43.273298" lon="10.982355">
        <ele>270</ele>
      </trkpt>
      <trkpt lat="43.273383" lon="10.982329">
        <ele>269.2</ele>
      </trkpt>
      <trkpt lat="43.273428" lon="10.982246">
        <ele>268.4</ele>
      </trkpt>
      <trkpt lat="43.273423" lon="10.982132">
        <ele>267.6</ele>
      </trkpt>
      <trkpt lat="43.273373" lon="10.982042">
        <ele>266.8</ele>
      </trkpt>
      <trkpt lat="43.273303" lon="10.981976">
        <ele>265.8</ele>
      </trkpt>
      <trkpt lat="43.27302" lon="10.981866">
        <ele>263.4</ele>
      </trkpt>
      <trkpt lat="43.272931" lon="10.981789">
        <ele>262.6</ele>
      </trkpt>
      <trkpt lat="43.272861" lon="10.98167">
        <ele>261.8</ele>
      </trkpt>
      <trkpt lat="43.272838" lon="10.981527">
        <ele>261</ele>
      </trkpt>
      <trkpt lat="43.272852" lon="10.981378">
        <ele>260.2</ele>
      </trkpt>
      <trkpt lat="43.272915" lon="10.981244">
        <ele>259.2</ele>
      </trkpt>
      <trkpt lat="43.273" lon="10.981134">
        <ele>258.2</ele>
      </trkpt>
      <trkpt lat="43.27311" lon="10.981047">
        <ele>257.4</ele>
      </trkpt>
      <trkpt lat="43.273658" lon="10.980648">
        <ele>253.4</ele>
      </trkpt>
      <trkpt lat="43.273741" lon="10.980597">
        <ele>252.6</ele>
      </trkpt>
      <trkpt lat="43.273835" lon="10.980582">
        <ele>251.6</ele>
      </trkpt>
      <trkpt lat="43.273916" lon="10.980628">
        <ele>250.8</ele>
      </trkpt>
      <trkpt lat="43.273971" lon="10.980713">
        <ele>249.8</ele>
      </trkpt>
      <trkpt lat="43.27397" lon="10.980817">
        <ele>249</ele>
      </trkpt>
      <trkpt lat="43.273942" lon="10.980907">
        <ele>248</ele>
      </trkpt>
      <trkpt lat="43.273785" lon="10.980984">
        <ele>246.4</ele>
      </trkpt>
      <trkpt lat="43.273714" lon="10.981059">
        <ele>245.2</ele>
      </trkpt>
      <trkpt lat="43.273675" lon="10.981166">
        <ele>244.4</ele>
      </trkpt>
      <trkpt lat="43.273678" lon="10.981288">
        <ele>243.6</ele>
      </trkpt>
      <trkpt lat="43.27372" lon="10.981401">
        <ele>242.8</ele>
      </trkpt>
      <trkpt lat="43.273806" lon="10.981478">
        <ele>242</ele>
      </trkpt>
      <trkpt lat="43.274229" lon="10.981738">
        <ele>238.8</ele>
      </trkpt>
      <trkpt lat="43.274357" lon="10.981777">
        <ele>237.8</ele>
      </trkpt>
      <trkpt lat="43.274488" lon="10.981777">
        <ele>237</ele>
      </trkpt>
      <trkpt lat="43.27462" lon="10.981741">
        <ele>236.2</ele>
      </trkpt>
      <trkpt lat="43.274746" lon="10.981652">
        <ele>235.4</ele>
      </trkpt>
      <trkpt lat="43.274843" lon="10.981508">
        <ele>234.6</ele>
      </trkpt>
      <trkpt lat="43.27502" lon="10.981207">
        <ele>232.6</ele>
      </trkpt>
      <trkpt lat="43.27549" lon="10.980283">
        <ele>228.4</ele>
      </trkpt>
      <trkpt lat="43.275582" lon="10.980149">
        <ele>227.8</ele>
      </trkpt>
      <trkpt lat="43.275689" lon="10.980041">
        <ele>227.2</ele>
      </trkpt>
      <trkpt lat="43.275811" lon="10.979969">
        <ele>226.6</ele>
      </trkpt>
      <trkpt lat="43.275941" lon="10.979934">
        <ele>226.2</ele>
      </trkpt>
      <trkpt lat="43.276069" lon="10.979938">
        <ele>225.6</ele>
      </trkpt>
      <trkpt lat="43.276199" lon="10.97998">
        <ele>225.2</ele>
      </trkpt>
      <trkpt lat="43.276819" lon="10.980343">
        <ele>223.4</ele>
      </trkpt>
      <trkpt lat="43.276924" lon="10.980456">
        <ele>223.2</ele>
      </trkpt>
      <trkpt lat="43.277002" lon="10.980599">
        <ele>222.8</ele>
      </trkpt>
      <trkpt lat="43.277096" lon="10.980923">
        <ele>222.2</ele>
      </trkpt>
      <trkpt lat="43.27717" lon="10.981055">
        <ele>222.2</ele>
      </trkpt>
      <trkpt lat="43.277281" lon="10.981163">
        <ele>222</ele>
      </trkpt>
      <trkpt lat="43.277402" lon="10.981241">
        <ele>221.6</ele>
      </trkpt>
      <trkpt lat="43.277527" lon="10.981297">
        <ele>221.4</ele>
      </trkpt>
      <trkpt lat="43.278486" lon="10.981534">
        <ele>220.4</ele>
      </trkpt>
      <trkpt lat="43.278796" lon="10.981509">
        <ele>220</ele>
      </trkpt>
      <trkpt lat="43.2794" lon="10.981362">
        <ele>219</ele>
      </trkpt>
      <trkpt lat="43.2797" lon="10.981403">
        <ele>218.8</ele>
      </trkpt>
      <trkpt lat="43.280005" lon="10.981528">
        <ele>218.2</ele>
      </trkpt>
      <trkpt lat="43.280295" lon="10.981688">
        <ele>217.8</ele>
      </trkpt>
      <trkpt lat="43.281221" lon="10.982357">
        <ele>215.8</ele>
      </trkpt>
      <trkpt lat="43.281348" lon="10.982409">
        <ele>215.4</ele>
      </trkpt>
      <trkpt lat="43.281473" lon="10.982428">
        <ele>215.2</ele>
      </trkpt>
      <trkpt lat="43.281589" lon="10.982377">
        <ele>214.8</ele>
      </trkpt>
      <trkpt lat="43.281689" lon="10.982284">
        <ele>214.4</ele>
      </trkpt>
      <trkpt lat="43.281762" lon="10.982161">
        <ele>214.2</ele>
      </trkpt>
      <trkpt lat="43.281791" lon="10.982026">
        <ele>213.8</ele>
      </trkpt>
      <trkpt lat="43.281775" lon="10.981881">
        <ele>213.6</ele>
      </trkpt>
      <trkpt lat="43.28168" lon="10.981593">
        <ele>213</ele>
      </trkpt>
      <trkpt lat="43.281672" lon="10.981423">
        <ele>212.6</ele>
      </trkpt>
      <trkpt lat="43.281703" lon="10.981258">
        <ele>212.4</ele>
      </trkpt>
      <trkpt lat="43.281764" lon="10.981111">
        <ele>212</ele>
      </trkpt>
      <trkpt lat="43.281853" lon="10.98098">
        <ele>211.8</ele>
      </trkpt>
      <trkpt lat="43.281967" lon="10.980881">
        <ele>211.4</ele>
      </trkpt>
      <trkpt lat="43.282094" lon="10.980822">
        <ele>211</ele>
      </trkpt>
      <trkpt lat="43.282229" lon="10.980811">
        <ele>210.8</ele>
      </trkpt>
      <trkpt lat="43.282363" lon="10.980836">
        <ele>210.6</ele>
      </trkpt>
      <trkpt lat="43.282926" lon="10.981044">
        <ele>209.4</ele>
      </trkpt>
      <trkpt lat="43.283538" lon="10.981176">
        <ele>208.2</ele>
      </trkpt>
      <trkpt lat="43.283847" lon="10.981267">
        <ele>207.4</ele>
      </trkpt>
      <trkpt lat="43.284139" lon="10.981432">
        <ele>206.6</ele>
      </trkpt>
      <trkpt lat="43.284268" lon="10.981558">
        <ele>206</ele>
      </trkpt>
      <trkpt lat="43.284634" lon="10.982005">
        <ele>204.2</ele>
      </trkpt>
      <trkpt lat="43.284777" lon="10.982119">
        <ele>203.6</ele>
      </trkpt>
      <trkpt lat="43.284942" lon="10.982165">
        <ele>203.2</ele>
      </trkpt>
      <trkpt lat="43.285098" lon="10.982163">
        <ele>202.4</ele>
      </trkpt>
      <trkpt lat="43.285248" lon="10.982096">
        <ele>202</ele>
      </trkpt>
      <trkpt lat="43.285518" lon="10.981879">
        <ele>200.6</ele>
      </trkpt>
      <trkpt lat="43.286364" lon="10.981061">
        <ele>196.6</ele>
      </trkpt>
      <trkpt lat="43.286984" lon="10.980495">
        <ele>193.4</ele>
      </trkpt>
      <trkpt lat="43.288111" lon="10.97952">
        <ele>188</ele>
      </trkpt>
      <trkpt lat="43.288246" lon="10.979349">
        <ele>187.2</ele>
      </trkpt>
      <trkpt lat="43.288699" lon="10.978625">
        <ele>183.8</ele>
      </trkpt>
      <trkpt lat="43.288841" lon="10.978498">
        <ele>183</ele>
      </trkpt>
      <trkpt lat="43.288998" lon="10.978425">
        <ele>182</ele>
      </trkpt>
      <trkpt lat="43.289162" lon="10.978422">
        <ele>181</ele>
      </trkpt>
      <trkpt lat="43.289312" lon="10.978478">
        <ele>180.2</ele>
      </trkpt>
      <trkpt lat="43.290644" lon="10.979417">
        <ele>173.4</ele>
      </trkpt>
      <trkpt lat="43.291225" lon="10.979807">
        <ele>171.2</ele>
      </trkpt>
      <trkpt lat="43.291364" lon="10.979877">
        <ele>170.8</ele>
      </trkpt>
      <trkpt lat="43.291503" lon="10.979915">
        <ele>170.4</ele>
      </trkpt>
      <trkpt lat="43.291646" lon="10.979914">
        <ele>170.2</ele>
      </trkpt>
      <trkpt lat="43.29206" lon="10.979839">
        <ele>169.8</ele>
      </trkpt>
      <trkpt lat="43.292184" lon="10.979876">
        <ele>169.6</ele>
      </trkpt>
      <trkpt lat="43.292289" lon="10.979943">
        <ele>169.6</ele>
      </trkpt>
      <trkpt lat="43.29237" lon="10.980029">
        <ele>169.4</ele>
      </trkpt>
      <trkpt lat="43.292466" lon="10.980291">
        <ele>169.6</ele>
      </trkpt>
      <trkpt lat="43.29249" lon="10.980562">
        <ele>169.8</ele>
      </trkpt>
      <trkpt lat="43.292435" lon="10.980938">
        <ele>170.6</ele>
      </trkpt>
      <trkpt lat="43.292314" lon="10.981506">
        <ele>171.8</ele>
      </trkpt>
      <trkpt lat="43.292284" lon="10.981842">
        <ele>173.2</ele>
      </trkpt>
      <trkpt lat="43.292311" lon="10.982372">
        <ele>174.8</ele>
      </trkpt>
      <trkpt lat="43.292377" lon="10.982871">
        <ele>176.8</ele>
      </trkpt>
      <trkpt lat="43.292469" lon="10.983217">
        <ele>178.6</ele>
      </trkpt>
      <trkpt lat="43.292525" lon="10.983355">
        <ele>179.4</ele>
      </trkpt>
      <trkpt lat="43.292651" lon="10.983525">
        <ele>180.6</ele>
      </trkpt>
      <trkpt lat="43.292882" lon="10.983716">
        <ele>182.4</ele>
      </trkpt>
      <trkpt lat="43.293045" lon="10.983893">
        <ele>183.6</ele>
      </trkpt>
      <trkpt lat="43.293202" lon="10.984201">
        <ele>185.2</ele>
      </trkpt>
      <trkpt lat="43.293316" lon="10.98465">
        <ele>187.4</ele>
      </trkpt>
      <trkpt lat="43.293582" lon="10.985989">
        <ele>193.2</ele>
      </trkpt>
      <trkpt lat="43.293718" lon="10.986385">
        <ele>194.8</ele>
      </trkpt>
      <trkpt lat="43.293971" lon="10.986884">
        <ele>196.4</ele>
      </trkpt>
      <trkpt lat="43.295085" lon="10.988882">
        <ele>202.4</ele>
      </trkpt>
      <trkpt lat="43.295854" lon="10.990646">
        <ele>207.6</ele>
      </trkpt>
      <trkpt lat="43.296029" lon="10.99092">
        <ele>208.2</ele>
      </trkpt>
      <trkpt lat="43.296163" lon="10.991056">
        <ele>209.4</ele>
      </trkpt>
      <trkpt lat="43.296317" lon="10.99115">
        <ele>210</ele>
      </trkpt>
      <trkpt lat="43.297238" lon="10.991477">
        <ele>214</ele>
      </trkpt>
      <trkpt lat="43.297637" lon="10.991667">
        <ele>216</ele>
      </trkpt>
      <trkpt lat="43.297854" lon="10.991817">
        <ele>217</ele>
      </trkpt>
      <trkpt lat="43.298434" lon="10.992331">
        <ele>220</ele>
      </trkpt>
      <trkpt lat="43.298565" lon="10.992459">
        <ele>220.8</ele>
      </trkpt>
      <trkpt lat="43.298672" lon="10.992606">
        <ele>221.8</ele>
      </trkpt>
      <trkpt lat="43.298768" lon="10.992856">
        <ele>223</ele>
      </trkpt>
      <trkpt lat="43.298772" lon="10.993117">
        <ele>224.2</ele>
      </trkpt>
      <trkpt lat="43.298705" lon="10.993375">
        <ele>225.6</ele>
      </trkpt>
      <trkpt lat="43.298451" lon="10.994002">
        <ele>229.2</ele>
      </trkpt>
      <trkpt lat="43.298361" lon="10.994295">
        <ele>230.6</ele>
      </trkpt>
      <trkpt lat="43.298367" lon="10.994602">
        <ele>232.2</ele>
      </trkpt>
      <trkpt lat="43.298426" lon="10.994774">
        <ele>233</ele>
      </trkpt>
      <trkpt lat="43.298471" lon="10.994845">
        <ele>233.4</ele>
      </trkpt>
      <trkpt lat="43.298591" lon="10.994941">
        <ele>234.2</ele>
      </trkpt>
      <trkpt lat="43.298736" lon="10.994965">
        <ele>235.2</ele>
      </trkpt>
      <trkpt lat="43.298875" lon="10.994911">
        <ele>236.2</ele>
      </trkpt>
      <trkpt lat="43.29921" lon="10.994713">
        <ele>238.8</ele>
      </trkpt>
      <trkpt lat="43.299344" lon="10.994718">
        <ele>239.8</ele>
      </trkpt>
      <trkpt lat="43.299472" lon="10.994791">
        <ele>240.6</ele>
      </trkpt>
      <trkpt lat="43.299525" lon="10.994856">
        <ele>241</ele>
      </trkpt>
      <trkpt lat="43.299601" lon="10.995016">
        <ele>242</ele>
      </trkpt>
      <trkpt lat="43.29962" lon="10.995102">
        <ele>242.6</ele>
      </trkpt>
      <trkpt lat="43.299614" lon="10.995282">
        <ele>243.6</ele>
      </trkpt>
      <trkpt lat="43.299592" lon="10.995367">
        <ele>244.2</ele>
      </trkpt>
      <trkpt lat="43.299406" lon="10.995722">
        <ele>247.2</ele>
      </trkpt>
      <trkpt lat="43.299355" lon="10.995887">
        <ele>248.2</ele>
      </trkpt>
      <trkpt lat="43.299324" lon="10.996073">
        <ele>249.2</ele>
      </trkpt>
      <trkpt lat="43.299265" lon="10.99721">
        <ele>255</ele>
      </trkpt>
      <trkpt lat="43.299238" lon="10.998706">
        <ele>263.6</ele>
      </trkpt>
      <trkpt lat="43.299214" lon="10.999086">
        <ele>265.8</ele>
      </trkpt>
      <trkpt lat="43.299078" lon="11.000078">
        <ele>272.6</ele>
      </trkpt>
      <trkpt lat="43.29906" lon="11.000344">
        <ele>274.6</ele>
      </trkpt>
      <trkpt lat="43.298996" lon="11.000513">
        <ele>276.4</ele>
      </trkpt>
      <trkpt lat="43.298879" lon="11.000604">
        <ele>277.8</ele>
      </trkpt>
      <trkpt lat="43.298783" lon="11.000605">
        <ele>278.8</ele>
      </trkpt>
      <trkpt lat="43.298734" lon="11.000581">
        <ele>279.4</ele>
      </trkpt>
      <trkpt lat="43.298591" lon="11.000478">
        <ele>281</ele>
      </trkpt>
      <trkpt lat="43.29823" lon="10.999993">
        <ele>285.4</ele>
      </trkpt>
      <trkpt lat="43.298114" lon="10.999883">
        <ele>286.4</ele>
      </trkpt>
      <trkpt lat="43.297979" lon="10.999826">
        <ele>287.4</ele>
      </trkpt>
      <trkpt lat="43.297837" lon="10.99984">
        <ele>288.2</ele>
      </trkpt>
      <trkpt lat="43.297766" lon="10.999871">
        <ele>288.8</ele>
      </trkpt>
      <trkpt lat="43.297639" lon="10.999958">
        <ele>289.6</ele>
      </trkpt>
      <trkpt lat="43.297523" lon="11.000083">
        <ele>290.6</ele>
      </trkpt>
      <trkpt lat="43.297471" lon="11.000157">
        <ele>291.2</ele>
      </trkpt>
      <trkpt lat="43.297406" lon="11.000326">
        <ele>292</ele>
      </trkpt>
      <trkpt lat="43.297374" lon="11.000615">
        <ele>293.6</ele>
      </trkpt>
      <trkpt lat="43.297355" lon="11.001259">
        <ele>297.2</ele>
      </trkpt>
      <trkpt lat="43.297254" lon="11.001691">
        <ele>299.6</ele>
      </trkpt>
      <trkpt lat="43.297106" lon="11.00197">
        <ele>302.2</ele>
      </trkpt>
      <trkpt lat="43.29679" lon="11.002388">
        <ele>305.2</ele>
      </trkpt>
      <trkpt lat="43.29668" lon="11.002474">
        <ele>306.2</ele>
      </trkpt>
      <trkpt lat="43.296508" lon="11.002555">
        <ele>307.6</ele>
      </trkpt>
      <trkpt lat="43.296285" lon="11.002607">
        <ele>309.6</ele>
      </trkpt>
      <trkpt lat="43.296099" lon="11.002588">
        <ele>311</ele>
      </trkpt>
      <trkpt lat="43.295716" lon="11.002413">
        <ele>313.8</ele>
      </trkpt>
      <trkpt lat="43.295519" lon="11.002376">
        <ele>315.4</ele>
      </trkpt>
      <trkpt lat="43.295318" lon="11.002427">
        <ele>317</ele>
      </trkpt>
      <trkpt lat="43.295151" lon="11.002557">
        <ele>318.6</ele>
      </trkpt>
      <trkpt lat="43.294975" lon="11.002822">
        <ele>320.8</ele>
      </trkpt>
      <trkpt lat="43.294707" lon="11.00336">
        <ele>324.2</ele>
      </trkpt>
      <trkpt lat="43.294542" lon="11.00363">
        <ele>326</ele>
      </trkpt>
      <trkpt lat="43.294455" lon="11.003844">
        <ele>327.4</ele>
      </trkpt>
      <trkpt lat="43.294379" lon="11.004242">
        <ele>329.8</ele>
      </trkpt>
      <trkpt lat="43.294327" lon="11.004902">
        <ele>333.6</ele>
      </trkpt>
      <trkpt lat="43.294221" lon="11.005401">
        <ele>336.2</ele>
      </trkpt>
      <trkpt lat="43.294201" lon="11.005571">
        <ele>337.2</ele>
      </trkpt>
      <trkpt lat="43.294255" lon="11.00592">
        <ele>339.2</ele>
      </trkpt>
      <trkpt lat="43.294459" lon="11.00658">
        <ele>343</ele>
      </trkpt>
      <trkpt lat="43.294534" lon="11.006982">
        <ele>345.4</ele>
      </trkpt>
      <trkpt lat="43.294737" lon="11.009073">
        <ele>356.8</ele>
      </trkpt>
      <trkpt lat="43.294809" lon="11.00959">
        <ele>359.4</ele>
      </trkpt>
      <trkpt lat="43.294987" lon="11.010112">
        <ele>362</ele>
      </trkpt>
      <trkpt lat="43.295229" lon="11.010592">
        <ele>364.8</ele>
      </trkpt>
      <trkpt lat="43.295443" lon="11.010827">
        <ele>366.6</ele>
      </trkpt>
      <trkpt lat="43.295621" lon="11.010921">
        <ele>368</ele>
      </trkpt>
      <trkpt lat="43.295805" lon="11.010957">
        <ele>369.6</ele>
      </trkpt>
      <trkpt lat="43.296278" lon="11.010886">
        <ele>373</ele>
      </trkpt>
      <trkpt lat="43.297054" lon="11.010718">
        <ele>378.6</ele>
      </trkpt>
      <trkpt lat="43.297733" lon="11.010602">
        <ele>383</ele>
      </trkpt>
      <trkpt lat="43.29808" lon="11.010619">
        <ele>384.8</ele>
      </trkpt>
      <trkpt lat="43.298695" lon="11.010721">
        <ele>386.8</ele>
      </trkpt>
      <trkpt lat="43.298801" lon="11.010762">
        <ele>387</ele>
      </trkpt>
      <trkpt lat="43.299002" lon="11.010905">
        <ele>387.4</ele>
      </trkpt>
      <trkpt lat="43.299413" lon="11.011306">
        <ele>388</ele>
      </trkpt>
      <trkpt lat="43.299621" lon="11.011523">
        <ele>388.2</ele>
      </trkpt>
      <trkpt lat="43.299716" lon="11.011662">
        <ele>388.4</ele>
      </trkpt>
      <trkpt lat="43.299793" lon="11.011818">
        <ele>388.4</ele>
      </trkpt>
      <trkpt lat="43.299846" lon="11.011992">
        <ele>388.4</ele>
      </trkpt>
      <trkpt lat="43.300025" lon="11.012937">
        <ele>388.4</ele>
      </trkpt>
      <trkpt lat="43.300037" lon="11.013139">
        <ele>388.4</ele>
      </trkpt>
      <trkpt lat="43.300015" lon="11.013553">
        <ele>388.2</ele>
      </trkpt>
      <trkpt lat="43.29979" lon="11.015228">
        <ele>387</ele>
      </trkpt>
      <trkpt lat="43.299657" lon="11.015611">
        <ele>386.4</ele>
      </trkpt>
      <trkpt lat="43.299346" lon="11.016074">
        <ele>385.4</ele>
      </trkpt>
      <trkpt lat="43.299266" lon="11.016241">
        <ele>385</ele>
      </trkpt>
      <trkpt lat="43.299167" lon="11.016608">
        <ele>384.8</ele>
      </trkpt>
      <trkpt lat="43.299162" lon="11.016987">
        <ele>384.6</ele>
      </trkpt>
      <trkpt lat="43.299192" lon="11.017535">
        <ele>384.4</ele>
      </trkpt>
      <trkpt lat="43.29916" lon="11.018046">
        <ele>384.6</ele>
      </trkpt>
      <trkpt lat="43.29908" lon="11.018364">
        <ele>384.6</ele>
      </trkpt>
      <trkpt lat="43.298929" lon="11.018788">
        <ele>384.6</ele>
      </trkpt>
      <trkpt lat="43.298793" lon="11.019013">
        <ele>384.8</ele>
      </trkpt>
      <trkpt lat="43.298508" lon="11.019403">
        <ele>385</ele>
      </trkpt>
      <trkpt lat="43.298404" lon="11.019617">
        <ele>385.2</ele>
      </trkpt>
      <trkpt lat="43.29832" lon="11.019988">
        <ele>385.4</ele>
      </trkpt>
      <trkpt lat="43.298207" lon="11.020694">
        <ele>386</ele>
      </trkpt>
      <trkpt lat="43.298205" lon="11.020843">
        <ele>386.2</ele>
      </trkpt>
      <trkpt lat="43.298256" lon="11.021115">
        <ele>386.2</ele>
      </trkpt>
      <trkpt lat="43.298611" lon="11.022056">
        <ele>386.6</ele>
      </trkpt>
      <trkpt lat="43.298661" lon="11.022363">
        <ele>386.6</ele>
      </trkpt>
      <trkpt lat="43.298723" lon="11.023016">
        <ele>386.8</ele>
      </trkpt>
      <trkpt lat="43.298761" lon="11.023713">
        <ele>386.8</ele>
      </trkpt>
      <trkpt lat="43.298677" lon="11.025347">
        <ele>385.8</ele>
      </trkpt>
      <trkpt lat="43.298586" lon="11.025697">
        <ele>385.2</ele>
      </trkpt>
      <trkpt lat="43.29851" lon="11.025857">
        <ele>384.8</ele>
      </trkpt>
      <trkpt lat="43.298225" lon="11.026303">
        <ele>383.6</ele>
      </trkpt>
      <trkpt lat="43.298042" lon="11.0269">
        <ele>382</ele>
      </trkpt>
      <trkpt lat="43.297808" lon="11.027473">
        <ele>380.4</ele>
      </trkpt>
      <trkpt lat="43.297756" lon="11.027678">
        <ele>379.8</ele>
      </trkpt>
      <trkpt lat="43.29773" lon="11.028122">
        <ele>378.4</ele>
      </trkpt>
      <trkpt lat="43.297781" lon="11.028817">
        <ele>376.2</ele>
      </trkpt>
      <trkpt lat="43.29777" lon="11.029775">
        <ele>373.2</ele>
      </trkpt>
      <trkpt lat="43.297754" lon="11.030006">
        <ele>372.4</ele>
      </trkpt>
      <trkpt lat="43.297711" lon="11.030223">
        <ele>371.6</ele>
      </trkpt>
      <trkpt lat="43.297512" lon="11.030571">
        <ele>369.8</ele>
      </trkpt>
      <trkpt lat="43.297147" lon="11.030997">
        <ele>367.2</ele>
      </trkpt>
      <trkpt lat="43.297054" lon="11.03118">
        <ele>366.2</ele>
      </trkpt>
      <trkpt lat="43.296998" lon="11.031396">
        <ele>365.4</ele>
      </trkpt>
      <trkpt lat="43.296971" lon="11.031623">
        <ele>364.2</ele>
      </trkpt>
      <trkpt lat="43.29697" lon="11.03185">
        <ele>363.2</ele>
      </trkpt>
      <trkpt lat="43.296997" lon="11.032077">
        <ele>362.4</ele>
      </trkpt>
      <trkpt lat="43.297388" lon="11.033633">
        <ele>356.8</ele>
      </trkpt>
      <trkpt lat="43.29747" lon="11.034058">
        <ele>355.6</ele>
      </trkpt>
      <trkpt lat="43.297482" lon="11.034271">
        <ele>355.2</ele>
      </trkpt>
      <trkpt lat="43.297472" lon="11.0349">
        <ele>353.8</ele>
      </trkpt>
      <trkpt lat="43.297427" lon="11.035877">
        <ele>352.6</ele>
      </trkpt>
      <trkpt lat="43.297456" lon="11.036447">
        <ele>352.2</ele>
      </trkpt>
      <trkpt lat="43.297494" lon="11.036619">
        <ele>352</ele>
      </trkpt>
      <trkpt lat="43.297557" lon="11.036772">
        <ele>352</ele>
      </trkpt>
      <trkpt lat="43.298045" lon="11.03762">
        <ele>352.4</ele>
      </trkpt>
      <trkpt lat="43.298121" lon="11.037884">
        <ele>352.8</ele>
      </trkpt>
      <trkpt lat="43.298162" lon="11.038158">
        <ele>352.8</ele>
      </trkpt>
      <trkpt lat="43.298199" lon="11.038689">
        <ele>353.2</ele>
      </trkpt>
      <trkpt lat="43.298184" lon="11.038806">
        <ele>353.2</ele>
      </trkpt>
      <trkpt lat="43.298118" lon="11.039117">
        <ele>353.4</ele>
      </trkpt>
      <trkpt lat="43.297897" lon="11.039604">
        <ele>354.4</ele>
      </trkpt>
      <trkpt lat="43.297845" lon="11.039762">
        <ele>355.2</ele>
      </trkpt>
      <trkpt lat="43.297821" lon="11.039923">
        <ele>356</ele>
      </trkpt>
      <trkpt lat="43.297836" lon="11.040084">
        <ele>356.6</ele>
      </trkpt>
      <trkpt lat="43.297911" lon="11.040302">
        <ele>357.8</ele>
      </trkpt>
      <trkpt lat="43.298151" lon="11.040761">
        <ele>361</ele>
      </trkpt>
      <trkpt lat="43.298319" lon="11.040961">
        <ele>362.8</ele>
      </trkpt>
      <trkpt lat="43.299447" lon="11.041328">
        <ele>372.4</ele>
      </trkpt>
      <trkpt lat="43.299546" lon="11.041376">
        <ele>373.4</ele>
      </trkpt>
      <trkpt lat="43.299654" lon="11.041507">
        <ele>375</ele>
      </trkpt>
      <trkpt lat="43.299709" lon="11.041712">
        <ele>376.4</ele>
      </trkpt>
      <trkpt lat="43.299698" lon="11.041851">
        <ele>377.4</ele>
      </trkpt>
      <trkpt lat="43.299449" lon="11.042652">
        <ele>383.2</ele>
      </trkpt>
      <trkpt lat="43.299372" lon="11.043146">
        <ele>386</ele>
      </trkpt>
      <trkpt lat="43.29938" lon="11.043388">
        <ele>387.4</ele>
      </trkpt>
      <trkpt lat="43.299402" lon="11.043459">
        <ele>388</ele>
      </trkpt>
      <trkpt lat="43.299476" lon="11.043572">
        <ele>389</ele>
      </trkpt>
      <trkpt lat="43.299582" lon="11.043612">
        <ele>390</ele>
      </trkpt>
      <trkpt lat="43.299708" lon="11.043592">
        <ele>391</ele>
      </trkpt>
      <trkpt lat="43.301108" lon="11.043028">
        <ele>397</ele>
      </trkpt>
      <trkpt lat="43.301306" lon="11.04302">
        <ele>397.6</ele>
      </trkpt>
      <trkpt lat="43.301403" lon="11.043052">
        <ele>398</ele>
      </trkpt>
      <trkpt lat="43.301577" lon="11.043189">
        <ele>398.6</ele>
      </trkpt>
      <trkpt lat="43.301911" lon="11.043555">
        <ele>400</ele>
      </trkpt>
      <trkpt lat="43.302343" lon="11.044076">
        <ele>401.8</ele>
      </trkpt>
      <trkpt lat="43.30255" lon="11.044262">
        <ele>402.2</ele>
      </trkpt>
      <trkpt lat="43.302804" lon="11.044368">
        <ele>402.8</ele>
      </trkpt>
      <trkpt lat="43.303335" lon="11.044484">
        <ele>403.6</ele>
      </trkpt>
      <trkpt lat="43.303463" lon="11.044539">
        <ele>403.8</ele>
      </trkpt>
      <trkpt lat="43.303576" lon="11.044646">
        <ele>404</ele>
      </trkpt>
      <trkpt lat="43.303657" lon="11.044792">
        <ele>404.2</ele>
      </trkpt>
      <trkpt lat="43.303706" lon="11.044955">
        <ele>404.2</ele>
      </trkpt>
      <trkpt lat="43.303764" lon="11.045313">
        <ele>404.6</ele>
      </trkpt>
      <trkpt lat="43.303774" lon="11.045669">
        <ele>404.8</ele>
      </trkpt>
      <trkpt lat="43.303761" lon="11.045848">
        <ele>405</ele>
      </trkpt>
      <trkpt lat="43.303677" lon="11.046365">
        <ele>405.4</ele>
      </trkpt>
      <trkpt lat="43.303671" lon="11.046542">
        <ele>405.4</ele>
      </trkpt>
      <trkpt lat="43.303704" lon="11.046709">
        <ele>405.4</ele>
      </trkpt>
      <trkpt lat="43.303781" lon="11.04685">
        <ele>405.6</ele>
      </trkpt>
      <trkpt lat="43.303881" lon="11.046945">
        <ele>405.6</ele>
      </trkpt>
      <trkpt lat="43.304002" lon="11.046987">
        <ele>405.6</ele>
      </trkpt>
      <trkpt lat="43.304265" lon="11.046965">
        <ele>405.8</ele>
      </trkpt>
      <trkpt lat="43.304397" lon="11.046973">
        <ele>405.8</ele>
      </trkpt>
      <trkpt lat="43.304525" lon="11.047028">
        <ele>405.8</ele>
      </trkpt>
      <trkpt lat="43.30475" lon="11.047247">
        <ele>405.8</ele>
      </trkpt>
      <trkpt lat="43.305476" lon="11.048107">
        <ele>404.8</ele>
      </trkpt>
      <trkpt lat="43.306223" lon="11.049093">
        <ele>403</ele>
      </trkpt>
      <trkpt lat="43.306329" lon="11.049284">
        <ele>402.4</ele>
      </trkpt>
      <trkpt lat="43.306403" lon="11.049499">
        <ele>402</ele>
      </trkpt>
      <trkpt lat="43.306494" lon="11.049965">
        <ele>401.2</ele>
      </trkpt>
      <trkpt lat="43.306562" lon="11.050171">
        <ele>400.6</ele>
      </trkpt>
      <trkpt lat="43.306661" lon="11.05034">
        <ele>400.2</ele>
      </trkpt>
      <trkpt lat="43.306786" lon="11.050476">
        <ele>399.6</ele>
      </trkpt>
      <trkpt lat="43.306929" lon="11.050585">
        <ele>398.8</ele>
      </trkpt>
      <trkpt lat="43.307649" lon="11.051068">
        <ele>395.8</ele>
      </trkpt>
      <trkpt lat="43.307757" lon="11.051194">
        <ele>395</ele>
      </trkpt>
      <trkpt lat="43.307825" lon="11.051344">
        <ele>394.4</ele>
      </trkpt>
      <trkpt lat="43.307857" lon="11.051515">
        <ele>393.4</ele>
      </trkpt>
      <trkpt lat="43.307848" lon="11.052037">
        <ele>391.2</ele>
      </trkpt>
      <trkpt lat="43.307896" lon="11.052178">
        <ele>390.4</ele>
      </trkpt>
      <trkpt lat="43.307971" lon="11.052294">
        <ele>389.6</ele>
      </trkpt>
      <trkpt lat="43.308077" lon="11.052351">
        <ele>388.8</ele>
      </trkpt>
      <trkpt lat="43.308193" lon="11.052342">
        <ele>388</ele>
      </trkpt>
      <trkpt lat="43.308304" lon="11.052278">
        <ele>387.2</ele>
      </trkpt>
      <trkpt lat="43.308407" lon="11.052172">
        <ele>386.6</ele>
      </trkpt>
      <trkpt lat="43.308497" lon="11.052039">
        <ele>385.8</ele>
      </trkpt>
      <trkpt lat="43.308752" lon="11.051558">
        <ele>383.8</ele>
      </trkpt>
      <trkpt lat="43.309054" lon="11.05079">
        <ele>380.4</ele>
      </trkpt>
      <trkpt lat="43.309145" lon="11.050604">
        <ele>379.6</ele>
      </trkpt>
      <trkpt lat="43.309258" lon="11.050441">
        <ele>378.6</ele>
      </trkpt>
      <trkpt lat="43.309544" lon="11.050194">
        <ele>376.8</ele>
      </trkpt>
      <trkpt lat="43.30971" lon="11.05011">
        <ele>375.8</ele>
      </trkpt>
      <trkpt lat="43.309887" lon="11.050058">
        <ele>375</ele>
      </trkpt>
      <trkpt lat="43.310788" lon="11.049973">
        <ele>370.6</ele>
      </trkpt>
      <trkpt lat="43.310969" lon="11.04993">
        <ele>369.8</ele>
      </trkpt>
      <trkpt lat="43.311311" lon="11.04978">
        <ele>368.4</ele>
      </trkpt>
      <trkpt lat="43.311484" lon="11.049747">
        <ele>367.4</ele>
      </trkpt>
      <trkpt lat="43.311994" lon="11.049837">
        <ele>365.6</ele>
      </trkpt>
      <trkpt lat="43.312167" lon="11.049834">
        <ele>365</ele>
      </trkpt>
      <trkpt lat="43.312336" lon="11.0498">
        <ele>364.6</ele>
      </trkpt>
      <trkpt lat="43.31348" lon="11.049338">
        <ele>360.6</ele>
      </trkpt>
      <trkpt lat="43.313984" lon="11.049209">
        <ele>359</ele>
      </trkpt>
      <trkpt lat="43.315196" lon="11.049147">
        <ele>356</ele>
      </trkpt>
      <trkpt lat="43.315364" lon="11.049146">
        <ele>355.4</ele>
      </trkpt>
      <trkpt lat="43.315522" lon="11.049188">
        <ele>354.8</ele>
      </trkpt>
      <trkpt lat="43.315656" lon="11.049298">
        <ele>354.4</ele>
      </trkpt>
      <trkpt lat="43.315765" lon="11.049441">
        <ele>353.8</ele>
      </trkpt>
      <trkpt lat="43.31595" lon="11.049763">
        <ele>352.8</ele>
      </trkpt>
      <trkpt lat="43.316061" lon="11.049904">
        <ele>352.4</ele>
      </trkpt>
      <trkpt lat="43.316196" lon="11.050013">
        <ele>352</ele>
      </trkpt>
      <trkpt lat="43.316653" lon="11.050158">
        <ele>350.6</ele>
      </trkpt>
      <trkpt lat="43.317799" lon="11.050382">
        <ele>347.6</ele>
      </trkpt>
      <trkpt lat="43.318126" lon="11.050424">
        <ele>346.6</ele>
      </trkpt>
      <trkpt lat="43.318282" lon="11.050407">
        <ele>346.2</ele>
      </trkpt>
      <trkpt lat="43.318426" lon="11.050341">
        <ele>345.8</ele>
      </trkpt>
      <trkpt lat="43.318557" lon="11.050231">
        <ele>345.2</ele>
      </trkpt>
      <trkpt lat="43.318666" lon="11.05008">
        <ele>344.8</ele>
      </trkpt>
      <trkpt lat="43.319268" lon="11.048855">
        <ele>343</ele>
      </trkpt>
      <trkpt lat="43.319375" lon="11.048703">
        <ele>342.6</ele>
      </trkpt>
      <trkpt lat="43.319504" lon="11.04858">
        <ele>342.2</ele>
      </trkpt>
      <trkpt lat="43.319917" lon="11.048311">
        <ele>340.8</ele>
      </trkpt>
      <trkpt lat="43.32003" lon="11.048167">
        <ele>340.4</ele>
      </trkpt>
      <trkpt lat="43.320117" lon="11.047991">
        <ele>340</ele>
      </trkpt>
      <trkpt lat="43.320248" lon="11.047611">
        <ele>339</ele>
      </trkpt>
      <trkpt lat="43.320331" lon="11.047443">
        <ele>338.4</ele>
      </trkpt>
      <trkpt lat="43.320524" lon="11.047166">
        <ele>337.2</ele>
      </trkpt>
      <trkpt lat="43.320636" lon="11.047067">
        <ele>336.6</ele>
      </trkpt>
      <trkpt lat="43.320768" lon="11.047023">
        <ele>335.8</ele>
      </trkpt>
      <trkpt lat="43.320905" lon="11.047031">
        <ele>335</ele>
      </trkpt>
      <trkpt lat="43.321038" lon="11.04709">
        <ele>334.2</ele>
      </trkpt>
      <trkpt lat="43.321163" lon="11.047194">
        <ele>333.4</ele>
      </trkpt>
      <trkpt lat="43.321411" lon="11.047466">
        <ele>331.8</ele>
      </trkpt>
      <trkpt lat="43.321539" lon="11.047621">
        <ele>331</ele>
      </trkpt>
      <trkpt lat="43.321904" lon="11.048148">
        <ele>328.6</ele>
      </trkpt>
      <trkpt lat="43.322174" lon="11.048775">
        <ele>325.6</ele>
      </trkpt>
      <trkpt lat="43.322318" lon="11.049178">
        <ele>323.8</ele>
      </trkpt>
      <trkpt lat="43.322352" lon="11.049381">
        <ele>322.8</ele>
      </trkpt>
      <trkpt lat="43.322353" lon="11.049591">
        <ele>321.8</ele>
      </trkpt>
      <trkpt lat="43.322317" lon="11.049798">
        <ele>320.8</ele>
      </trkpt>
      <trkpt lat="43.321946" lon="11.051006">
        <ele>314.4</ele>
      </trkpt>
      <trkpt lat="43.321914" lon="11.051198">
        <ele>313.2</ele>
      </trkpt>
      <trkpt lat="43.321926" lon="11.051388">
        <ele>312.2</ele>
      </trkpt>
      <trkpt lat="43.321984" lon="11.051569">
        <ele>310.8</ele>
      </trkpt>
      <trkpt lat="43.32208" lon="11.051715">
        <ele>309.6</ele>
      </trkpt>
      <trkpt lat="43.322201" lon="11.051824">
        <ele>308.2</ele>
      </trkpt>
      <trkpt lat="43.323467" lon="11.052615">
        <ele>298.8</ele>
      </trkpt>
      <trkpt lat="43.323781" lon="11.052862">
        <ele>296.6</ele>
      </trkpt>
      <trkpt lat="43.324036" lon="11.053217">
        <ele>294.4</ele>
      </trkpt>
      <trkpt lat="43.324695" lon="11.054407">
        <ele>289</ele>
      </trkpt>
      <trkpt lat="43.324814" lon="11.054595">
        <ele>288.2</ele>
      </trkpt>
      <trkpt lat="43.324953" lon="11.054756">
        <ele>287.4</ele>
      </trkpt>
      <trkpt lat="43.325108" lon="11.054888">
        <ele>286.8</ele>
      </trkpt>
      <trkpt lat="43.325443" lon="11.055085">
        <ele>285.2</ele>
      </trkpt>
      <trkpt lat="43.325779" lon="11.055244">
        <ele>283.8</ele>
      </trkpt>
      <trkpt lat="43.325959" lon="11.055292">
        <ele>283</ele>
      </trkpt>
      <trkpt lat="43.326141" lon="11.055304">
        <ele>282.4</ele>
      </trkpt>
      <trkpt lat="43.326884" lon="11.055192">
        <ele>279.4</ele>
      </trkpt>
      <trkpt lat="43.327977" lon="11.055088">
        <ele>275.4</ele>
      </trkpt>
      <trkpt lat="43.328344" lon="11.055092">
        <ele>273.8</ele>
      </trkpt>
      <trkpt lat="43.329061" lon="11.055244">
        <ele>271</ele>
      </trkpt>
      <trkpt lat="43.329371" lon="11.055384">
        <ele>269.6</ele>
      </trkpt>
      <trkpt lat="43.329699" lon="11.055671">
        <ele>267.6</ele>
      </trkpt>
      <trkpt lat="43.32982" lon="11.055733">
        <ele>267</ele>
      </trkpt>
      <trkpt lat="43.329952" lon="11.055759">
        <ele>266.4</ele>
      </trkpt>
      <trkpt lat="43.330086" lon="11.055734">
        <ele>266</ele>
      </trkpt>
      <trkpt lat="43.330218" lon="11.055673">
        <ele>265.8</ele>
      </trkpt>
      <trkpt lat="43.330337" lon="11.055576">
        <ele>265</ele>
      </trkpt>
      <trkpt lat="43.331139" lon="11.054804">
        <ele>261</ele>
      </trkpt>
      <trkpt lat="43.33124" lon="11.054691">
        <ele>260.6</ele>
      </trkpt>
      <trkpt lat="43.331319" lon="11.054556">
        <ele>260.2</ele>
      </trkpt>
      <trkpt lat="43.331368" lon="11.054399">
        <ele>260</ele>
      </trkpt>
      <trkpt lat="43.331386" lon="11.054234">
        <ele>259.8</ele>
      </trkpt>
      <trkpt lat="43.331371" lon="11.05407">
        <ele>259.8</ele>
      </trkpt>
      <trkpt lat="43.331332" lon="11.05393">
        <ele>259.6</ele>
      </trkpt>
      <trkpt lat="43.331072" lon="11.053511">
        <ele>260.2</ele>
      </trkpt>
      <trkpt lat="43.330971" lon="11.053296">
        <ele>260.6</ele>
      </trkpt>
      <trkpt lat="43.330875" lon="11.052969">
        <ele>261.2</ele>
      </trkpt>
      <trkpt lat="43.330823" lon="11.052675">
        <ele>262</ele>
      </trkpt>
      <trkpt lat="43.33081" lon="11.052469">
        <ele>262.6</ele>
      </trkpt>
      <trkpt lat="43.330823" lon="11.052368">
        <ele>263</ele>
      </trkpt>
      <trkpt lat="43.330891" lon="11.052184">
        <ele>263.6</ele>
      </trkpt>
      <trkpt lat="43.331" lon="11.052052">
        <ele>264.2</ele>
      </trkpt>
      <trkpt lat="43.331128" lon="11.051996">
        <ele>265</ele>
      </trkpt>
      <trkpt lat="43.331333" lon="11.052039">
        <ele>266.2</ele>
      </trkpt>
      <trkpt lat="43.332048" lon="11.052515">
        <ele>271.8</ele>
      </trkpt>
      <trkpt lat="43.332271" lon="11.052622">
        <ele>273.4</ele>
      </trkpt>
      <trkpt lat="43.33246" lon="11.052662">
        <ele>274.6</ele>
      </trkpt>
      <trkpt lat="43.333093" lon="11.052663">
        <ele>278.8</ele>
      </trkpt>
      <trkpt lat="43.33322" lon="11.052698">
        <ele>279.6</ele>
      </trkpt>
      <trkpt lat="43.333692" lon="11.05292">
        <ele>283.6</ele>
      </trkpt>
      <trkpt lat="43.334244" lon="11.052933">
        <ele>288</ele>
      </trkpt>
      <trkpt lat="43.334415" lon="11.052853">
        <ele>289.4</ele>
      </trkpt>
      <trkpt lat="43.334496" lon="11.052739">
        <ele>290.2</ele>
      </trkpt>
      <trkpt lat="43.334554" lon="11.052511">
        <ele>291.6</ele>
      </trkpt>
      <trkpt lat="43.334563" lon="11.052333">
        <ele>292.4</ele>
      </trkpt>
      <trkpt lat="43.334558" lon="11.051919">
        <ele>294.8</ele>
      </trkpt>
      <trkpt lat="43.334587" lon="11.051766">
        <ele>295.6</ele>
      </trkpt>
      <trkpt lat="43.334747" lon="11.051287">
        <ele>298.2</ele>
      </trkpt>
      <trkpt lat="43.33478" lon="11.051048">
        <ele>299.4</ele>
      </trkpt>
      <trkpt lat="43.334772" lon="11.050961">
        <ele>300.2</ele>
      </trkpt>
      <trkpt lat="43.334693" lon="11.050697">
        <ele>301.6</ele>
      </trkpt>
      <trkpt lat="43.334241" lon="11.049893">
        <ele>306</ele>
      </trkpt>
      <trkpt lat="43.334148" lon="11.049697">
        <ele>306.8</ele>
      </trkpt>
      <trkpt lat="43.334116" lon="11.049583">
        <ele>307.4</ele>
      </trkpt>
      <trkpt lat="43.334088" lon="11.04934">
        <ele>308.2</ele>
      </trkpt>
      <trkpt lat="43.334078" lon="11.048416">
        <ele>310.8</ele>
      </trkpt>
      <trkpt lat="43.334056" lon="11.048139">
        <ele>311.6</ele>
      </trkpt>
      <trkpt lat="43.333993" lon="11.047871">
        <ele>312.2</ele>
      </trkpt>
      <trkpt lat="43.333768" lon="11.047354">
        <ele>313.2</ele>
      </trkpt>
      <trkpt lat="43.3337" lon="11.047068">
        <ele>313.6</ele>
      </trkpt>
      <trkpt lat="43.333693" lon="11.046924">
        <ele>314</ele>
      </trkpt>
      <trkpt lat="43.333747" lon="11.04648">
        <ele>314.6</ele>
      </trkpt>
      <trkpt lat="43.333789" lon="11.046337">
        <ele>314.8</ele>
      </trkpt>
      <trkpt lat="43.333852" lon="11.046207">
        <ele>315</ele>
      </trkpt>
      <trkpt lat="43.334032" lon="11.046008">
        <ele>315.4</ele>
      </trkpt>
      <trkpt lat="43.334251" lon="11.045897">
        <ele>316</ele>
      </trkpt>
      <trkpt lat="43.337092" lon="11.044826">
        <ele>333</ele>
      </trkpt>
      <trkpt lat="43.33785" lon="11.044515">
        <ele>339.6</ele>
      </trkpt>
      <trkpt lat="43.338089" lon="11.044447">
        <ele>341.8</ele>
      </trkpt>
      <trkpt lat="43.338276" lon="11.044464">
        <ele>343.4</ele>
      </trkpt>
      <trkpt lat="43.338733" lon="11.044759">
        <ele>347</ele>
      </trkpt>
      <trkpt lat="43.339093" lon="11.045071">
        <ele>350.2</ele>
      </trkpt>
      <trkpt lat="43.339302" lon="11.045362">
        <ele>352.2</ele>
      </trkpt>
      <trkpt lat="43.340005" lon="11.046559">
        <ele>360.2</ele>
      </trkpt>
      <trkpt lat="43.340347" lon="11.047103">
        <ele>364.6</ele>
      </trkpt>
      <trkpt lat="43.340419" lon="11.047286">
        <ele>365.8</ele>
      </trkpt>
      <trkpt lat="43.34047" lon="11.047504">
        <ele>366.8</ele>
      </trkpt>
      <trkpt lat="43.340674" lon="11.048664">
        <ele>370.8</ele>
      </trkpt>
      <trkpt lat="43.340743" lon="11.048936">
        <ele>371.6</ele>
      </trkpt>
      <trkpt lat="43.341041" lon="11.049591">
        <ele>372.6</ele>
      </trkpt>
      <trkpt lat="43.341443" lon="11.050387">
        <ele>373</ele>
      </trkpt>
      <trkpt lat="43.341476" lon="11.050538">
        <ele>373.2</ele>
      </trkpt>
      <trkpt lat="43.34147" lon="11.050696">
        <ele>373.2</ele>
      </trkpt>
      <trkpt lat="43.341425" lon="11.050839">
        <ele>373</ele>
      </trkpt>
      <trkpt lat="43.341129" lon="11.051369">
        <ele>373</ele>
      </trkpt>
      <trkpt lat="43.341068" lon="11.051533">
        <ele>373.2</ele>
      </trkpt>
      <trkpt lat="43.341" lon="11.05191">
        <ele>373</ele>
      </trkpt>
      <trkpt lat="43.340973" lon="11.052919">
        <ele>372.6</ele>
      </trkpt>
      <trkpt lat="43.340989" lon="11.053127">
        <ele>372.4</ele>
      </trkpt>
      <trkpt lat="43.34109" lon="11.053526">
        <ele>372.2</ele>
      </trkpt>
      <trkpt lat="43.341175" lon="11.053705">
        <ele>372</ele>
      </trkpt>
      <trkpt lat="43.341282" lon="11.053862">
        <ele>371.8</ele>
      </trkpt>
      <trkpt lat="43.342674" lon="11.055469">
        <ele>369.8</ele>
      </trkpt>
      <trkpt lat="43.343179" lon="11.056091">
        <ele>367.8</ele>
      </trkpt>
      <trkpt lat="43.343308" lon="11.056239">
        <ele>367.2</ele>
      </trkpt>
      <trkpt lat="43.343453" lon="11.056359">
        <ele>366.6</ele>
      </trkpt>
      <trkpt lat="43.343615" lon="11.056441">
        <ele>365.8</ele>
      </trkpt>
      <trkpt lat="43.343789" lon="11.056495">
        <ele>365</ele>
      </trkpt>
      <trkpt lat="43.34491" lon="11.056632">
        <ele>360</ele>
      </trkpt>
      <trkpt lat="43.345102" lon="11.056679">
        <ele>359.2</ele>
      </trkpt>
      <trkpt lat="43.345284" lon="11.056757">
        <ele>358.2</ele>
      </trkpt>
      <trkpt lat="43.345718" lon="11.057106">
        <ele>355</ele>
      </trkpt>
      <trkpt lat="43.345869" lon="11.057192">
        <ele>354</ele>
      </trkpt>
      <trkpt lat="43.346039" lon="11.057236">
        <ele>353</ele>
      </trkpt>
      <trkpt lat="43.346213" lon="11.057241">
        <ele>352</ele>
      </trkpt>
      <trkpt lat="43.346559" lon="11.057156">
        <ele>350</ele>
      </trkpt>
      <trkpt lat="43.347238" lon="11.056719">
        <ele>345.4</ele>
      </trkpt>
      <trkpt lat="43.347751" lon="11.056341">
        <ele>340.6</ele>
      </trkpt>
      <trkpt lat="43.347845" lon="11.056284">
        <ele>339</ele>
      </trkpt>
      <trkpt lat="43.347942" lon="11.056272">
        <ele>337.8</ele>
      </trkpt>
      <trkpt lat="43.348034" lon="11.05631">
        <ele>336.6</ele>
      </trkpt>
      <trkpt lat="43.348096" lon="11.0564">
        <ele>335.2</ele>
      </trkpt>
      <trkpt lat="43.348115" lon="11.05653">
        <ele>334</ele>
      </trkpt>
      <trkpt lat="43.348083" lon="11.056667">
        <ele>332.8</ele>
      </trkpt>
      <trkpt lat="43.34784" lon="11.057026">
        <ele>329.2</ele>
      </trkpt>
      <trkpt lat="43.347384" lon="11.057606">
        <ele>323.4</ele>
      </trkpt>
      <trkpt lat="43.347341" lon="11.057739">
        <ele>322.4</ele>
      </trkpt>
      <trkpt lat="43.347353" lon="11.057881">
        <ele>321</ele>
      </trkpt>
      <trkpt lat="43.347407" lon="11.058014">
        <ele>319.8</ele>
      </trkpt>
      <trkpt lat="43.347507" lon="11.058096">
        <ele>319.6</ele>
      </trkpt>
      <trkpt lat="43.347629" lon="11.058127">
        <ele>318</ele>
      </trkpt>
      <trkpt lat="43.34902" lon="11.058015">
        <ele>307.4</ele>
      </trkpt>
      <trkpt lat="43.349381" lon="11.058064">
        <ele>304.6</ele>
      </trkpt>
      <trkpt lat="43.349748" lon="11.058184">
        <ele>302.2</ele>
      </trkpt>
      <trkpt lat="43.350115" lon="11.058351">
        <ele>299.8</ele>
      </trkpt>
      <trkpt lat="43.350449" lon="11.058613">
        <ele>297.2</ele>
      </trkpt>
      <trkpt lat="43.350591" lon="11.058788">
        <ele>295.8</ele>
      </trkpt>
      <trkpt lat="43.350845" lon="11.059183">
        <ele>293.6</ele>
      </trkpt>
      <trkpt lat="43.350987" lon="11.059358">
        <ele>292.2</ele>
      </trkpt>
      <trkpt lat="43.351147" lon="11.05951">
        <ele>291</ele>
      </trkpt>
      <trkpt lat="43.351321" lon="11.059632">
        <ele>290</ele>
      </trkpt>
      <trkpt lat="43.351505" lon="11.059716">
        <ele>288.8</ele>
      </trkpt>
      <trkpt lat="43.351697" lon="11.059761">
        <ele>287.6</ele>
      </trkpt>
      <trkpt lat="43.353871" lon="11.059924">
        <ele>276</ele>
      </trkpt>
      <trkpt lat="43.361582" lon="11.060633">
        <ele>254.4</ele>
      </trkpt>
      <trkpt lat="43.361681" lon="11.060644">
        <ele>254.2</ele>
      </trkpt>
      <trkpt lat="43.361773" lon="11.060687">
        <ele>254.2</ele>
      </trkpt>
      <trkpt lat="43.361991" lon="11.060875">
        <ele>253.6</ele>
      </trkpt>
      <trkpt lat="43.362064" lon="11.060897">
        <ele>253.4</ele>
      </trkpt>
      <trkpt lat="43.36214" lon="11.060886">
        <ele>253.4</ele>
      </trkpt>
      <trkpt lat="43.362393" lon="11.060776">
        <ele>253</ele>
      </trkpt>
      <trkpt lat="43.36319" lon="11.060973">
        <ele>252.2</ele>
      </trkpt>
      <trkpt lat="43.363981" lon="11.061278">
        <ele>252</ele>
      </trkpt>
      <trkpt lat="43.366777" lon="11.062695">
        <ele>250.6</ele>
      </trkpt>
      <trkpt lat="43.366993" lon="11.062737">
        <ele>250.4</ele>
      </trkpt>
      <trkpt lat="43.36719" lon="11.062693">
        <ele>250.2</ele>
      </trkpt>
      <trkpt lat="43.367278" lon="11.062702">
        <ele>250</ele>
      </trkpt>
      <trkpt lat="43.367354" lon="11.062745">
        <ele>250</ele>
      </trkpt>
      <trkpt lat="43.367619" lon="11.063086">
        <ele>250</ele>
      </trkpt>
      <trkpt lat="43.367811" lon="11.063212">
        <ele>249.8</ele>
      </trkpt>
      <trkpt lat="43.369185" lon="11.06394">
        <ele>249</ele>
      </trkpt>
      <trkpt lat="43.370304" lon="11.064481">
        <ele>248.8</ele>
      </trkpt>
      <trkpt lat="43.372243" lon="11.065475">
        <ele>249</ele>
      </trkpt>
      <trkpt lat="43.372568" lon="11.065702">
        <ele>249.2</ele>
      </trkpt>
      <trkpt lat="43.373084" lon="11.066181">
        <ele>248.8</ele>
      </trkpt>
      <trkpt lat="43.373359" lon="11.066499">
        <ele>248.4</ele>
      </trkpt>
      <trkpt lat="43.373693" lon="11.067004">
        <ele>248.2</ele>
      </trkpt>
      <trkpt lat="43.378458" lon="11.075237">
        <ele>245</ele>
      </trkpt>
      <trkpt lat="43.380328" lon="11.07853">
        <ele>245.8</ele>
      </trkpt>
      <trkpt lat="43.380487" lon="11.07872">
        <ele>246</ele>
      </trkpt>
      <trkpt lat="43.381981" lon="11.080281">
        <ele>249.6</ele>
      </trkpt>
      <trkpt lat="43.382292" lon="11.080538">
        <ele>250.4</ele>
      </trkpt>
      <trkpt lat="43.382615" lon="11.080746">
        <ele>251.4</ele>
      </trkpt>
      <trkpt lat="43.382829" lon="11.08099">
        <ele>252</ele>
      </trkpt>
      <trkpt lat="43.383011" lon="11.081301">
        <ele>252.6</ele>
      </trkpt>
      <trkpt lat="43.383778" lon="11.082891">
        <ele>254.2</ele>
      </trkpt>
      <trkpt lat="43.384056" lon="11.083429">
        <ele>254.4</ele>
      </trkpt>
      <trkpt lat="43.3847" lon="11.084414">
        <ele>254.6</ele>
      </trkpt>
      <trkpt lat="43.385562" lon="11.085676">
        <ele>255.4</ele>
      </trkpt>
      <trkpt lat="43.385803" lon="11.085984">
        <ele>255.6</ele>
      </trkpt>
      <trkpt lat="43.385992" lon="11.086126">
        <ele>255.8</ele>
      </trkpt>
      <trkpt lat="43.386322" lon="11.086251">
        <ele>256</ele>
      </trkpt>
      <trkpt lat="43.388304" lon="11.086527">
        <ele>256.6</ele>
      </trkpt>
      <trkpt lat="43.388554" lon="11.086627">
        <ele>256.6</ele>
      </trkpt>
      <trkpt lat="43.389171" lon="11.086968">
        <ele>256.4</ele>
      </trkpt>
      <trkpt lat="43.389402" lon="11.087171">
        <ele>256</ele>
      </trkpt>
      <trkpt lat="43.389615" lon="11.087438">
        <ele>255.8</ele>
      </trkpt>
      <trkpt lat="43.389787" lon="11.087762">
        <ele>255.8</ele>
      </trkpt>
      <trkpt lat="43.390301" lon="11.088888">
        <ele>255.2</ele>
      </trkpt>
      <trkpt lat="43.390466" lon="11.089187">
        <ele>255</ele>
      </trkpt>
      <trkpt lat="43.390562" lon="11.08932">
        <ele>254.8</ele>
      </trkpt>
      <trkpt lat="43.390767" lon="11.089548">
        <ele>254.6</ele>
      </trkpt>
      <trkpt lat="43.390883" lon="11.089642">
        <ele>254.6</ele>
      </trkpt>
      <trkpt lat="43.391377" lon="11.089934">
        <ele>255</ele>
      </trkpt>
      <trkpt lat="43.391631" lon="11.09005">
        <ele>255</ele>
      </trkpt>
      <trkpt lat="43.391898" lon="11.090099">
        <ele>255.2</ele>
      </trkpt>
      <trkpt lat="43.392322" lon="11.090125">
        <ele>254.8</ele>
      </trkpt>
      <trkpt lat="43.394491" lon="11.090172">
        <ele>250.6</ele>
      </trkpt>
      <trkpt lat="43.394813" lon="11.090154">
        <ele>249.6</ele>
      </trkpt>
      <trkpt lat="43.395124" lon="11.090079">
        <ele>248.8</ele>
      </trkpt>
      <trkpt lat="43.395426" lon="11.089929">
        <ele>248</ele>
      </trkpt>
      <trkpt lat="43.396259" lon="11.08931">
        <ele>245.6</ele>
      </trkpt>
      <trkpt lat="43.396401" lon="11.08923">
        <ele>245.4</ele>
      </trkpt>
      <trkpt lat="43.396553" lon="11.089175">
        <ele>245</ele>
      </trkpt>
      <trkpt lat="43.396865" lon="11.089129">
        <ele>244.2</ele>
      </trkpt>
      <trkpt lat="43.397161" lon="11.089178">
        <ele>243.6</ele>
      </trkpt>
      <trkpt lat="43.397445" lon="11.089297">
        <ele>242.6</ele>
      </trkpt>
      <trkpt lat="43.398144" lon="11.089724">
        <ele>240.6</ele>
      </trkpt>
      <trkpt lat="43.399884" lon="11.090669">
        <ele>235.2</ele>
      </trkpt>
    </trkseg>
  </trk>
</gpx>
