<?xml version='1.0' encoding='UTF-8'?>
<gpx version="1.1"
  creator="GPXmagic"
  xmlns="http://www.topografix.com/GPX/1/1"
  xmlns:rgt="http://www.rgtcycling.com/XML/GpxExtensions/v1"
  xmlns:xsi="http://www.w3.org/2001/XMLSchema-instance" xsi:schemaLocation="http://www.topografix.com/GPX/1/1
  http://www.topografix.com/GPX/1/1/gpx.xsd">
  <metadata>
    <name>Smoothed with GPXmagic</name>
    <author>
      <link href="https://www.stepwiserefinement.co.uk">
        <text>GPXmagic v3</text>
        <type>text/html</type>
      </link>
    </author>
  </metadata>
<trk>  <name>Tour&#32;of&#32;Poland&#32;S4</name>
<trkseg>
<trkpt lat="50.9045746" lon="15.494492"><ele>582.45</ele></trkpt>
<trkpt lat="50.904161699999996" lon="15.495045199999998"><ele>580.4</ele></trkpt>
<trkpt lat="50.9039691" lon="15.495276600000004"><ele>579.29</ele></trkpt>
<trkpt lat="50.9037534" lon="15.4954725"><ele>578.01</ele></trkpt>
<trkpt lat="50.9034043" lon="15.495735200000002"><ele>575.81</ele></trkpt>
<trkpt lat="50.903081" lon="15.4961027"><ele>573.37</ele></trkpt>
<trkpt lat="50.9028343" lon="15.496295699999997"><ele>571.61</ele></trkpt>
<trkpt lat="50.9025035" lon="15.496456"><ele>569.36</ele></trkpt>
<trkpt lat="50.902243" lon="15.496620100000005"><ele>567.5</ele></trkpt>
<trkpt lat="50.9017843" lon="15.4969884"><ele>564.05</ele></trkpt>
<trkpt lat="50.9013734" lon="15.4973539"><ele>560.8</ele></trkpt>
<trkpt lat="50.9009223" lon="15.4976811"><ele>557.25</ele></trkpt>
<trkpt lat="50.90061240000001" lon="15.4978301"><ele>554.92</ele></trkpt>
<trkpt lat="50.9003097" lon="15.497897900000002"><ele>552.8</ele></trkpt>
<trkpt lat="50.8997905" lon="15.4978996"><ele>549.54</ele></trkpt>
<trkpt lat="50.8996309" lon="15.4979311"><ele>548.63</ele></trkpt>
<trkpt lat="50.899477999999995" lon="15.4980318"><ele>547.77</ele></trkpt>
<trkpt lat="50.899185200000005" lon="15.498356099999999"><ele>546.16</ele></trkpt>
<trkpt lat="50.8988979" lon="15.498786299999995"><ele>544.73</ele></trkpt>
<trkpt lat="50.8983088" lon="15.499886099999998"><ele>542.02</ele></trkpt>
<trkpt lat="50.8977936" lon="15.5007219"><ele>539.97</ele></trkpt>
<trkpt lat="50.8976001" lon="15.500946600000002"><ele>539.22</ele></trkpt>
<trkpt lat="50.897217899999994" lon="15.5013425"><ele>537.47</ele></trkpt>
<trkpt lat="50.8971612" lon="15.501466600000004"><ele>537.02</ele></trkpt>
<trkpt lat="50.89701809999999" lon="15.501946199999997"><ele>535.23</ele></trkpt>
<trkpt lat="50.8966996" lon="15.5024083"><ele>532.53</ele></trkpt>
<trkpt lat="50.8966099" lon="15.5025902"><ele>531.55</ele></trkpt>
<trkpt lat="50.8963438" lon="15.503234"><ele>528.11</ele></trkpt>
<trkpt lat="50.896117" lon="15.5038335"><ele>524.9</ele></trkpt>
<trkpt lat="50.8959083" lon="15.504564900000002"><ele>521.32</ele></trkpt>
<trkpt lat="50.8957532" lon="15.504931299999996"><ele>519.48</ele></trkpt>
<trkpt lat="50.8954008" lon="15.505327699999999"><ele>516.83</ele></trkpt>
<trkpt lat="50.89529219999999" lon="15.505478700000003"><ele>515.98</ele></trkpt>
<trkpt lat="50.8950025" lon="15.5060082"><ele>513.51</ele></trkpt>
<trkpt lat="50.894762799999995" lon="15.5065629"><ele>511.28</ele></trkpt>
<trkpt lat="50.89452109999999" lon="15.5068494"><ele>509.8</ele></trkpt>
<trkpt lat="50.89443790000001" lon="15.5070274"><ele>509.14</ele></trkpt>
<trkpt lat="50.8943435" lon="15.507620600000001"><ele>507.48</ele></trkpt>
<trkpt lat="50.8942495" lon="15.508050000000003"><ele>506.39</ele></trkpt>
<trkpt lat="50.8939621" lon="15.509021700000002"><ele>504.08</ele></trkpt>
<trkpt lat="50.89389709999999" lon="15.5093514"><ele>503.42</ele></trkpt>
<trkpt lat="50.89382530000001" lon="15.5100596"><ele>502.22</ele></trkpt>
<trkpt lat="50.8938026" lon="15.510527099999997"><ele>501.47</ele></trkpt>
<trkpt lat="50.89382489999999" lon="15.5109754"><ele>500.69</ele></trkpt>
<trkpt lat="50.893907000000006" lon="15.511512"><ele>499.63</ele></trkpt>
<trkpt lat="50.8940878" lon="15.5122435"><ele>497.98</ele></trkpt>
<trkpt lat="50.89415009999999" lon="15.5128735"><ele>496.64</ele></trkpt>
<trkpt lat="50.894159099999996" lon="15.513315300000006"><ele>495.78</ele></trkpt>
<trkpt lat="50.89420400000001" lon="15.5139373"><ele>494.7</ele></trkpt>
<trkpt lat="50.8943219" lon="15.514752300000001"><ele>493.54</ele></trkpt>
<trkpt lat="50.89435590000001" lon="15.5153325"><ele>492.92</ele></trkpt>
<trkpt lat="50.89435590000001" lon="15.5157195"><ele>492.62</ele></trkpt>
<trkpt lat="50.894320799999996" lon="15.5169027"><ele>492.04</ele></trkpt>
<trkpt lat="50.89426869999999" lon="15.517669400000003"><ele>491.77</ele></trkpt>
<trkpt lat="50.89420990000001" lon="15.518219300000002"><ele>491.6</ele></trkpt>
<trkpt lat="50.8941439" lon="15.5185794"><ele>491.5</ele></trkpt>
<trkpt lat="50.8939279" lon="15.5195939"><ele>491.28</ele></trkpt>
<trkpt lat="50.8937244" lon="15.5203884"><ele>491.24</ele></trkpt>
<trkpt lat="50.893334" lon="15.521626"><ele>491.48</ele></trkpt>
<trkpt lat="50.893014300000004" lon="15.5225464"><ele>492</ele></trkpt>
<trkpt lat="50.8927662" lon="15.523356000000001"><ele>492.82</ele></trkpt>
<trkpt lat="50.8924368" lon="15.524547399999998"><ele>494.58</ele></trkpt>
<trkpt lat="50.89198989999999" lon="15.525992500000001"><ele>497.9</ele></trkpt>
<trkpt lat="50.8918548" lon="15.5264121"><ele>499.19</ele></trkpt>
<trkpt lat="50.89156479999999" lon="15.5272295"><ele>502.04</ele></trkpt>
<trkpt lat="50.891110299999994" lon="15.528390699999996"><ele>506.88</ele></trkpt>
<trkpt lat="50.8909313" lon="15.528925800000001"><ele>509.27</ele></trkpt>
<trkpt lat="50.8908504" lon="15.529311999999996"><ele>510.86</ele></trkpt>
<trkpt lat="50.89082710000001" lon="15.529642399999997"><ele>512.09</ele></trkpt>
<trkpt lat="50.8908304" lon="15.530757"><ele>515.59</ele></trkpt>
<trkpt lat="50.8907779" lon="15.531328000000002"><ele>516.56</ele></trkpt>
<trkpt lat="50.8906866" lon="15.5318946"><ele>516.8</ele></trkpt>
<trkpt lat="50.8906047" lon="15.532291100000002"><ele>516.65</ele></trkpt>
<trkpt lat="50.8904494" lon="15.5328646"><ele>516.11</ele></trkpt>
<trkpt lat="50.890124300000004" lon="15.5339588"><ele>514.73</ele></trkpt>
<trkpt lat="50.8899121" lon="15.534631399999999"><ele>514.22</ele></trkpt>
<trkpt lat="50.8896199" lon="15.535455300000004"><ele>514.76</ele></trkpt>
<trkpt lat="50.889392" lon="15.5360499"><ele>516.32</ele></trkpt>
<trkpt lat="50.889181699999995" lon="15.5366641"><ele>518.94</ele></trkpt>
<trkpt lat="50.889132000000004" lon="15.536897000000002"><ele>520.08</ele></trkpt>
<trkpt lat="50.88908570000001" lon="15.537555200000002"><ele>523.55</ele></trkpt>
<trkpt lat="50.889093" lon="15.538260799999998"><ele>527.58</ele></trkpt>
<trkpt lat="50.88911149999999" lon="15.5387811"><ele>530.6</ele></trkpt>
<trkpt lat="50.8890746" lon="15.5394492"><ele>534.35</ele></trkpt>
<trkpt lat="50.889019399999995" lon="15.539761100000002"><ele>536.03</ele></trkpt>
<trkpt lat="50.888790799999995" lon="15.540681099999999"><ele>540.27</ele></trkpt>
<trkpt lat="50.8885743" lon="15.541717900000004"><ele>542.59</ele></trkpt>
<trkpt lat="50.888343" lon="15.542871"><ele>541.9</ele></trkpt>
<trkpt lat="50.88809899999999" lon="15.5439184"><ele>539.13</ele></trkpt>
<trkpt lat="50.88760499999999" lon="15.5463516"><ele>530.26</ele></trkpt>
<trkpt lat="50.8875171" lon="15.546733400000003"><ele>528.9</ele></trkpt>
<trkpt lat="50.887407" lon="15.5471198"><ele>527.63</ele></trkpt>
<trkpt lat="50.8869729" lon="15.548352199999998"><ele>525.03</ele></trkpt>
<trkpt lat="50.8867757" lon="15.548754699999996"><ele>524.86</ele></trkpt>
<trkpt lat="50.8865222" lon="15.5490986"><ele>525.13</ele></trkpt>
<trkpt lat="50.8863192" lon="15.5492731"><ele>525.6</ele></trkpt>
<trkpt lat="50.885737600000006" lon="15.549658499999994"><ele>527.63</ele></trkpt>
<trkpt lat="50.8851822" lon="15.550089800000002"><ele>530.31</ele></trkpt>
<trkpt lat="50.8844804" lon="15.5507224"><ele>534.03</ele></trkpt>
<trkpt lat="50.8837344" lon="15.5514223"><ele>536.91</ele></trkpt>
<trkpt lat="50.8829108" lon="15.552204000000001"><ele>538.19</ele></trkpt>
<trkpt lat="50.8819515" lon="15.5530179"><ele>538.52</ele></trkpt>
<trkpt lat="50.8817655" lon="15.5532204"><ele>538.55</ele></trkpt>
<trkpt lat="50.8815575" lon="15.553603599999999"><ele>538.59</ele></trkpt>
<trkpt lat="50.881291700000006" lon="15.554329799999998"><ele>538.64</ele></trkpt>
<trkpt lat="50.881197199999995" lon="15.554633999999998"><ele>538.66</ele></trkpt>
<trkpt lat="50.8810651" lon="15.555296300000004"><ele>538.75</ele></trkpt>
<trkpt lat="50.880884" lon="15.5563577"><ele>539.26</ele></trkpt>
<trkpt lat="50.8808662" lon="15.556789600000004"><ele>539.65</ele></trkpt>
<trkpt lat="50.8809066" lon="15.557058099999999"><ele>539.94</ele></trkpt>
<trkpt lat="50.8810075" lon="15.557354300000002"><ele>540.34</ele></trkpt>
<trkpt lat="50.8811209" lon="15.557546999999996"><ele>540.67</ele></trkpt>
<trkpt lat="50.881488" lon="15.55804"><ele>541.63</ele></trkpt>
<trkpt lat="50.8816601" lon="15.558439499999999"><ele>542.18</ele></trkpt>
<trkpt lat="50.8817264" lon="15.5587452"><ele>542.49</ele></trkpt>
<trkpt lat="50.8817629" lon="15.5592236"><ele>542.93</ele></trkpt>
<trkpt lat="50.8817848" lon="15.559859999999999"><ele>543.5</ele></trkpt>
<trkpt lat="50.8817665" lon="15.5608055"><ele>544.61</ele></trkpt>
<trkpt lat="50.88175160000001" lon="15.5611063"><ele>545.09</ele></trkpt>
<trkpt lat="50.8817573" lon="15.5616618"><ele>546.14</ele></trkpt>
<trkpt lat="50.8818496" lon="15.562354799999998"><ele>547.69</ele></trkpt>
<trkpt lat="50.8818718" lon="15.562688099999997"><ele>548.5</ele></trkpt>
<trkpt lat="50.8818273" lon="15.5630633"><ele>549.48</ele></trkpt>
<trkpt lat="50.8816283" lon="15.5639043"><ele>551.78</ele></trkpt>
<trkpt lat="50.8815245" lon="15.564203100000002"><ele>552.56</ele></trkpt>
<trkpt lat="50.8807762" lon="15.5660827"><ele>556.97</ele></trkpt>
<trkpt lat="50.8805915" lon="15.5665896"><ele>557.76</ele></trkpt>
<trkpt lat="50.8804339" lon="15.567263300000002"><ele>558.35</ele></trkpt>
<trkpt lat="50.8802826" lon="15.568077000000002"><ele>558.74</ele></trkpt>
<trkpt lat="50.88019750000001" lon="15.568454900000003"><ele>558.89</ele></trkpt>
<trkpt lat="50.8799728" lon="15.5692545"><ele>559.18</ele></trkpt>
<trkpt lat="50.87980089999999" lon="15.5699824"><ele>559.43</ele></trkpt>
<trkpt lat="50.8795" lon="15.571133100000003"><ele>559.67</ele></trkpt>
<trkpt lat="50.8793649" lon="15.5718444"><ele>559.38</ele></trkpt>
<trkpt lat="50.8789599" lon="15.5739917"><ele>556.79</ele></trkpt>
<trkpt lat="50.8789065" lon="15.574305200000003"><ele>556.22</ele></trkpt>
<trkpt lat="50.8788953" lon="15.5746306"><ele>555.47</ele></trkpt>
<trkpt lat="50.8789848" lon="15.575706199999999"><ele>552.47</ele></trkpt>
<trkpt lat="50.8789907" lon="15.5760909"><ele>551.39</ele></trkpt>
<trkpt lat="50.878955" lon="15.5764707"><ele>550.33</ele></trkpt>
<trkpt lat="50.878869300000005" lon="15.5770032"><ele>548.89</ele></trkpt>
<trkpt lat="50.878747" lon="15.577501600000003"><ele>547.52</ele></trkpt>
<trkpt lat="50.8786909" lon="15.5778315"><ele>546.65</ele></trkpt>
<trkpt lat="50.878695" lon="15.5781035"><ele>545.94</ele></trkpt>
<trkpt lat="50.8787723" lon="15.578548999999997"><ele>544.7</ele></trkpt>
<trkpt lat="50.8787666" lon="15.5789424"><ele>543.6</ele></trkpt>
<trkpt lat="50.8786762" lon="15.5793151"><ele>542.45</ele></trkpt>
<trkpt lat="50.8784146" lon="15.5798616"><ele>540.41</ele></trkpt>
<trkpt lat="50.8782436" lon="15.5803468"><ele>538.69</ele></trkpt>
<trkpt lat="50.8781712" lon="15.5807222"><ele>537.43</ele></trkpt>
<trkpt lat="50.8781474" lon="15.581128199999997"><ele>536.07</ele></trkpt>
<trkpt lat="50.8781566" lon="15.581343700000001"><ele>535.35</ele></trkpt>
<trkpt lat="50.87822340000001" lon="15.581772599999999"><ele>533.88</ele></trkpt>
<trkpt lat="50.8785731" lon="15.582984800000004"><ele>529.61</ele></trkpt>
<trkpt lat="50.8787615" lon="15.5836858"><ele>527.64</ele></trkpt>
<trkpt lat="50.878868399999995" lon="15.5842828"><ele>526.64</ele></trkpt>
<trkpt lat="50.8790649" lon="15.585827499999999"><ele>525.73</ele></trkpt>
<trkpt lat="50.87902029999999" lon="15.586145400000003"><ele>525.64</ele></trkpt>
<trkpt lat="50.87893729999999" lon="15.5862947"><ele>525.55</ele></trkpt>
<trkpt lat="50.8787677" lon="15.5864385"><ele>525.33</ele></trkpt>
<trkpt lat="50.87830029999999" lon="15.586699000000001"><ele>524.43</ele></trkpt>
<trkpt lat="50.8779167" lon="15.5869958"><ele>522.98</ele></trkpt>
<trkpt lat="50.877501900000006" lon="15.587388000000004"><ele>520.6</ele></trkpt>
<trkpt lat="50.8770925" lon="15.5878433"><ele>517.67</ele></trkpt>
<trkpt lat="50.8767894" lon="15.588286099999998"><ele>515.02</ele></trkpt>
<trkpt lat="50.8763487" lon="15.5891257"><ele>510.46</ele></trkpt>
<trkpt lat="50.8761923" lon="15.5894624"><ele>508.74</ele></trkpt>
<trkpt lat="50.87607980000001" lon="15.589869"><ele>506.97</ele></trkpt>
<trkpt lat="50.8760431" lon="15.590178100000003"><ele>505.78</ele></trkpt>
<trkpt lat="50.8760235" lon="15.590627200000002"><ele>504.17</ele></trkpt>
<trkpt lat="50.87601049999999" lon="15.591553699999999"><ele>501.05</ele></trkpt>
<trkpt lat="50.8759884" lon="15.5919129"><ele>499.85</ele></trkpt>
<trkpt lat="50.8759337" lon="15.592378299999998"><ele>498.21</ele></trkpt>
<trkpt lat="50.8758584" lon="15.592858299999996"><ele>496.32</ele></trkpt>
<trkpt lat="50.875782" lon="15.5932234"><ele>494.66</ele></trkpt>
<trkpt lat="50.8755458" lon="15.593964499999998"><ele>490.64</ele></trkpt>
<trkpt lat="50.8754694" lon="15.5943296"><ele>488.7</ele></trkpt>
<trkpt lat="50.875373200000006" lon="15.5946637"><ele>486.85</ele></trkpt>
<trkpt lat="50.8750692" lon="15.5951717"><ele>483.48</ele></trkpt>
<trkpt lat="50.874773899999994" lon="15.595899100000004"><ele>479.59</ele></trkpt>
<trkpt lat="50.87451109999999" lon="15.596413"><ele>476.55</ele></trkpt>
<trkpt lat="50.8742999" lon="15.596975399999998"><ele>473.17</ele></trkpt>
<trkpt lat="50.87407379999999" lon="15.597411299999994"><ele>469.85</ele></trkpt>
<trkpt lat="50.8736774" lon="15.5979372"><ele>464.96</ele></trkpt>
<trkpt lat="50.8734827" lon="15.598223499999998"><ele>462.74</ele></trkpt>
<trkpt lat="50.8732103" lon="15.598799299999998"><ele>459.66</ele></trkpt>
<trkpt lat="50.873169" lon="15.599023"><ele>458.88</ele></trkpt>
<trkpt lat="50.8732556" lon="15.599304800000004"><ele>458.08</ele></trkpt>
<trkpt lat="50.8734423" lon="15.599546600000002"><ele>457.38</ele></trkpt>
<trkpt lat="50.873515299999994" lon="15.599756100000004"><ele>456.98</ele></trkpt>
<trkpt lat="50.8735136" lon="15.6000621"><ele>456.42</ele></trkpt>
<trkpt lat="50.87343270000001" lon="15.600274900000002"><ele>455.86</ele></trkpt>
<trkpt lat="50.8732669" lon="15.6003534"><ele>455.1</ele></trkpt>
<trkpt lat="50.87312620000001" lon="15.600246200000003"><ele>454.29</ele></trkpt>
<trkpt lat="50.8729443" lon="15.5998338"><ele>452.43</ele></trkpt>
<trkpt lat="50.8727844" lon="15.599299"><ele>450.18</ele></trkpt>
<trkpt lat="50.8727271" lon="15.598970200000002"><ele>449.01</ele></trkpt>
<trkpt lat="50.8727411" lon="15.598620900000002"><ele>447.95</ele></trkpt>
<trkpt lat="50.87290939999999" lon="15.5979982"><ele>446.22</ele></trkpt>
<trkpt lat="50.8729283" lon="15.597642800000001"><ele>445.28</ele></trkpt>
<trkpt lat="50.8728786" lon="15.5974608"><ele>444.7</ele></trkpt>
<trkpt lat="50.8727809" lon="15.597331899999999"><ele>444.07</ele></trkpt>
<trkpt lat="50.87258130000001" lon="15.5973246"><ele>442.94</ele></trkpt>
<trkpt lat="50.87240740000001" lon="15.597550799999999"><ele>441.56</ele></trkpt>
<trkpt lat="50.8715568" lon="15.5988173"><ele>433.86</ele></trkpt>
<trkpt lat="50.87137030000001" lon="15.599116999999998"><ele>432.2</ele></trkpt>
<trkpt lat="50.8710926" lon="15.5996598"><ele>429.7</ele></trkpt>
<trkpt lat="50.870687999999994" lon="15.6003694"><ele>426.65</ele></trkpt>
<trkpt lat="50.8705674" lon="15.600551499999998"><ele>425.84</ele></trkpt>
<trkpt lat="50.8700404" lon="15.601260800000002"><ele>422.6</ele></trkpt>
<trkpt lat="50.869733" lon="15.601756400000003"><ele>420.48</ele></trkpt>
<trkpt lat="50.8693951" lon="15.602378900000001"><ele>417.88</ele></trkpt>
<trkpt lat="50.8692132" lon="15.602663400000003"><ele>416.59</ele></trkpt>
<trkpt lat="50.8689619" lon="15.603009200000002"><ele>414.91</ele></trkpt>
<trkpt lat="50.8686917" lon="15.6033118"><ele>413.3</ele></trkpt>
<trkpt lat="50.868474000000006" lon="15.6034935"><ele>412.17</ele></trkpt>
<trkpt lat="50.8679327" lon="15.603839899999997"><ele>409.7</ele></trkpt>
<trkpt lat="50.86761" lon="15.604016999999999"><ele>408.37</ele></trkpt>
<trkpt lat="50.867113100000005" lon="15.6041913"><ele>406.5</ele></trkpt>
<trkpt lat="50.86663089999999" lon="15.6043796"><ele>404.68</ele></trkpt>
<trkpt lat="50.8661618" lon="15.6046319"><ele>402.76</ele></trkpt>
<trkpt lat="50.865680600000005" lon="15.604761900000002"><ele>400.73</ele></trkpt>
<trkpt lat="50.865369400000006" lon="15.604875999999997"><ele>399.32</ele></trkpt>
<trkpt lat="50.8650722" lon="15.6050244"><ele>397.89</ele></trkpt>
<trkpt lat="50.86478410000001" lon="15.605204999999998"><ele>396.42</ele></trkpt>
<trkpt lat="50.86439609999999" lon="15.6055759"><ele>394.22</ele></trkpt>
<trkpt lat="50.864060800000004" lon="15.605986699999995"><ele>392.19</ele></trkpt>
<trkpt lat="50.863856299999995" lon="15.606351"><ele>390.81</ele></trkpt>
<trkpt lat="50.86365649999999" lon="15.606802800000002"><ele>389.45</ele></trkpt>
<trkpt lat="50.863533499999996" lon="15.6069092"><ele>389</ele></trkpt>
<trkpt lat="50.863419900000004" lon="15.606895"><ele>388.7</ele></trkpt>
<trkpt lat="50.8632599" lon="15.606651299999998"><ele>388.28</ele></trkpt>
<trkpt lat="50.86313220000001" lon="15.606219999999997"><ele>388.06</ele></trkpt>
<trkpt lat="50.8627741" lon="15.6044803"><ele>389.17</ele></trkpt>
<trkpt lat="50.8622109" lon="15.601802599999997"><ele>393.61</ele></trkpt>
<trkpt lat="50.8620729" lon="15.601204800000001"><ele>394.47</ele></trkpt>
<trkpt lat="50.8619659" lon="15.6008331"><ele>394.91</ele></trkpt>
<trkpt lat="50.8618399" lon="15.6004811"><ele>395.26</ele></trkpt>
<trkpt lat="50.861614" lon="15.599983099999996"><ele>395.7</ele></trkpt>
<trkpt lat="50.8613561" lon="15.599525199999999"><ele>396.05</ele></trkpt>
<trkpt lat="50.861077" lon="15.599077000000003"><ele>396.3</ele></trkpt>
<trkpt lat="50.8607739" lon="15.5986541"><ele>396.38</ele></trkpt>
<trkpt lat="50.86043660000001" lon="15.5982701"><ele>396.21</ele></trkpt>
<trkpt lat="50.8601868" lon="15.598061400000002"><ele>395.93</ele></trkpt>
<trkpt lat="50.8597922" lon="15.5977822"><ele>395.27</ele></trkpt>
<trkpt lat="50.8595172" lon="15.597631100000001"><ele>394.76</ele></trkpt>
<trkpt lat="50.8580249" lon="15.5969429"><ele>393.03</ele></trkpt>
<trkpt lat="50.8562887" lon="15.596118599999995"><ele>392.94</ele></trkpt>
<trkpt lat="50.85606330000001" lon="15.5959325"><ele>393.06</ele></trkpt>
<trkpt lat="50.8558585" lon="15.595585699999997"><ele>393.34</ele></trkpt>
<trkpt lat="50.8557973" lon="15.595426900000003"><ele>393.48</ele></trkpt>
<trkpt lat="50.85553470000001" lon="15.5944429"><ele>394.38</ele></trkpt>
<trkpt lat="50.855207099999994" lon="15.5935018"><ele>395.27</ele></trkpt>
<trkpt lat="50.8550122" lon="15.592863499999998"><ele>395.86</ele></trkpt>
<trkpt lat="50.8548772" lon="15.5923564"><ele>396.3</ele></trkpt>
<trkpt lat="50.854521899999995" lon="15.590877"><ele>397.46</ele></trkpt>
<trkpt lat="50.853849" lon="15.588214"><ele>398.08</ele></trkpt>
<trkpt lat="50.8537061" lon="15.5876187"><ele>398.06</ele></trkpt>
<trkpt lat="50.85335250000001" lon="15.58628"><ele>398.05</ele></trkpt>
<trkpt lat="50.85305940000001" lon="15.5851042"><ele>398.29</ele></trkpt>
<trkpt lat="50.8529086" lon="15.5845843"><ele>398.54</ele></trkpt>
<trkpt lat="50.8527369" lon="15.584118299999997"><ele>398.91</ele></trkpt>
<trkpt lat="50.851873000000005" lon="15.582284200000002"><ele>401.73</ele></trkpt>
<trkpt lat="50.8514137" lon="15.5813223"><ele>404.98</ele></trkpt>
<trkpt lat="50.851213" lon="15.580823099999995"><ele>407.43</ele></trkpt>
<trkpt lat="50.8510767" lon="15.580358199999996"><ele>409.95</ele></trkpt>
<trkpt lat="50.8509995" lon="15.5799646"><ele>412.23</ele></trkpt>
<trkpt lat="50.8509524" lon="15.579096599999996"><ele>417.42</ele></trkpt>
<trkpt lat="50.850961299999994" lon="15.5775314"><ele>426.75</ele></trkpt>
<trkpt lat="50.85096899999999" lon="15.576638"><ele>431.17</ele></trkpt>
<trkpt lat="50.850971099999995" lon="15.5753726"><ele>433.94</ele></trkpt>
<trkpt lat="50.8509617" lon="15.574719999999997"><ele>433.35</ele></trkpt>
<trkpt lat="50.850902" lon="15.5741621"><ele>431.9</ele></trkpt>
<trkpt lat="50.8508203" lon="15.573746100000001"><ele>430.44</ele></trkpt>
<trkpt lat="50.8506981" lon="15.5733623"><ele>428.94</ele></trkpt>
<trkpt lat="50.8505731" lon="15.5730774"><ele>427.78</ele></trkpt>
<trkpt lat="50.8503258" lon="15.5726704"><ele>426.2</ele></trkpt>
<trkpt lat="50.85008200000001" lon="15.5723814"><ele>425.22</ele></trkpt>
<trkpt lat="50.8498845" lon="15.572196100000001"><ele>424.69</ele></trkpt>
<trkpt lat="50.8496454" lon="15.572162899999999"><ele>424.26</ele></trkpt>
<trkpt lat="50.84957430000001" lon="15.572293600000002"><ele>424.09</ele></trkpt>
<trkpt lat="50.84956210000001" lon="15.5724961"><ele>423.9</ele></trkpt>
<trkpt lat="50.8496666" lon="15.5733328"><ele>423.16</ele></trkpt>
<trkpt lat="50.8496862" lon="15.5738279"><ele>422.65</ele></trkpt>
<trkpt lat="50.8496269" lon="15.5742893"><ele>422.01</ele></trkpt>
<trkpt lat="50.8495292" lon="15.574584700000003"><ele>421.43</ele></trkpt>
<trkpt lat="50.8492903" lon="15.5749804"><ele>420.21</ele></trkpt>
<trkpt lat="50.848995" lon="15.575362000000002"><ele>418.56</ele></trkpt>
<trkpt lat="50.8486799" lon="15.5757147"><ele>416.69</ele></trkpt>
<trkpt lat="50.8483149" lon="15.575980800000004"><ele>414.71</ele></trkpt>
<trkpt lat="50.8481229" lon="15.576204699999998"><ele>413.63</ele></trkpt>
<trkpt lat="50.8479337" lon="15.576605900000002"><ele>412.44</ele></trkpt>
<trkpt lat="50.84773990000001" lon="15.577278900000001"><ele>411.14</ele></trkpt>
<trkpt lat="50.8476332" lon="15.577877"><ele>410.32</ele></trkpt>
<trkpt lat="50.8476192" lon="15.5784875"><ele>409.73</ele></trkpt>
<trkpt lat="50.847667300000005" lon="15.5788943"><ele>409.38</ele></trkpt>
<trkpt lat="50.8477533" lon="15.5792537"><ele>409.03</ele></trkpt>
<trkpt lat="50.8479312" lon="15.579572"><ele>408.58</ele></trkpt>
<trkpt lat="50.848233900000004" lon="15.579821199999998"><ele>407.89</ele></trkpt>
<trkpt lat="50.8484421" lon="15.5801895"><ele>407.14</ele></trkpt>
<trkpt lat="50.8486451" lon="15.580452600000001"><ele>406.4</ele></trkpt>
<trkpt lat="50.84912769999999" lon="15.5807802"><ele>404.66</ele></trkpt>
<trkpt lat="50.8493488" lon="15.581021"><ele>403.66</ele></trkpt>
<trkpt lat="50.8498847" lon="15.581761899999998"><ele>400.79</ele></trkpt>
<trkpt lat="50.850018999999996" lon="15.582019099999998"><ele>399.99</ele></trkpt>
<trkpt lat="50.85012919999999" lon="15.582305700000001"><ele>399.26</ele></trkpt>
<trkpt lat="50.8503992" lon="15.583354099999998"><ele>397.16</ele></trkpt>
<trkpt lat="50.8505395" lon="15.5840216"><ele>396.18</ele></trkpt>
<trkpt lat="50.8506522" lon="15.5856058"><ele>394.7</ele></trkpt>
<trkpt lat="50.8506612" lon="15.586071299999999"><ele>394.31</ele></trkpt>
<trkpt lat="50.8506342" lon="15.5865259"><ele>393.96</ele></trkpt>
<trkpt lat="50.8505623" lon="15.5869807"><ele>393.65</ele></trkpt>
<trkpt lat="50.8504104" lon="15.587665999999999"><ele>393.29</ele></trkpt>
<trkpt lat="50.8502045" lon="15.588948799999999"><ele>392.78</ele></trkpt>
<trkpt lat="50.8501265" lon="15.589393"><ele>392.55</ele></trkpt>
<trkpt lat="50.84975800000001" lon="15.590978200000002"><ele>391.35</ele></trkpt>
<trkpt lat="50.849646799999995" lon="15.591379399999997"><ele>390.83</ele></trkpt>
<trkpt lat="50.8490801" lon="15.593008800000002"><ele>387.6</ele></trkpt>
<trkpt lat="50.8487562" lon="15.5939989"><ele>385.61</ele></trkpt>
<trkpt lat="50.8486377" lon="15.594495200000003"><ele>384.72</ele></trkpt>
<trkpt lat="50.8486173" lon="15.5948431"><ele>384.17</ele></trkpt>
<trkpt lat="50.84862329999999" lon="15.5953668"><ele>383.41</ele></trkpt>
<trkpt lat="50.8486794" lon="15.595872099999998"><ele>382.79</ele></trkpt>
<trkpt lat="50.8487709" lon="15.596192199999999"><ele>382.45</ele></trkpt>
<trkpt lat="50.8489421" lon="15.596663900000003"><ele>382</ele></trkpt>
<trkpt lat="50.8494258" lon="15.5978561"><ele>380.9</ele></trkpt>
<trkpt lat="50.8495089" lon="15.5981251"><ele>380.62</ele></trkpt>
<trkpt lat="50.849528" lon="15.598370299999996"><ele>380.35</ele></trkpt>
<trkpt lat="50.8494172" lon="15.598651599999998"><ele>379.96</ele></trkpt>
<trkpt lat="50.8492703" lon="15.598728900000005"><ele>379.67</ele></trkpt>
<trkpt lat="50.848958" lon="15.598794799999997"><ele>379.05</ele></trkpt>
<trkpt lat="50.8487733" lon="15.599019299999997"><ele>378.61</ele></trkpt>
<trkpt lat="50.8484987" lon="15.5997838"><ele>377.61</ele></trkpt>
<trkpt lat="50.848312" lon="15.6003621"><ele>376.9</ele></trkpt>
<trkpt lat="50.8481981" lon="15.6008219"><ele>376.37</ele></trkpt>
<trkpt lat="50.84809649999999" lon="15.601449"><ele>375.72</ele></trkpt>
<trkpt lat="50.8479315" lon="15.6020492"><ele>375.14</ele></trkpt>
<trkpt lat="50.847871500000004" lon="15.6025012"><ele>374.81</ele></trkpt>
<trkpt lat="50.8477652" lon="15.603767"><ele>374.14</ele></trkpt>
<trkpt lat="50.84770720000001" lon="15.6047654"><ele>373.79</ele></trkpt>
<trkpt lat="50.84775139999999" lon="15.605661600000001"><ele>373.6</ele></trkpt>
<trkpt lat="50.8477191" lon="15.606199"><ele>373.57</ele></trkpt>
<trkpt lat="50.8477181" lon="15.6069255"><ele>373.69</ele></trkpt>
<trkpt lat="50.847746699999995" lon="15.607435299999997"><ele>373.97</ele></trkpt>
<trkpt lat="50.8478422" lon="15.607991900000005"><ele>374.57</ele></trkpt>
<trkpt lat="50.8478141" lon="15.6082722"><ele>375.01</ele></trkpt>
<trkpt lat="50.84774850000001" lon="15.6083935"><ele>375.31</ele></trkpt>
<trkpt lat="50.8474401" lon="15.608678900000001"><ele>376.52</ele></trkpt>
<trkpt lat="50.8473154" lon="15.608873800000001"><ele>377.13</ele></trkpt>
<trkpt lat="50.8472234" lon="15.609122600000001"><ele>377.75</ele></trkpt>
<trkpt lat="50.8470495" lon="15.6097603"><ele>379.02</ele></trkpt>
<trkpt lat="50.846767500000006" lon="15.610623499999999"><ele>379.69</ele></trkpt>
<trkpt lat="50.8466635" lon="15.610867600000002"><ele>379.64</ele></trkpt>
<trkpt lat="50.8463684" lon="15.6114797"><ele>379.39</ele></trkpt>
<trkpt lat="50.8461674" lon="15.6118467"><ele>379.37</ele></trkpt>
<trkpt lat="50.845988" lon="15.6122539"><ele>379.61</ele></trkpt>
<trkpt lat="50.8455177" lon="15.6139098"><ele>381.74</ele></trkpt>
<trkpt lat="50.845365300000005" lon="15.6144796"><ele>382.55</ele></trkpt>
<trkpt lat="50.8451763" lon="15.6150582"><ele>383.27</ele></trkpt>
<trkpt lat="50.8448169" lon="15.6162264"><ele>384.12</ele></trkpt>
<trkpt lat="50.8446873" lon="15.616695200000002"><ele>384.22</ele></trkpt>
<trkpt lat="50.8446184" lon="15.617210600000002"><ele>384.13</ele></trkpt>
<trkpt lat="50.8446081" lon="15.6180338"><ele>383.71</ele></trkpt>
<trkpt lat="50.8445763" lon="15.618464900000001"><ele>383.47</ele></trkpt>
<trkpt lat="50.8444225" lon="15.619498499999999"><ele>383.18</ele></trkpt>
<trkpt lat="50.84435959999999" lon="15.620095100000004"><ele>383.14</ele></trkpt>
<trkpt lat="50.8443645" lon="15.620454999999998"><ele>383.08</ele></trkpt>
<trkpt lat="50.8443934" lon="15.6208116"><ele>382.96</ele></trkpt>
<trkpt lat="50.844541899999996" lon="15.6222659"><ele>382.18</ele></trkpt>
<trkpt lat="50.84461000000001" lon="15.6231308"><ele>381.79</ele></trkpt>
<trkpt lat="50.8446925" lon="15.624589499999999"><ele>381.45</ele></trkpt>
<trkpt lat="50.8447673" lon="15.6256391"><ele>381.32</ele></trkpt>
<trkpt lat="50.844911" lon="15.6270005"><ele>381.14</ele></trkpt>
<trkpt lat="50.8450438" lon="15.628330500000002"><ele>380.86</ele></trkpt>
<trkpt lat="50.8452915" lon="15.6310064"><ele>379.86</ele></trkpt>
<trkpt lat="50.8453327" lon="15.6313483"><ele>379.5</ele></trkpt>
<trkpt lat="50.845639999999996" lon="15.633213200000002"><ele>375.83</ele></trkpt>
<trkpt lat="50.8458734" lon="15.634653999999996"><ele>374.54</ele></trkpt>
<trkpt lat="50.845930700000004" lon="15.635135399999998"><ele>374.49</ele></trkpt>
<trkpt lat="50.8459754" lon="15.6358244"><ele>374.58</ele></trkpt>
<trkpt lat="50.845974700000006" lon="15.636292699999997"><ele>374.57</ele></trkpt>
<trkpt lat="50.8459341" lon="15.637401700000002"><ele>374.07</ele></trkpt>
<trkpt lat="50.8459372" lon="15.6377029"><ele>373.73</ele></trkpt>
<trkpt lat="50.8459931" lon="15.637995799999999"><ele>373.26</ele></trkpt>
<trkpt lat="50.8461662" lon="15.6384667"><ele>372.17</ele></trkpt>
<trkpt lat="50.846301100000005" lon="15.638735500000001"><ele>371.35</ele></trkpt>
<trkpt lat="50.8465097" lon="15.639049800000002"><ele>370.18</ele></trkpt>
<trkpt lat="50.847135200000004" lon="15.6398245"><ele>366.9</ele></trkpt>
<trkpt lat="50.84720990000001" lon="15.640000100000002"><ele>366.37</ele></trkpt>
<trkpt lat="50.8471934" lon="15.6404783"><ele>365.24</ele></trkpt>
<trkpt lat="50.84718689999999" lon="15.641083300000002"><ele>363.86</ele></trkpt>
<trkpt lat="50.847133" lon="15.6413801"><ele>363.17</ele></trkpt>
<trkpt lat="50.8470306" lon="15.6416444"><ele>362.49</ele></trkpt>
<trkpt lat="50.846703600000005" lon="15.6422164"><ele>360.9</ele></trkpt>
<trkpt lat="50.8466582" lon="15.642412299999995"><ele>360.51</ele></trkpt>
<trkpt lat="50.8466665" lon="15.642615200000003"><ele>360.15</ele></trkpt>
<trkpt lat="50.8467689" lon="15.6429584"><ele>359.53</ele></trkpt>
<trkpt lat="50.8470548" lon="15.643580399999996"><ele>358.41</ele></trkpt>
<trkpt lat="50.847226" lon="15.6438916"><ele>357.88</ele></trkpt>
<trkpt lat="50.8474838" lon="15.644260299999996"><ele>357.25</ele></trkpt>
<trkpt lat="50.8476231" lon="15.644511000000001"><ele>356.91</ele></trkpt>
<trkpt lat="50.8477274" lon="15.644841700000002"><ele>356.56</ele></trkpt>
<trkpt lat="50.847823" lon="15.6454441"><ele>356.04</ele></trkpt>
<trkpt lat="50.84791080000001" lon="15.6456481"><ele>355.86</ele></trkpt>
<trkpt lat="50.8480483" lon="15.6457996"><ele>355.68</ele></trkpt>
<trkpt lat="50.8483863" lon="15.6459579"><ele>355.35</ele></trkpt>
<trkpt lat="50.848897699999995" lon="15.646124000000006"><ele>354.91</ele></trkpt>
<trkpt lat="50.8491583" lon="15.6462607"><ele>354.69</ele></trkpt>
<trkpt lat="50.84942240000001" lon="15.6464394"><ele>354.44</ele></trkpt>
<trkpt lat="50.849744599999994" lon="15.646708600000004"><ele>354.1</ele></trkpt>
<trkpt lat="50.8503785" lon="15.647306"><ele>353.39</ele></trkpt>
<trkpt lat="50.85077050000001" lon="15.6476276"><ele>353.01</ele></trkpt>
<trkpt lat="50.8509523" lon="15.6478277"><ele>352.85</ele></trkpt>
<trkpt lat="50.851178600000004" lon="15.648124500000005"><ele>352.68</ele></trkpt>
<trkpt lat="50.851308" lon="15.6482388"><ele>352.62</ele></trkpt>
<trkpt lat="50.851572" lon="15.648387499999998"><ele>352.55</ele></trkpt>
<trkpt lat="50.8517141" lon="15.648423200000002"><ele>352.53</ele></trkpt>
<trkpt lat="50.8522765" lon="15.648504600000004"><ele>352.54</ele></trkpt>
<trkpt lat="50.852698" lon="15.6486751"><ele>352.64</ele></trkpt>
<trkpt lat="50.853446" lon="15.649246399999996"><ele>352.97</ele></trkpt>
<trkpt lat="50.8538541" lon="15.649661899999998"><ele>353.16</ele></trkpt>
<trkpt lat="50.8543497" lon="15.650123499999998"><ele>353.32</ele></trkpt>
<trkpt lat="50.85523979999999" lon="15.6508105"><ele>353.42</ele></trkpt>
<trkpt lat="50.8557338" lon="15.651068800000004"><ele>353.38</ele></trkpt>
<trkpt lat="50.855987" lon="15.651179799999998"><ele>353.32</ele></trkpt>
<trkpt lat="50.8562432" lon="15.6512439"><ele>353.22</ele></trkpt>
<trkpt lat="50.8566237" lon="15.6513033"><ele>353.02</ele></trkpt>
<trkpt lat="50.8568728" lon="15.6514211"><ele>352.86</ele></trkpt>
<trkpt lat="50.8571223" lon="15.651584299999996"><ele>352.68</ele></trkpt>
<trkpt lat="50.8585532" lon="15.652687099999998"><ele>351.57</ele></trkpt>
<trkpt lat="50.8595149" lon="15.6533431"><ele>350.84</ele></trkpt>
<trkpt lat="50.8597441" lon="15.6535462"><ele>350.67</ele></trkpt>
<trkpt lat="50.8601686" lon="15.653990000000002"><ele>350.39</ele></trkpt>
<trkpt lat="50.86035280000001" lon="15.654260000000003"><ele>350.3</ele></trkpt>
<trkpt lat="50.8606709" lon="15.654923100000001"><ele>350.18</ele></trkpt>
<trkpt lat="50.86092" lon="15.655673900000002"><ele>350.13</ele></trkpt>
<trkpt lat="50.861141100000005" lon="15.656202800000003"><ele>350.12</ele></trkpt>
<trkpt lat="50.8615098" lon="15.656810800000002"><ele>350.14</ele></trkpt>
<trkpt lat="50.86166779999999" lon="15.6571521"><ele>350.14</ele></trkpt>
<trkpt lat="50.8617278" lon="15.6573379"><ele>350.14</ele></trkpt>
<trkpt lat="50.8619331" lon="15.6581402"><ele>350.1</ele></trkpt>
<trkpt lat="50.86249190000001" lon="15.6598217"><ele>349.98</ele></trkpt>
<trkpt lat="50.862995" lon="15.6612605"><ele>349.97</ele></trkpt>
<trkpt lat="50.8631518" lon="15.661825"><ele>349.99</ele></trkpt>
<trkpt lat="50.8633445" lon="15.662972800000002"><ele>350.05</ele></trkpt>
<trkpt lat="50.8633841" lon="15.6635745"><ele>350.05</ele></trkpt>
<trkpt lat="50.863417" lon="15.6637865"><ele>350.03</ele></trkpt>
<trkpt lat="50.863707100000006" lon="15.6650219"><ele>349.75</ele></trkpt>
<trkpt lat="50.863764" lon="15.665341999999999"><ele>349.6</ele></trkpt>
<trkpt lat="50.8640429" lon="15.667771000000002"><ele>348.01</ele></trkpt>
<trkpt lat="50.86429390000001" lon="15.6703153"><ele>346.39</ele></trkpt>
<trkpt lat="50.8643139" lon="15.6709459"><ele>346.06</ele></trkpt>
<trkpt lat="50.864214800000006" lon="15.6718249"><ele>345.76</ele></trkpt>
<trkpt lat="50.8641196" lon="15.6724733"><ele>345.68</ele></trkpt>
<trkpt lat="50.86406650000001" lon="15.6732144"><ele>345.74</ele></trkpt>
<trkpt lat="50.8639917" lon="15.673395000000001"><ele>345.79</ele></trkpt>
<trkpt lat="50.8639073" lon="15.673414200000005"><ele>345.83</ele></trkpt>
<trkpt lat="50.8636632" lon="15.6733002"><ele>345.96</ele></trkpt>
<trkpt lat="50.862997199999995" lon="15.6730786"><ele>346.32</ele></trkpt>
<trkpt lat="50.8626669" lon="15.6728957"><ele>346.38</ele></trkpt>
<trkpt lat="50.8618662" lon="15.672380199999996"><ele>346.2</ele></trkpt>
<trkpt lat="50.8609823" lon="15.671841300000004"><ele>345.7</ele></trkpt>
<trkpt lat="50.860828" lon="15.6718095"><ele>345.6</ele></trkpt>
<trkpt lat="50.8606987" lon="15.6718862"><ele>345.5</ele></trkpt>
<trkpt lat="50.860628000000005" lon="15.6720278"><ele>345.4</ele></trkpt>
<trkpt lat="50.8602313" lon="15.6733028"><ele>344.53</ele></trkpt>
<trkpt lat="50.8600402" lon="15.674013200000001"><ele>344.06</ele></trkpt>
<trkpt lat="50.8599671" lon="15.674394900000001"><ele>343.86</ele></trkpt>
<trkpt lat="50.859835" lon="15.675570599999999"><ele>343.57</ele></trkpt>
<trkpt lat="50.85966880000001" lon="15.676903300000001"><ele>343.72</ele></trkpt>
<trkpt lat="50.859688399999996" lon="15.6771798"><ele>343.8</ele></trkpt>
<trkpt lat="50.859784" lon="15.6774034"><ele>343.9</ele></trkpt>
<trkpt lat="50.86000849999999" lon="15.6775366"><ele>344.07</ele></trkpt>
<trkpt lat="50.8604037" lon="15.677662299999998"><ele>344.36</ele></trkpt>
<trkpt lat="50.86049070000001" lon="15.677763199999996"><ele>344.41</ele></trkpt>
<trkpt lat="50.860552199999994" lon="15.678020399999996"><ele>344.46</ele></trkpt>
<trkpt lat="50.8605275" lon="15.6782002"><ele>344.47</ele></trkpt>
<trkpt lat="50.8601627" lon="15.679248899999994"><ele>344.33</ele></trkpt>
<trkpt lat="50.8599364" lon="15.6796593"><ele>344.17</ele></trkpt>
<trkpt lat="50.8594988" lon="15.6803294"><ele>343.79</ele></trkpt>
<trkpt lat="50.8592286" lon="15.680723000000002"><ele>343.62</ele></trkpt>
<trkpt lat="50.8589198" lon="15.681020200000004"><ele>343.57</ele></trkpt>
<trkpt lat="50.858471" lon="15.681403099999999"><ele>343.83</ele></trkpt>
<trkpt lat="50.857929" lon="15.6819746"><ele>344.66</ele></trkpt>
<trkpt lat="50.857685" lon="15.6821439"><ele>345.04</ele></trkpt>
<trkpt lat="50.8570525" lon="15.682460800000001"><ele>345.96</ele></trkpt>
<trkpt lat="50.8561731" lon="15.683111799999997"><ele>346.95</ele></trkpt>
<trkpt lat="50.8557349" lon="15.6835283"><ele>347.58</ele></trkpt>
<trkpt lat="50.855243699999995" lon="15.6841539"><ele>348.72</ele></trkpt>
<trkpt lat="50.855074800000004" lon="15.684411299999999"><ele>349.23</ele></trkpt>
<trkpt lat="50.8549311" lon="15.6846901"><ele>349.74</ele></trkpt>
<trkpt lat="50.8545366" lon="15.6855444"><ele>351.19</ele></trkpt>
<trkpt lat="50.8544028" lon="15.6858139"><ele>351.58</ele></trkpt>
<trkpt lat="50.8541733" lon="15.6861831"><ele>351.98</ele></trkpt>
<trkpt lat="50.853979700000004" lon="15.6863492"><ele>352.12</ele></trkpt>
<trkpt lat="50.853763300000004" lon="15.6864446"><ele>352.17</ele></trkpt>
<trkpt lat="50.8532902" lon="15.686540899999999"><ele>352.13</ele></trkpt>
<trkpt lat="50.85241" lon="15.6865887"><ele>351.92</ele></trkpt>
<trkpt lat="50.852157" lon="15.686559700000002"><ele>351.84</ele></trkpt>
<trkpt lat="50.8517834" lon="15.6864091"><ele>351.64</ele></trkpt>
<trkpt lat="50.8513927" lon="15.686174300000003"><ele>351.31</ele></trkpt>
<trkpt lat="50.850996699999996" lon="15.685963300000001"><ele>350.81</ele></trkpt>
<trkpt lat="50.8507317" lon="15.685931300000004"><ele>350.39</ele></trkpt>
<trkpt lat="50.8504673" lon="15.686018"><ele>349.88</ele></trkpt>
<trkpt lat="50.850067700000004" lon="15.6862433"><ele>349.06</ele></trkpt>
<trkpt lat="50.8493407" lon="15.6866979"><ele>347.79</ele></trkpt>
<trkpt lat="50.8491491" lon="15.686756699999998"><ele>347.55</ele></trkpt>
<trkpt lat="50.849011" lon="15.686720500000002"><ele>347.39</ele></trkpt>
<trkpt lat="50.8488818" lon="15.6866069"><ele>347.25</ele></trkpt>
<trkpt lat="50.84871929999999" lon="15.6863341"><ele>347.05</ele></trkpt>
<trkpt lat="50.848408" lon="15.685644"><ele>346.69</ele></trkpt>
<trkpt lat="50.848111700000004" lon="15.684952900000003"><ele>346.44</ele></trkpt>
<trkpt lat="50.847941" lon="15.684661699999998"><ele>346.38</ele></trkpt>
<trkpt lat="50.8477212" lon="15.684466400000002"><ele>346.4</ele></trkpt>
<trkpt lat="50.847124" lon="15.684091000000002"><ele>346.6</ele></trkpt>
<trkpt lat="50.8463275" lon="15.6835077"><ele>346.86</ele></trkpt>
<trkpt lat="50.84572229999999" lon="15.683186"><ele>346.85</ele></trkpt>
<trkpt lat="50.8451324" lon="15.682768999999999"><ele>346.67</ele></trkpt>
<trkpt lat="50.84492300000001" lon="15.6825434"><ele>346.58</ele></trkpt>
<trkpt lat="50.844554099999996" lon="15.6819114"><ele>346.39</ele></trkpt>
<trkpt lat="50.844399800000005" lon="15.6817722"><ele>346.35</ele></trkpt>
<trkpt lat="50.8442254" lon="15.6817234"><ele>346.34</ele></trkpt>
<trkpt lat="50.8440578" lon="15.681764500000002"><ele>346.36</ele></trkpt>
<trkpt lat="50.84368839999999" lon="15.6819896"><ele>346.46</ele></trkpt>
<trkpt lat="50.843043699999996" lon="15.682260500000002"><ele>346.75</ele></trkpt>
<trkpt lat="50.84269789999999" lon="15.682489499999997"><ele>346.94</ele></trkpt>
<trkpt lat="50.842338" lon="15.6825747"><ele>347.14</ele></trkpt>
<trkpt lat="50.8420899" lon="15.682573700000003"><ele>347.28</ele></trkpt>
<trkpt lat="50.8419558" lon="15.6825342"><ele>347.35</ele></trkpt>
<trkpt lat="50.841749699999994" lon="15.6823768"><ele>347.48</ele></trkpt>
<trkpt lat="50.84133740000001" lon="15.681776999999997"><ele>347.8</ele></trkpt>
<trkpt lat="50.84066399999999" lon="15.6810117"><ele>348.27</ele></trkpt>
<trkpt lat="50.8403363" lon="15.680591000000002"><ele>348.47</ele></trkpt>
<trkpt lat="50.840193" lon="15.6803323"><ele>348.56</ele></trkpt>
<trkpt lat="50.8399751" lon="15.6798664"><ele>348.68</ele></trkpt>
<trkpt lat="50.8395914" lon="15.6789089"><ele>348.94</ele></trkpt>
<trkpt lat="50.8394582" lon="15.678614199999998"><ele>349.07</ele></trkpt>
<trkpt lat="50.83929069999999" lon="15.6784025"><ele>349.25</ele></trkpt>
<trkpt lat="50.8391523" lon="15.67832"><ele>349.4</ele></trkpt>
<trkpt lat="50.8389493" lon="15.678302499999996"><ele>349.64</ele></trkpt>
<trkpt lat="50.8388022" lon="15.6783614"><ele>349.84</ele></trkpt>
<trkpt lat="50.8381116" lon="15.678837499999997"><ele>350.87</ele></trkpt>
<trkpt lat="50.8377306" lon="15.679072299999998"><ele>351.34</ele></trkpt>
<trkpt lat="50.8370138" lon="15.679569299999997"><ele>352.01</ele></trkpt>
<trkpt lat="50.8367929" lon="15.6797584"><ele>352.19</ele></trkpt>
<trkpt lat="50.8365918" lon="15.679978499999999"><ele>352.34</ele></trkpt>
<trkpt lat="50.836405" lon="15.680225100000003"><ele>352.49</ele></trkpt>
<trkpt lat="50.8352468" lon="15.6819315"><ele>353.49</ele></trkpt>
<trkpt lat="50.834803" lon="15.6826018"><ele>354.08</ele></trkpt>
<trkpt lat="50.8345189" lon="15.6829829"><ele>354.56</ele></trkpt>
<trkpt lat="50.834216" lon="15.683310700000003"><ele>355.16</ele></trkpt>
<trkpt lat="50.8340069" lon="15.6834827"><ele>355.61</ele></trkpt>
<trkpt lat="50.8336657" lon="15.683708500000003"><ele>356.42</ele></trkpt>
<trkpt lat="50.83352030000001" lon="15.683858500000001"><ele>356.83</ele></trkpt>
<trkpt lat="50.8333908" lon="15.6840694"><ele>357.3</ele></trkpt>
<trkpt lat="50.8332953" lon="15.6843218"><ele>357.8</ele></trkpt>
<trkpt lat="50.8327127" lon="15.6868014"><ele>362.44</ele></trkpt>
<trkpt lat="50.832368" lon="15.6879904"><ele>364.12</ele></trkpt>
<trkpt lat="50.832174800000004" lon="15.6886056"><ele>364.67</ele></trkpt>
<trkpt lat="50.8318369" lon="15.689736400000001"><ele>365.49</ele></trkpt>
<trkpt lat="50.8315776" lon="15.6905898"><ele>366.31</ele></trkpt>
<trkpt lat="50.83124699999999" lon="15.6916417"><ele>367.59</ele></trkpt>
<trkpt lat="50.8310563" lon="15.692197899999998"><ele>368.13</ele></trkpt>
<trkpt lat="50.830402" lon="15.693998200000001"><ele>368.36</ele></trkpt>
<trkpt lat="50.83029309999999" lon="15.694330700000002"><ele>368.27</ele></trkpt>
<trkpt lat="50.8301322" lon="15.6950362"><ele>367.96</ele></trkpt>
<trkpt lat="50.8300892" lon="15.695411899999998"><ele>367.76</ele></trkpt>
<trkpt lat="50.830070199999994" lon="15.6957975"><ele>367.52</ele></trkpt>
<trkpt lat="50.8300772" lon="15.6961748"><ele>367.27</ele></trkpt>
<trkpt lat="50.83012610000001" lon="15.696920599999999"><ele>366.71</ele></trkpt>
<trkpt lat="50.8301923" lon="15.697668600000004"><ele>366.08</ele></trkpt>
<trkpt lat="50.8302882" lon="15.6982148"><ele>365.56</ele></trkpt>
<trkpt lat="50.8304362" lon="15.698735099999999"><ele>364.99</ele></trkpt>
<trkpt lat="50.8305671" lon="15.6990749"><ele>364.57</ele></trkpt>
<trkpt lat="50.8307243" lon="15.699394200000004"><ele>364.11</ele></trkpt>
<trkpt lat="50.8322389" lon="15.702003799999998"><ele>360.02</ele></trkpt>
<trkpt lat="50.8324939" lon="15.702508999999997"><ele>359.43</ele></trkpt>
<trkpt lat="50.8326438" lon="15.702859800000004"><ele>359.15</ele></trkpt>
<trkpt lat="50.8328411" lon="15.703418299999996"><ele>358.86</ele></trkpt>
<trkpt lat="50.8330108" lon="15.7039857"><ele>358.71</ele></trkpt>
<trkpt lat="50.833352000000005" lon="15.7053469"><ele>358.73</ele></trkpt>
<trkpt lat="50.8335441" lon="15.706088400000002"><ele>359.04</ele></trkpt>
<trkpt lat="50.8338542" lon="15.7073293"><ele>360.31</ele></trkpt>
<trkpt lat="50.8339882" lon="15.707808700000001"><ele>361.13</ele></trkpt>
<trkpt lat="50.8341494" lon="15.708255"><ele>362.1</ele></trkpt>
<trkpt lat="50.8344951" lon="15.7091464"><ele>364.54</ele></trkpt>
<trkpt lat="50.8349964" lon="15.710405600000001"><ele>368.52</ele></trkpt>
<trkpt lat="50.83522570000001" lon="15.711022200000004"><ele>370.45</ele></trkpt>
<trkpt lat="50.8353566" lon="15.7116179"><ele>372.07</ele></trkpt>
<trkpt lat="50.835401000000005" lon="15.711975799999998"><ele>372.95</ele></trkpt>
<trkpt lat="50.835400699999994" lon="15.7125101"><ele>374.12</ele></trkpt>
<trkpt lat="50.8353293" lon="15.713086999999998"><ele>375.28</ele></trkpt>
<trkpt lat="50.8351818" lon="15.713646900000002"><ele>376.45</ele></trkpt>
<trkpt lat="50.83475870000001" lon="15.714789900000001"><ele>379.13</ele></trkpt>
<trkpt lat="50.8344615" lon="15.715528099999997"><ele>380.93</ele></trkpt>
<trkpt lat="50.8341877" lon="15.7160486"><ele>382.15</ele></trkpt>
<trkpt lat="50.8339398" lon="15.7163856"><ele>382.79</ele></trkpt>
<trkpt lat="50.8335582" lon="15.716754500000004"><ele>382.98</ele></trkpt>
<trkpt lat="50.832691499999996" lon="15.7174038"><ele>381.93</ele></trkpt>
<trkpt lat="50.8324738" lon="15.717627400000001"><ele>381.63</ele></trkpt>
<trkpt lat="50.8322709" lon="15.7178804"><ele>381.39</ele></trkpt>
<trkpt lat="50.8320891" lon="15.7181701"><ele>381.25</ele></trkpt>
<trkpt lat="50.83193099999999" lon="15.718491100000001"><ele>381.22</ele></trkpt>
<trkpt lat="50.83132" lon="15.7199125"><ele>381.55</ele></trkpt>
<trkpt lat="50.831143899999994" lon="15.720237"><ele>381.48</ele></trkpt>
<trkpt lat="50.8309325" lon="15.720539100000002"><ele>381.2</ele></trkpt>
<trkpt lat="50.830633500000005" lon="15.720852399999998"><ele>380.6</ele></trkpt>
<trkpt lat="50.8303013" lon="15.7210884"><ele>379.8</ele></trkpt>
<trkpt lat="50.8299345" lon="15.721253"><ele>378.91</ele></trkpt>
<trkpt lat="50.8292593" lon="15.7214635"><ele>377.58</ele></trkpt>
<trkpt lat="50.8286864" lon="15.721642699999997"><ele>377.27</ele></trkpt>
<trkpt lat="50.82842310000001" lon="15.721759000000002"><ele>377.39</ele></trkpt>
<trkpt lat="50.8281679" lon="15.721924400000002"><ele>377.65</ele></trkpt>
<trkpt lat="50.827909999999996" lon="15.722141999999998"><ele>378</ele></trkpt>
<trkpt lat="50.82746650000001" lon="15.722626500000004"><ele>378.54</ele></trkpt>
<trkpt lat="50.8271637" lon="15.723020000000004"><ele>378.64</ele></trkpt>
<trkpt lat="50.8266495" lon="15.723646100000002"><ele>378.11</ele></trkpt>
<trkpt lat="50.8260139" lon="15.724365499999998"><ele>376.59</ele></trkpt>
<trkpt lat="50.82589329999999" lon="15.7244824"><ele>376.3</ele></trkpt>
<trkpt lat="50.8257425" lon="15.7244812"><ele>375.99</ele></trkpt>
<trkpt lat="50.825679900000004" lon="15.724319"><ele>375.75</ele></trkpt>
<trkpt lat="50.82563499999999" lon="15.7237862"><ele>375.19</ele></trkpt>
<trkpt lat="50.825487599999995" lon="15.723311599999999"><ele>374.8</ele></trkpt>
<trkpt lat="50.82532849999999" lon="15.723018099999999"><ele>374.66</ele></trkpt>
<trkpt lat="50.8250492" lon="15.722646599999996"><ele>374.73</ele></trkpt>
<trkpt lat="50.824893" lon="15.722337500000002"><ele>374.97</ele></trkpt>
<trkpt lat="50.8246855" lon="15.721849000000002"><ele>375.62</ele></trkpt>
<trkpt lat="50.8245069" lon="15.721586499999997"><ele>376.21</ele></trkpt>
<trkpt lat="50.82411389999999" lon="15.7212025"><ele>377.62</ele></trkpt>
<trkpt lat="50.8239369" lon="15.7211411"><ele>378.26</ele></trkpt>
<trkpt lat="50.823669800000005" lon="15.721139"><ele>379.28</ele></trkpt>
<trkpt lat="50.82346789999999" lon="15.721063400000002"><ele>380.1</ele></trkpt>
<trkpt lat="50.8232829" lon="15.720907400000002"><ele>380.95</ele></trkpt>
<trkpt lat="50.823063399999995" lon="15.7209175"><ele>381.84</ele></trkpt>
<trkpt lat="50.8228481" lon="15.721212899999994"><ele>382.92</ele></trkpt>
<trkpt lat="50.8227095" lon="15.7213042"><ele>383.45</ele></trkpt>
<trkpt lat="50.82252439999999" lon="15.7212896"><ele>384.04</ele></trkpt>
<trkpt lat="50.822204000000006" lon="15.721169399999996"><ele>384.94</ele></trkpt>
<trkpt lat="50.821989699999996" lon="15.7211795"><ele>385.43</ele></trkpt>
<trkpt lat="50.8211284" lon="15.721361299999995"><ele>387.09</ele></trkpt>
<trkpt lat="50.820791" lon="15.7214824"><ele>387.77</ele></trkpt>
<trkpt lat="50.8202357" lon="15.721581299999999"><ele>388.96</ele></trkpt>
<trkpt lat="50.819802100000004" lon="15.721674599999998"><ele>390</ele></trkpt>
<trkpt lat="50.819595500000005" lon="15.721673900000003"><ele>390.54</ele></trkpt>
<trkpt lat="50.8192749" lon="15.7215804"><ele>391.48</ele></trkpt>
<trkpt lat="50.818957299999994" lon="15.721593699999998"><ele>392.56</ele></trkpt>
<trkpt lat="50.8186552" lon="15.7217481"><ele>393.85</ele></trkpt>
<trkpt lat="50.8182297" lon="15.7217544"><ele>395.88</ele></trkpt>
<trkpt lat="50.8180333" lon="15.7217812"><ele>396.94</ele></trkpt>
<trkpt lat="50.8178582" lon="15.7218545"><ele>398.02</ele></trkpt>
<trkpt lat="50.8176976" lon="15.7220201"><ele>399.27</ele></trkpt>
<trkpt lat="50.8172417" lon="15.722733800000002"><ele>404.09</ele></trkpt>
<trkpt lat="50.817097000000004" lon="15.722926799999998"><ele>405.66</ele></trkpt>
<trkpt lat="50.816856200000004" lon="15.7231133"><ele>407.99</ele></trkpt>
<trkpt lat="50.816355" lon="15.723264800000004"><ele>412.3</ele></trkpt>
<trkpt lat="50.8162065" lon="15.7233809"><ele>413.52</ele></trkpt>
<trkpt lat="50.8159536" lon="15.723649000000002"><ele>415.39</ele></trkpt>
<trkpt lat="50.8158389" lon="15.723870500000006"><ele>416.24</ele></trkpt>
<trkpt lat="50.8158557" lon="15.7241441"><ele>416.83</ele></trkpt>
<trkpt lat="50.8159464" lon="15.724274499999998"><ele>417.13</ele></trkpt>
<trkpt lat="50.8161931" lon="15.724346599999999"><ele>417.6</ele></trkpt>
<trkpt lat="50.8162836" lon="15.724406499999999"><ele>417.77</ele></trkpt>
<trkpt lat="50.8163618" lon="15.7245545"><ele>418</ele></trkpt>
<trkpt lat="50.81637969999999" lon="15.7247386"><ele>418.27</ele></trkpt>
<trkpt lat="50.8163362" lon="15.7250292"><ele>418.81</ele></trkpt>
<trkpt lat="50.8159934" lon="15.726075700000003"><ele>422.15</ele></trkpt>
<trkpt lat="50.8159688" lon="15.726254499999996"><ele>422.81</ele></trkpt>
<trkpt lat="50.81595219999999" lon="15.7267931"><ele>424.95</ele></trkpt>
<trkpt lat="50.815860099999995" lon="15.7272334"><ele>427.04</ele></trkpt>
<trkpt lat="50.8157074" lon="15.727728000000004"><ele>429.87</ele></trkpt>
<trkpt lat="50.8155605" lon="15.7278924"><ele>431.52</ele></trkpt>
<trkpt lat="50.81543920000001" lon="15.727902200000004"><ele>432.66</ele></trkpt>
<trkpt lat="50.8152872" lon="15.727812699999998"><ele>434.22</ele></trkpt>
<trkpt lat="50.8150354" lon="15.727554900000003"><ele>437.14</ele></trkpt>
<trkpt lat="50.8149268" lon="15.7271806"><ele>439.63</ele></trkpt>
<trkpt lat="50.8149492" lon="15.726509300000002"><ele>443.53</ele></trkpt>
<trkpt lat="50.814847900000004" lon="15.726219400000002"><ele>445.52</ele></trkpt>
<trkpt lat="50.8146349" lon="15.726068199999998"><ele>447.81</ele></trkpt>
<trkpt lat="50.8139601" lon="15.7257836"><ele>455.1</ele></trkpt>
<trkpt lat="50.81380359999999" lon="15.7256593"><ele>457.01</ele></trkpt>
<trkpt lat="50.8134205" lon="15.725232299999998"><ele>462.15</ele></trkpt>
<trkpt lat="50.81305569999999" lon="15.7248126"><ele>467.02</ele></trkpt>
<trkpt lat="50.8128495" lon="15.724626600000002"><ele>469.49</ele></trkpt>
<trkpt lat="50.8125547" lon="15.7241436"><ele>473.74</ele></trkpt>
<trkpt lat="50.8122645" lon="15.7237782"><ele>477.28</ele></trkpt>
<trkpt lat="50.8121851" lon="15.7235741"><ele>478.7</ele></trkpt>
<trkpt lat="50.8121781" lon="15.7231188"><ele>481.34</ele></trkpt>
<trkpt lat="50.8121469" lon="15.722857300000001"><ele>482.89</ele></trkpt>
<trkpt lat="50.81203219999999" lon="15.722375500000002"><ele>485.9</ele></trkpt>
<trkpt lat="50.81172689999999" lon="15.721420600000002"><ele>492.03</ele></trkpt>
<trkpt lat="50.8114842" lon="15.720433399999997"><ele>496.81</ele></trkpt>
<trkpt lat="50.8114134" lon="15.720242200000001"><ele>497.61</ele></trkpt>
<trkpt lat="50.8111837" lon="15.719830399999998"><ele>499.45</ele></trkpt>
<trkpt lat="50.8107461" lon="15.718944600000004"><ele>503.33</ele></trkpt>
<trkpt lat="50.8105668" lon="15.718699"><ele>504.9</ele></trkpt>
<trkpt lat="50.8102723" lon="15.7183873"><ele>507.57</ele></trkpt>
<trkpt lat="50.8099998" lon="15.718014799999999"><ele>510.56</ele></trkpt>
<trkpt lat="50.809767400000005" lon="15.717822100000001"><ele>512.87</ele></trkpt>
<trkpt lat="50.809454699999996" lon="15.717742999999999"><ele>515.78</ele></trkpt>
<trkpt lat="50.8090753" lon="15.7176362"><ele>519.36</ele></trkpt>
<trkpt lat="50.80890240000001" lon="15.7174831"><ele>521.23</ele></trkpt>
<trkpt lat="50.80877389999999" lon="15.717240599999998"><ele>523.1</ele></trkpt>
<trkpt lat="50.8087069" lon="15.7170327"><ele>524.49</ele></trkpt>
<trkpt lat="50.8086736" lon="15.7167043"><ele>526.48</ele></trkpt>
<trkpt lat="50.8086625" lon="15.7162254"><ele>529.34</ele></trkpt>
<trkpt lat="50.80855629999999" lon="15.715934599999999"><ele>531.37</ele></trkpt>
<trkpt lat="50.808427599999995" lon="15.715868100000002"><ele>532.62</ele></trkpt>
<trkpt lat="50.8083343" lon="15.715896799999998"><ele>533.48</ele></trkpt>
<trkpt lat="50.80821889999999" lon="15.7160226"><ele>534.7</ele></trkpt>
<trkpt lat="50.807713299999996" lon="15.7168909"><ele>540.48</ele></trkpt>
<trkpt lat="50.807678499999994" lon="15.717142899999999"><ele>541.44</ele></trkpt>
<trkpt lat="50.8077318" lon="15.7175082"><ele>542.61</ele></trkpt>
<trkpt lat="50.8077412" lon="15.7177467"><ele>543.25</ele></trkpt>
<trkpt lat="50.8076712" lon="15.718281999999999"><ele>544.52</ele></trkpt>
<trkpt lat="50.8075627" lon="15.7189504"><ele>546.02</ele></trkpt>
<trkpt lat="50.8074039" lon="15.7193462"><ele>547.16</ele></trkpt>
<trkpt lat="50.8069962" lon="15.720197900000002"><ele>550.23</ele></trkpt>
<trkpt lat="50.806854799999996" lon="15.720309"><ele>551.1</ele></trkpt>
<trkpt lat="50.806726399999995" lon="15.720254100000002"><ele>551.92</ele></trkpt>
<trkpt lat="50.806659800000006" lon="15.7201281"><ele>552.62</ele></trkpt>
<trkpt lat="50.806669899999996" lon="15.7198563"><ele>553.92</ele></trkpt>
<trkpt lat="50.8068162" lon="15.719433900000006"><ele>556.41</ele></trkpt>
<trkpt lat="50.8068516" lon="15.719152199999998"><ele>558.05</ele></trkpt>
<trkpt lat="50.8068163" lon="15.7186017"><ele>561.41</ele></trkpt>
<trkpt lat="50.8067221" lon="15.717553199999996"><ele>567.38</ele></trkpt>
</trkseg>
</trk></gpx>
