<?xml version="1.0" encoding="utf-8"?>
<gpx xmlns:xsd="http://www.w3.org/2001/XMLSchema" xmlns:xsi="http://www.w3.org/2001/XMLSchema-instance" version="1.1" creator="Geo::Gpx" xsi:schemaLocation="http://www.topografix.com/GPX/1/1 http://www.topografix.com/GPX/1/1/gpx.xsd" xmlns="http://www.topografix.com/GPX/1/1">
<metadata>
<name>V3S26</name>
<author>
<link href="https://www.strava.com/athletes/462432">
</link>
<name>Ryan Yates</name>
</author>
<time>2026-08-19T17:56:44Z</time>
<keywords>processGPX</keywords>
<copyright>2020 https://www.openstreetmap.org/copyright</copyright>
<link href="https://www.strava.com/routes/3525202267196582622">
</link>
<bounds maxlat="43.1804851200542" maxlon="3.06277549463772" minlat="42.9685544022816" minlon="2.93748094574407" />
</metadata>
<trk>
<link href="https://www.strava.com/routes/3525202267196582622">
</link>
<name>V3S26</name>
<trkseg>
<trkpt lat="43.12566068818" lon="3.06277549463772">
<ele>33.3043797530376</ele>
</trkpt>
<trkpt lat="43.1263705350244" lon="3.06183757719196">
<ele>33.548262472291</ele>
</trkpt>
<trkpt lat="43.126729872204" lon="3.06125890574582">
<ele>32.9918244975321</ele>
</trkpt>
<trkpt lat="43.1271066709245" lon="3.06056667510872">
<ele>31.9773487962672</ele>
</trkpt>
<trkpt lat="43.1273757191011" lon="3.06007143790293">
<ele>31.0134176845048</ele>
</trkpt>
<trkpt lat="43.1278594079707" lon="3.05918251510552">
<ele>28.780586457087</ele>
</trkpt>
<trkpt lat="43.1283816347504" lon="3.05837002322823">
<ele>25.7433325099981</ele>
</trkpt>
<trkpt lat="43.1288750015697" lon="3.05779000467406">
<ele>23.1637435061138</ele>
</trkpt>
<trkpt lat="43.1293686202874" lon="3.05721017690332">
<ele>21.189830525048</ele>
</trkpt>
<trkpt lat="43.1296401071434" lon="3.05681856583241">
<ele>19.4076276490094</ele>
</trkpt>
<trkpt lat="43.1307105454218" lon="3.05502143846065">
<ele>13.400108645151</ele>
</trkpt>
<trkpt lat="43.13099214787" lon="3.05465831047678">
<ele>12.1600296897714</ele>
</trkpt>
<trkpt lat="43.1312495636482" lon="3.05436268956874">
<ele>10.9726162170879</ele>
</trkpt>
<trkpt lat="43.1315594520436" lon="3.05409133713762">
<ele>9.93644106283607</ele>
</trkpt>
<trkpt lat="43.1322353853633" lon="3.0535834641778">
<ele>8.0765307883686</ele>
</trkpt>
<trkpt lat="43.1326480005183" lon="3.05329600213399">
<ele>7.38497631964547</ele>
</trkpt>
<trkpt lat="43.1331415002708" lon="3.05296034892792">
<ele>6.98562635343169</ele>
</trkpt>
<trkpt lat="43.1333774531016" lon="3.05283223452892">
<ele>6.84365595022066</ele>
</trkpt>
<trkpt lat="43.133760275107" lon="3.05267081557895">
<ele>6.7036644871033</ele>
</trkpt>
<trkpt lat="43.1343397229707" lon="3.05250101147907">
<ele>6.38079322646974</ele>
</trkpt>
<trkpt lat="43.1349307958372" lon="3.05241004988113">
<ele>5.99054127986011</ele>
</trkpt>
<trkpt lat="43.1371780001595" lon="3.05218400619493">
<ele>4.94220322305653</ele>
</trkpt>
<trkpt lat="43.1395006657426" lon="3.05195866554594">
<ele>7.1227302110488</ele>
</trkpt>
<trkpt lat="43.1402110383143" lon="3.05183628764352">
<ele>7.16838333384344</ele>
</trkpt>
<trkpt lat="43.140717613759" lon="3.05171965329165">
<ele>6.97810507476095</ele>
</trkpt>
<trkpt lat="43.1415533341254" lon="3.05142667477504">
<ele>6.90938573391467</ele>
</trkpt>
<trkpt lat="43.1432220009057" lon="3.05084063421601">
<ele>6.18915917094172</ele>
</trkpt>
<trkpt lat="43.1436470609611" lon="3.0507474646119">
<ele>6.18439219834611</ele>
</trkpt>
<trkpt lat="43.1439619841988" lon="3.05071622248726">
<ele>6.20109162823018</ele>
</trkpt>
<trkpt lat="43.1442450913529" lon="3.0507155713697">
<ele>6.31567688751964</ele>
</trkpt>
<trkpt lat="43.1446354617824" lon="3.0507595793061">
<ele>6.54218134278494</ele>
</trkpt>
<trkpt lat="43.1450552171169" lon="3.0508594979056">
<ele>6.87946352998271</ele>
</trkpt>
<trkpt lat="43.1452472555917" lon="3.05092845658667">
<ele>7.18513960409595</ele>
</trkpt>
<trkpt lat="43.1458633342128" lon="3.05119999275532">
<ele>8.66369075875421</ele>
</trkpt>
<trkpt lat="43.1464787511647" lon="3.05147124143426">
<ele>9.57655898326387</ele>
</trkpt>
<trkpt lat="43.146742500749" lon="3.05158749392841">
<ele>9.65277182540379</ele>
</trkpt>
<trkpt lat="43.1472691725711" lon="3.05181901448783">
<ele>9.35747400347771</ele>
</trkpt>
<trkpt lat="43.1480223463077" lon="3.05208877062094">
<ele>8.01153421098352</ele>
</trkpt>
<trkpt lat="43.148537249881" lon="3.05216825104573">
<ele>6.93434562796116</ele>
</trkpt>
<trkpt lat="43.1492412928772" lon="3.05214941123228">
<ele>6.01793629683753</ele>
</trkpt>
<trkpt lat="43.1499882699943" lon="3.05208119070828">
<ele>5.91499607751624</ele>
</trkpt>
<trkpt lat="43.1505007725711" lon="3.05211173268586">
<ele>5.85407929829318</ele>
</trkpt>
<trkpt lat="43.1511715706841" lon="3.0523024346365">
<ele>5.79542112185828</ele>
</trkpt>
<trkpt lat="43.151668140592" lon="3.05255006645355">
<ele>5.64600087019866</ele>
</trkpt>
<trkpt lat="43.1540303067874" lon="3.05404924785643">
<ele>4.73931200427315</ele>
</trkpt>
<trkpt lat="43.1544802937015" lon="3.05427976911631">
<ele>4.59728891020525</ele>
</trkpt>
<trkpt lat="43.155120264216" lon="3.05457010546064">
<ele>4.50204235011363</ele>
</trkpt>
<trkpt lat="43.1554212339716" lon="3.05468932762355">
<ele>4.55804432648205</ele>
</trkpt>
<trkpt lat="43.1561992597517" lon="3.05487665997524">
<ele>5.14987873591047</ele>
</trkpt>
<trkpt lat="43.1571733337271" lon="3.05510999389214">
<ele>6.69177997818798</ele>
</trkpt>
<trkpt lat="43.1580518496244" lon="3.05532240686391">
<ele>7.77026919490767</ele>
</trkpt>
<trkpt lat="43.1592312529562" lon="3.05585374887469">
<ele>9.4515109393283</ele>
</trkpt>
<trkpt lat="43.1594914356908" lon="3.05597794738212">
<ele>9.68842645389044</ele>
</trkpt>
<trkpt lat="43.160217983167" lon="3.05635961118567">
<ele>9.65781669826894</ele>
</trkpt>
<trkpt lat="43.1605110328971" lon="3.05655094147809">
<ele>9.4430391588536</ele>
</trkpt>
<trkpt lat="43.1611472876207" lon="3.05699805112109">
<ele>8.51943309229847</ele>
</trkpt>
<trkpt lat="43.1613091172376" lon="3.05714517917742">
<ele>8.26403878920305</ele>
</trkpt>
<trkpt lat="43.1614279494211" lon="3.057280425809">
<ele>8.14090225677937</ele>
</trkpt>
<trkpt lat="43.1614881891427" lon="3.05743345751336">
<ele>8.11715557894171</ele>
</trkpt>
<trkpt lat="43.1615264924114" lon="3.05748919742246">
<ele>8.1228795348881</ele>
</trkpt>
<trkpt lat="43.1616001011136" lon="3.05752098975451">
<ele>8.1404860277031</ele>
</trkpt>
<trkpt lat="43.1616690978241" lon="3.05749697027813">
<ele>8.15890424050009</ele>
</trkpt>
<trkpt lat="43.1617122265777" lon="3.0574358396767">
<ele>8.16582467588434</ele>
</trkpt>
<trkpt lat="43.1617413488681" lon="3.05733966572498">
<ele>8.14170529531434</ele>
</trkpt>
<trkpt lat="43.161740488137" lon="3.05709164164823">
<ele>7.86699564337676</ele>
</trkpt>
<trkpt lat="43.1618126476002" lon="3.0566913912076">
<ele>7.1150891141828</ele>
</trkpt>
<trkpt lat="43.1620197220982" lon="3.05597929888334">
<ele>6.17365243117194</ele>
</trkpt>
<trkpt lat="43.1622302253116" lon="3.05514279308651">
<ele>5.21372358368292</ele>
</trkpt>
<trkpt lat="43.1624957175697" lon="3.05439429021329">
<ele>4.71528597776218</ele>
</trkpt>
<trkpt lat="43.1628899390207" lon="3.05327875897183">
<ele>4.70086641281789</ele>
</trkpt>
<trkpt lat="43.1634102632592" lon="3.05170018557667">
<ele>4.04459147341342</ele>
</trkpt>
<trkpt lat="43.1649700200765" lon="3.04740402742602">
<ele>3.59960113310598</ele>
</trkpt>
<trkpt lat="43.1655266685163" lon="3.04584333576269">
<ele>3.83858224551387</ele>
</trkpt>
<trkpt lat="43.165858627993" lon="3.04487237336126">
<ele>4.23858711448769</ele>
</trkpt>
<trkpt lat="43.1659722466897" lon="3.04444503345017">
<ele>4.29351771540924</ele>
</trkpt>
<trkpt lat="43.1661200881425" lon="3.04401244057442">
<ele>4.27917999351321</ele>
</trkpt>
<trkpt lat="43.1666089127919" lon="3.04288596523813">
<ele>4.0984216545954</ele>
</trkpt>
<trkpt lat="43.1678800356866" lon="3.03996339159539">
<ele>4.19934849446367</ele>
</trkpt>
<trkpt lat="43.1683200223209" lon="3.03895170305765">
<ele>4.05877409605206</ele>
</trkpt>
<trkpt lat="43.1689887623982" lon="3.03744444632019">
<ele>4.1953879028506</ele>
</trkpt>
<trkpt lat="43.169242050448" lon="3.0369994140525">
<ele>4.34793619784938</ele>
</trkpt>
<trkpt lat="43.1706797154311" lon="3.035160856466">
<ele>4.58417841480943</ele>
</trkpt>
<trkpt lat="43.1711900298949" lon="3.03455092642905">
<ele>4.7964909104578</ele>
</trkpt>
<trkpt lat="43.1717404679867" lon="3.03397866700275">
<ele>5.05485264618384</ele>
</trkpt>
<trkpt lat="43.1722374337588" lon="3.03338323345498">
<ele>4.93191165568499</ele>
</trkpt>
<trkpt lat="43.1724677251495" lon="3.03294187180607">
<ele>4.81042701575656</ele>
</trkpt>
<trkpt lat="43.1728800000199" lon="3.03185730225706">
<ele>4.78771879418798</ele>
</trkpt>
<trkpt lat="43.1736932464571" lon="3.02910238465777">
<ele>4.9644711450131</ele>
</trkpt>
<trkpt lat="43.1741111373021" lon="3.02825832457328">
<ele>5.09761873860663</ele>
</trkpt>
<trkpt lat="43.1744808843131" lon="3.02756184143226">
<ele>5.40506273273823</ele>
</trkpt>
<trkpt lat="43.1749386371095" lon="3.02694276099525">
<ele>5.975376241721</ele>
</trkpt>
<trkpt lat="43.1753433629463" lon="3.02647513581472">
<ele>6.37157517345142</ele>
</trkpt>
<trkpt lat="43.1754700115251" lon="3.02640849476788">
<ele>6.46381078973843</ele>
</trkpt>
<trkpt lat="43.1756615219209" lon="3.02638711664347">
<ele>6.56431456844631</ele>
</trkpt>
<trkpt lat="43.1757731113599" lon="3.02626897277277">
<ele>6.62056949648931</ele>
</trkpt>
<trkpt lat="43.175807839691" lon="3.02618462086152">
<ele>6.64145091900394</ele>
</trkpt>
<trkpt lat="43.1758184198187" lon="3.02598209427352">
<ele>6.64664659743251</ele>
</trkpt>
<trkpt lat="43.1758546547002" lon="3.02582295212265">
<ele>6.60278760387293</ele>
</trkpt>
<trkpt lat="43.1761006108285" lon="3.02531069632433">
<ele>6.27044380674701</ele>
</trkpt>
<trkpt lat="43.1766580125919" lon="3.02438752883496">
<ele>5.52274297175871</ele>
</trkpt>
<trkpt lat="43.1776500169825" lon="3.02274753882927">
<ele>5.10422879884746</ele>
</trkpt>
<trkpt lat="43.178579735269" lon="3.02120960754751">
<ele>5.45831787722323</ele>
</trkpt>
<trkpt lat="43.1794590295954" lon="3.01960295320458">
<ele>5.80679490056896</ele>
</trkpt>
<trkpt lat="43.1796167983134" lon="3.01922765151365">
<ele>5.7031091375058</ele>
</trkpt>
<trkpt lat="43.1796665114382" lon="3.01916810968179">
<ele>5.66945755151427</ele>
</trkpt>
<trkpt lat="43.1797215236381" lon="3.01914066065593">
<ele>5.63974071387967</ele>
</trkpt>
<trkpt lat="43.1798754991843" lon="3.01920171480196">
<ele>5.55880879675639</ele>
</trkpt>
<trkpt lat="43.1799695111452" lon="3.0191934673005">
<ele>5.51946151116414</ele>
</trkpt>
<trkpt lat="43.1800576925389" lon="3.01913667315809">
<ele>5.49359994146892</ele>
</trkpt>
<trkpt lat="43.1801309822313" lon="3.0190258566433">
<ele>5.48279628094768</ele>
</trkpt>
<trkpt lat="43.1801638598211" lon="3.01889551991335">
<ele>5.49324378831846</ele>
</trkpt>
<trkpt lat="43.1801571126639" lon="3.01875048355078">
<ele>5.53893645838678</ele>
</trkpt>
<trkpt lat="43.1800986270255" lon="3.01860452966886">
<ele>5.63958628610931</ele>
</trkpt>
<trkpt lat="43.1799965334425" lon="3.01847134542948">
<ele>5.76392816365478</ele>
</trkpt>
<trkpt lat="43.1799711585382" lon="3.01834341208781">
<ele>5.81993229223469</ele>
</trkpt>
<trkpt lat="43.1799682927058" lon="3.01823184943721">
<ele>5.84980550165507</ele>
</trkpt>
<trkpt lat="43.180179082219" lon="3.0169487625593">
<ele>6.27497089574538</ele>
</trkpt>
<trkpt lat="43.1802523880662" lon="3.01591762094215">
<ele>6.36615094013348</ele>
</trkpt>
<trkpt lat="43.1803671189358" lon="3.01429841993431">
<ele>6.96695521768376</ele>
</trkpt>
<trkpt lat="43.1803971952613" lon="3.0141616402158">
<ele>6.99930285910701</ele>
</trkpt>
<trkpt lat="43.18047794575" lon="3.01400255830624">
<ele>7.0293068798398</ele>
</trkpt>
<trkpt lat="43.1804851200542" lon="3.01386822138119">
<ele>7.07634910013727</ele>
</trkpt>
<trkpt lat="43.1804657484582" lon="3.01381223888998">
<ele>7.11710605742307</ele>
</trkpt>
<trkpt lat="43.1804291582633" lon="3.01376650220136">
<ele>7.18119076094032</ele>
</trkpt>
<trkpt lat="43.1802451051057" lon="3.01368998810846">
<ele>7.62955874437184</ele>
</trkpt>
<trkpt lat="43.1800284276875" lon="3.01347357763919">
<ele>8.24746901350138</ele>
</trkpt>
<trkpt lat="43.1798150349032" lon="3.01331407242312">
<ele>8.22611491272555</ele>
</trkpt>
<trkpt lat="43.1797144547375" lon="3.0132151698824">
<ele>8.10109879708315</ele>
</trkpt>
<trkpt lat="43.1795826357818" lon="3.01297796980674">
<ele>7.76111394376288</ele>
</trkpt>
<trkpt lat="43.1795292698711" lon="3.01295364857928">
<ele>7.63781024335373</ele>
</trkpt>
<trkpt lat="43.1793913668795" lon="3.01297356793247">
<ele>7.30136499102638</ele>
</trkpt>
<trkpt lat="43.1793181558852" lon="3.01296290248928">
<ele>7.13468270014628</ele>
</trkpt>
<trkpt lat="43.1792007905519" lon="3.01291659582213">
<ele>6.9328359207315</ele>
</trkpt>
<trkpt lat="43.179074220519" lon="3.01283711997746">
<ele>6.80960822761146</ele>
</trkpt>
<trkpt lat="43.1783697414374" lon="3.01237295191245">
<ele>6.49697446393248</ele>
</trkpt>
<trkpt lat="43.1770405595766" lon="3.01149720127546">
<ele>6.71888761853394</ele>
</trkpt>
<trkpt lat="43.1762928834325" lon="3.01100460391126">
<ele>6.65646386835002</ele>
</trkpt>
<trkpt lat="43.175962735659" lon="3.01074769219545">
<ele>6.57066030685345</ele>
</trkpt>
<trkpt lat="43.1756740937089" lon="3.01045359339003">
<ele>6.49538055435563</ele>
</trkpt>
<trkpt lat="43.1755114431867" lon="3.01023139157836">
<ele>6.4379182146593</ele>
</trkpt>
<trkpt lat="43.1752826722304" lon="3.00982750413077">
<ele>6.44924404349775</ele>
</trkpt>
<trkpt lat="43.1751039092824" lon="3.00935016543847">
<ele>6.50241055383306</ele>
</trkpt>
<trkpt lat="43.1750567644931" lon="3.00897132082368">
<ele>6.5538146332867</ele>
</trkpt>
<trkpt lat="43.1749977958651" lon="3.00881927660991">
<ele>6.52437745286406</ele>
</trkpt>
<trkpt lat="43.1749404825868" lon="3.00859742710802">
<ele>6.44596648875078</ele>
</trkpt>
<trkpt lat="43.1748604402051" lon="3.00778234976702">
<ele>6.30495486894786</ele>
</trkpt>
<trkpt lat="43.1748408478456" lon="3.00751008307526">
<ele>6.26490089104162</ele>
</trkpt>
<trkpt lat="43.1748516829388" lon="3.00651904826844">
<ele>6.2263534167881</ele>
</trkpt>
<trkpt lat="43.1749119230272" lon="3.00621997727586">
<ele>6.18316130728013</ele>
</trkpt>
<trkpt lat="43.1749898275813" lon="3.00593553163841">
<ele>6.20088494538134</ele>
</trkpt>
<trkpt lat="43.1749416499163" lon="3.00569883734776">
<ele>6.26105074764771</ele>
</trkpt>
<trkpt lat="43.1749364163415" lon="3.00558723270428">
<ele>6.28477799743794</ele>
</trkpt>
<trkpt lat="43.1750444689494" lon="3.0038605472609">
<ele>6.65840354491654</ele>
</trkpt>
<trkpt lat="43.1750854412455" lon="3.00356985579428">
<ele>6.75398472317141</ele>
</trkpt>
<trkpt lat="43.1750757727924" lon="3.00337756532456">
<ele>6.78428520058265</ele>
</trkpt>
<trkpt lat="43.1751205842595" lon="3.0025235190237">
<ele>6.8126872578094</ele>
</trkpt>
<trkpt lat="43.1752103686891" lon="3.00183893027406">
<ele>6.94579942997241</ele>
</trkpt>
<trkpt lat="43.1753500035185" lon="3.00093000216493">
<ele>7.27943784722421</ele>
</trkpt>
<trkpt lat="43.1754896314024" lon="3.00002106987479">
<ele>7.39284485712341</ele>
</trkpt>
<trkpt lat="43.1755792405973" lon="2.99934032122899">
<ele>7.34754195219524</ele>
</trkpt>
<trkpt lat="43.1756024785171" lon="2.99892040113344">
<ele>7.38677628434323</ele>
</trkpt>
<trkpt lat="43.1756019810077" lon="2.99754392793442">
<ele>7.76140051249656</ele>
</trkpt>
<trkpt lat="43.1756144425837" lon="2.99744881138124">
<ele>7.80336999317077</ele>
</trkpt>
<trkpt lat="43.175664870621" lon="2.99734356273458">
<ele>7.85982181945627</ele>
</trkpt>
<trkpt lat="43.1756713288547" lon="2.99729758803582">
<ele>7.87782253341853</ele>
</trkpt>
<trkpt lat="43.175607934221" lon="2.99708559527192">
<ele>7.94249499465511</ele>
</trkpt>
<trkpt lat="43.1754658965791" lon="2.99600220193543">
<ele>8.25242930542381</ele>
</trkpt>
<trkpt lat="43.17545131482" lon="2.99588324001772">
<ele>8.33705848975137</ele>
</trkpt>
<trkpt lat="43.1754331529818" lon="2.99525023944259">
<ele>9.03001983303008</ele>
</trkpt>
<trkpt lat="43.1754940931715" lon="2.99473512205243">
<ele>9.52614831759779</ele>
</trkpt>
<trkpt lat="43.1756218062161" lon="2.99421741476567">
<ele>10.2539853779951</ele>
</trkpt>
<trkpt lat="43.1757777416081" lon="2.99372821429224">
<ele>11.1099884165385</ele>
</trkpt>
<trkpt lat="43.1757915867452" lon="2.9935942703277">
<ele>11.2497087414475</ele>
</trkpt>
<trkpt lat="43.1757795333945" lon="2.99353477839125">
<ele>11.2902804449759</ele>
</trkpt>
<trkpt lat="43.1757478921624" lon="2.99348795679972">
<ele>11.317121412112</ele>
</trkpt>
<trkpt lat="43.1755427137111" lon="2.9933300401296">
<ele>11.3034427711858</ele>
</trkpt>
<trkpt lat="43.175309840356" lon="2.99311487018596">
<ele>11.181197545895</ele>
</trkpt>
<trkpt lat="43.1747080004786" lon="2.99270199810612">
<ele>10.678618921509</ele>
</trkpt>
<trkpt lat="43.1742850513594" lon="2.99240289485776">
<ele>10.7125072410423</ele>
</trkpt>
<trkpt lat="43.1741278865404" lon="2.99220989997703">
<ele>10.8568183112114</ele>
</trkpt>
<trkpt lat="43.1740882207503" lon="2.99212433717141">
<ele>10.9340377661412</ele>
</trkpt>
<trkpt lat="43.174042464197" lon="2.99191352828192">
<ele>11.1494125351722</ele>
</trkpt>
<trkpt lat="43.1739566851271" lon="2.99178702499811">
<ele>11.3398040675606</ele>
</trkpt>
<trkpt lat="43.1738624184411" lon="2.99174138284203">
<ele>11.5097008886757</ele>
</trkpt>
<trkpt lat="43.1736404796491" lon="2.9917422159569">
<ele>11.9384307564865</ele>
</trkpt>
<trkpt lat="43.1735466702079" lon="2.99171617092945">
<ele>12.1582831978366</ele>
</trkpt>
<trkpt lat="43.1734058376694" lon="2.99165290703598">
<ele>12.5911397873576</ele>
</trkpt>
<trkpt lat="43.1731192136133" lon="2.99150738223686">
<ele>13.7830045112047</ele>
</trkpt>
<trkpt lat="43.1726437514044" lon="2.99113874420648">
<ele>16.3767571057342</ele>
</trkpt>
<trkpt lat="43.1724850011208" lon="2.99101499472933">
<ele>17.0518197887927</ele>
</trkpt>
<trkpt lat="43.1723262510012" lon="2.99089124517893">
<ele>17.3342452520322</ele>
</trkpt>
<trkpt lat="43.1720087508713" lon="2.99064374678021">
<ele>17.4580455467245</ele>
</trkpt>
<trkpt lat="43.1718500855004" lon="2.99052085466032">
<ele>17.3273237913851</ele>
</trkpt>
<trkpt lat="43.1716832519162" lon="2.99040661103433">
<ele>16.8465031920508</ele>
</trkpt>
<trkpt lat="43.170979463221" lon="2.99002075152863">
<ele>14.2988260436806</ele>
</trkpt>
<trkpt lat="43.1706483504058" lon="2.98978617223335">
<ele>13.8020847007584</ele>
</trkpt>
<trkpt lat="43.1698675544034" lon="2.98932837825588">
<ele>12.2059671731852</ele>
</trkpt>
<trkpt lat="43.1697395367174" lon="2.98919695073008">
<ele>12.0387845220657</ele>
</trkpt>
<trkpt lat="43.1697145751494" lon="2.98912627907767">
<ele>12.0024998599914</ele>
</trkpt>
<trkpt lat="43.1696846690781" lon="2.98893189117941">
<ele>11.9470725463183</ele>
</trkpt>
<trkpt lat="43.1696136133851" lon="2.98884657202874">
<ele>11.9158875661067</ele>
</trkpt>
<trkpt lat="43.1695130076335" lon="2.98882672627392">
<ele>11.8654259968726</ele>
</trkpt>
<trkpt lat="43.1693655205831" lon="2.98890600698271">
<ele>11.7561682403341</ele>
</trkpt>
<trkpt lat="43.169204130911" lon="2.98887145305566">
<ele>11.6664782192457</ele>
</trkpt>
<trkpt lat="43.1690792160288" lon="2.98880454993875">
<ele>11.6312748127316</ele>
</trkpt>
<trkpt lat="43.1685792805799" lon="2.98846041100038">
<ele>11.5638793609176</ele>
</trkpt>
<trkpt lat="43.1681275262793" lon="2.98820589937556">
<ele>11.6636533968413</ele>
</trkpt>
<trkpt lat="43.1680745963416" lon="2.98815924906629">
<ele>11.6697339843276</ele>
</trkpt>
<trkpt lat="43.168001034305" lon="2.98801878677696">
<ele>11.6741038254865</ele>
</trkpt>
<trkpt lat="43.1679343453299" lon="2.98794713582433">
<ele>11.6764855052428</ele>
</trkpt>
<trkpt lat="43.1677766266484" lon="2.98788600312105">
<ele>11.6935794740718</ele>
</trkpt>
<trkpt lat="43.1674410322674" lon="2.98767984414386">
<ele>11.7652793606543</ele>
</trkpt>
<trkpt lat="43.1655904678852" lon="2.98636711574618">
<ele>12.0055476610888</ele>
</trkpt>
<trkpt lat="43.1648852396312" lon="2.98585284962125">
<ele>12.3521839679619</ele>
</trkpt>
<trkpt lat="43.1639480798473" lon="2.9851671295943">
<ele>12.4213491657802</ele>
</trkpt>
<trkpt lat="43.1619725026051" lon="2.98377498602602">
<ele>11.4314124035652</ele>
</trkpt>
<trkpt lat="43.161339328871" lon="2.98333115967856">
<ele>11.2545739871965</ele>
</trkpt>
<trkpt lat="43.1608519619248" lon="2.9830718748253">
<ele>10.8921251763567</ele>
</trkpt>
<trkpt lat="43.1600062508675" lon="2.98271749186681">
<ele>9.67458313551884</ele>
</trkpt>
<trkpt lat="43.1585979118707" lon="2.98212937008454">
<ele>9.10713310859395</ele>
</trkpt>
<trkpt lat="43.1580900002052" lon="2.98192999828835">
<ele>9.28051369994901</ele>
</trkpt>
<trkpt lat="43.1575851992493" lon="2.98173142784342">
<ele>9.88571416663969</ele>
</trkpt>
<trkpt lat="43.1572968644525" lon="2.98157478632922">
<ele>9.9952257625039</ele>
</trkpt>
<trkpt lat="43.1571645542596" lon="2.98147124410077">
<ele>10.0447869372018</ele>
</trkpt>
<trkpt lat="43.157062531098" lon="2.98126337914018">
<ele>10.1448892699436</ele>
</trkpt>
<trkpt lat="43.1569576871384" lon="2.98117297437795">
<ele>10.1839073804736</ele>
</trkpt>
<trkpt lat="43.1568275805699" lon="2.98116118618861">
<ele>10.1749337052905</ele>
</trkpt>
<trkpt lat="43.1566510760308" lon="2.98129212726902">
<ele>10.0605367838315</ele>
</trkpt>
<trkpt lat="43.1565278390358" lon="2.98129721490222">
<ele>9.99228463249059</ele>
</trkpt>
<trkpt lat="43.1564153341549" lon="2.98127448476476">
<ele>9.96907349050733</ele>
</trkpt>
<trkpt lat="43.1559155174728" lon="2.9810722783305">
<ele>10.0270072876477</ele>
</trkpt>
<trkpt lat="43.1556308852613" lon="2.98095633576188">
<ele>10.1641419849413</ele>
</trkpt>
<trkpt lat="43.1550843781917" lon="2.98073372156969">
<ele>10.7380441973487</ele>
</trkpt>
<trkpt lat="43.1536277117084" lon="2.9801403864662">
<ele>12.4898885182891</ele>
</trkpt>
<trkpt lat="43.1527172933696" lon="2.97976956746645">
<ele>12.9105857941555</ele>
</trkpt>
<trkpt lat="43.151767612922" lon="2.97937803063269">
<ele>13.7924279165685</ele>
</trkpt>
<trkpt lat="43.1505362505374" lon="2.97870624701958">
<ele>14.8058081856806</ele>
</trkpt>
<trkpt lat="43.1493863017159" lon="2.97804570555351">
<ele>16.3872704974368</ele>
</trkpt>
<trkpt lat="43.1487666741164" lon="2.97768661836297">
<ele>16.8164707881199</ele>
</trkpt>
<trkpt lat="43.1478814897814" lon="2.97717364962273">
<ele>16.9826114936315</ele>
</trkpt>
<trkpt lat="43.1471733407591" lon="2.97676328501759">
<ele>17.6305876356353</ele>
</trkpt>
<trkpt lat="43.1463752971277" lon="2.97630084008184">
<ele>19.8581113003268</ele>
</trkpt>
<trkpt lat="43.1457997306709" lon="2.97596731962458">
<ele>22.2433932175943</ele>
</trkpt>
<trkpt lat="43.1455539480141" lon="2.97581892619953">
<ele>23.4185009031007</ele>
</trkpt>
<trkpt lat="43.1453635858622" lon="2.97564961555976">
<ele>24.3931701944326</ele>
</trkpt>
<trkpt lat="43.1452882594684" lon="2.97554705047402">
<ele>24.7162870923464</ele>
</trkpt>
<trkpt lat="43.1452135965043" lon="2.97540228939972">
<ele>25.0222000607645</ele>
</trkpt>
<trkpt lat="43.1451393087753" lon="2.97533276982558">
<ele>25.2079687693869</ele>
</trkpt>
<trkpt lat="43.1450404951027" lon="2.97531296316976">
<ele>25.3472268995519</ele>
</trkpt>
<trkpt lat="43.1448602024372" lon="2.97534427843758">
<ele>25.2990966440675</ele>
</trkpt>
<trkpt lat="43.1447348956979" lon="2.97532285483708">
<ele>25.1385062329088</ele>
</trkpt>
<trkpt lat="43.144212008815" lon="2.97499842360356">
<ele>24.5528144652136</ele>
</trkpt>
<trkpt lat="43.1440500554723" lon="2.97489502065308">
<ele>24.5385052673432</ele>
</trkpt>
<trkpt lat="43.1438875024908" lon="2.97479123473605">
<ele>24.8109064251285</ele>
</trkpt>
<trkpt lat="43.1434000029926" lon="2.97447998218878">
<ele>26.0312544785535</ele>
</trkpt>
<trkpt lat="43.142750002219" lon="2.97406498658625">
<ele>26.8587726137</ele>
</trkpt>
<trkpt lat="43.1422624984249" lon="2.97375374326597">
<ele>27.6583086654806</ele>
</trkpt>
<trkpt lat="43.1413700017582" lon="2.97319998912226">
<ele>29.5260369513402</ele>
</trkpt>
<trkpt lat="43.1399073831723" lon="2.97229730604946">
<ele>31.318599562539</ele>
</trkpt>
<trkpt lat="43.1394617059023" lon="2.97196653406975">
<ele>31.4108708903675</ele>
</trkpt>
<trkpt lat="43.1392654258386" lon="2.97175460056972">
<ele>31.4851495666192</ele>
</trkpt>
<trkpt lat="43.1384908274277" lon="2.97076064535898">
<ele>31.7544311995795</ele>
</trkpt>
<trkpt lat="43.1379000056287" lon="2.96996331789354">
<ele>31.7591755792204</ele>
</trkpt>
<trkpt lat="43.1367856502461" lon="2.96845864042327">
<ele>33.2643276041349</ele>
</trkpt>
<trkpt lat="43.1365828579424" lon="2.96821285701131">
<ele>33.1978245521982</ele>
</trkpt>
<trkpt lat="43.1362410088915" lon="2.96782246648286">
<ele>32.7359547679751</ele>
</trkpt>
<trkpt lat="43.1355133375372" lon="2.96713665034977">
<ele>31.2535633168127</ele>
</trkpt>
<trkpt lat="43.1347866709319" lon="2.96645331707438">
<ele>31.1377176366178</ele>
</trkpt>
<trkpt lat="43.1340584750671" lon="2.96576896577245">
<ele>31.9433079912714</ele>
</trkpt>
<trkpt lat="43.1327751242525" lon="2.96462683464815">
<ele>33.1131408947816</ele>
</trkpt>
<trkpt lat="43.1317066685693" lon="2.96363999252259">
<ele>35.5003271565359</ele>
</trkpt>
<trkpt lat="43.1305848189322" lon="2.96261405867744">
<ele>35.5968526420767</ele>
</trkpt>
<trkpt lat="43.1298814859926" lon="2.96197739038555">
<ele>34.9837908701552</ele>
</trkpt>
<trkpt lat="43.129647040058" lon="2.9617651726084">
<ele>35.0160809234289</ele>
</trkpt>
<trkpt lat="43.1290998676916" lon="2.96127004356543">
<ele>35.5054314943063</ele>
</trkpt>
<trkpt lat="43.1285516697673" lon="2.96078582157566">
<ele>36.1764125151973</ele>
</trkpt>
<trkpt lat="43.1278466694613" lon="2.96016332194462">
<ele>37.7620958662043</ele>
</trkpt>
<trkpt lat="43.1272200043221" lon="2.95961055446061">
<ele>38.4821326616956</ele>
</trkpt>
<trkpt lat="43.1264907582097" lon="2.95902012424526">
<ele>37.69590449895</ele>
</trkpt>
<trkpt lat="43.1258351944037" lon="2.95844218480897">
<ele>35.9570659033726</ele>
</trkpt>
<trkpt lat="43.1255896403302" lon="2.95822550990549">
<ele>35.6164691343252</ele>
</trkpt>
<trkpt lat="43.1250166814337" lon="2.95771993721878">
<ele>35.3707581311528</ele>
</trkpt>
<trkpt lat="43.1242800165958" lon="2.95706992938324">
<ele>35.7090609251374</ele>
</trkpt>
<trkpt lat="43.1234614956856" lon="2.95634771704594">
<ele>35.085468724636</ele>
</trkpt>
<trkpt lat="43.1221516776888" lon="2.95519205977407">
<ele>35.1312694861524</ele>
</trkpt>
<trkpt lat="43.1217080104109" lon="2.95484946795263">
<ele>35.3556269473427</ele>
</trkpt>
<trkpt lat="43.12103000167" lon="2.95442332375494">
<ele>35.98259484313</ele>
</trkpt>
<trkpt lat="43.1202650015419" lon="2.9539433245832">
<ele>36.4352141796743</ele>
</trkpt>
<trkpt lat="43.119581993084" lon="2.95351132620311">
<ele>37.2753674921201</ele>
</trkpt>
<trkpt lat="43.1183521457073" lon="2.95269141215464">
<ele>38.4326845220387</ele>
</trkpt>
<trkpt lat="43.1177371447554" lon="2.95228141744582">
<ele>39.560814936268</ele>
</trkpt>
<trkpt lat="43.117062636966" lon="2.95182951948554">
<ele>41.3633033471351</ele>
</trkpt>
<trkpt lat="43.116750267547" lon="2.95158817360827">
<ele>42.4924007369253</ele>
</trkpt>
<trkpt lat="43.1164336089006" lon="2.95138335882279">
<ele>43.0650700358771</ele>
</trkpt>
<trkpt lat="43.1161195658515" lon="2.95124070324921">
<ele>43.0537318302288</ele>
</trkpt>
<trkpt lat="43.1159100965635" lon="2.95118038471422">
<ele>42.8119494625901</ele>
</trkpt>
<trkpt lat="43.115587304049" lon="2.95110873977595">
<ele>41.9187077367949</ele>
</trkpt>
<trkpt lat="43.1149444446463" lon="2.95091555400846">
<ele>39.805873558579</ele>
</trkpt>
<trkpt lat="43.1146706870959" lon="2.95083226161001">
<ele>39.1530708552671</ele>
</trkpt>
<trkpt lat="43.113150001093" lon="2.95035998672626">
<ele>37.8910680557095</ele>
</trkpt>
<trkpt lat="43.1123450008139" lon="2.95010999001272">
<ele>36.0040692829594</ele>
</trkpt>
<trkpt lat="43.1116297784545" lon="2.94988787586581">
<ele>34.6107594906906</ele>
</trkpt>
<trkpt lat="43.1113010284293" lon="2.94975829706537">
<ele>33.7883952170211</ele>
</trkpt>
<trkpt lat="43.1109875959847" lon="2.9495597403592">
<ele>33.1644667963968</ele>
</trkpt>
<trkpt lat="43.1108265106453" lon="2.94944695944821">
<ele>32.5910703577793</ele>
</trkpt>
<trkpt lat="43.109579640647" lon="2.94850550224573">
<ele>25.803827670079</ele>
</trkpt>
<trkpt lat="43.1094133445144" lon="2.94837994457631">
<ele>25.0663300990149</ele>
</trkpt>
<trkpt lat="43.1091639008209" lon="2.94819160745548">
<ele>24.4794949912738</ele>
</trkpt>
<trkpt lat="43.1085818643172" lon="2.94775216018788">
<ele>23.5923482364262</ele>
</trkpt>
<trkpt lat="43.1079166778426" lon="2.9472499445745">
<ele>23.0786427885424</ele>
</trkpt>
<trkpt lat="43.1071683403376" lon="2.94668496529599">
<ele>23.4814115113219</ele>
</trkpt>
<trkpt lat="43.1063349740502" lon="2.94605998139798">
<ele>24.2891521892068</ele>
</trkpt>
<trkpt lat="43.1060814710452" lon="2.94588194147653">
<ele>24.4153093886721</ele>
</trkpt>
<trkpt lat="43.1056904347041" lon="2.94566740370808">
<ele>24.4370071653586</ele>
</trkpt>
<trkpt lat="43.1052014429886" lon="2.94549220858502">
<ele>24.2057462176378</ele>
</trkpt>
<trkpt lat="43.1049293158034" lon="2.94542908485305">
<ele>23.8658573897896</ele>
</trkpt>
<trkpt lat="43.1047541264655" lon="2.94541167274261">
<ele>23.4666355569502</ele>
</trkpt>
<trkpt lat="43.104489676925" lon="2.94538866377348">
<ele>22.7446635339666</ele>
</trkpt>
<trkpt lat="43.104229116572" lon="2.94539710492079">
<ele>22.0442308279252</ele>
</trkpt>
<trkpt lat="43.103902738364" lon="2.94544209809605">
<ele>21.1592940546971</ele>
</trkpt>
<trkpt lat="43.1035083359438" lon="2.94554844467398">
<ele>19.8359585775526</ele>
</trkpt>
<trkpt lat="43.103241295604" lon="2.94565465905921">
<ele>18.8655019161521</ele>
</trkpt>
<trkpt lat="43.102980573399" lon="2.94578706189279">
<ele>17.9232588487154</ele>
</trkpt>
<trkpt lat="43.1026188359791" lon="2.94602174644938">
<ele>16.6212318196654</ele>
</trkpt>
<trkpt lat="43.1022215957389" lon="2.94632915855727">
<ele>14.3989542531749</ele>
</trkpt>
<trkpt lat="43.1016248274036" lon="2.94682889754876">
<ele>11.2175913458467</ele>
</trkpt>
<trkpt lat="43.1012615964865" lon="2.94710389315878">
<ele>9.8030692122522</ele>
</trkpt>
<trkpt lat="43.100968956497" lon="2.94727497434493">
<ele>9.08386117987514</ele>
</trkpt>
<trkpt lat="43.1006366560691" lon="2.9474184832805">
<ele>8.89068992083681</ele>
</trkpt>
<trkpt lat="43.1003233157816" lon="2.947513363851">
<ele>8.46176641268773</ele>
</trkpt>
<trkpt lat="43.0998815758708" lon="2.94757870615694">
<ele>8.07704930970723</ele>
</trkpt>
<trkpt lat="43.0989188889116" lon="2.94759481583867">
<ele>7.68487375176847</ele>
</trkpt>
<trkpt lat="43.0956511111602" lon="2.94764518627387">
<ele>9.31874222163368</ele>
</trkpt>
<trkpt lat="43.0946947574786" lon="2.94765938756397">
<ele>10.0373623428637</ele>
</trkpt>
<trkpt lat="43.0941571952123" lon="2.94760833461192">
<ele>10.2060176555644</ele>
</trkpt>
<trkpt lat="43.0937207761671" lon="2.94750827579966">
<ele>10.4597048846095</ele>
</trkpt>
<trkpt lat="43.0936332425731" lon="2.94747162622956">
<ele>10.523787158369</ele>
</trkpt>
<trkpt lat="43.0931140006553" lon="2.94723899975387">
<ele>11.008580151918</ele>
</trkpt>
<trkpt lat="43.0922525004728" lon="2.94682587773615">
<ele>12.3265538999778</ele>
</trkpt>
<trkpt lat="43.0899807415572" lon="2.94568052196954">
<ele>14.4344728775155</ele>
</trkpt>
<trkpt lat="43.0878318076922" lon="2.9446411917938">
<ele>17.1708479800805</ele>
</trkpt>
<trkpt lat="43.0876277810702" lon="2.94455031304051">
<ele>17.3702781909356</ele>
</trkpt>
<trkpt lat="43.087350607676" lon="2.94447077477231">
<ele>17.7240288685225</ele>
</trkpt>
<trkpt lat="43.0869590305188" lon="2.94439006311604">
<ele>18.007487067318</ele>
</trkpt>
<trkpt lat="43.0852781834987" lon="2.94409723649591">
<ele>18.5428798010777</ele>
</trkpt>
<trkpt lat="43.0843438406665" lon="2.94393459714696">
<ele>19.1927485066339</ele>
</trkpt>
<trkpt lat="43.0827554573378" lon="2.94365812148014">
<ele>20.9728798010758</ele>
</trkpt>
<trkpt lat="43.0812605077584" lon="2.94339792171325">
<ele>22.9094458680635</ele>
</trkpt>
<trkpt lat="43.0802327294982" lon="2.94321904262629">
<ele>23.797159850807</ele>
</trkpt>
<trkpt lat="43.079485254318" lon="2.94308895151177">
<ele>24.6240579191748</ele>
</trkpt>
<trkpt lat="43.0784574755655" lon="2.94291008294398">
<ele>26.4792423621437</ele>
</trkpt>
<trkpt lat="43.077712598806" lon="2.94278091178596">
<ele>27.3094682154164</ele>
</trkpt>
<trkpt lat="43.0770670718551" lon="2.94273168417117">
<ele>28.1459362029148</ele>
</trkpt>
<trkpt lat="43.0766100825127" lon="2.94280133687942">
<ele>28.3166156732858</ele>
</trkpt>
<trkpt lat="43.0762513667043" lon="2.94291095095765">
<ele>28.4236272721089</ele>
</trkpt>
<trkpt lat="43.0756992540404" lon="2.94318201710264">
<ele>28.7296956834489</ele>
</trkpt>
<trkpt lat="43.0752919928174" lon="2.94346310441942">
<ele>28.5445318891505</ele>
</trkpt>
<trkpt lat="43.0750559256701" lon="2.94360708566578">
<ele>28.167562451909</ele>
</trkpt>
<trkpt lat="43.0745094393888" lon="2.94381854307044">
<ele>27.2710379638754</ele>
</trkpt>
<trkpt lat="43.0742050094261" lon="2.94386499881009">
<ele>26.7508623813356</ele>
</trkpt>
<trkpt lat="43.0738978862349" lon="2.94386965420868">
<ele>25.8221622099945</ele>
</trkpt>
<trkpt lat="43.0735643506576" lon="2.94381463639806">
<ele>24.9227379834365</ele>
</trkpt>
<trkpt lat="43.0732625618972" lon="2.94371922727809">
<ele>23.9715876482786</ele>
</trkpt>
<trkpt lat="43.0731639208394" lon="2.94368042912095">
<ele>23.4041778087635</ele>
</trkpt>
<trkpt lat="43.0728851368561" lon="2.94353894429909">
<ele>20.8995447779079</ele>
</trkpt>
<trkpt lat="43.0726884215498" lon="2.94341300669227">
<ele>19.4909239767769</ele>
</trkpt>
<trkpt lat="43.0720777799112" lon="2.94290332483326">
<ele>15.5808720465376</ele>
</trkpt>
<trkpt lat="43.071908890707" lon="2.94275665895832">
<ele>14.6541874902973</ele>
</trkpt>
<trkpt lat="43.0714022237842" lon="2.94231666019243">
<ele>12.5071490030004</ele>
</trkpt>
<trkpt lat="43.0709798052368" lon="2.94194950930322">
<ele>11.0743835055689</ele>
</trkpt>
<trkpt lat="43.070490629333" lon="2.94149998338335">
<ele>10.6007914420756</ele>
</trkpt>
<trkpt lat="43.0701643803579" lon="2.94119997809432">
<ele>10.6357913053275</ele>
</trkpt>
<trkpt lat="43.0696750063131" lon="2.94074997434162">
<ele>11.1317291187097</ele>
</trkpt>
<trkpt lat="43.0689409417372" lon="2.9400749826059">
<ele>12.500413365506</ele>
</trkpt>
<trkpt lat="43.068369583673" lon="2.93954789872769">
<ele>13.0404646710954</ele>
</trkpt>
<trkpt lat="43.06810183824" lon="2.93921947399969">
<ele>13.1375701203529</ele>
</trkpt>
<trkpt lat="43.0680488483494" lon="2.93911455696507">
<ele>13.1008516102386</ele>
</trkpt>
<trkpt lat="43.0679824774818" lon="2.93887643873125">
<ele>12.9729087050338</ele>
</trkpt>
<trkpt lat="43.067945597904" lon="2.93881827797441">
<ele>12.9321624923263</ele>
</trkpt>
<trkpt lat="43.0678795044355" lon="2.9387601663473">
<ele>12.875553447307</ele>
</trkpt>
<trkpt lat="43.0678025785251" lon="2.93874234070534">
<ele>12.8152972718232</ele>
</trkpt>
<trkpt lat="43.0676065331857" lon="2.93879437300842">
<ele>12.6130842688712</ele>
</trkpt>
<trkpt lat="43.0673734601606" lon="2.93870486067046">
<ele>12.2210665223353</ele>
</trkpt>
<trkpt lat="43.0672794051126" lon="2.93865839305773">
<ele>12.0465945800483</ele>
</trkpt>
<trkpt lat="43.066846667433" lon="2.93837249648956">
<ele>11.4185502066101</ele>
</trkpt>
<trkpt lat="43.0662386865622" lon="2.93797029975021">
<ele>11.0668346584616</ele>
</trkpt>
<trkpt lat="43.0659014524906" lon="2.93779230962483">
<ele>10.9216343355694</ele>
</trkpt>
<trkpt lat="43.0654171938706" lon="2.9376125891406">
<ele>10.6980703371957</ele>
</trkpt>
<trkpt lat="43.0652196532374" lon="2.9375647630137">
<ele>10.4920891794663</ele>
</trkpt>
<trkpt lat="43.0649192803796" lon="2.9375114987387">
<ele>9.98011916403592</ele>
</trkpt>
<trkpt lat="43.0645841764298" lon="2.93748094574407">
<ele>9.03608156637187</ele>
</trkpt>
<trkpt lat="43.064245534362" lon="2.93750403133418">
<ele>8.37169583362217</ele>
</trkpt>
<trkpt lat="43.0639705495397" lon="2.93753136197107">
<ele>8.08642737256596</ele>
</trkpt>
<trkpt lat="43.0635872909257" lon="2.93764200874199">
<ele>7.70544629179071</ele>
</trkpt>
<trkpt lat="43.063274596134" lon="2.93776970170351">
<ele>7.48668943648984</ele>
</trkpt>
<trkpt lat="43.0623386342641" lon="2.93840148474774">
<ele>7.03366211301808</ele>
</trkpt>
<trkpt lat="43.0610837529107" lon="2.93935001304318">
<ele>7.34170400208367</ele>
</trkpt>
<trkpt lat="43.0608325018902" lon="2.9395400093472">
<ele>7.66734145002944</ele>
</trkpt>
<trkpt lat="43.0603290788319" lon="2.93992058309846">
<ele>8.71403022558108</ele>
</trkpt>
<trkpt lat="43.059850002797" lon="2.9402762630362">
<ele>10.2215417976319</ele>
</trkpt>
<trkpt lat="43.0596100031909" lon="2.94045439097683">
<ele>11.2164273755051</ele>
</trkpt>
<trkpt lat="43.0590500040285" lon="2.94087001992138">
<ele>14.3465067061563</ele>
</trkpt>
<trkpt lat="43.0584100030675" lon="2.94134501494748">
<ele>18.4902950404851</ele>
</trkpt>
<trkpt lat="43.0571166689389" lon="2.94232667759284">
<ele>24.3443263322157</ele>
</trkpt>
<trkpt lat="43.0558919236997" lon="2.94327647131472">
<ele>27.1015785311149</ele>
</trkpt>
<trkpt lat="43.0554524476194" lon="2.94367911387894">
<ele>28.8355836375261</ele>
</trkpt>
<trkpt lat="43.0551544606679" lon="2.94403145639434">
<ele>29.5752132532989</ele>
</trkpt>
<trkpt lat="43.0550779484107" lon="2.94412419665653">
<ele>29.8768134681165</ele>
</trkpt>
<trkpt lat="43.0549127812658" lon="2.94435819262653">
<ele>30.8732369412615</ele>
</trkpt>
<trkpt lat="43.0547413332773" lon="2.94466844255188">
<ele>31.7310345617822</ele>
</trkpt>
<trkpt lat="43.0545702698311" lon="2.94502132676726">
<ele>32.2181888515724</ele>
</trkpt>
<trkpt lat="43.0543392659029" lon="2.94562386647727">
<ele>32.1783282042791</ele>
</trkpt>
<trkpt lat="43.0542024100577" lon="2.94604456802154">
<ele>31.8081792771827</ele>
</trkpt>
<trkpt lat="43.0541334132772" lon="2.94632966451927">
<ele>31.4812452560858</ele>
</trkpt>
<trkpt lat="43.0540780902761" lon="2.94659946675584">
<ele>31.0639336561494</ele>
</trkpt>
<trkpt lat="43.0539908238614" lon="2.94712520094715">
<ele>30.0167818557854</ele>
</trkpt>
<trkpt lat="43.0539676993015" lon="2.94757993474304">
<ele>29.1727709359912</ele>
</trkpt>
<trkpt lat="43.0539516898039" lon="2.94848333487405">
<ele>27.7820213596419</ele>
</trkpt>
<trkpt lat="43.053937950369" lon="2.94925833560208">
<ele>27.2280586181556</ele>
</trkpt>
<trkpt lat="43.0539310794346" lon="2.94964583586057">
<ele>27.1052498485626</ele>
</trkpt>
<trkpt lat="43.0539127495874" lon="2.95067916942659">
<ele>27.403261749718</ele>
</trkpt>
<trkpt lat="43.0538783564705" lon="2.95261666821065">
<ele>29.3172823987093</ele>
</trkpt>
<trkpt lat="43.0538603896954" lon="2.95364932873378">
<ele>29.3313881865101</ele>
</trkpt>
<trkpt lat="43.0538777791329" lon="2.95470785823139">
<ele>29.1246768490582</ele>
</trkpt>
<trkpt lat="43.0538962512546" lon="2.95510749961128">
<ele>28.7731879809127</ele>
</trkpt>
<trkpt lat="43.0539450048898" lon="2.95590999888083">
<ele>27.6467679859336</ele>
</trkpt>
<trkpt lat="43.0540096058444" lon="2.95698061349548">
<ele>25.1607722260777</ele>
</trkpt>
<trkpt lat="43.0540242857166" lon="2.95763714282695">
<ele>23.9414156921339</ele>
</trkpt>
<trkpt lat="43.0540296047105" lon="2.95789457313359">
<ele>23.1560412775482</ele>
</trkpt>
<trkpt lat="43.054019164346" lon="2.95822702440037">
<ele>21.4123045921696</ele>
</trkpt>
<trkpt lat="43.0540000000113" lon="2.9584657143855">
<ele>20.5870871475989</ele>
</trkpt>
<trkpt lat="43.0539495505733" lon="2.95907449607416">
<ele>19.2411006605247</ele>
</trkpt>
<trkpt lat="43.0537876148504" lon="2.95980598053231">
<ele>17.9364062027486</ele>
</trkpt>
<trkpt lat="43.0535795515345" lon="2.96045771489579">
<ele>17.4250149155942</ele>
</trkpt>
<trkpt lat="43.0533881903473" lon="2.96090099958959">
<ele>16.3827867161492</ele>
</trkpt>
<trkpt lat="43.0531295824094" lon="2.96136927795606">
<ele>15.627290370668</ele>
</trkpt>
<trkpt lat="43.0529591929023" lon="2.9616396736432">
<ele>14.8232864116368</ele>
</trkpt>
<trkpt lat="43.0527203818751" lon="2.96196781829662">
<ele>14.1537718649565</ele>
</trkpt>
<trkpt lat="43.0525101668087" lon="2.96220846710312">
<ele>13.6884712372373</ele>
</trkpt>
<trkpt lat="43.0521183051389" lon="2.9625798396732">
<ele>12.6750809024088</ele>
</trkpt>
<trkpt lat="43.0517345293377" lon="2.96286616108536">
<ele>12.0907225766123</ele>
</trkpt>
<trkpt lat="43.0515199500461" lon="2.96299942601024">
<ele>11.8217997465662</ele>
</trkpt>
<trkpt lat="43.0512959103363" lon="2.96310099717955">
<ele>11.4571353908596</ele>
</trkpt>
<trkpt lat="43.0507509481386" lon="2.96328894750736">
<ele>10.7961134358829</ele>
</trkpt>
<trkpt lat="43.0502588986849" lon="2.96340964912367">
<ele>10.1862846864864</ele>
</trkpt>
<trkpt lat="43.0493205192282" lon="2.96357063864382">
<ele>9.94118316112438</ele>
</trkpt>
<trkpt lat="43.0489393980825" lon="2.96367106286492">
<ele>10.0424041015192</ele>
</trkpt>
<trkpt lat="43.0486705824245" lon="2.96377058579283">
<ele>10.0522775836326</ele>
</trkpt>
<trkpt lat="43.0483095485598" lon="2.96394144486889">
<ele>10.0479544274836</ele>
</trkpt>
<trkpt lat="43.0475600009487" lon="2.96440500588282">
<ele>9.57511011533395</ele>
</trkpt>
<trkpt lat="43.0461344495957" lon="2.96529817690744">
<ele>9.05885633239381</ele>
</trkpt>
<trkpt lat="43.0452900081418" lon="2.96583338123172">
<ele>8.91937945741898</ele>
</trkpt>
<trkpt lat="43.043770008146" lon="2.96679671456061">
<ele>8.16126493453815</ele>
</trkpt>
<trkpt lat="43.0423343823972" lon="2.96770652712798">
<ele>8.07312380646691</ele>
</trkpt>
<trkpt lat="43.0420766670415" lon="2.96786333570951">
<ele>8.31404790821131</ele>
</trkpt>
<trkpt lat="43.0414700009496" lon="2.96822500609489">
<ele>9.30645021173452</ele>
</trkpt>
<trkpt lat="43.0406915814888" lon="2.96868828641951">
<ele>11.4602018462828</ele>
</trkpt>
<trkpt lat="43.0401986829023" lon="2.96892018532563">
<ele>12.5506854027382</ele>
</trkpt>
<trkpt lat="43.0396395235691" lon="2.96914944150315">
<ele>12.966751145616</ele>
</trkpt>
<trkpt lat="43.0393607416862" lon="2.96923754120554">
<ele>12.8801033639151</ele>
</trkpt>
<trkpt lat="43.0391607495252" lon="2.96928357340553">
<ele>12.6735432110935</ele>
</trkpt>
<trkpt lat="43.038961664075" lon="2.96932798977579">
<ele>12.4249350345961</ele>
</trkpt>
<trkpt lat="43.0385600831371" lon="2.96937800831184">
<ele>11.9083760453977</ele>
</trkpt>
<trkpt lat="43.0378606264134" lon="2.96936431065664">
<ele>10.910450109749</ele>
</trkpt>
<trkpt lat="43.0372186174798" lon="2.96925390306616">
<ele>10.1787849817575</ele>
</trkpt>
<trkpt lat="43.0364116019822" lon="2.96904615426707">
<ele>9.80758862505713</ele>
</trkpt>
<trkpt lat="43.0360634191786" lon="2.9689893309785">
<ele>9.77739878251677</ele>
</trkpt>
<trkpt lat="43.0353810007955" lon="2.96880973974158">
<ele>9.62660641936959</ele>
</trkpt>
<trkpt lat="43.0338290012724" lon="2.96839773323395">
<ele>10.5839692706323</ele>
</trkpt>
<trkpt lat="43.0329560007783" lon="2.96816598952164">
<ele>10.6997489064968</ele>
</trkpt>
<trkpt lat="43.0322769457375" lon="2.96798573308922">
<ele>11.097516838224</ele>
</trkpt>
<trkpt lat="43.0319822222855" lon="2.96791444320132">
<ele>11.5324321277273</ele>
</trkpt>
<trkpt lat="43.0315866667812" lon="2.96782333065164">
<ele>12.3767024723562</ele>
</trkpt>
<trkpt lat="43.0303996353187" lon="2.96754950627329">
<ele>15.8198152423358</ele>
</trkpt>
<trkpt lat="43.0296313278661" lon="2.96732969091859">
<ele>17.7663589403574</ele>
</trkpt>
<trkpt lat="43.0294291790222" lon="2.96724869034552">
<ele>18.3490011995897</ele>
</trkpt>
<trkpt lat="43.0289689181654" lon="2.96699838669437">
<ele>19.4244828936507</ele>
</trkpt>
<trkpt lat="43.0282250010843" lon="2.96649999372117">
<ele>21.4700481546832</ele>
</trkpt>
<trkpt lat="43.0276455564642" lon="2.966111107333">
<ele>22.7800999478697</ele>
</trkpt>
<trkpt lat="43.0262811321124" lon="2.96515118831994">
<ele>25.1375573956277</ele>
</trkpt>
<trkpt lat="43.0259978530333" lon="2.96496946270492">
<ele>25.5693487626946</ele>
</trkpt>
<trkpt lat="43.0256457826297" lon="2.96478589795328">
<ele>26.4612903843346</ele>
</trkpt>
<trkpt lat="43.0252673616682" lon="2.96461068508079">
<ele>27.2590045050353</ele>
</trkpt>
<trkpt lat="43.0247514887802" lon="2.96447131519099">
<ele>27.7928098999594</ele>
</trkpt>
<trkpt lat="43.0245613101377" lon="2.96444114412722">
<ele>28.0523715942168</ele>
</trkpt>
<trkpt lat="43.02404742399" lon="2.9644304814087">
<ele>28.3874623339138</ele>
</trkpt>
<trkpt lat="43.0237795172166" lon="2.96444157447724">
<ele>28.4355926820049</ele>
</trkpt>
<trkpt lat="43.0232617943891" lon="2.96454073506866">
<ele>28.4509809434831</ele>
</trkpt>
<trkpt lat="43.0228882870065" lon="2.96466169112743">
<ele>28.4427086573206</ele>
</trkpt>
<trkpt lat="43.0224837378956" lon="2.96483920581344">
<ele>28.584150717405</ele>
</trkpt>
<trkpt lat="43.0222886834367" lon="2.96495194228567">
<ele>28.6130392106081</ele>
</trkpt>
<trkpt lat="43.021790155968" lon="2.96532141746605">
<ele>28.6932047949328</ele>
</trkpt>
<trkpt lat="43.0211802830737" lon="2.96590248012428">
<ele>29.1723385882091</ele>
</trkpt>
<trkpt lat="43.0208014382426" lon="2.96640972678971">
<ele>29.4439016953328</ele>
</trkpt>
<trkpt lat="43.0204397289005" lon="2.96700172240134">
<ele>29.4845160889883</ele>
</trkpt>
<trkpt lat="43.0202313639628" lon="2.96739027868321">
<ele>29.3783461542295</ele>
</trkpt>
<trkpt lat="43.0198350041573" lon="2.96837000636934">
<ele>29.1977943599255</ele>
</trkpt>
<trkpt lat="43.0194395186102" lon="2.96934973256985">
<ele>29.4365170732713</ele>
</trkpt>
<trkpt lat="43.0189592102331" lon="2.97039790094673">
<ele>30.1669155080491</ele>
</trkpt>
<trkpt lat="43.0185826613271" lon="2.97097458600521">
<ele>30.5675795839491</ele>
</trkpt>
<trkpt lat="43.0185203076949" lon="2.97106770968572">
<ele>30.6414132056749</ele>
</trkpt>
<trkpt lat="43.018138602034" lon="2.97151944239852">
<ele>31.1071413983969</ele>
</trkpt>
<trkpt lat="43.0176520452356" lon="2.97193763318081">
<ele>31.6257936450724</ele>
</trkpt>
<trkpt lat="43.0173554754953" lon="2.97215198420344">
<ele>31.9179609204225</ele>
</trkpt>
<trkpt lat="43.0171239156563" lon="2.97228684911562">
<ele>32.0248520925602</ele>
</trkpt>
<trkpt lat="43.0168076248599" lon="2.97241928639384">
<ele>32.3708915074513</ele>
</trkpt>
<trkpt lat="43.0161364321391" lon="2.97255121536763">
<ele>33.5868486624582</ele>
</trkpt>
<trkpt lat="43.0159477183275" lon="2.97257748233613">
<ele>34.1305341495679</ele>
</trkpt>
<trkpt lat="43.0157627149855" lon="2.97259248264387">
<ele>34.846873185782</ele>
</trkpt>
<trkpt lat="43.0152293667504" lon="2.97255835936019">
<ele>37.28327564374</ele>
</trkpt>
<trkpt lat="43.0149826667069" lon="2.97250001722493">
<ele>38.1393933051658</ele>
</trkpt>
<trkpt lat="43.0146980000557" lon="2.97240999953943">
<ele>39.622470854025</ele>
</trkpt>
<trkpt lat="43.0144165556791" lon="2.97230160879178">
<ele>41.475152754881</ele>
</trkpt>
<trkpt lat="43.0138730570567" lon="2.97200456713249">
<ele>45.686329397468</ele>
</trkpt>
<trkpt lat="43.0134850005925" lon="2.97172499746285">
<ele>48.5090940095855</ele>
</trkpt>
<trkpt lat="43.0130208461473" lon="2.9713909977751">
<ele>51.1141227774159</ele>
</trkpt>
<trkpt lat="43.0126057146666" lon="2.97111142714358">
<ele>53.7953138083665</ele>
</trkpt>
<trkpt lat="43.0116692139158" lon="2.97054038892832">
<ele>60.1081427992369</ele>
</trkpt>
<trkpt lat="43.01123986273" lon="2.97033494633949">
<ele>61.9939295491753</ele>
</trkpt>
<trkpt lat="43.0107886990119" lon="2.97016011409392">
<ele>64.1560512373692</ele>
</trkpt>
<trkpt lat="43.0102757146272" lon="2.96999285475447">
<ele>66.3879931749497</ele>
</trkpt>
<trkpt lat="43.0100185716621" lon="2.96990928392907">
<ele>67.060053672351</ele>
</trkpt>
<trkpt lat="43.0095906055055" lon="2.96977068028709">
<ele>67.5112569838563</ele>
</trkpt>
<trkpt lat="43.0093221429893" lon="2.96969714155818">
<ele>67.1297168199876</ele>
</trkpt>
<trkpt lat="43.0089650001925" lon="2.96959999822989">
<ele>66.2083952640752</ele>
</trkpt>
<trkpt lat="43.0086971430161" lon="2.96952714131348">
<ele>64.944471061189</ele>
</trkpt>
<trkpt lat="43.0083416715489" lon="2.96943108367409">
<ele>62.9724013441209</ele>
</trkpt>
<trkpt lat="43.0077483785207" lon="2.96932010852073">
<ele>59.1138220175099</ele>
</trkpt>
<trkpt lat="43.0071096238814" lon="2.96923156331533">
<ele>55.8028263361635</ele>
</trkpt>
<trkpt lat="43.0062966666958" lon="2.96925500166755">
<ele>50.1825216364059</ele>
</trkpt>
<trkpt lat="43.0060255555932" lon="2.96926333541019">
<ele>48.8635100848313</ele>
</trkpt>
<trkpt lat="43.0053929630177" lon="2.96928278049581">
<ele>46.2392701558363</ele>
</trkpt>
<trkpt lat="43.0045796297018" lon="2.96930778075272">
<ele>43.4060711704848</ele>
</trkpt>
<trkpt lat="43.0030433334217" lon="2.9693550016656">
<ele>38.5398840825937</ele>
</trkpt>
<trkpt lat="43.0027722222833" lon="2.96936333452649">
<ele>38.1728071976668</ele>
</trkpt>
<trkpt lat="43.0022316306028" lon="2.96938050587968">
<ele>37.7520996314512</ele>
</trkpt>
<trkpt lat="43.001477142789" lon="2.96944285755152">
<ele>37.8554793185073</ele>
</trkpt>
<trkpt lat="43.0012049998821" lon="2.96946000043559">
<ele>38.0260609340621</ele>
</trkpt>
<trkpt lat="43.0005722717601" lon="2.96950033748423">
<ele>39.5472893484087</ele>
</trkpt>
<trkpt lat="42.9998641666923" lon="2.96959333410832">
<ele>41.9530492935435</ele>
</trkpt>
<trkpt lat="42.9979775003679" lon="2.96985950873825">
<ele>46.1437845724605</ele>
</trkpt>
<trkpt lat="42.9975825003724" lon="2.96991650910799">
<ele>47.2262845724562</ele>
</trkpt>
<trkpt lat="42.9968912503587" lon="2.97001625859253">
<ele>49.5881226404374</ele>
</trkpt>
<trkpt lat="42.995607500107" lon="2.97020150214357">
<ele>55.3798065872637</ele>
</trkpt>
<trkpt lat="42.9952266666655" lon="2.97025333392483">
<ele>57.4586461433125</ele>
</trkpt>
<trkpt lat="42.9944933332926" lon="2.97034666807646">
<ele>62.3256100809411</ele>
</trkpt>
<trkpt lat="42.9937636690507" lon="2.97044047876793">
<ele>67.9579390642826</ele>
</trkpt>
<trkpt lat="42.993436931444" lon="2.97054158273911">
<ele>70.4103214393791</ele>
</trkpt>
<trkpt lat="42.993080782671" lon="2.97068067594716">
<ele>73.2949088616302</ele>
</trkpt>
<trkpt lat="42.9926300002542" lon="2.97092600131328">
<ele>76.7221146015081</ele>
</trkpt>
<trkpt lat="42.9923600003838" lon="2.97108500192808">
<ele>78.5700593474802</ele>
</trkpt>
<trkpt lat="42.9919094037482" lon="2.97134967212373">
<ele>80.4199657123504</ele>
</trkpt>
<trkpt lat="42.9915500002654" lon="2.97153000198839">
<ele>82.0152053069246</ele>
</trkpt>
<trkpt lat="42.9912800001718" lon="2.97166500149021">
<ele>82.7895219421473</ele>
</trkpt>
<trkpt lat="42.9910094917936" lon="2.97179957225546">
<ele>83.2144755070445</ele>
</trkpt>
<trkpt lat="42.9902900004432" lon="2.9721000036042">
<ele>83.8508063030044</ele>
</trkpt>
<trkpt lat="42.9895721817287" lon="2.97239997477529">
<ele>84.9387832989573</ele>
</trkpt>
<trkpt lat="42.9890875997823" lon="2.97267455105543">
<ele>85.7812167259528</ele>
</trkpt>
<trkpt lat="42.988862577636" lon="2.97283788368256">
<ele>85.9933135146348</ele>
</trkpt>
<trkpt lat="42.9884367172831" lon="2.97322035509703">
<ele>86.145155902434</ele>
</trkpt>
<trkpt lat="42.9882352630921" lon="2.97344038852106">
<ele>86.0925039671187</ele>
</trkpt>
<trkpt lat="42.9879971423247" lon="2.97374151993118">
<ele>85.7755401184411</ele>
</trkpt>
<trkpt lat="42.9876926187075" lon="2.97420719794135">
<ele>84.8026215003086</ele>
</trkpt>
<trkpt lat="42.9875634876967" lon="2.97444972020141">
<ele>84.1167030785948</ele>
</trkpt>
<trkpt lat="42.9870066753046" lon="2.97556668276722">
<ele>79.7936593287042</ele>
</trkpt>
<trkpt lat="42.9865681578195" lon="2.97645261014865">
<ele>77.4391481956982</ele>
</trkpt>
<trkpt lat="42.9860193781083" lon="2.97756115661193">
<ele>74.7894941021105</ele>
</trkpt>
<trkpt lat="42.9856525142698" lon="2.97829497400498">
<ele>72.1351425304381</ele>
</trkpt>
<trkpt lat="42.985428186824" lon="2.97870053140254">
<ele>70.4233750202913</ele>
</trkpt>
<trkpt lat="42.9851293458631" lon="2.97911804355927">
<ele>69.0465968509209</ele>
</trkpt>
<trkpt lat="42.9849899996064" lon="2.97926571568143">
<ele>68.1822322272568</ele>
</trkpt>
<trkpt lat="42.9846425530515" lon="2.97962584882576">
<ele>65.650217809788</ele>
</trkpt>
<trkpt lat="42.9842698254369" lon="2.97990924401339">
<ele>63.140022614263</ele>
</trkpt>
<trkpt lat="42.9838769015421" lon="2.98014014474837">
<ele>61.1846579771568</ele>
</trkpt>
<trkpt lat="42.9837047407527" lon="2.98020872971457">
<ele>60.1128764250677</ele>
</trkpt>
<trkpt lat="42.9833694488977" lon="2.98033611961061">
<ele>57.7332477299366</ele>
</trkpt>
<trkpt lat="42.9828344935658" lon="2.98041650115484">
<ele>53.7871580152525</ele>
</trkpt>
<trkpt lat="42.9827389274002" lon="2.98042838005492">
<ele>53.3207268359139</ele>
</trkpt>
<trkpt lat="42.9823799591157" lon="2.98041399812103">
<ele>52.6450834417324</ele>
</trkpt>
<trkpt lat="42.9822902407979" lon="2.98040870704577">
<ele>52.2173118263842</ele>
</trkpt>
<trkpt lat="42.982199960515" lon="2.98039332596278">
<ele>51.5060996601599</ele>
</trkpt>
<trkpt lat="42.9820208569739" lon="2.98035916156643">
<ele>49.7240688348435</ele>
</trkpt>
<trkpt lat="42.9818360000325" lon="2.9803039996785">
<ele>48.1725609740293</ele>
</trkpt>
<trkpt lat="42.9815616667428" lon="2.98021949133062">
<ele>46.2810938488556</ele>
</trkpt>
<trkpt lat="42.9811762617488" lon="2.98004411920483">
<ele>43.5298256885745</ele>
</trkpt>
<trkpt lat="42.9806500002169" lon="2.9797549982248">
<ele>38.8254704665884</ele>
</trkpt>
<trkpt lat="42.9801254599472" lon="2.97945986462907">
<ele>35.5713743836009</ele>
</trkpt>
<trkpt lat="42.9794499107116" lon="2.97910995928871">
<ele>31.2894717051183</ele>
</trkpt>
<trkpt lat="42.9790245284981" lon="2.97894977050653">
<ele>29.0349674804144</ele>
</trkpt>
<trkpt lat="42.978792883777" lon="2.97889164864827">
<ele>27.7245619260539</ele>
</trkpt>
<trkpt lat="42.978505737195" lon="2.97884573525049">
<ele>26.4436618067929</ele>
</trkpt>
<trkpt lat="42.9782216470901" lon="2.97882835467395">
<ele>25.4976955900132</ele>
</trkpt>
<trkpt lat="42.9779096027496" lon="2.97884112380368">
<ele>25.0691768553559</ele>
</trkpt>
<trkpt lat="42.9776084229431" lon="2.9788853384941">
<ele>24.9445913490043</ele>
</trkpt>
<trkpt lat="42.9773094325728" lon="2.97896068344634">
<ele>24.7831058772313</ele>
</trkpt>
<trkpt lat="42.9766425006302" lon="2.97917750712102">
<ele>23.7344567891429</ele>
</trkpt>
<trkpt lat="42.9752121434091" lon="2.97964357780146">
<ele>22.1299742702961</ele>
</trkpt>
<trkpt lat="42.9738653986645" lon="2.98006367228458">
<ele>20.0680500749004</ele>
</trkpt>
<trkpt lat="42.9728971458842" lon="2.98035575162737">
<ele>18.7784539755728</ele>
</trkpt>
<trkpt lat="42.9720257179159" lon="2.9806186162178">
<ele>17.3433415264584</ele>
</trkpt>
<trkpt lat="42.97125111496" lon="2.98085226853918">
<ele>16.3551173671735</ele>
</trkpt>
<trkpt lat="42.9695082561497" lon="2.98137796213199">
<ele>14.5724006119965</ele>
</trkpt>
<trkpt lat="42.9685544022816" lon="2.98166565635703">
<ele>14.3297884405397</ele>
</trkpt>
</trkseg>
<type>cycling</type>
</trk>
</gpx>
