<?xml version='1.0' encoding='UTF-8'?>
<gpx version="1.1"
  creator="GPXmagic"
  xmlns="http://www.topografix.com/GPX/1/1"
  xmlns:rgt="http://www.rgtcycling.com/XML/GpxExtensions/v1"
  xmlns:xsi="http://www.w3.org/2001/XMLSchema-instance" xsi:schemaLocation="http://www.topografix.com/GPX/1/1
  http://www.topografix.com/GPX/1/1/gpx.xsd">
  <metadata>
    <name>Smoothed with GPXmagic</name>
    <author>
      <link href="https://www.stepwiserefinement.co.uk">
        <text>GPXmagic v3</text>
        <type>text/html</type>
      </link>
    </author>
  </metadata>
<trk>  <name>Core4&#32;USAC&#32;Gravel&#32;Event</name>
<trkseg>
<trkpt lat="41.70365" lon="-91.37913"><ele>241.51</ele></trkpt>
<trkpt lat="41.70354" lon="-91.37825"><ele>240.32</ele></trkpt>
<trkpt lat="41.70343" lon="-91.37737000000001"><ele>239.28</ele></trkpt>
<trkpt lat="41.70331" lon="-91.37625"><ele>238.24</ele></trkpt>
<trkpt lat="41.7032" lon="-91.37514"><ele>237.3</ele></trkpt>
<trkpt lat="41.70308" lon="-91.37402"><ele>236.14</ele></trkpt>
<trkpt lat="41.70296999999999" lon="-91.3729"><ele>234.99</ele></trkpt>
<trkpt lat="41.70285" lon="-91.37178"><ele>234.14</ele></trkpt>
<trkpt lat="41.70273" lon="-91.37067"><ele>233.45</ele></trkpt>
<trkpt lat="41.702619999999996" lon="-91.36955"><ele>232.62</ele></trkpt>
<trkpt lat="41.70238" lon="-91.36731000000002"><ele>231.16</ele></trkpt>
<trkpt lat="41.70227" lon="-91.36619999999999"><ele>230.93</ele></trkpt>
<trkpt lat="41.70301" lon="-91.36619"><ele>231.5</ele></trkpt>
<trkpt lat="41.70375000000001" lon="-91.36619"><ele>233.21</ele></trkpt>
<trkpt lat="41.70449" lon="-91.36619"><ele>235.66</ele></trkpt>
<trkpt lat="41.70523" lon="-91.36618"><ele>238</ele></trkpt>
<trkpt lat="41.70597" lon="-91.36618"><ele>239.83</ele></trkpt>
<trkpt lat="41.70844" lon="-91.36615999999998"><ele>243.83</ele></trkpt>
<trkpt lat="41.70926" lon="-91.36614999999999"><ele>245.48</ele></trkpt>
<trkpt lat="41.71008" lon="-91.36614999999999"><ele>246.83</ele></trkpt>
<trkpt lat="41.710899999999995" lon="-91.36614000000002"><ele>247.7</ele></trkpt>
<trkpt lat="41.71175" lon="-91.36614000000002"><ele>248.19</ele></trkpt>
<trkpt lat="41.7126" lon="-91.36614000000002"><ele>248.49</ele></trkpt>
<trkpt lat="41.71344" lon="-91.36613"><ele>248.68</ele></trkpt>
<trkpt lat="41.71429" lon="-91.36613"><ele>248.27</ele></trkpt>
<trkpt lat="41.71514" lon="-91.36613"><ele>247.41</ele></trkpt>
<trkpt lat="41.71599" lon="-91.36613"><ele>247.15</ele></trkpt>
<trkpt lat="41.71683" lon="-91.36613"><ele>247.44</ele></trkpt>
<trkpt lat="41.71768000000001" lon="-91.36612"><ele>247.02</ele></trkpt>
<trkpt lat="41.71938" lon="-91.36612"><ele>243.69</ele></trkpt>
<trkpt lat="41.71987" lon="-91.36614999999999"><ele>242.46</ele></trkpt>
<trkpt lat="41.72051" lon="-91.36613"><ele>240.97</ele></trkpt>
<trkpt lat="41.721149999999994" lon="-91.36612"><ele>239.94</ele></trkpt>
<trkpt lat="41.721979999999995" lon="-91.36611"><ele>238.78</ele></trkpt>
<trkpt lat="41.722809999999996" lon="-91.36611"><ele>237.59</ele></trkpt>
<trkpt lat="41.72365" lon="-91.3661"><ele>237.18</ele></trkpt>
<trkpt lat="41.72448" lon="-91.36609000000001"><ele>236.93</ele></trkpt>
<trkpt lat="41.72531" lon="-91.36609000000001"><ele>235.87</ele></trkpt>
<trkpt lat="41.72614" lon="-91.36608"><ele>233.81</ele></trkpt>
<trkpt lat="41.72698" lon="-91.36607"><ele>231.16</ele></trkpt>
<trkpt lat="41.72781" lon="-91.36607"><ele>229.2</ele></trkpt>
<trkpt lat="41.72869" lon="-91.36607"><ele>228.74</ele></trkpt>
<trkpt lat="41.7292" lon="-91.36607"><ele>229.25</ele></trkpt>
<trkpt lat="41.72929" lon="-91.36506"><ele>230.64</ele></trkpt>
<trkpt lat="41.72937999999999" lon="-91.36406"><ele>231.73</ele></trkpt>
<trkpt lat="41.72946" lon="-91.36305"><ele>231.95</ele></trkpt>
<trkpt lat="41.72955" lon="-91.36205"><ele>231.3</ele></trkpt>
<trkpt lat="41.72962" lon="-91.36169"><ele>230.81</ele></trkpt>
<trkpt lat="41.72987" lon="-91.36086000000002"><ele>229.21</ele></trkpt>
<trkpt lat="41.72995" lon="-91.36052"><ele>228.71</ele></trkpt>
<trkpt lat="41.72999" lon="-91.36020999999998"><ele>228.49</ele></trkpt>
<trkpt lat="41.73001" lon="-91.35985"><ele>228.57</ele></trkpt>
<trkpt lat="41.73003" lon="-91.35885999999999"><ele>229.85</ele></trkpt>
<trkpt lat="41.73004000000001" lon="-91.35787"><ele>231.88</ele></trkpt>
<trkpt lat="41.73006" lon="-91.35688"><ele>233.68</ele></trkpt>
<trkpt lat="41.73006" lon="-91.35599"><ele>234.37</ele></trkpt>
<trkpt lat="41.73006" lon="-91.35509999999998"><ele>234.18</ele></trkpt>
<trkpt lat="41.73006" lon="-91.35403"><ele>233.11</ele></trkpt>
<trkpt lat="41.73005" lon="-91.35296"><ele>231.2</ele></trkpt>
<trkpt lat="41.73005" lon="-91.35188"><ele>229.08</ele></trkpt>
<trkpt lat="41.73005" lon="-91.35081000000001"><ele>227.39</ele></trkpt>
<trkpt lat="41.73005" lon="-91.34974"><ele>226</ele></trkpt>
<trkpt lat="41.73005" lon="-91.34867"><ele>224.84</ele></trkpt>
<trkpt lat="41.73005" lon="-91.3476"><ele>223.96</ele></trkpt>
<trkpt lat="41.73005" lon="-91.34652999999999"><ele>223.4</ele></trkpt>
<trkpt lat="41.73005" lon="-91.34536000000001"><ele>222.94</ele></trkpt>
<trkpt lat="41.73005" lon="-91.34419000000001"><ele>222.56</ele></trkpt>
<trkpt lat="41.73005" lon="-91.34302"><ele>222.22</ele></trkpt>
<trkpt lat="41.73004000000001" lon="-91.34185"><ele>221.89</ele></trkpt>
<trkpt lat="41.73004000000001" lon="-91.33951"><ele>221.28</ele></trkpt>
<trkpt lat="41.73004000000001" lon="-91.33834"><ele>220.99</ele></trkpt>
<trkpt lat="41.73004000000001" lon="-91.33717"><ele>220.7</ele></trkpt>
<trkpt lat="41.73004000000001" lon="-91.336"><ele>220.41</ele></trkpt>
<trkpt lat="41.73004000000001" lon="-91.33483"><ele>220.18</ele></trkpt>
<trkpt lat="41.73004000000001" lon="-91.33366"><ele>220.05</ele></trkpt>
<trkpt lat="41.73003" lon="-91.33249"><ele>220.03</ele></trkpt>
<trkpt lat="41.73003" lon="-91.33119"><ele>220.16</ele></trkpt>
<trkpt lat="41.73002" lon="-91.33017"><ele>220.46</ele></trkpt>
<trkpt lat="41.73001" lon="-91.32916"><ele>220.71</ele></trkpt>
<trkpt lat="41.73001" lon="-91.32815"><ele>220.91</ele></trkpt>
<trkpt lat="41.73" lon="-91.32714"><ele>221.47</ele></trkpt>
<trkpt lat="41.72833" lon="-91.32714"><ele>224.19</ele></trkpt>
<trkpt lat="41.7275" lon="-91.32714"><ele>226.16</ele></trkpt>
<trkpt lat="41.72667" lon="-91.32714"><ele>228.74</ele></trkpt>
<trkpt lat="41.72584" lon="-91.32714"><ele>231.66</ele></trkpt>
<trkpt lat="41.72501" lon="-91.32715"><ele>233.76</ele></trkpt>
<trkpt lat="41.72418" lon="-91.32715"><ele>234.37</ele></trkpt>
<trkpt lat="41.72334" lon="-91.32715"><ele>234.78</ele></trkpt>
<trkpt lat="41.72251" lon="-91.32715"><ele>236.61</ele></trkpt>
<trkpt lat="41.72168" lon="-91.32715"><ele>239.95</ele></trkpt>
<trkpt lat="41.72085" lon="-91.32716"><ele>243.61</ele></trkpt>
<trkpt lat="41.72003" lon="-91.32716"><ele>246.4</ele></trkpt>
<trkpt lat="41.71921" lon="-91.32716"><ele>248.09</ele></trkpt>
<trkpt lat="41.71758" lon="-91.32717"><ele>249.67</ele></trkpt>
<trkpt lat="41.71676" lon="-91.32718"><ele>249.84</ele></trkpt>
<trkpt lat="41.71512" lon="-91.32718999999999"><ele>249.4</ele></trkpt>
<trkpt lat="41.71507999999999" lon="-91.32609"><ele>248.86</ele></trkpt>
<trkpt lat="41.71504" lon="-91.32499"><ele>248.01</ele></trkpt>
<trkpt lat="41.715" lon="-91.32389"><ele>246.71</ele></trkpt>
<trkpt lat="41.71496" lon="-91.32279"><ele>244.75</ele></trkpt>
<trkpt lat="41.71491000000001" lon="-91.32169"><ele>242.18</ele></trkpt>
<trkpt lat="41.71487" lon="-91.32059"><ele>239.49</ele></trkpt>
<trkpt lat="41.714830000000006" lon="-91.31951999999998"><ele>237.28</ele></trkpt>
<trkpt lat="41.71479" lon="-91.31845999999999"><ele>235.78</ele></trkpt>
<trkpt lat="41.71471" lon="-91.31632"><ele>234.46</ele></trkpt>
<trkpt lat="41.71467" lon="-91.31526"><ele>234.83</ele></trkpt>
<trkpt lat="41.71463" lon="-91.31418999999998"><ele>236.15</ele></trkpt>
<trkpt lat="41.71455" lon="-91.31206000000002"><ele>239.79</ele></trkpt>
<trkpt lat="41.71451" lon="-91.31105"><ele>239.6</ele></trkpt>
<trkpt lat="41.71445000000001" lon="-91.30905"><ele>235.57</ele></trkpt>
<trkpt lat="41.71445000000001" lon="-91.30883"><ele>235.16</ele></trkpt>
<trkpt lat="41.714499999999994" lon="-91.3085"><ele>234.63</ele></trkpt>
<trkpt lat="41.71455" lon="-91.30833"><ele>234.38</ele></trkpt>
<trkpt lat="41.71466" lon="-91.30806999999999"><ele>234.03</ele></trkpt>
<trkpt lat="41.71466" lon="-91.30796000000001"><ele>233.91</ele></trkpt>
<trkpt lat="41.71463" lon="-91.30779000000001"><ele>233.71</ele></trkpt>
<trkpt lat="41.71443000000001" lon="-91.30751999999998"><ele>233.24</ele></trkpt>
<trkpt lat="41.71356" lon="-91.30753"><ele>231.73</ele></trkpt>
<trkpt lat="41.71268" lon="-91.30754"><ele>231.21</ele></trkpt>
<trkpt lat="41.71096" lon="-91.30756999999998"><ele>234.11</ele></trkpt>
<trkpt lat="41.71018" lon="-91.30758"><ele>237.12</ele></trkpt>
<trkpt lat="41.70939" lon="-91.30758"><ele>240.39</ele></trkpt>
<trkpt lat="41.7086" lon="-91.30759"><ele>242.21</ele></trkpt>
<trkpt lat="41.70779" lon="-91.3076"><ele>242.28</ele></trkpt>
<trkpt lat="41.70698000000001" lon="-91.30761"><ele>241.34</ele></trkpt>
<trkpt lat="41.70617000000001" lon="-91.30762000000001"><ele>240.42</ele></trkpt>
<trkpt lat="41.70455" lon="-91.30764"><ele>239.68</ele></trkpt>
<trkpt lat="41.70374" lon="-91.30765"><ele>240.3</ele></trkpt>
<trkpt lat="41.70293" lon="-91.30765"><ele>241.15</ele></trkpt>
<trkpt lat="41.70212" lon="-91.30766"><ele>241.61</ele></trkpt>
<trkpt lat="41.70061" lon="-91.30766"><ele>241.02</ele></trkpt>
<trkpt lat="41.69985" lon="-91.30766"><ele>240.11</ele></trkpt>
<trkpt lat="41.69985" lon="-91.30679"><ele>238.96</ele></trkpt>
<trkpt lat="41.69984" lon="-91.30593"><ele>237.91</ele></trkpt>
<trkpt lat="41.69984" lon="-91.30506999999999"><ele>237.4</ele></trkpt>
<trkpt lat="41.69984" lon="-91.30404"><ele>237.52</ele></trkpt>
<trkpt lat="41.69985" lon="-91.30300999999999"><ele>238.08</ele></trkpt>
<trkpt lat="41.69986" lon="-91.30198"><ele>238.12</ele></trkpt>
<trkpt lat="41.69986" lon="-91.30095000000001"><ele>236.76</ele></trkpt>
<trkpt lat="41.69985" lon="-91.30017999999998"><ele>235.16</ele></trkpt>
<trkpt lat="41.69985" lon="-91.29941"><ele>233.56</ele></trkpt>
<trkpt lat="41.69983" lon="-91.29822999999999"><ele>231.37</ele></trkpt>
<trkpt lat="41.69982" lon="-91.29705999999999"><ele>228.85</ele></trkpt>
<trkpt lat="41.69981" lon="-91.29588"><ele>225.74</ele></trkpt>
<trkpt lat="41.699799999999996" lon="-91.2947"><ele>223.11</ele></trkpt>
<trkpt lat="41.69979" lon="-91.2943"><ele>222.71</ele></trkpt>
<trkpt lat="41.69979" lon="-91.29332"><ele>223.02</ele></trkpt>
<trkpt lat="41.69979" lon="-91.29138"><ele>225.75</ele></trkpt>
<trkpt lat="41.69979" lon="-91.2904"><ele>227.92</ele></trkpt>
<trkpt lat="41.69979" lon="-91.28943"><ele>230.68</ele></trkpt>
<trkpt lat="41.69977" lon="-91.28882"><ele>232.68</ele></trkpt>
<trkpt lat="41.699749999999995" lon="-91.28821000000002"><ele>234.77</ele></trkpt>
<trkpt lat="41.69892" lon="-91.28822"><ele>238.05</ele></trkpt>
<trkpt lat="41.69809" lon="-91.28822999999998"><ele>239.19</ele></trkpt>
<trkpt lat="41.69726" lon="-91.28824"><ele>237.34</ele></trkpt>
<trkpt lat="41.69642" lon="-91.28825"><ele>233.36</ele></trkpt>
<trkpt lat="41.69559" lon="-91.28827"><ele>229.08</ele></trkpt>
<trkpt lat="41.69476" lon="-91.28827999999999"><ele>225.92</ele></trkpt>
<trkpt lat="41.69393" lon="-91.28829"><ele>224.56</ele></trkpt>
<trkpt lat="41.6931" lon="-91.2883"><ele>225.22</ele></trkpt>
<trkpt lat="41.69226999999999" lon="-91.28831"><ele>227.89</ele></trkpt>
<trkpt lat="41.69143" lon="-91.28832"><ele>231.89</ele></trkpt>
<trkpt lat="41.690709999999996" lon="-91.28833000000002"><ele>234.99</ele></trkpt>
<trkpt lat="41.68999" lon="-91.28834"><ele>236.74</ele></trkpt>
<trkpt lat="41.68926" lon="-91.28834999999998"><ele>237.09</ele></trkpt>
<trkpt lat="41.68854" lon="-91.28836"><ele>236.74</ele></trkpt>
<trkpt lat="41.68782" lon="-91.28837"><ele>236.14</ele></trkpt>
<trkpt lat="41.68695" lon="-91.28837"><ele>234.57</ele></trkpt>
<trkpt lat="41.68607" lon="-91.28838000000002"><ele>231.69</ele></trkpt>
<trkpt lat="41.68520000000001" lon="-91.28838000000002"><ele>228.7</ele></trkpt>
<trkpt lat="41.68520000000001" lon="-91.28727000000002"><ele>227.18</ele></trkpt>
<trkpt lat="41.68520000000001" lon="-91.28616"><ele>227.93</ele></trkpt>
<trkpt lat="41.68520000000001" lon="-91.28504"><ele>230.72</ele></trkpt>
<trkpt lat="41.68520000000001" lon="-91.28393"><ele>233.71</ele></trkpt>
<trkpt lat="41.68520000000001" lon="-91.28171000000002"><ele>235.76</ele></trkpt>
<trkpt lat="41.68519" lon="-91.28054"><ele>235.41</ele></trkpt>
<trkpt lat="41.68518" lon="-91.27936"><ele>235.45</ele></trkpt>
<trkpt lat="41.68517" lon="-91.27819"><ele>236.4</ele></trkpt>
<trkpt lat="41.68517" lon="-91.27701"><ele>238.54</ele></trkpt>
<trkpt lat="41.68516" lon="-91.27584"><ele>240.98</ele></trkpt>
<trkpt lat="41.68515000000001" lon="-91.27466000000001"><ele>242.21</ele></trkpt>
<trkpt lat="41.68514" lon="-91.27348"><ele>241.65</ele></trkpt>
<trkpt lat="41.68514" lon="-91.27231"><ele>240.62</ele></trkpt>
<trkpt lat="41.68513" lon="-91.27113"><ele>240.36</ele></trkpt>
<trkpt lat="41.685120000000005" lon="-91.26996"><ele>240.65</ele></trkpt>
<trkpt lat="41.685120000000005" lon="-91.26878"><ele>241.09</ele></trkpt>
<trkpt lat="41.68511" lon="-91.26765000000002"><ele>241.91</ele></trkpt>
<trkpt lat="41.68511" lon="-91.26652"><ele>242.84</ele></trkpt>
<trkpt lat="41.6851" lon="-91.26538999999998"><ele>243.8</ele></trkpt>
<trkpt lat="41.6851" lon="-91.26425"><ele>244.45</ele></trkpt>
<trkpt lat="41.68509" lon="-91.26312"><ele>244.79</ele></trkpt>
<trkpt lat="41.68509" lon="-91.26199000000001"><ele>245.34</ele></trkpt>
<trkpt lat="41.68509" lon="-91.26085"><ele>245.84</ele></trkpt>
<trkpt lat="41.68508" lon="-91.25971000000001"><ele>246.01</ele></trkpt>
<trkpt lat="41.68508" lon="-91.25858"><ele>245.85</ele></trkpt>
<trkpt lat="41.68507" lon="-91.25744"><ele>245.56</ele></trkpt>
<trkpt lat="41.68507" lon="-91.25631"><ele>245.35</ele></trkpt>
<trkpt lat="41.68507" lon="-91.25517"><ele>245.2</ele></trkpt>
<trkpt lat="41.68506" lon="-91.25403"><ele>244.96</ele></trkpt>
<trkpt lat="41.68506" lon="-91.25175999999999"><ele>244.05</ele></trkpt>
<trkpt lat="41.68505" lon="-91.25077"><ele>243.53</ele></trkpt>
<trkpt lat="41.68504" lon="-91.24978"><ele>243.02</ele></trkpt>
<trkpt lat="41.68503" lon="-91.24879"><ele>242.55</ele></trkpt>
<trkpt lat="41.685019999999994" lon="-91.2478"><ele>242.08</ele></trkpt>
<trkpt lat="41.685019999999994" lon="-91.24670000000002"><ele>241.27</ele></trkpt>
<trkpt lat="41.68501" lon="-91.24558999999999"><ele>239.92</ele></trkpt>
<trkpt lat="41.68501" lon="-91.24448999999998"><ele>238.27</ele></trkpt>
<trkpt lat="41.685" lon="-91.24338"><ele>236.82</ele></trkpt>
<trkpt lat="41.685" lon="-91.24228"><ele>235.81</ele></trkpt>
<trkpt lat="41.68499" lon="-91.24115"><ele>235.19</ele></trkpt>
<trkpt lat="41.68499" lon="-91.24002"><ele>234.8</ele></trkpt>
<trkpt lat="41.68499" lon="-91.2389"><ele>234.53</ele></trkpt>
<trkpt lat="41.68498" lon="-91.23777"><ele>234.98</ele></trkpt>
<trkpt lat="41.68498" lon="-91.23664"><ele>236.5</ele></trkpt>
<trkpt lat="41.68498" lon="-91.23552"><ele>238.37</ele></trkpt>
<trkpt lat="41.68498" lon="-91.23439"><ele>239.25</ele></trkpt>
<trkpt lat="41.68496999999999" lon="-91.23325999999999"><ele>238.82</ele></trkpt>
<trkpt lat="41.68496999999999" lon="-91.23214000000002"><ele>237.98</ele></trkpt>
<trkpt lat="41.68496999999999" lon="-91.23101"><ele>237.8</ele></trkpt>
<trkpt lat="41.68496999999999" lon="-91.22989"><ele>238.69</ele></trkpt>
<trkpt lat="41.68496" lon="-91.22875999999998"><ele>240.23</ele></trkpt>
<trkpt lat="41.68496" lon="-91.22763000000002"><ele>241.41</ele></trkpt>
<trkpt lat="41.68496" lon="-91.22651"><ele>241.48</ele></trkpt>
<trkpt lat="41.68496" lon="-91.22532"><ele>240.84</ele></trkpt>
<trkpt lat="41.68495" lon="-91.22413000000002"><ele>240.49</ele></trkpt>
<trkpt lat="41.68495" lon="-91.22294"><ele>240.76</ele></trkpt>
<trkpt lat="41.68495" lon="-91.22176"><ele>241.06</ele></trkpt>
<trkpt lat="41.68493999999999" lon="-91.22057"><ele>240.69</ele></trkpt>
<trkpt lat="41.68499" lon="-91.22035"><ele>240.57</ele></trkpt>
<trkpt lat="41.68504" lon="-91.22027"><ele>240.52</ele></trkpt>
<trkpt lat="41.68518" lon="-91.22013"><ele>240.41</ele></trkpt>
<trkpt lat="41.68528" lon="-91.22008000000001"><ele>240.37</ele></trkpt>
<trkpt lat="41.68614" lon="-91.22008999999998"><ele>240.45</ele></trkpt>
<trkpt lat="41.687009999999994" lon="-91.2201"><ele>241.39</ele></trkpt>
<trkpt lat="41.68787" lon="-91.22011"><ele>241.8</ele></trkpt>
<trkpt lat="41.68873" lon="-91.22012"><ele>241.05</ele></trkpt>
<trkpt lat="41.6896" lon="-91.22013"><ele>240.34</ele></trkpt>
<trkpt lat="41.69133" lon="-91.22013999999999"><ele>241.11</ele></trkpt>
<trkpt lat="41.69218999999999" lon="-91.22015"><ele>241.04</ele></trkpt>
<trkpt lat="41.69306" lon="-91.22016"><ele>240.07</ele></trkpt>
<trkpt lat="41.69392" lon="-91.22017"><ele>238.31</ele></trkpt>
<trkpt lat="41.69565" lon="-91.22018"><ele>234.82</ele></trkpt>
<trkpt lat="41.69652" lon="-91.22019000000002"><ele>234.17</ele></trkpt>
<trkpt lat="41.69738" lon="-91.2202"><ele>235.7</ele></trkpt>
<trkpt lat="41.69749000000001" lon="-91.22019000000002"><ele>235.97</ele></trkpt>
<trkpt lat="41.69767999999999" lon="-91.22011"><ele>236.5</ele></trkpt>
<trkpt lat="41.69774" lon="-91.22008000000001"><ele>236.68</ele></trkpt>
<trkpt lat="41.69818" lon="-91.21963999999998"><ele>238.13</ele></trkpt>
<trkpt lat="41.6984" lon="-91.21952000000002"><ele>238.56</ele></trkpt>
<trkpt lat="41.69866" lon="-91.21949"><ele>238.82</ele></trkpt>
<trkpt lat="41.69945" lon="-91.21948"><ele>239.02</ele></trkpt>
<trkpt lat="41.70024" lon="-91.21948"><ele>239.44</ele></trkpt>
<trkpt lat="41.70103" lon="-91.21948"><ele>240.57</ele></trkpt>
<trkpt lat="41.70182" lon="-91.21946999999999"><ele>242.03</ele></trkpt>
<trkpt lat="41.70261" lon="-91.21946999999999"><ele>242.91</ele></trkpt>
<trkpt lat="41.70336" lon="-91.21945"><ele>243.08</ele></trkpt>
<trkpt lat="41.70411" lon="-91.21944"><ele>243.38</ele></trkpt>
<trkpt lat="41.70487" lon="-91.21941999999999"><ele>243.97</ele></trkpt>
<trkpt lat="41.70563" lon="-91.21938"><ele>244.43</ele></trkpt>
<trkpt lat="41.70638999999999" lon="-91.21935000000002"><ele>244.93</ele></trkpt>
<trkpt lat="41.70716" lon="-91.21932"><ele>245.57</ele></trkpt>
<trkpt lat="41.70728" lon="-91.21934"><ele>245.63</ele></trkpt>
<trkpt lat="41.707330000000006" lon="-91.21937"><ele>245.64</ele></trkpt>
<trkpt lat="41.70736" lon="-91.21943"><ele>245.64</ele></trkpt>
<trkpt lat="41.70738000000001" lon="-91.21949"><ele>245.64</ele></trkpt>
<trkpt lat="41.70741000000001" lon="-91.21974999999999"><ele>245.54</ele></trkpt>
<trkpt lat="41.70743000000001" lon="-91.22212"><ele>243.5</ele></trkpt>
<trkpt lat="41.70744" lon="-91.22330999999998"><ele>242.48</ele></trkpt>
<trkpt lat="41.70746" lon="-91.22568"><ele>240.3</ele></trkpt>
<trkpt lat="41.7075" lon="-91.22615"><ele>239.56</ele></trkpt>
<trkpt lat="41.70758" lon="-91.22645"><ele>238.81</ele></trkpt>
<trkpt lat="41.708079999999995" lon="-91.22803999999998"><ele>233.29</ele></trkpt>
<trkpt lat="41.70832999999999" lon="-91.22883"><ele>230.12</ele></trkpt>
<trkpt lat="41.70851" lon="-91.22924"><ele>228.17</ele></trkpt>
<trkpt lat="41.70893" lon="-91.22995"><ele>224.05</ele></trkpt>
<trkpt lat="41.709" lon="-91.23011"><ele>223.11</ele></trkpt>
<trkpt lat="41.7092" lon="-91.23068"><ele>219.63</ele></trkpt>
<trkpt lat="41.70941" lon="-91.23125000000002"><ele>216.18</ele></trkpt>
<trkpt lat="41.709669999999996" lon="-91.23214000000002"><ele>212.4</ele></trkpt>
<trkpt lat="41.7097" lon="-91.23225999999998"><ele>212.21</ele></trkpt>
<trkpt lat="41.70992" lon="-91.23304"><ele>213.18</ele></trkpt>
<trkpt lat="41.71013" lon="-91.23381999999998"><ele>216.71</ele></trkpt>
<trkpt lat="41.71022" lon="-91.23404000000001"><ele>218.08</ele></trkpt>
<trkpt lat="41.71038" lon="-91.23434"><ele>220.33</ele></trkpt>
<trkpt lat="41.71051" lon="-91.2345"><ele>221.8</ele></trkpt>
<trkpt lat="41.71065" lon="-91.23461"><ele>223.12</ele></trkpt>
<trkpt lat="41.71094" lon="-91.23473"><ele>225.5</ele></trkpt>
<trkpt lat="41.71151" lon="-91.23486999999999"><ele>229.8</ele></trkpt>
<trkpt lat="41.71165" lon="-91.23491999999999"><ele>230.83</ele></trkpt>
<trkpt lat="41.71195" lon="-91.23515"><ele>233.16</ele></trkpt>
<trkpt lat="41.71204" lon="-91.23527"><ele>233.92</ele></trkpt>
<trkpt lat="41.71214" lon="-91.23544"><ele>234.78</ele></trkpt>
<trkpt lat="41.71227" lon="-91.23577"><ele>235.93</ele></trkpt>
<trkpt lat="41.71231" lon="-91.23596"><ele>236.36</ele></trkpt>
<trkpt lat="41.71238" lon="-91.23651"><ele>237.02</ele></trkpt>
<trkpt lat="41.7124" lon="-91.23744"><ele>237.28</ele></trkpt>
<trkpt lat="41.7124" lon="-91.2386"><ele>237.52</ele></trkpt>
<trkpt lat="41.71239" lon="-91.23975000000002"><ele>238.25</ele></trkpt>
<trkpt lat="41.71238" lon="-91.24091"><ele>238.9</ele></trkpt>
<trkpt lat="41.71238" lon="-91.24206"><ele>238.81</ele></trkpt>
<trkpt lat="41.712360000000004" lon="-91.24252"><ele>238.62</ele></trkpt>
<trkpt lat="41.712360000000004" lon="-91.24296"><ele>238.41</ele></trkpt>
<trkpt lat="41.7124" lon="-91.24337000000001"><ele>238.24</ele></trkpt>
<trkpt lat="41.71248" lon="-91.24363"><ele>238.15</ele></trkpt>
<trkpt lat="41.71297" lon="-91.24461"><ele>237.86</ele></trkpt>
<trkpt lat="41.71308" lon="-91.24485"><ele>237.68</ele></trkpt>
<trkpt lat="41.71327000000001" lon="-91.24545"><ele>236.91</ele></trkpt>
<trkpt lat="41.71346" lon="-91.24604000000001"><ele>235.63</ele></trkpt>
<trkpt lat="41.71361" lon="-91.24647999999999"><ele>234.26</ele></trkpt>
<trkpt lat="41.71381" lon="-91.24693"><ele>232.31</ele></trkpt>
<trkpt lat="41.7139" lon="-91.24724"><ele>230.82</ele></trkpt>
<trkpt lat="41.71391" lon="-91.24738"><ele>230.12</ele></trkpt>
<trkpt lat="41.7139" lon="-91.24765999999998"><ele>228.63</ele></trkpt>
<trkpt lat="41.71387" lon="-91.24787999999998"><ele>227.37</ele></trkpt>
<trkpt lat="41.71384" lon="-91.24803999999999"><ele>226.44</ele></trkpt>
<trkpt lat="41.71379" lon="-91.24818"><ele>225.56</ele></trkpt>
<trkpt lat="41.71361" lon="-91.24845"><ele>223.61</ele></trkpt>
<trkpt lat="41.7135" lon="-91.24856"><ele>222.7</ele></trkpt>
<trkpt lat="41.71312" lon="-91.24884"><ele>220.17</ele></trkpt>
<trkpt lat="41.71303" lon="-91.24898000000002"><ele>219.49</ele></trkpt>
<trkpt lat="41.71299" lon="-91.24909999999998"><ele>219.05</ele></trkpt>
<trkpt lat="41.71293" lon="-91.24939"><ele>218.19</ele></trkpt>
<trkpt lat="41.71346" lon="-91.24938"><ele>216.54</ele></trkpt>
<trkpt lat="41.714000000000006" lon="-91.24938"><ele>215.19</ele></trkpt>
<trkpt lat="41.71399" lon="-91.2498"><ele>214.77</ele></trkpt>
<trkpt lat="41.714020000000005" lon="-91.2508"><ele>214.92</ele></trkpt>
<trkpt lat="41.71404" lon="-91.25181000000002"><ele>216.47</ele></trkpt>
<trkpt lat="41.71407" lon="-91.25281"><ele>218.27</ele></trkpt>
<trkpt lat="41.714099999999995" lon="-91.25381000000002"><ele>218.86</ele></trkpt>
<trkpt lat="41.71411" lon="-91.25465000000001"><ele>218.14</ele></trkpt>
<trkpt lat="41.71412" lon="-91.25548000000002"><ele>217.58</ele></trkpt>
<trkpt lat="41.71414" lon="-91.25631999999999"><ele>218.75</ele></trkpt>
<trkpt lat="41.71417" lon="-91.25746"><ele>223.15</ele></trkpt>
<trkpt lat="41.7142" lon="-91.25859999999999"><ele>228.74</ele></trkpt>
<trkpt lat="41.71423" lon="-91.25974"><ele>234.5</ele></trkpt>
<trkpt lat="41.71424" lon="-91.26032999999998"><ele>237.23</ele></trkpt>
<trkpt lat="41.71423" lon="-91.26048"><ele>237.83</ele></trkpt>
<trkpt lat="41.71417" lon="-91.26073"><ele>238.72</ele></trkpt>
<trkpt lat="41.71393" lon="-91.26132999999999"><ele>240.31</ele></trkpt>
<trkpt lat="41.71361" lon="-91.26245"><ele>241.63</ele></trkpt>
<trkpt lat="41.71329" lon="-91.26358"><ele>241.99</ele></trkpt>
<trkpt lat="41.71297" lon="-91.2647"><ele>242.17</ele></trkpt>
<trkpt lat="41.71288" lon="-91.26507"><ele>242.25</ele></trkpt>
<trkpt lat="41.71278" lon="-91.26557"><ele>242.4</ele></trkpt>
<trkpt lat="41.71258" lon="-91.26685"><ele>242.81</ele></trkpt>
<trkpt lat="41.71252" lon="-91.26713"><ele>242.86</ele></trkpt>
<trkpt lat="41.71245" lon="-91.26734"><ele>242.87</ele></trkpt>
<trkpt lat="41.71234" lon="-91.26758"><ele>242.82</ele></trkpt>
<trkpt lat="41.71201000000001" lon="-91.26818"><ele>242.53</ele></trkpt>
<trkpt lat="41.71189" lon="-91.26835"><ele>242.43</ele></trkpt>
<trkpt lat="41.711679999999994" lon="-91.26876999999999"><ele>242.19</ele></trkpt>
<trkpt lat="41.71091" lon="-91.27013"><ele>241.64</ele></trkpt>
<trkpt lat="41.71081" lon="-91.27035"><ele>241.63</ele></trkpt>
<trkpt lat="41.710750000000004" lon="-91.27057"><ele>241.67</ele></trkpt>
<trkpt lat="41.7107" lon="-91.27082000000001"><ele>241.76</ele></trkpt>
<trkpt lat="41.71069" lon="-91.27110000000002"><ele>241.87</ele></trkpt>
<trkpt lat="41.71069" lon="-91.27221000000002"><ele>242.25</ele></trkpt>
<trkpt lat="41.71069" lon="-91.27332"><ele>242.05</ele></trkpt>
<trkpt lat="41.71069" lon="-91.27444000000001"><ele>241.27</ele></trkpt>
<trkpt lat="41.71069" lon="-91.27555000000001"><ele>240.42</ele></trkpt>
<trkpt lat="41.71068000000001" lon="-91.27665999999999"><ele>240.1</ele></trkpt>
<trkpt lat="41.71068000000001" lon="-91.27778"><ele>240.41</ele></trkpt>
<trkpt lat="41.71068000000001" lon="-91.27888999999999"><ele>240.62</ele></trkpt>
<trkpt lat="41.71067" lon="-91.28001"><ele>240.27</ele></trkpt>
<trkpt lat="41.71067" lon="-91.28112"><ele>239.28</ele></trkpt>
<trkpt lat="41.71067" lon="-91.28224"><ele>237.17</ele></trkpt>
<trkpt lat="41.71066" lon="-91.28335"><ele>234.57</ele></trkpt>
<trkpt lat="41.71066" lon="-91.28447"><ele>232.7</ele></trkpt>
<trkpt lat="41.71066" lon="-91.28558"><ele>232.27</ele></trkpt>
<trkpt lat="41.71065" lon="-91.2867"><ele>233.1</ele></trkpt>
<trkpt lat="41.71065" lon="-91.28781"><ele>233.99</ele></trkpt>
<trkpt lat="41.71061" lon="-91.28817999999998"><ele>233.82</ele></trkpt>
<trkpt lat="41.71136" lon="-91.28817000000001"><ele>232.17</ele></trkpt>
<trkpt lat="41.71212" lon="-91.28816000000002"><ele>230.74</ele></trkpt>
<trkpt lat="41.71287000000001" lon="-91.28816000000002"><ele>230.73</ele></trkpt>
<trkpt lat="41.71363" lon="-91.28815"><ele>232.32</ele></trkpt>
<trkpt lat="41.71451" lon="-91.28814"><ele>235.36</ele></trkpt>
<trkpt lat="41.71538" lon="-91.28813"><ele>238.06</ele></trkpt>
<trkpt lat="41.71625999999999" lon="-91.28813"><ele>239.06</ele></trkpt>
<trkpt lat="41.71714" lon="-91.28812"><ele>238.71</ele></trkpt>
<trkpt lat="41.71802" lon="-91.28810999999999"><ele>238.86</ele></trkpt>
<trkpt lat="41.71977" lon="-91.2881"><ele>241.11</ele></trkpt>
<trkpt lat="41.72151999999999" lon="-91.28808"><ele>239.79</ele></trkpt>
<trkpt lat="41.72153" lon="-91.28918"><ele>239.61</ele></trkpt>
<trkpt lat="41.72153" lon="-91.29027000000002"><ele>240.13</ele></trkpt>
<trkpt lat="41.72153" lon="-91.29137"><ele>240.47</ele></trkpt>
<trkpt lat="41.72154" lon="-91.29246"><ele>239.82</ele></trkpt>
<trkpt lat="41.721579999999996" lon="-91.2927"><ele>239.64</ele></trkpt>
<trkpt lat="41.72182" lon="-91.29313"><ele>239.32</ele></trkpt>
<trkpt lat="41.72186" lon="-91.29328999999998"><ele>239.28</ele></trkpt>
<trkpt lat="41.72189" lon="-91.29349000000002"><ele>239.3</ele></trkpt>
<trkpt lat="41.72189999999999" lon="-91.29464"><ele>239.83</ele></trkpt>
<trkpt lat="41.72192" lon="-91.29578"><ele>239.64</ele></trkpt>
<trkpt lat="41.72194" lon="-91.29693"><ele>239.08</ele></trkpt>
<trkpt lat="41.72194999999999" lon="-91.29806999999998"><ele>239.12</ele></trkpt>
<trkpt lat="41.72197" lon="-91.29922000000002"><ele>240.34</ele></trkpt>
<trkpt lat="41.72199" lon="-91.30103"><ele>243.57</ele></trkpt>
<trkpt lat="41.722" lon="-91.30193"><ele>244.4</ele></trkpt>
<trkpt lat="41.72201" lon="-91.30293"><ele>244.12</ele></trkpt>
<trkpt lat="41.722" lon="-91.30406999999998"><ele>242.46</ele></trkpt>
<trkpt lat="41.72199" lon="-91.30521"><ele>239.86</ele></trkpt>
<trkpt lat="41.72197" lon="-91.30633999999999"><ele>237.43</ele></trkpt>
<trkpt lat="41.72196" lon="-91.30748"><ele>236.21</ele></trkpt>
<trkpt lat="41.72284" lon="-91.30747"><ele>236.48</ele></trkpt>
<trkpt lat="41.72371" lon="-91.30747"><ele>237.32</ele></trkpt>
<trkpt lat="41.72459" lon="-91.30746"><ele>237.24</ele></trkpt>
<trkpt lat="41.72546" lon="-91.30745000000002"><ele>235.47</ele></trkpt>
<trkpt lat="41.72634" lon="-91.30745000000002"><ele>232.66</ele></trkpt>
<trkpt lat="41.72721" lon="-91.30744"><ele>230.1</ele></trkpt>
<trkpt lat="41.72896" lon="-91.30742"><ele>226.65</ele></trkpt>
<trkpt lat="41.72976" lon="-91.30742"><ele>225.49</ele></trkpt>
<trkpt lat="41.73055" lon="-91.30742"><ele>224.44</ele></trkpt>
<trkpt lat="41.73135" lon="-91.30742"><ele>223.04</ele></trkpt>
<trkpt lat="41.732150000000004" lon="-91.30742"><ele>221.75</ele></trkpt>
<trkpt lat="41.73294" lon="-91.30742"><ele>221.22</ele></trkpt>
<trkpt lat="41.73374" lon="-91.30742"><ele>221.43</ele></trkpt>
<trkpt lat="41.73454" lon="-91.30741"><ele>221.69</ele></trkpt>
<trkpt lat="41.73539" lon="-91.30741"><ele>221.01</ele></trkpt>
<trkpt lat="41.73625" lon="-91.30739999999999"><ele>218.99</ele></trkpt>
<trkpt lat="41.7371" lon="-91.30739"><ele>216.57</ele></trkpt>
<trkpt lat="41.73738" lon="-91.30743"><ele>216.04</ele></trkpt>
<trkpt lat="41.73754000000001" lon="-91.30747"><ele>215.89</ele></trkpt>
<trkpt lat="41.73778" lon="-91.30758"><ele>215.91</ele></trkpt>
<trkpt lat="41.73810999999999" lon="-91.30781"><ele>216.39</ele></trkpt>
<trkpt lat="41.73831" lon="-91.30800000000002"><ele>216.99</ele></trkpt>
<trkpt lat="41.73874" lon="-91.3085"><ele>218.93</ele></trkpt>
<trkpt lat="41.73901" lon="-91.30873999999999"><ele>220.25</ele></trkpt>
<trkpt lat="41.73916" lon="-91.30882"><ele>220.96</ele></trkpt>
<trkpt lat="41.739399999999996" lon="-91.30890999999998"><ele>222.1</ele></trkpt>
<trkpt lat="41.7396" lon="-91.30895"><ele>223</ele></trkpt>
<trkpt lat="41.7398" lon="-91.30894"><ele>223.85</ele></trkpt>
<trkpt lat="41.74003" lon="-91.30890000000001"><ele>224.73</ele></trkpt>
<trkpt lat="41.74039" lon="-91.30875"><ele>225.95</ele></trkpt>
<trkpt lat="41.74062" lon="-91.3086"><ele>226.58</ele></trkpt>
<trkpt lat="41.74112" lon="-91.30825"><ele>227.59</ele></trkpt>
<trkpt lat="41.74161" lon="-91.30789"><ele>228.38</ele></trkpt>
<trkpt lat="41.74183" lon="-91.30776"><ele>228.79</ele></trkpt>
<trkpt lat="41.74234" lon="-91.30754"><ele>230.06</ele></trkpt>
<trkpt lat="41.74263" lon="-91.30746"><ele>231.15</ele></trkpt>
<trkpt lat="41.74296" lon="-91.30741"><ele>232.76</ele></trkpt>
<trkpt lat="41.74337" lon="-91.30738"><ele>235</ele></trkpt>
<trkpt lat="41.74414" lon="-91.30738"><ele>238.59</ele></trkpt>
<trkpt lat="41.744910000000004" lon="-91.30737"><ele>239.4</ele></trkpt>
<trkpt lat="41.745670000000004" lon="-91.30737"><ele>237.16</ele></trkpt>
<trkpt lat="41.74644" lon="-91.30736"><ele>233.7</ele></trkpt>
<trkpt lat="41.74721" lon="-91.30736"><ele>231.48</ele></trkpt>
<trkpt lat="41.74804" lon="-91.30736"><ele>232.13</ele></trkpt>
<trkpt lat="41.74971" lon="-91.30736"><ele>239.63</ele></trkpt>
<trkpt lat="41.75054" lon="-91.30734999999999"><ele>242.57</ele></trkpt>
<trkpt lat="41.75137" lon="-91.30734999999999"><ele>243.84</ele></trkpt>
<trkpt lat="41.7522" lon="-91.30734999999999"><ele>243.96</ele></trkpt>
<trkpt lat="41.75304" lon="-91.30734999999999"><ele>243.75</ele></trkpt>
<trkpt lat="41.75387" lon="-91.30734999999999"><ele>243.03</ele></trkpt>
<trkpt lat="41.7547" lon="-91.30734999999999"><ele>240.98</ele></trkpt>
<trkpt lat="41.75553" lon="-91.30734999999999"><ele>237.39</ele></trkpt>
<trkpt lat="41.756370000000004" lon="-91.30734999999999"><ele>233.43</ele></trkpt>
<trkpt lat="41.757200000000005" lon="-91.30734999999999"><ele>230.64</ele></trkpt>
<trkpt lat="41.758030000000005" lon="-91.30734999999999"><ele>228.22</ele></trkpt>
<trkpt lat="41.75979" lon="-91.30733"><ele>220.05</ele></trkpt>
<trkpt lat="41.76066999999999" lon="-91.30732"><ele>217.7</ele></trkpt>
<trkpt lat="41.76244" lon="-91.3073"><ele>218.51</ele></trkpt>
<trkpt lat="41.76286" lon="-91.30732"><ele>219.35</ele></trkpt>
<trkpt lat="41.763189999999994" lon="-91.30738"><ele>220.44</ele></trkpt>
<trkpt lat="41.76352000000001" lon="-91.30751999999998"><ele>221.96</ele></trkpt>
<trkpt lat="41.76391" lon="-91.30775"><ele>224.25</ele></trkpt>
<trkpt lat="41.76409" lon="-91.30788"><ele>225.45</ele></trkpt>
<trkpt lat="41.76453" lon="-91.30826"><ele>228.66</ele></trkpt>
<trkpt lat="41.765100000000004" lon="-91.30878"><ele>232.73</ele></trkpt>
<trkpt lat="41.76532" lon="-91.30895999999998"><ele>234.2</ele></trkpt>
<trkpt lat="41.76555" lon="-91.30911"><ele>235.64</ele></trkpt>
<trkpt lat="41.76577" lon="-91.30924"><ele>236.99</ele></trkpt>
<trkpt lat="41.76599000000001" lon="-91.30932"><ele>238.27</ele></trkpt>
<trkpt lat="41.76633" lon="-91.30938"><ele>240.1</ele></trkpt>
<trkpt lat="41.76709" lon="-91.30939"><ele>243.74</ele></trkpt>
<trkpt lat="41.76738" lon="-91.30942"><ele>244.89</ele></trkpt>
<trkpt lat="41.76754" lon="-91.30945999999999"><ele>245.45</ele></trkpt>
<trkpt lat="41.767950000000006" lon="-91.30961000000002"><ele>246.76</ele></trkpt>
<trkpt lat="41.76834" lon="-91.30986"><ele>248.01</ele></trkpt>
<trkpt lat="41.76852" lon="-91.31000999999999"><ele>248.56</ele></trkpt>
<trkpt lat="41.76865" lon="-91.31015"><ele>248.9</ele></trkpt>
<trkpt lat="41.76875" lon="-91.31029000000001"><ele>249.11</ele></trkpt>
<trkpt lat="41.76892" lon="-91.31071"><ele>249.24</ele></trkpt>
<trkpt lat="41.76897999999999" lon="-91.31095000000002"><ele>249.03</ele></trkpt>
<trkpt lat="41.76901" lon="-91.31126"><ele>248.43</ele></trkpt>
<trkpt lat="41.769029999999994" lon="-91.31245"><ele>244.91</ele></trkpt>
<trkpt lat="41.76905" lon="-91.31364"><ele>241.37</ele></trkpt>
<trkpt lat="41.769059999999996" lon="-91.31468000000001"><ele>238.68</ele></trkpt>
<trkpt lat="41.76907" lon="-91.31572"><ele>236.73</ele></trkpt>
<trkpt lat="41.76908" lon="-91.31676"><ele>234.93</ele></trkpt>
<trkpt lat="41.76909" lon="-91.3178"><ele>232.45</ele></trkpt>
<trkpt lat="41.7691" lon="-91.31884"><ele>229.57</ele></trkpt>
<trkpt lat="41.76911" lon="-91.31988"><ele>227.19</ele></trkpt>
<trkpt lat="41.76912" lon="-91.32094"><ele>225.74</ele></trkpt>
<trkpt lat="41.76914" lon="-91.32305"><ele>224.11</ele></trkpt>
<trkpt lat="41.76914" lon="-91.32396000000001"><ele>222.92</ele></trkpt>
<trkpt lat="41.76914" lon="-91.32578"><ele>219.87</ele></trkpt>
<trkpt lat="41.76916000000001" lon="-91.32677"><ele>218.89</ele></trkpt>
<trkpt lat="41.76917" lon="-91.32771"><ele>218.54</ele></trkpt>
<trkpt lat="41.76918" lon="-91.32865"><ele>218.2</ele></trkpt>
<trkpt lat="41.76919" lon="-91.32959"><ele>217.32</ele></trkpt>
<trkpt lat="41.76919" lon="-91.33052999999998"><ele>216</ele></trkpt>
<trkpt lat="41.76919" lon="-91.33106"><ele>215.28</ele></trkpt>
<trkpt lat="41.76914" lon="-91.33167"><ele>214.64</ele></trkpt>
<trkpt lat="41.769130000000004" lon="-91.33208999999998"><ele>214.41</ele></trkpt>
<trkpt lat="41.769130000000004" lon="-91.33324000000002"><ele>214.32</ele></trkpt>
<trkpt lat="41.769130000000004" lon="-91.33439"><ele>214.37</ele></trkpt>
<trkpt lat="41.769130000000004" lon="-91.33554"><ele>214.54</ele></trkpt>
<trkpt lat="41.769130000000004" lon="-91.33668999999999"><ele>214.89</ele></trkpt>
<trkpt lat="41.769130000000004" lon="-91.33781"><ele>215.39</ele></trkpt>
<trkpt lat="41.76914" lon="-91.33894"><ele>216.03</ele></trkpt>
<trkpt lat="41.76914" lon="-91.34006"><ele>216.81</ele></trkpt>
<trkpt lat="41.76915" lon="-91.34119000000001"><ele>217.74</ele></trkpt>
<trkpt lat="41.76916000000001" lon="-91.34230999999998"><ele>218.83</ele></trkpt>
<trkpt lat="41.76916000000001" lon="-91.34344"><ele>220.03</ele></trkpt>
<trkpt lat="41.76917" lon="-91.3445"><ele>221.26</ele></trkpt>
<trkpt lat="41.76917" lon="-91.34557"><ele>222.83</ele></trkpt>
<trkpt lat="41.76917" lon="-91.34672"><ele>225.48</ele></trkpt>
<trkpt lat="41.76916000000001" lon="-91.34787"><ele>229.42</ele></trkpt>
<trkpt lat="41.76916000000001" lon="-91.34902"><ele>234.04</ele></trkpt>
<trkpt lat="41.76918" lon="-91.34964999999998"><ele>236.46</ele></trkpt>
<trkpt lat="41.7692" lon="-91.35028"><ele>238.59</ele></trkpt>
<trkpt lat="41.76927" lon="-91.35124000000002"><ele>241.31</ele></trkpt>
<trkpt lat="41.76934" lon="-91.35221"><ele>243.29</ele></trkpt>
<trkpt lat="41.76942" lon="-91.35318"><ele>244.27</ele></trkpt>
<trkpt lat="41.76949" lon="-91.35414000000002"><ele>244.17</ele></trkpt>
<trkpt lat="41.769560000000006" lon="-91.35511"><ele>243.37</ele></trkpt>
<trkpt lat="41.76959000000001" lon="-91.35569"><ele>242.91</ele></trkpt>
<trkpt lat="41.769560000000006" lon="-91.35619999999999"><ele>242.75</ele></trkpt>
<trkpt lat="41.769459999999995" lon="-91.35680000000002"><ele>243</ele></trkpt>
<trkpt lat="41.76939" lon="-91.35708999999999"><ele>243.36</ele></trkpt>
<trkpt lat="41.769059999999996" lon="-91.35820000000001"><ele>245.72</ele></trkpt>
<trkpt lat="41.76894" lon="-91.35872"><ele>247.12</ele></trkpt>
<trkpt lat="41.76882" lon="-91.35944"><ele>249.31</ele></trkpt>
<trkpt lat="41.76879" lon="-91.35977"><ele>250.34</ele></trkpt>
<trkpt lat="41.76874" lon="-91.36068"><ele>253.09</ele></trkpt>
<trkpt lat="41.768730000000005" lon="-91.36172"><ele>255.56</ele></trkpt>
<trkpt lat="41.76871" lon="-91.36277"><ele>256.87</ele></trkpt>
<trkpt lat="41.7687" lon="-91.36382"><ele>256.74</ele></trkpt>
<trkpt lat="41.768730000000005" lon="-91.36467"><ele>255.78</ele></trkpt>
<trkpt lat="41.76877" lon="-91.36497999999999"><ele>255.32</ele></trkpt>
<trkpt lat="41.76894" lon="-91.36581"><ele>254</ele></trkpt>
<trkpt lat="41.76911" lon="-91.36663"><ele>253.17</ele></trkpt>
<trkpt lat="41.76919" lon="-91.36727"><ele>253.06</ele></trkpt>
<trkpt lat="41.76922" lon="-91.36780999999999"><ele>253.4</ele></trkpt>
<trkpt lat="41.76924000000001" lon="-91.36879"><ele>254.65</ele></trkpt>
<trkpt lat="41.76925" lon="-91.36976000000001"><ele>256.16</ele></trkpt>
<trkpt lat="41.76927" lon="-91.37074"><ele>257.68</ele></trkpt>
<trkpt lat="41.76929" lon="-91.37172"><ele>258.96</ele></trkpt>
<trkpt lat="41.76929" lon="-91.37270999999998"><ele>259.93</ele></trkpt>
<trkpt lat="41.76929" lon="-91.37370000000001"><ele>260.53</ele></trkpt>
<trkpt lat="41.76928" lon="-91.37469"><ele>260.75</ele></trkpt>
<trkpt lat="41.76928" lon="-91.37568"><ele>260.75</ele></trkpt>
<trkpt lat="41.77106" lon="-91.37558"><ele>260.75</ele></trkpt>
<trkpt lat="41.771950000000004" lon="-91.37553"><ele>260.72</ele></trkpt>
<trkpt lat="41.77283" lon="-91.37548"><ele>261.27</ele></trkpt>
<trkpt lat="41.77399" lon="-91.37531999999999"><ele>262.28</ele></trkpt>
<trkpt lat="41.77518" lon="-91.37523"><ele>261.13</ele></trkpt>
<trkpt lat="41.77596" lon="-91.37524"><ele>259.22</ele></trkpt>
<trkpt lat="41.77675" lon="-91.37525"><ele>257.56</ele></trkpt>
<trkpt lat="41.77754" lon="-91.37526999999999"><ele>256.68</ele></trkpt>
<trkpt lat="41.77825000000001" lon="-91.37529"><ele>255.54</ele></trkpt>
<trkpt lat="41.77896" lon="-91.37531"><ele>253.43</ele></trkpt>
<trkpt lat="41.77967" lon="-91.37534"><ele>251.12</ele></trkpt>
<trkpt lat="41.78054" lon="-91.37536"><ele>249.46</ele></trkpt>
<trkpt lat="41.78142" lon="-91.37537000000002"><ele>248.52</ele></trkpt>
<trkpt lat="41.78229" lon="-91.37539"><ele>247.19</ele></trkpt>
<trkpt lat="41.78316000000001" lon="-91.37541"><ele>246.06</ele></trkpt>
<trkpt lat="41.78404" lon="-91.37543000000001"><ele>247.11</ele></trkpt>
<trkpt lat="41.78491" lon="-91.37545"><ele>250.56</ele></trkpt>
<trkpt lat="41.78578" lon="-91.37547"><ele>254.22</ele></trkpt>
<trkpt lat="41.78666" lon="-91.37548999999999"><ele>255.14</ele></trkpt>
<trkpt lat="41.78755" lon="-91.3755"><ele>252.37</ele></trkpt>
<trkpt lat="41.78843" lon="-91.37551"><ele>249.3</ele></trkpt>
<trkpt lat="41.789320000000004" lon="-91.37552"><ele>248.63</ele></trkpt>
<trkpt lat="41.79021000000001" lon="-91.37553"><ele>250.39</ele></trkpt>
<trkpt lat="41.7911" lon="-91.37555"><ele>252.97</ele></trkpt>
<trkpt lat="41.79107" lon="-91.3745"><ele>254.08</ele></trkpt>
<trkpt lat="41.79105" lon="-91.37346"><ele>253.66</ele></trkpt>
<trkpt lat="41.79103" lon="-91.37242000000002"><ele>252.44</ele></trkpt>
<trkpt lat="41.791" lon="-91.37138"><ele>251.97</ele></trkpt>
<trkpt lat="41.79098" lon="-91.37034"><ele>252.85</ele></trkpt>
<trkpt lat="41.790960000000005" lon="-91.3693"><ele>255.29</ele></trkpt>
<trkpt lat="41.79095" lon="-91.36826999999998"><ele>258.36</ele></trkpt>
<trkpt lat="41.79093" lon="-91.36723"><ele>260.32</ele></trkpt>
<trkpt lat="41.79095" lon="-91.36602"><ele>260.78</ele></trkpt>
<trkpt lat="41.79097" lon="-91.36573"><ele>260.83</ele></trkpt>
<trkpt lat="41.79104000000001" lon="-91.36543"><ele>260.9</ele></trkpt>
<trkpt lat="41.79114" lon="-91.36524"><ele>261</ele></trkpt>
<trkpt lat="41.791639999999994" lon="-91.36441000000002"><ele>261.62</ele></trkpt>
<trkpt lat="41.79168" lon="-91.36429"><ele>261.68</ele></trkpt>
<trkpt lat="41.7917" lon="-91.36408"><ele>261.74</ele></trkpt>
<trkpt lat="41.79165" lon="-91.36365"><ele>261.76</ele></trkpt>
<trkpt lat="41.79157" lon="-91.36331000000001"><ele>261.67</ele></trkpt>
<trkpt lat="41.79149" lon="-91.36314000000002"><ele>261.58</ele></trkpt>
<trkpt lat="41.79107" lon="-91.36254000000001"><ele>261.18</ele></trkpt>
<trkpt lat="41.79102" lon="-91.36242000000001"><ele>261.14</ele></trkpt>
<trkpt lat="41.79081" lon="-91.3615"><ele>261.07</ele></trkpt>
<trkpt lat="41.79072" lon="-91.36113999999999"><ele>261.04</ele></trkpt>
<trkpt lat="41.79067" lon="-91.36103000000001"><ele>261.01</ele></trkpt>
<trkpt lat="41.79052" lon="-91.36087"><ele>260.92</ele></trkpt>
<trkpt lat="41.79039" lon="-91.36078"><ele>260.79</ele></trkpt>
<trkpt lat="41.78993" lon="-91.3605"><ele>260.13</ele></trkpt>
<trkpt lat="41.78947" lon="-91.36022"><ele>259.27</ele></trkpt>
<trkpt lat="41.78941" lon="-91.36014000000002"><ele>259.12</ele></trkpt>
<trkpt lat="41.78933" lon="-91.35992000000002"><ele>258.8</ele></trkpt>
<trkpt lat="41.78931" lon="-91.35885999999999"><ele>257.4</ele></trkpt>
<trkpt lat="41.78929" lon="-91.35781000000001"><ele>256.08</ele></trkpt>
<trkpt lat="41.78927" lon="-91.35732"><ele>255.54</ele></trkpt>
<trkpt lat="41.78924" lon="-91.357"><ele>255.27</ele></trkpt>
<trkpt lat="41.78914" lon="-91.35636"><ele>254.87</ele></trkpt>
<trkpt lat="41.78905000000001" lon="-91.35593"><ele>254.69</ele></trkpt>
<trkpt lat="41.78873" lon="-91.35485"><ele>254.45</ele></trkpt>
<trkpt lat="41.78865" lon="-91.35456"><ele>254.52</ele></trkpt>
<trkpt lat="41.78863" lon="-91.35436999999999"><ele>254.62</ele></trkpt>
<trkpt lat="41.78861" lon="-91.35376000000001"><ele>255.14</ele></trkpt>
<trkpt lat="41.78862000000001" lon="-91.35306"><ele>255.81</ele></trkpt>
<trkpt lat="41.78862000000001" lon="-91.35235"><ele>256.08</ele></trkpt>
<trkpt lat="41.78863" lon="-91.35125"><ele>255.42</ele></trkpt>
<trkpt lat="41.78865" lon="-91.35014999999999"><ele>254.16</ele></trkpt>
<trkpt lat="41.78863" lon="-91.34996"><ele>253.94</ele></trkpt>
<trkpt lat="41.78858" lon="-91.34980000000002"><ele>253.77</ele></trkpt>
<trkpt lat="41.788520000000005" lon="-91.34968"><ele>253.64</ele></trkpt>
<trkpt lat="41.7883" lon="-91.34938"><ele>253.36</ele></trkpt>
<trkpt lat="41.78824" lon="-91.34923"><ele>253.29</ele></trkpt>
<trkpt lat="41.78818" lon="-91.34897999999998"><ele>253.25</ele></trkpt>
<trkpt lat="41.78818" lon="-91.34862"><ele>253.3</ele></trkpt>
<trkpt lat="41.78824" lon="-91.34761"><ele>253.64</ele></trkpt>
<trkpt lat="41.78829" lon="-91.34659"><ele>253.86</ele></trkpt>
<trkpt lat="41.7883" lon="-91.34589"><ele>253.83</ele></trkpt>
<trkpt lat="41.78829" lon="-91.34546999999999"><ele>253.69</ele></trkpt>
<trkpt lat="41.78822000000001" lon="-91.34496"><ele>253.44</ele></trkpt>
<trkpt lat="41.78806" lon="-91.34415"><ele>253.02</ele></trkpt>
<trkpt lat="41.78794" lon="-91.34385999999999"><ele>252.85</ele></trkpt>
<trkpt lat="41.7874" lon="-91.34318999999999"><ele>252.11</ele></trkpt>
<trkpt lat="41.78726" lon="-91.34295"><ele>251.54</ele></trkpt>
<trkpt lat="41.7868" lon="-91.3421"><ele>248.26</ele></trkpt>
<trkpt lat="41.78665" lon="-91.34183"><ele>247.04</ele></trkpt>
<trkpt lat="41.78657" lon="-91.34172"><ele>246.47</ele></trkpt>
<trkpt lat="41.78641" lon="-91.34166"><ele>245.66</ele></trkpt>
<trkpt lat="41.78581" lon="-91.34163"><ele>243.08</ele></trkpt>
<trkpt lat="41.78521" lon="-91.3416"><ele>241.56</ele></trkpt>
<trkpt lat="41.7846" lon="-91.34158"><ele>240.93</ele></trkpt>
<trkpt lat="41.78445" lon="-91.34152000000002"><ele>240.79</ele></trkpt>
<trkpt lat="41.78435" lon="-91.34141999999999"><ele>240.64</ele></trkpt>
<trkpt lat="41.78427" lon="-91.34131000000001"><ele>240.48</ele></trkpt>
<trkpt lat="41.78453999999999" lon="-91.34118"><ele>239.94</ele></trkpt>
<trkpt lat="41.78492000000001" lon="-91.34093"><ele>238.81</ele></trkpt>
<trkpt lat="41.78525" lon="-91.34061"><ele>237.48</ele></trkpt>
<trkpt lat="41.78544" lon="-91.34038"><ele>236.55</ele></trkpt>
<trkpt lat="41.78561" lon="-91.34016"><ele>235.64</ele></trkpt>
<trkpt lat="41.7859" lon="-91.33965"><ele>233.74</ele></trkpt>
<trkpt lat="41.78605" lon="-91.33933"><ele>232.61</ele></trkpt>
<trkpt lat="41.78616" lon="-91.339"><ele>231.56</ele></trkpt>
<trkpt lat="41.78628" lon="-91.33858999999998"><ele>230.32</ele></trkpt>
<trkpt lat="41.78638" lon="-91.33801"><ele>228.76</ele></trkpt>
<trkpt lat="41.78641" lon="-91.33765"><ele>227.9</ele></trkpt>
<trkpt lat="41.78642" lon="-91.33733"><ele>227.23</ele></trkpt>
<trkpt lat="41.78642" lon="-91.33642"><ele>225.55</ele></trkpt>
<trkpt lat="41.78642" lon="-91.33551"><ele>224.1</ele></trkpt>
<trkpt lat="41.78642" lon="-91.3335"><ele>221.22</ele></trkpt>
<trkpt lat="41.78642" lon="-91.33241000000001"><ele>219.63</ele></trkpt>
<trkpt lat="41.78642" lon="-91.33131"><ele>217.99</ele></trkpt>
<trkpt lat="41.78642" lon="-91.33021"><ele>216.54</ele></trkpt>
<trkpt lat="41.78712999999999" lon="-91.33031"><ele>215.7</ele></trkpt>
<trkpt lat="41.78784000000001" lon="-91.33040999999999"><ele>215.28</ele></trkpt>
<trkpt lat="41.78855" lon="-91.33051000000002"><ele>215.26</ele></trkpt>
<trkpt lat="41.78938000000001" lon="-91.33062"><ele>215.66</ele></trkpt>
<trkpt lat="41.79021000000001" lon="-91.33073"><ele>216.36</ele></trkpt>
<trkpt lat="41.79104000000001" lon="-91.33083"><ele>217.06</ele></trkpt>
<trkpt lat="41.79120999999999" lon="-91.33088"><ele>217.2</ele></trkpt>
<trkpt lat="41.79147" lon="-91.331"><ele>217.41</ele></trkpt>
<trkpt lat="41.79159" lon="-91.33109"><ele>217.51</ele></trkpt>
<trkpt lat="41.79172" lon="-91.33123"><ele>217.63</ele></trkpt>
<trkpt lat="41.79213" lon="-91.33179"><ele>218.04</ele></trkpt>
<trkpt lat="41.79254" lon="-91.33234"><ele>218.47</ele></trkpt>
<trkpt lat="41.79294" lon="-91.33279000000002"><ele>218.96</ele></trkpt>
<trkpt lat="41.79312" lon="-91.33296000000001"><ele>219.21</ele></trkpt>
<trkpt lat="41.79374" lon="-91.33347999999998"><ele>220.12</ele></trkpt>
<trkpt lat="41.79448" lon="-91.33404"><ele>221.16</ele></trkpt>
<trkpt lat="41.79520999999999" lon="-91.33459"><ele>222.09</ele></trkpt>
<trkpt lat="41.79595" lon="-91.33513999999998"><ele>222.67</ele></trkpt>
<trkpt lat="41.79668" lon="-91.3357"><ele>222.67</ele></trkpt>
<trkpt lat="41.79742" lon="-91.33625"><ele>222.45</ele></trkpt>
<trkpt lat="41.79765" lon="-91.33647999999998"><ele>222.42</ele></trkpt>
<trkpt lat="41.79781" lon="-91.33668999999999"><ele>222.45</ele></trkpt>
<trkpt lat="41.79796" lon="-91.33697999999998"><ele>222.54</ele></trkpt>
<trkpt lat="41.79804" lon="-91.33719999999998"><ele>222.64</ele></trkpt>
<trkpt lat="41.79812" lon="-91.33757999999999"><ele>222.83</ele></trkpt>
<trkpt lat="41.79825" lon="-91.3387"><ele>223.42</ele></trkpt>
<trkpt lat="41.79839" lon="-91.33982"><ele>223.75</ele></trkpt>
<trkpt lat="41.79845" lon="-91.34014"><ele>223.74</ele></trkpt>
<trkpt lat="41.79857" lon="-91.34051"><ele>223.56</ele></trkpt>
<trkpt lat="41.79867" lon="-91.34073"><ele>223.35</ele></trkpt>
<trkpt lat="41.7988" lon="-91.34095"><ele>223.04</ele></trkpt>
<trkpt lat="41.79930000000001" lon="-91.34151"><ele>221.82</ele></trkpt>
<trkpt lat="41.79961" lon="-91.342"><ele>221.07</ele></trkpt>
<trkpt lat="41.7999" lon="-91.34268999999999"><ele>220.72</ele></trkpt>
<trkpt lat="41.80010000000001" lon="-91.34325000000001"><ele>221.22</ele></trkpt>
<trkpt lat="41.80029999999999" lon="-91.34380000000002"><ele>222.51</ele></trkpt>
<trkpt lat="41.80058" lon="-91.34452000000002"><ele>224.87</ele></trkpt>
<trkpt lat="41.80086" lon="-91.34524000000002"><ele>226.97</ele></trkpt>
<trkpt lat="41.80136000000001" lon="-91.34651"><ele>229.36</ele></trkpt>
<trkpt lat="41.80173" lon="-91.34752000000002"><ele>230.68</ele></trkpt>
<trkpt lat="41.80181" lon="-91.34784"><ele>231</ele></trkpt>
<trkpt lat="41.80187" lon="-91.34833"><ele>231.47</ele></trkpt>
<trkpt lat="41.80187999999999" lon="-91.34853000000001"><ele>231.71</ele></trkpt>
<trkpt lat="41.8019" lon="-91.34968"><ele>233.52</ele></trkpt>
<trkpt lat="41.80190999999999" lon="-91.35084"><ele>235.48</ele></trkpt>
<trkpt lat="41.80193" lon="-91.35108999999999"><ele>235.76</ele></trkpt>
<trkpt lat="41.80198" lon="-91.35141000000002"><ele>235.89</ele></trkpt>
<trkpt lat="41.80203" lon="-91.35158999999999"><ele>235.83</ele></trkpt>
<trkpt lat="41.80216" lon="-91.35194"><ele>235.41</ele></trkpt>
<trkpt lat="41.8027" lon="-91.35288"><ele>232.84</ele></trkpt>
<trkpt lat="41.80324" lon="-91.35383"><ele>228.58</ele></trkpt>
<trkpt lat="41.8033" lon="-91.35396"><ele>228</ele></trkpt>
<trkpt lat="41.80333" lon="-91.35414000000002"><ele>227.29</ele></trkpt>
<trkpt lat="41.80335000000001" lon="-91.35432"><ele>226.6</ele></trkpt>
<trkpt lat="41.80335000000001" lon="-91.35463"><ele>225.53</ele></trkpt>
<trkpt lat="41.80333" lon="-91.35479"><ele>225.03</ele></trkpt>
<trkpt lat="41.80325" lon="-91.35503000000001"><ele>224.35</ele></trkpt>
<trkpt lat="41.80304" lon="-91.35559"><ele>223.09</ele></trkpt>
<trkpt lat="41.80283" lon="-91.35614999999999"><ele>222.13</ele></trkpt>
<trkpt lat="41.80255" lon="-91.35682"><ele>221.19</ele></trkpt>
<trkpt lat="41.80248" lon="-91.35703999999998"><ele>220.95</ele></trkpt>
<trkpt lat="41.80243" lon="-91.35731000000001"><ele>220.73</ele></trkpt>
<trkpt lat="41.802389999999995" lon="-91.35755"><ele>220.59</ele></trkpt>
<trkpt lat="41.802339999999994" lon="-91.35817"><ele>220.37</ele></trkpt>
<trkpt lat="41.80229" lon="-91.3588"><ele>220.32</ele></trkpt>
<trkpt lat="41.80222" lon="-91.35967"><ele>220.41</ele></trkpt>
<trkpt lat="41.80216" lon="-91.36053999999999"><ele>220.42</ele></trkpt>
<trkpt lat="41.80216" lon="-91.36070000000001"><ele>220.38</ele></trkpt>
<trkpt lat="41.80217" lon="-91.36092999999998"><ele>220.26</ele></trkpt>
<trkpt lat="41.8022" lon="-91.36115000000001"><ele>220.1</ele></trkpt>
<trkpt lat="41.80229" lon="-91.36154"><ele>219.71</ele></trkpt>
<trkpt lat="41.80252000000001" lon="-91.36251"><ele>218.73</ele></trkpt>
<trkpt lat="41.80276" lon="-91.36348999999998"><ele>218.2</ele></trkpt>
<trkpt lat="41.80299" lon="-91.36446"><ele>218.29</ele></trkpt>
<trkpt lat="41.803219999999996" lon="-91.36543"><ele>218.7</ele></trkpt>
<trkpt lat="41.80346" lon="-91.3664"><ele>218.91</ele></trkpt>
<trkpt lat="41.80369" lon="-91.36737"><ele>218.56</ele></trkpt>
<trkpt lat="41.80385" lon="-91.36804000000001"><ele>217.98</ele></trkpt>
<trkpt lat="41.803999999999995" lon="-91.36847"><ele>217.55</ele></trkpt>
<trkpt lat="41.80419" lon="-91.36886"><ele>217.22</ele></trkpt>
<trkpt lat="41.80459" lon="-91.36957"><ele>217</ele></trkpt>
<trkpt lat="41.80492" lon="-91.37022"><ele>217.2</ele></trkpt>
<trkpt lat="41.80509" lon="-91.37066"><ele>217.48</ele></trkpt>
<trkpt lat="41.805209999999995" lon="-91.37120000000002"><ele>217.88</ele></trkpt>
<trkpt lat="41.80527" lon="-91.37170000000002"><ele>218.22</ele></trkpt>
<trkpt lat="41.8054" lon="-91.37287999999998"><ele>218.91</ele></trkpt>
<trkpt lat="41.80553" lon="-91.37407"><ele>219.59</ele></trkpt>
<trkpt lat="41.80565" lon="-91.37492000000002"><ele>220.45</ele></trkpt>
<trkpt lat="41.80579" lon="-91.3757"><ele>221.74</ele></trkpt>
<trkpt lat="41.80597000000001" lon="-91.37643000000001"><ele>223.33</ele></trkpt>
<trkpt lat="41.80608" lon="-91.3768"><ele>224.12</ele></trkpt>
<trkpt lat="41.80644" lon="-91.37784"><ele>225.79</ele></trkpt>
<trkpt lat="41.80680000000001" lon="-91.37888000000001"><ele>225.39</ele></trkpt>
<trkpt lat="41.80704" lon="-91.37960000000001"><ele>223.9</ele></trkpt>
<trkpt lat="41.80721" lon="-91.38025999999999"><ele>222.22</ele></trkpt>
<trkpt lat="41.80739" lon="-91.38092"><ele>220.88</ele></trkpt>
<trkpt lat="41.80749" lon="-91.38148999999999"><ele>220.46</ele></trkpt>
<trkpt lat="41.80753" lon="-91.38215"><ele>220.84</ele></trkpt>
<trkpt lat="41.80753" lon="-91.38296"><ele>221.99</ele></trkpt>
<trkpt lat="41.80754" lon="-91.38378"><ele>223.05</ele></trkpt>
<trkpt lat="41.80753" lon="-91.38476"><ele>223.57</ele></trkpt>
<trkpt lat="41.80752" lon="-91.38575"><ele>223.82</ele></trkpt>
<trkpt lat="41.80751" lon="-91.38674"><ele>224.61</ele></trkpt>
<trkpt lat="41.80747" lon="-91.38719"><ele>225.4</ele></trkpt>
<trkpt lat="41.80729" lon="-91.38801"><ele>227.72</ele></trkpt>
<trkpt lat="41.807120000000005" lon="-91.38882"><ele>230.6</ele></trkpt>
<trkpt lat="41.80707" lon="-91.38913"><ele>231.59</ele></trkpt>
<trkpt lat="41.80706" lon="-91.38932999999999"><ele>232.1</ele></trkpt>
<trkpt lat="41.80706" lon="-91.3898"><ele>232.88</ele></trkpt>
<trkpt lat="41.80711" lon="-91.39019"><ele>232.98</ele></trkpt>
<trkpt lat="41.80724" lon="-91.39085"><ele>232.12</ele></trkpt>
<trkpt lat="41.80744" lon="-91.39179"><ele>229.63</ele></trkpt>
<trkpt lat="41.80763000000001" lon="-91.39271999999998"><ele>226.43</ele></trkpt>
<trkpt lat="41.80783" lon="-91.39366000000001"><ele>223.08</ele></trkpt>
<trkpt lat="41.80802" lon="-91.39459"><ele>220.39</ele></trkpt>
<trkpt lat="41.80821" lon="-91.39552"><ele>218.96</ele></trkpt>
<trkpt lat="41.807249999999996" lon="-91.39552"><ele>218.57</ele></trkpt>
<trkpt lat="41.8065" lon="-91.39551"><ele>217.84</ele></trkpt>
<trkpt lat="41.80575" lon="-91.39549"><ele>217.01</ele></trkpt>
<trkpt lat="41.805" lon="-91.39547"><ele>217.27</ele></trkpt>
<trkpt lat="41.80426" lon="-91.39544999999998"><ele>219.24</ele></trkpt>
<trkpt lat="41.80351" lon="-91.39543000000002"><ele>222.9</ele></trkpt>
<trkpt lat="41.80266" lon="-91.39541"><ele>228.5</ele></trkpt>
<trkpt lat="41.8018" lon="-91.39539"><ele>234.27</ele></trkpt>
<trkpt lat="41.80095" lon="-91.39537"><ele>237.79</ele></trkpt>
<trkpt lat="41.80010000000001" lon="-91.39535"><ele>238.28</ele></trkpt>
<trkpt lat="41.799240000000005" lon="-91.39532999999999"><ele>237.74</ele></trkpt>
<trkpt lat="41.79839" lon="-91.39531"><ele>237.85</ele></trkpt>
<trkpt lat="41.79753" lon="-91.39529"><ele>238.93</ele></trkpt>
<trkpt lat="41.79668" lon="-91.39527000000001"><ele>241.21</ele></trkpt>
<trkpt lat="41.79583" lon="-91.39525"><ele>244.93</ele></trkpt>
<trkpt lat="41.79497" lon="-91.39523"><ele>249.11</ele></trkpt>
<trkpt lat="41.7942" lon="-91.39523"><ele>251.55</ele></trkpt>
<trkpt lat="41.79356" lon="-91.3952"><ele>252.27</ele></trkpt>
<trkpt lat="41.79276" lon="-91.39518"><ele>251.7</ele></trkpt>
<trkpt lat="41.79197" lon="-91.39515999999999"><ele>250.16</ele></trkpt>
<trkpt lat="41.79117999999999" lon="-91.39514"><ele>248.02</ele></trkpt>
<trkpt lat="41.79039" lon="-91.39513"><ele>246.22</ele></trkpt>
<trkpt lat="41.78959" lon="-91.39510999999999"><ele>246.24</ele></trkpt>
<trkpt lat="41.7888" lon="-91.39509"><ele>248.28</ele></trkpt>
<trkpt lat="41.78801" lon="-91.39507"><ele>250.39</ele></trkpt>
<trkpt lat="41.78722" lon="-91.39505000000001"><ele>250.34</ele></trkpt>
<trkpt lat="41.78659" lon="-91.39505000000001"><ele>248.8</ele></trkpt>
<trkpt lat="41.78597" lon="-91.39505000000001"><ele>246.71</ele></trkpt>
<trkpt lat="41.78534" lon="-91.39505000000001"><ele>244.57</ele></trkpt>
<trkpt lat="41.78444" lon="-91.39505000000001"><ele>241.83</ele></trkpt>
<trkpt lat="41.78354" lon="-91.39504"><ele>240.41</ele></trkpt>
<trkpt lat="41.78085" lon="-91.39502"><ele>243.15</ele></trkpt>
<trkpt lat="41.77996" lon="-91.39501"><ele>243.8</ele></trkpt>
<trkpt lat="41.77816" lon="-91.39499999999998"><ele>242.68</ele></trkpt>
<trkpt lat="41.77725999999999" lon="-91.39498999999999"><ele>243.41</ele></trkpt>
<trkpt lat="41.77637" lon="-91.39498999999999"><ele>244.69</ele></trkpt>
<trkpt lat="41.77561" lon="-91.39501"><ele>245.14</ele></trkpt>
<trkpt lat="41.77485" lon="-91.39503"><ele>245.69</ele></trkpt>
<trkpt lat="41.77409" lon="-91.39506"><ele>247.67</ele></trkpt>
<trkpt lat="41.77334" lon="-91.39508"><ele>251.12</ele></trkpt>
<trkpt lat="41.77269" lon="-91.39512"><ele>254.74</ele></trkpt>
<trkpt lat="41.77204" lon="-91.39515999999999"><ele>258.36</ele></trkpt>
<trkpt lat="41.77139" lon="-91.39519"><ele>261.31</ele></trkpt>
<trkpt lat="41.77135" lon="-91.39534"><ele>261.66</ele></trkpt>
<trkpt lat="41.77136" lon="-91.39555000000001"><ele>261.94</ele></trkpt>
<trkpt lat="41.77143" lon="-91.39579"><ele>262.01</ele></trkpt>
<trkpt lat="41.77161" lon="-91.39662"><ele>261.22</ele></trkpt>
<trkpt lat="41.77182" lon="-91.39775"><ele>259.51</ele></trkpt>
<trkpt lat="41.77203000000001" lon="-91.39887999999999"><ele>257.55</ele></trkpt>
<trkpt lat="41.77215" lon="-91.39949000000001"><ele>256.34</ele></trkpt>
<trkpt lat="41.772279999999995" lon="-91.39998"><ele>255.22</ele></trkpt>
<trkpt lat="41.77239" lon="-91.40035"><ele>254.26</ele></trkpt>
<trkpt lat="41.77278" lon="-91.40129"><ele>251.4</ele></trkpt>
<trkpt lat="41.77322" lon="-91.40226"><ele>248.07</ele></trkpt>
<trkpt lat="41.77366" lon="-91.40322999999998"><ele>244.33</ele></trkpt>
<trkpt lat="41.7741" lon="-91.40419"><ele>240.51</ele></trkpt>
<trkpt lat="41.77454" lon="-91.40516"><ele>237.74</ele></trkpt>
<trkpt lat="41.77499" lon="-91.40613"><ele>237.57</ele></trkpt>
<trkpt lat="41.77527" lon="-91.40677"><ele>239.43</ele></trkpt>
<trkpt lat="41.77552" lon="-91.40737"><ele>242.46</ele></trkpt>
<trkpt lat="41.77572" lon="-91.40797"><ele>245.82</ele></trkpt>
<trkpt lat="41.775780000000005" lon="-91.40822000000001"><ele>247.09</ele></trkpt>
<trkpt lat="41.77584999999999" lon="-91.40885"><ele>249.78</ele></trkpt>
<trkpt lat="41.77596" lon="-91.40997"><ele>253.44</ele></trkpt>
<trkpt lat="41.77606" lon="-91.41109"><ele>256.19</ele></trkpt>
<trkpt lat="41.77617" lon="-91.41221"><ele>258.23</ele></trkpt>
<trkpt lat="41.77627" lon="-91.41332"><ele>259.15</ele></trkpt>
<trkpt lat="41.77638" lon="-91.41444"><ele>258.12</ele></trkpt>
<trkpt lat="41.77619" lon="-91.41439000000001"><ele>257.52</ele></trkpt>
<trkpt lat="41.775800000000004" lon="-91.41439000000001"><ele>255.69</ele></trkpt>
<trkpt lat="41.77523" lon="-91.41441"><ele>252.44</ele></trkpt>
<trkpt lat="41.774620000000006" lon="-91.41439000000001"><ele>249.12</ele></trkpt>
<trkpt lat="41.77428" lon="-91.41441"><ele>247.86</ele></trkpt>
<trkpt lat="41.77423" lon="-91.41443"><ele>247.74</ele></trkpt>
<trkpt lat="41.774190000000004" lon="-91.41448"><ele>247.64</ele></trkpt>
<trkpt lat="41.77382" lon="-91.41522000000002"><ele>247.55</ele></trkpt>
<trkpt lat="41.77376" lon="-91.41531"><ele>247.72</ele></trkpt>
<trkpt lat="41.77369" lon="-91.41536"><ele>247.94</ele></trkpt>
<trkpt lat="41.7736" lon="-91.4154"><ele>248.28</ele></trkpt>
<trkpt lat="41.77302999999999" lon="-91.41549"><ele>251.21</ele></trkpt>
<trkpt lat="41.77248" lon="-91.41562"><ele>254.09</ele></trkpt>
<trkpt lat="41.77219999999999" lon="-91.41562999999998"><ele>255.21</ele></trkpt>
<trkpt lat="41.77181" lon="-91.41561000000002"><ele>256.23</ele></trkpt>
<trkpt lat="41.77162" lon="-91.41558"><ele>256.54</ele></trkpt>
<trkpt lat="41.77155" lon="-91.41554"><ele>256.62</ele></trkpt>
<trkpt lat="41.77141" lon="-91.41538"><ele>256.75</ele></trkpt>
<trkpt lat="41.77118" lon="-91.41491"><ele>256.82</ele></trkpt>
<trkpt lat="41.7711" lon="-91.41482"><ele>256.79</ele></trkpt>
<trkpt lat="41.77103" lon="-91.41478"><ele>256.76</ele></trkpt>
<trkpt lat="41.77062" lon="-91.41476"><ele>256.43</ele></trkpt>
<trkpt lat="41.76884" lon="-91.41476"><ele>253.77</ele></trkpt>
<trkpt lat="41.76706" lon="-91.41477000000002"><ele>249.59</ele></trkpt>
<trkpt lat="41.76617" lon="-91.41477000000002"><ele>247.83</ele></trkpt>
<trkpt lat="41.76439" lon="-91.41477000000002"><ele>245.29</ele></trkpt>
<trkpt lat="41.7635" lon="-91.41478"><ele>245.17</ele></trkpt>
<trkpt lat="41.76261" lon="-91.41478"><ele>245.98</ele></trkpt>
<trkpt lat="41.76181" lon="-91.41478"><ele>247.16</ele></trkpt>
<trkpt lat="41.75939" lon="-91.4148"><ele>249.16</ele></trkpt>
<trkpt lat="41.75859" lon="-91.41481"><ele>248.45</ele></trkpt>
<trkpt lat="41.75859" lon="-91.41588"><ele>247.11</ele></trkpt>
<trkpt lat="41.7586" lon="-91.41694999999999"><ele>246.18</ele></trkpt>
<trkpt lat="41.7586" lon="-91.41802"><ele>246.43</ele></trkpt>
<trkpt lat="41.75858" lon="-91.41866"><ele>247.48</ele></trkpt>
<trkpt lat="41.75851000000001" lon="-91.41982"><ele>250.84</ele></trkpt>
<trkpt lat="41.75827" lon="-91.41979"><ele>251.84</ele></trkpt>
<trkpt lat="41.75782" lon="-91.41978000000002"><ele>253.56</ele></trkpt>
<trkpt lat="41.75718" lon="-91.41979"><ele>255.07</ele></trkpt>
<trkpt lat="41.75661" lon="-91.41989999999998"><ele>255.17</ele></trkpt>
<trkpt lat="41.7562" lon="-91.42003"><ele>254.48</ele></trkpt>
<trkpt lat="41.75607000000001" lon="-91.42005"><ele>254.13</ele></trkpt>
<trkpt lat="41.755739999999996" lon="-91.42006999999998"><ele>253.01</ele></trkpt>
<trkpt lat="41.75545" lon="-91.42001"><ele>251.82</ele></trkpt>
<trkpt lat="41.75487" lon="-91.41984000000001"><ele>249.15</ele></trkpt>
<trkpt lat="41.75414" lon="-91.41979"><ele>245.69</ele></trkpt>
<trkpt lat="41.75337" lon="-91.41977"><ele>242.05</ele></trkpt>
<trkpt lat="41.7526" lon="-91.41976"><ele>239.2</ele></trkpt>
<trkpt lat="41.75183" lon="-91.41975"><ele>237.96</ele></trkpt>
<trkpt lat="41.75106000000001" lon="-91.41974"><ele>238.7</ele></trkpt>
<trkpt lat="41.75023000000001" lon="-91.41975"><ele>241.53</ele></trkpt>
<trkpt lat="41.74941" lon="-91.41975"><ele>245.85</ele></trkpt>
<trkpt lat="41.74858" lon="-91.41976"><ele>250.8</ele></trkpt>
<trkpt lat="41.74815" lon="-91.41975"><ele>252.74</ele></trkpt>
<trkpt lat="41.74783" lon="-91.41975"><ele>253.52</ele></trkpt>
<trkpt lat="41.7474" lon="-91.41972"><ele>253.66</ele></trkpt>
<trkpt lat="41.74653" lon="-91.41971"><ele>252.34</ele></trkpt>
<trkpt lat="41.74565" lon="-91.4197"><ele>249.74</ele></trkpt>
<trkpt lat="41.74477" lon="-91.41969"><ele>247.17</ele></trkpt>
<trkpt lat="41.7439" lon="-91.41967999999999"><ele>246.7</ele></trkpt>
<trkpt lat="41.74391" lon="-91.41871"><ele>248.26</ele></trkpt>
<trkpt lat="41.74391" lon="-91.41773999999998"><ele>250.54</ele></trkpt>
<trkpt lat="41.74392" lon="-91.41676"><ele>252.46</ele></trkpt>
<trkpt lat="41.74393" lon="-91.41579"><ele>253.64</ele></trkpt>
<trkpt lat="41.74394" lon="-91.41482"><ele>253.85</ele></trkpt>
<trkpt lat="41.74322" lon="-91.41483"><ele>253.01</ele></trkpt>
<trkpt lat="41.7425" lon="-91.41483999999998"><ele>251.89</ele></trkpt>
<trkpt lat="41.74178" lon="-91.41486"><ele>251.63</ele></trkpt>
<trkpt lat="41.741060000000004" lon="-91.41487"><ele>252.55</ele></trkpt>
<trkpt lat="41.74035" lon="-91.41488"><ele>253.74</ele></trkpt>
<trkpt lat="41.73956" lon="-91.41489000000001"><ele>254.08</ele></trkpt>
<trkpt lat="41.73877" lon="-91.41491"><ele>252.97</ele></trkpt>
<trkpt lat="41.73719" lon="-91.41494999999999"><ele>248.86</ele></trkpt>
<trkpt lat="41.7364" lon="-91.41497"><ele>246.95</ele></trkpt>
<trkpt lat="41.7348" lon="-91.41499999999999"><ele>243.72</ele></trkpt>
<trkpt lat="41.73399" lon="-91.41500999999998"><ele>241.91</ele></trkpt>
<trkpt lat="41.73317" lon="-91.41502"><ele>240.64</ele></trkpt>
<trkpt lat="41.73235" lon="-91.41503"><ele>240.8</ele></trkpt>
<trkpt lat="41.73153" lon="-91.41504"><ele>242.33</ele></trkpt>
<trkpt lat="41.73071" lon="-91.41505"><ele>243.73</ele></trkpt>
<trkpt lat="41.73001" lon="-91.41507"><ele>243.47</ele></trkpt>
<trkpt lat="41.72932" lon="-91.4151"><ele>242.4</ele></trkpt>
<trkpt lat="41.72932" lon="-91.41608"><ele>241.97</ele></trkpt>
<trkpt lat="41.72932" lon="-91.41705000000002"><ele>242.77</ele></trkpt>
<trkpt lat="41.72932" lon="-91.41803"><ele>243.84</ele></trkpt>
<trkpt lat="41.72931" lon="-91.41900999999999"><ele>243.84</ele></trkpt>
<trkpt lat="41.72931" lon="-91.41999"><ele>242.36</ele></trkpt>
<trkpt lat="41.72858" lon="-91.41997"><ele>240.14</ele></trkpt>
<trkpt lat="41.72785" lon="-91.41996"><ele>238.43</ele></trkpt>
<trkpt lat="41.72711" lon="-91.41995000000001"><ele>238.2</ele></trkpt>
<trkpt lat="41.72638" lon="-91.41994"><ele>239.77</ele></trkpt>
<trkpt lat="41.72607" lon="-91.42001"><ele>240.94</ele></trkpt>
<trkpt lat="41.72572" lon="-91.42019"><ele>242.58</ele></trkpt>
<trkpt lat="41.72546" lon="-91.42039999999999"><ele>243.73</ele></trkpt>
<trkpt lat="41.72501" lon="-91.42084000000001"><ele>245.11</ele></trkpt>
<trkpt lat="41.72480000000001" lon="-91.42109"><ele>245.32</ele></trkpt>
<trkpt lat="41.724419999999995" lon="-91.4216"><ele>244.81</ele></trkpt>
<trkpt lat="41.72421" lon="-91.42197"><ele>244.06</ele></trkpt>
<trkpt lat="41.72372" lon="-91.42289999999998"><ele>241.4</ele></trkpt>
<trkpt lat="41.72326" lon="-91.42378"><ele>238.37</ele></trkpt>
<trkpt lat="41.7228" lon="-91.42466999999999"><ele>234.84</ele></trkpt>
<trkpt lat="41.72232999999999" lon="-91.42555"><ele>230.88</ele></trkpt>
<trkpt lat="41.72211" lon="-91.42592"><ele>229.39</ele></trkpt>
<trkpt lat="41.72197" lon="-91.42611"><ele>228.84</ele></trkpt>
<trkpt lat="41.72177" lon="-91.42634000000001"><ele>228.65</ele></trkpt>
<trkpt lat="41.7214" lon="-91.42665"><ele>229.55</ele></trkpt>
<trkpt lat="41.72042" lon="-91.4272"><ele>235.06</ele></trkpt>
<trkpt lat="41.72001" lon="-91.42745999999998"><ele>238.01</ele></trkpt>
<trkpt lat="41.71963" lon="-91.42777"><ele>240.99</ele></trkpt>
<trkpt lat="41.71925" lon="-91.42814"><ele>243.74</ele></trkpt>
<trkpt lat="41.71891000000001" lon="-91.42850999999999"><ele>245.66</ele></trkpt>
<trkpt lat="41.71857" lon="-91.429"><ele>247.08</ele></trkpt>
<trkpt lat="41.71832" lon="-91.42939"><ele>247.72</ele></trkpt>
<trkpt lat="41.71786999999999" lon="-91.43005"><ele>248.19</ele></trkpt>
<trkpt lat="41.7175" lon="-91.43048"><ele>248.08</ele></trkpt>
<trkpt lat="41.71684" lon="-91.43107999999998"><ele>247.31</ele></trkpt>
<trkpt lat="41.71645" lon="-91.43135000000001"><ele>246.83</ele></trkpt>
<trkpt lat="41.71532" lon="-91.43198"><ele>245.33</ele></trkpt>
<trkpt lat="41.71509" lon="-91.43224000000001"><ele>244.76</ele></trkpt>
<trkpt lat="41.71498" lon="-91.43242"><ele>244.37</ele></trkpt>
<trkpt lat="41.71488000000001" lon="-91.43268999999998"><ele>243.92</ele></trkpt>
<trkpt lat="41.714830000000006" lon="-91.43295000000002"><ele>243.64</ele></trkpt>
<trkpt lat="41.714800000000004" lon="-91.43326"><ele>243.56</ele></trkpt>
<trkpt lat="41.71476" lon="-91.43406999999999"><ele>244.12</ele></trkpt>
<trkpt lat="41.71473" lon="-91.43489"><ele>244.95</ele></trkpt>
<trkpt lat="41.71469" lon="-91.4357"><ele>245.35</ele></trkpt>
<trkpt lat="41.71462" lon="-91.43684000000002"><ele>245.22</ele></trkpt>
<trkpt lat="41.71458" lon="-91.43714"><ele>245.22</ele></trkpt>
<trkpt lat="41.71445000000001" lon="-91.43766"><ele>245.38</ele></trkpt>
<trkpt lat="41.71423" lon="-91.43825"><ele>245.81</ele></trkpt>
<trkpt lat="41.71409" lon="-91.43856"><ele>246.09</ele></trkpt>
<trkpt lat="41.71361" lon="-91.43951000000001"><ele>246.94</ele></trkpt>
<trkpt lat="41.71331" lon="-91.44006999999999"><ele>247.17</ele></trkpt>
<trkpt lat="41.713" lon="-91.44062"><ele>247.23</ele></trkpt>
<trkpt lat="41.71277" lon="-91.44104"><ele>247.22</ele></trkpt>
<trkpt lat="41.71263" lon="-91.44134999999999"><ele>247.14</ele></trkpt>
<trkpt lat="41.71242" lon="-91.44191000000001"><ele>246.83</ele></trkpt>
<trkpt lat="41.71219" lon="-91.44271"><ele>246.01</ele></trkpt>
<trkpt lat="41.71212" lon="-91.44307999999998"><ele>245.48</ele></trkpt>
<trkpt lat="41.71194" lon="-91.44401000000002"><ele>243.85</ele></trkpt>
<trkpt lat="41.71208" lon="-91.44404"><ele>243.5</ele></trkpt>
<trkpt lat="41.71280999999999" lon="-91.44407000000001"><ele>241.69</ele></trkpt>
<trkpt lat="41.71354" lon="-91.4441"><ele>240.38</ele></trkpt>
<trkpt lat="41.71427" lon="-91.44412999999999"><ele>240.01</ele></trkpt>
<trkpt lat="41.71504" lon="-91.44416"><ele>240.78</ele></trkpt>
<trkpt lat="41.71582" lon="-91.44419"><ele>242.51</ele></trkpt>
<trkpt lat="41.71659" lon="-91.44423000000002"><ele>244.47</ele></trkpt>
<trkpt lat="41.71671" lon="-91.44426"><ele>244.74</ele></trkpt>
<trkpt lat="41.71678" lon="-91.44432"><ele>244.92</ele></trkpt>
<trkpt lat="41.71685" lon="-91.44443"><ele>245.11</ele></trkpt>
<trkpt lat="41.71687000000001" lon="-91.44467"><ele>245.38</ele></trkpt>
<trkpt lat="41.71685" lon="-91.44554"><ele>246.05</ele></trkpt>
<trkpt lat="41.716820000000006" lon="-91.4464"><ele>246.43</ele></trkpt>
<trkpt lat="41.7168" lon="-91.44727"><ele>246.48</ele></trkpt>
<trkpt lat="41.71679" lon="-91.44837"><ele>246.03</ele></trkpt>
<trkpt lat="41.71681" lon="-91.44908000000001"><ele>245.46</ele></trkpt>
<trkpt lat="41.71690000000001" lon="-91.44935999999998"><ele>245.04</ele></trkpt>
<trkpt lat="41.71706" lon="-91.44963000000001"><ele>244.33</ele></trkpt>
<trkpt lat="41.717949999999995" lon="-91.45091000000001"><ele>239.31</ele></trkpt>
<trkpt lat="41.71823" lon="-91.45137"><ele>237.04</ele></trkpt>
<trkpt lat="41.71831" lon="-91.45154"><ele>236.15</ele></trkpt>
<trkpt lat="41.71852" lon="-91.45211"><ele>233.05</ele></trkpt>
<trkpt lat="41.71872" lon="-91.45268999999999"><ele>229.82</ele></trkpt>
<trkpt lat="41.71887" lon="-91.45327"><ele>226.83</ele></trkpt>
<trkpt lat="41.71895" lon="-91.45385000000002"><ele>224.25</ele></trkpt>
<trkpt lat="41.71899" lon="-91.45421"><ele>222.93</ele></trkpt>
<trkpt lat="41.719" lon="-91.45501"><ele>220.74</ele></trkpt>
<trkpt lat="41.71902" lon="-91.45581"><ele>219.43</ele></trkpt>
<trkpt lat="41.71902" lon="-91.45597000000001"><ele>219.28</ele></trkpt>
<trkpt lat="41.71902999999999" lon="-91.45604"><ele>219.23</ele></trkpt>
<trkpt lat="41.71906" lon="-91.45619999999998"><ele>219.16</ele></trkpt>
<trkpt lat="41.71918" lon="-91.45643"><ele>219.14</ele></trkpt>
<trkpt lat="41.71947999999999" lon="-91.45686"><ele>219.3</ele></trkpt>
<trkpt lat="41.72005" lon="-91.45758999999998"><ele>219.79</ele></trkpt>
<trkpt lat="41.72019" lon="-91.45780999999998"><ele>220.13</ele></trkpt>
<trkpt lat="41.72044" lon="-91.45830999999998"><ele>221.34</ele></trkpt>
<trkpt lat="41.72057" lon="-91.45861"><ele>222.38</ele></trkpt>
<trkpt lat="41.72064" lon="-91.45888"><ele>223.43</ele></trkpt>
<trkpt lat="41.720670000000005" lon="-91.45928"><ele>225.02</ele></trkpt>
<trkpt lat="41.720670000000005" lon="-91.46071"><ele>230.29</ele></trkpt>
</trkseg>
</trk></gpx>
