<?xml version='1.0' encoding='UTF-8'?>
<gpx version="1.1"
  creator="GPXmagic"
  xmlns="http://www.topografix.com/GPX/1/1"
  xmlns:rgt="http://www.rgtcycling.com/XML/GpxExtensions/v1"
  xmlns:xsi="http://www.w3.org/2001/XMLSchema-instance" xsi:schemaLocation="http://www.topografix.com/GPX/1/1
  http://www.topografix.com/GPX/1/1/gpx.xsd">
  <metadata>
    <name>Smoothed with GPXmagic</name>
    <author>
      <link href="https://www.stepwiserefinement.co.uk">
        <text>GPXmagic v3</text>
        <type>text/html</type>
      </link>
    </author>
  </metadata>
<trk>  <name>Idaho&#32;Springs&#32;to&#32;Blue&#32;Sky</name>
<trkseg>
<trkpt lat="39.7413865" lon="-105.51807360000002"><ele>2301.92</ele></trkpt>
<trkpt lat="39.7415179" lon="-105.5193929"><ele>2304</ele></trkpt>
<trkpt lat="39.7414649" lon="-105.51948870000001"><ele>2303.957661432073</ele></trkpt>
<trkpt lat="39.7412863" lon="-105.5195947"><ele>2303.8650369294674</ele></trkpt>
<trkpt lat="39.7410937" lon="-105.5197773"><ele>2303.7384096106134</ele></trkpt>
<trkpt lat="39.7408951" lon="-105.5200655"><ele>2303.5694727438545</ele></trkpt>
<trkpt lat="39.740498" lon="-105.52064200000002"><ele>2303.3010301854524</ele></trkpt>
<trkpt lat="39.7401068" lon="-105.5211878"><ele>2302.9930023220677</ele></trkpt>
<trkpt lat="39.739529100000006" lon="-105.5219607"><ele>2302.59</ele></trkpt>
<trkpt lat="39.73896909999999" lon="-105.5226605"><ele>2303.8</ele></trkpt>
<trkpt lat="39.7385582" lon="-105.5231404"><ele>2305.26</ele></trkpt>
<trkpt lat="39.7374112" lon="-105.5244288"><ele>2309.28</ele></trkpt>
<trkpt lat="39.7366117" lon="-105.5253782"><ele>2311.88</ele></trkpt>
<trkpt lat="39.7360414" lon="-105.52608840000003"><ele>2313.85</ele></trkpt>
<trkpt lat="39.735438" lon="-105.526874"><ele>2316.11</ele></trkpt>
<trkpt lat="39.73521879999999" lon="-105.5271838"><ele>2316.98</ele></trkpt>
<trkpt lat="39.735134200000005" lon="-105.52737189999999"><ele>2317.39</ele></trkpt>
<trkpt lat="39.73503" lon="-105.52775490000002"><ele>2318</ele></trkpt>
<trkpt lat="39.7349193" lon="-105.52880049999999"><ele>2319.43</ele></trkpt>
<trkpt lat="39.7348262" lon="-105.5292416"><ele>2320.28</ele></trkpt>
<trkpt lat="39.7346102" lon="-105.52979820000002"><ele>2321.29</ele></trkpt>
<trkpt lat="39.7341885" lon="-105.53048320000002"><ele>2322.84</ele></trkpt>
<trkpt lat="39.7339011" lon="-105.5309891"><ele>2324.16</ele></trkpt>
<trkpt lat="39.73327979999999" lon="-105.5322709"><ele>2327.57</ele></trkpt>
<trkpt lat="39.7323667" lon="-105.53439"><ele>2333</ele></trkpt>
<trkpt lat="39.73183100000001" lon="-105.53567799999999"><ele>2336.11</ele></trkpt>
<trkpt lat="39.7316903" lon="-105.53604010000001"><ele>2336.9</ele></trkpt>
<trkpt lat="39.731269000000005" lon="-105.5372617"><ele>2339.48</ele></trkpt>
<trkpt lat="39.7311398" lon="-105.53759890000002"><ele>2340.23</ele></trkpt>
<trkpt lat="39.7306791" lon="-105.53856100000003"><ele>2342.41</ele></trkpt>
<trkpt lat="39.730001" lon="-105.5398508"><ele>2345.36</ele></trkpt>
<trkpt lat="39.729686" lon="-105.54038990000001"><ele>2346.67</ele></trkpt>
<trkpt lat="39.7288531" lon="-105.541717"><ele>2350.35</ele></trkpt>
<trkpt lat="39.7287203" lon="-105.54195120000001"><ele>2351.05</ele></trkpt>
<trkpt lat="39.7285939" lon="-105.5422521"><ele>2351.81</ele></trkpt>
<trkpt lat="39.72847970000001" lon="-105.54271720000001"><ele>2352.79</ele></trkpt>
<trkpt lat="39.728359" lon="-105.54387009999999"><ele>2355.11</ele></trkpt>
<trkpt lat="39.72830009999999" lon="-105.5441956"><ele>2355.86</ele></trkpt>
<trkpt lat="39.72816360000001" lon="-105.5446858"><ele>2357.12</ele></trkpt>
<trkpt lat="39.7278757" lon="-105.5454286"><ele>2359.14</ele></trkpt>
<trkpt lat="39.72719" lon="-105.54713060000003"><ele>2363.95</ele></trkpt>
<trkpt lat="39.726988199999994" lon="-105.54767380000001"><ele>2365.45</ele></trkpt>
<trkpt lat="39.7267451" lon="-105.54840979999999"><ele>2367.43</ele></trkpt>
<trkpt lat="39.7264291" lon="-105.5495441"><ele>2370.39</ele></trkpt>
<trkpt lat="39.7262101" lon="-105.5504417"><ele>2372.72</ele></trkpt>
<trkpt lat="39.7259574" lon="-105.55171920000001"><ele>2375.93</ele></trkpt>
<trkpt lat="39.7256338" lon="-105.5535213"><ele>2380.57</ele></trkpt>
<trkpt lat="39.7254555" lon="-105.55442260000001"><ele>2382.98</ele></trkpt>
<trkpt lat="39.7253553" lon="-105.5548239"><ele>2384.07</ele></trkpt>
<trkpt lat="39.7252268" lon="-105.55519279999999"><ele>2385.12</ele></trkpt>
<trkpt lat="39.72491080000001" lon="-105.55594080000003"><ele>2387.65</ele></trkpt>
<trkpt lat="39.72480269999999" lon="-105.5562634"><ele>2388.73</ele></trkpt>
<trkpt lat="39.7247311" lon="-105.5566186"><ele>2389.7</ele></trkpt>
<trkpt lat="39.72469" lon="-105.55702820000002"><ele>2390.68</ele></trkpt>
<trkpt lat="39.7247395" lon="-105.55859290000001"><ele>2394.69</ele></trkpt>
<trkpt lat="39.7247249" lon="-105.5591718"><ele>2396.29</ele></trkpt>
<trkpt lat="39.724665099999996" lon="-105.55973940000001"><ele>2397.83</ele></trkpt>
<trkpt lat="39.724529" lon="-105.56042970000001"><ele>2399.78</ele></trkpt>
<trkpt lat="39.7243618" lon="-105.56095369999998"><ele>2401.27</ele></trkpt>
<trkpt lat="39.7242573" lon="-105.56122490000001"><ele>2402.08</ele></trkpt>
<trkpt lat="39.7240311" lon="-105.56171710000001"><ele>2403.61</ele></trkpt>
<trkpt lat="39.7236499" lon="-105.56249010000003"><ele>2406.01</ele></trkpt>
<trkpt lat="39.7222901" lon="-105.5651598"><ele>2414.45</ele></trkpt>
<trkpt lat="39.72184889999999" lon="-105.56615060000001"><ele>2417.86</ele></trkpt>
<trkpt lat="39.7212306" lon="-105.56734980000003"><ele>2422.7</ele></trkpt>
<trkpt lat="39.7208888" lon="-105.5680937"><ele>2425.5</ele></trkpt>
<trkpt lat="39.7204404" lon="-105.5690378"><ele>2428.75</ele></trkpt>
<trkpt lat="39.720198" lon="-105.5694612"><ele>2430.21</ele></trkpt>
<trkpt lat="39.7200099" lon="-105.56971819999998"><ele>2431.15</ele></trkpt>
<trkpt lat="39.7197314" lon="-105.56998690000002"><ele>2432.47</ele></trkpt>
<trkpt lat="39.7194903" lon="-105.57012980000002"><ele>2433.62</ele></trkpt>
<trkpt lat="39.71925" lon="-105.57022790000002"><ele>2434.86</ele></trkpt>
<trkpt lat="39.7188715" lon="-105.5702695"><ele>2437.05</ele></trkpt>
<trkpt lat="39.718228999999994" lon="-105.5702305"><ele>2441.42</ele></trkpt>
<trkpt lat="39.7177224" lon="-105.57023069999998"><ele>2444.91</ele></trkpt>
<trkpt lat="39.71753" lon="-105.5702738"><ele>2446.27</ele></trkpt>
<trkpt lat="39.7173276" lon="-105.57038330000002"><ele>2447.75</ele></trkpt>
<trkpt lat="39.7171241" lon="-105.57058110000003"><ele>2449.43</ele></trkpt>
<trkpt lat="39.7169086" lon="-105.57098159999998"><ele>2452</ele></trkpt>
<trkpt lat="39.7168311" lon="-105.5713483"><ele>2453.97</ele></trkpt>
<trkpt lat="39.7167971" lon="-105.57207300000002"><ele>2457.59</ele></trkpt>
<trkpt lat="39.7167805" lon="-105.57280920000002"><ele>2460.4</ele></trkpt>
<trkpt lat="39.71678949999999" lon="-105.5733061"><ele>2461.87</ele></trkpt>
<trkpt lat="39.7167489" lon="-105.57397210000002"><ele>2463.4</ele></trkpt>
<trkpt lat="39.7166417" lon="-105.57449450000001"><ele>2464.34</ele></trkpt>
<trkpt lat="39.7164675" lon="-105.57497580000002"><ele>2465.44</ele></trkpt>
<trkpt lat="39.716327" lon="-105.5752445"><ele>2466.1</ele></trkpt>
<trkpt lat="39.7158104" lon="-105.5761096"><ele>2468.69</ele></trkpt>
<trkpt lat="39.715241600000006" lon="-105.57710840000003"><ele>2471.79</ele></trkpt>
<trkpt lat="39.7149634" lon="-105.57776150000001"><ele>2473.68</ele></trkpt>
<trkpt lat="39.7147884" lon="-105.5784439"><ele>2475.54</ele></trkpt>
<trkpt lat="39.7145508" lon="-105.5792579"><ele>2478.63</ele></trkpt>
<trkpt lat="39.714408" lon="-105.5797837"><ele>2481.08</ele></trkpt>
<trkpt lat="39.7142181" lon="-105.5803141"><ele>2483.83</ele></trkpt>
<trkpt lat="39.7138715" lon="-105.58111420000002"><ele>2487.57</ele></trkpt>
<trkpt lat="39.7135081" lon="-105.5818559"><ele>2490.01</ele></trkpt>
<trkpt lat="39.7130297" lon="-105.58272010000003"><ele>2492.26</ele></trkpt>
<trkpt lat="39.712752" lon="-105.583197"><ele>2493.66</ele></trkpt>
<trkpt lat="39.7123877" lon="-105.5838735"><ele>2496.21</ele></trkpt>
<trkpt lat="39.7121218" lon="-105.5843376"><ele>2498.38</ele></trkpt>
<trkpt lat="39.7116801" lon="-105.58518990000003"><ele>2502.82</ele></trkpt>
<trkpt lat="39.71161459999999" lon="-105.5853409"><ele>2503.58</ele></trkpt>
<trkpt lat="39.7114326" lon="-105.5859815"><ele>2506.49</ele></trkpt>
<trkpt lat="39.71139" lon="-105.58630570000003"><ele>2507.79</ele></trkpt>
<trkpt lat="39.71132849999999" lon="-105.587306"><ele>2511.7</ele></trkpt>
<trkpt lat="39.7112591" lon="-105.5881251"><ele>2514.8</ele></trkpt>
<trkpt lat="39.7111924" lon="-105.58859560000002"><ele>2516.55</ele></trkpt>
<trkpt lat="39.7111102" lon="-105.5889975"><ele>2518.1</ele></trkpt>
<trkpt lat="39.7109497" lon="-105.5895042"><ele>2520.01</ele></trkpt>
<trkpt lat="39.71064799999999" lon="-105.5902126"><ele>2522.92</ele></trkpt>
<trkpt lat="39.7096002" lon="-105.59223"><ele>2532.76</ele></trkpt>
<trkpt lat="39.7090179" lon="-105.5934162"><ele>2539.08</ele></trkpt>
<trkpt lat="39.7088181" lon="-105.59398510000001"><ele>2542.2</ele></trkpt>
<trkpt lat="39.70872090000001" lon="-105.59450900000003"><ele>2544.81</ele></trkpt>
<trkpt lat="39.70859329999999" lon="-105.5962719"><ele>2553.8</ele></trkpt>
<trkpt lat="39.7085606" lon="-105.59687209999998"><ele>2556.84</ele></trkpt>
<trkpt lat="39.70857300000001" lon="-105.5973694"><ele>2559.17</ele></trkpt>
<trkpt lat="39.7086027" lon="-105.59755109999999"><ele>2559.91</ele></trkpt>
<trkpt lat="39.7087677" lon="-105.5980728"><ele>2561.75</ele></trkpt>
<trkpt lat="39.70905799999999" lon="-105.59865590000003"><ele>2563.61</ele></trkpt>
<trkpt lat="39.7094463" lon="-105.59948439999998"><ele>2566.25</ele></trkpt>
<trkpt lat="39.709681" lon="-105.60014019999998"><ele>2568.61</ele></trkpt>
<trkpt lat="39.7097047" lon="-105.60037010000002"><ele>2569.42</ele></trkpt>
<trkpt lat="39.709647" lon="-105.60074100000001"><ele>2570.7</ele></trkpt>
<trkpt lat="39.7095758" lon="-105.60096839999999"><ele>2571.57</ele></trkpt>
<trkpt lat="39.70941710000001" lon="-105.60124429999999"><ele>2572.8</ele></trkpt>
<trkpt lat="39.70926860000001" lon="-105.60141860000002"><ele>2573.71</ele></trkpt>
<trkpt lat="39.708740000000006" lon="-105.60189170000001"><ele>2576.8</ele></trkpt>
<trkpt lat="39.7083318" lon="-105.6023684"><ele>2579.59</ele></trkpt>
<trkpt lat="39.7080989" lon="-105.60269319999999"><ele>2581.37</ele></trkpt>
<trkpt lat="39.7073905" lon="-105.60392800000001"><ele>2589.07</ele></trkpt>
<trkpt lat="39.7070418" lon="-105.60443310000001"><ele>2593.05</ele></trkpt>
<trkpt lat="39.7062888" lon="-105.60545100000002"><ele>2599.74</ele></trkpt>
<trkpt lat="39.7059601" lon="-105.60586060000001"><ele>2601.54</ele></trkpt>
<trkpt lat="39.7050611" lon="-105.60706760000001"><ele>2605.47</ele></trkpt>
<trkpt lat="39.704609" lon="-105.60759060000001"><ele>2607.94</ele></trkpt>
<trkpt lat="39.7033446" lon="-105.6089587"><ele>2615.68</ele></trkpt>
<trkpt lat="39.7028623" lon="-105.6095079"><ele>2618.81</ele></trkpt>
<trkpt lat="39.70256" lon="-105.60989100000002"><ele>2620.9</ele></trkpt>
<trkpt lat="39.702288" lon="-105.6102981"><ele>2623.06</ele></trkpt>
<trkpt lat="39.7019277" lon="-105.61080189999998"><ele>2626.02</ele></trkpt>
<trkpt lat="39.701506599999995" lon="-105.6112914"><ele>2629.22</ele></trkpt>
<trkpt lat="39.7010624" lon="-105.6116572"><ele>2632.15</ele></trkpt>
<trkpt lat="39.7004767" lon="-105.6119802"><ele>2635.67</ele></trkpt>
<trkpt lat="39.700144" lon="-105.61209799999999"><ele>2637.57</ele></trkpt>
<trkpt lat="39.6997203" lon="-105.61218660000002"><ele>2639.93</ele></trkpt>
<trkpt lat="39.69892159999999" lon="-105.6122402"><ele>2644.6</ele></trkpt>
<trkpt lat="39.6984733" lon="-105.61233390000001"><ele>2647.47</ele></trkpt>
<trkpt lat="39.6981019" lon="-105.6125234"><ele>2650.06</ele></trkpt>
<trkpt lat="39.6978925" lon="-105.61271250000001"><ele>2651.69</ele></trkpt>
<trkpt lat="39.6976823" lon="-105.61295290000001"><ele>2653.48</ele></trkpt>
<trkpt lat="39.69711269999999" lon="-105.61392439999999"><ele>2659.46</ele></trkpt>
<trkpt lat="39.6967789" lon="-105.61439940000001"><ele>2662.79</ele></trkpt>
<trkpt lat="39.6966201" lon="-105.6145591"><ele>2664.14</ele></trkpt>
<trkpt lat="39.6956646" lon="-105.61534590000001"><ele>2672.29</ele></trkpt>
<trkpt lat="39.6954745" lon="-105.6155363"><ele>2674.11</ele></trkpt>
<trkpt lat="39.695121900000004" lon="-105.61598790000001"><ele>2677.77</ele></trkpt>
<trkpt lat="39.6944385" lon="-105.6169907"><ele>2684.87</ele></trkpt>
<trkpt lat="39.6941754" lon="-105.61728020000001"><ele>2687.04</ele></trkpt>
<trkpt lat="39.6939681" lon="-105.61737310000001"><ele>2688.31</ele></trkpt>
<trkpt lat="39.6937735" lon="-105.6173552"><ele>2689.34</ele></trkpt>
<trkpt lat="39.6935562" lon="-105.617201"><ele>2690.55</ele></trkpt>
<trkpt lat="39.6934127" lon="-105.6169132"><ele>2691.76</ele></trkpt>
<trkpt lat="39.6934063" lon="-105.6165181"><ele>2693.05</ele></trkpt>
<trkpt lat="39.6934895" lon="-105.6162979"><ele>2693.78</ele></trkpt>
<trkpt lat="39.6935965" lon="-105.6161534"><ele>2694.39</ele></trkpt>
<trkpt lat="39.6940261" lon="-105.61567380000001"><ele>2697.12</ele></trkpt>
<trkpt lat="39.694256900000006" lon="-105.6153517"><ele>2698.9</ele></trkpt>
<trkpt lat="39.6948914" lon="-105.614339"><ele>2704.47</ele></trkpt>
<trkpt lat="39.6950315" lon="-105.61415040000003"><ele>2705.63</ele></trkpt>
<trkpt lat="39.6951935" lon="-105.61400989999999"><ele>2706.7</ele></trkpt>
<trkpt lat="39.6954604" lon="-105.61388579999999"><ele>2708.26</ele></trkpt>
<trkpt lat="39.6958972" lon="-105.6137969"><ele>2710.77</ele></trkpt>
<trkpt lat="39.6961001" lon="-105.6137064"><ele>2712.03</ele></trkpt>
<trkpt lat="39.6962887" lon="-105.6134584"><ele>2713.58</ele></trkpt>
<trkpt lat="39.6963272" lon="-105.6132024"><ele>2714.67</ele></trkpt>
<trkpt lat="39.6962603" lon="-105.61296960000001"><ele>2715.67</ele></trkpt>
<trkpt lat="39.6961775" lon="-105.6128532"><ele>2716.31</ele></trkpt>
<trkpt lat="39.6959955" lon="-105.6127412"><ele>2717.44</ele></trkpt>
<trkpt lat="39.6957727" lon="-105.61275600000002"><ele>2718.73</ele></trkpt>
<trkpt lat="39.6956309" lon="-105.61285470000001"><ele>2719.58</ele></trkpt>
<trkpt lat="39.6949788" lon="-105.61357150000003"><ele>2723.22</ele></trkpt>
<trkpt lat="39.6937712" lon="-105.61494880000002"><ele>2730.14</ele></trkpt>
<trkpt lat="39.6934129" lon="-105.61532619999998"><ele>2733.22</ele></trkpt>
<trkpt lat="39.6931323" lon="-105.61554760000003"><ele>2735.75</ele></trkpt>
<trkpt lat="39.6928779" lon="-105.61565030000001"><ele>2737.78</ele></trkpt>
<trkpt lat="39.6926382" lon="-105.61567920000002"><ele>2739.54</ele></trkpt>
<trkpt lat="39.69223290000001" lon="-105.61560020000002"><ele>2742.57</ele></trkpt>
<trkpt lat="39.6917942" lon="-105.61541600000001"><ele>2746.15</ele></trkpt>
<trkpt lat="39.69150320000001" lon="-105.6152119"><ele>2748.6</ele></trkpt>
<trkpt lat="39.69091019999999" lon="-105.6146689"><ele>2753.79</ele></trkpt>
<trkpt lat="39.690607699999994" lon="-105.61437090000003"><ele>2756.37</ele></trkpt>
<trkpt lat="39.6903401" lon="-105.61423470000003"><ele>2758.47</ele></trkpt>
<trkpt lat="39.6900348" lon="-105.6142602"><ele>2760.47</ele></trkpt>
<trkpt lat="39.6895915" lon="-105.61439869999998"><ele>2763.41</ele></trkpt>
<trkpt lat="39.6891901" lon="-105.6144435"><ele>2766.1</ele></trkpt>
<trkpt lat="39.6889787" lon="-105.6143403"><ele>2767.52</ele></trkpt>
<trkpt lat="39.68881520000001" lon="-105.61418270000001"><ele>2768.75</ele></trkpt>
<trkpt lat="39.6882008" lon="-105.6132606"><ele>2775.24</ele></trkpt>
<trkpt lat="39.6879156" lon="-105.61289560000002"><ele>2778.38</ele></trkpt>
<trkpt lat="39.6875775" lon="-105.6126404"><ele>2781.51</ele></trkpt>
<trkpt lat="39.687307999999994" lon="-105.6125204"><ele>2783.71</ele></trkpt>
<trkpt lat="39.6864083" lon="-105.6122299"><ele>2790.6</ele></trkpt>
<trkpt lat="39.6860971" lon="-105.61215329999999"><ele>2792.74</ele></trkpt>
<trkpt lat="39.6854418" lon="-105.61205420000003"><ele>2797.08</ele></trkpt>
<trkpt lat="39.6848107" lon="-105.61203680000001"><ele>2801.39</ele></trkpt>
<trkpt lat="39.6843793" lon="-105.6120692"><ele>2804.32</ele></trkpt>
<trkpt lat="39.6838818" lon="-105.61215160000003"><ele>2807.63</ele></trkpt>
<trkpt lat="39.6833698" lon="-105.6122879"><ele>2810.92</ele></trkpt>
<trkpt lat="39.6831006" lon="-105.6123818"><ele>2812.57</ele></trkpt>
<trkpt lat="39.682162899999994" lon="-105.6128337"><ele>2818.16</ele></trkpt>
<trkpt lat="39.68194690000001" lon="-105.613053"><ele>2819.91</ele></trkpt>
<trkpt lat="39.6818949" lon="-105.61325110000001"><ele>2820.82</ele></trkpt>
<trkpt lat="39.6818786" lon="-105.613938"><ele>2823.93</ele></trkpt>
<trkpt lat="39.6817898" lon="-105.6142309"><ele>2825.53</ele></trkpt>
<trkpt lat="39.681616899999995" lon="-105.61439820000001"><ele>2826.94</ele></trkpt>
<trkpt lat="39.6814406" lon="-105.6144365"><ele>2828.07</ele></trkpt>
<trkpt lat="39.6812119" lon="-105.6143313"><ele>2829.58</ele></trkpt>
<trkpt lat="39.6810997" lon="-105.6141703"><ele>2830.55</ele></trkpt>
<trkpt lat="39.6810406" lon="-105.6138743"><ele>2831.81</ele></trkpt>
<trkpt lat="39.6811622" lon="-105.61322460000001"><ele>2834.77</ele></trkpt>
<trkpt lat="39.681182799999995" lon="-105.6130031"><ele>2835.84</ele></trkpt>
<trkpt lat="39.6811136" lon="-105.6126995"><ele>2837.37</ele></trkpt>
<trkpt lat="39.6810299" lon="-105.6125524"><ele>2838.28</ele></trkpt>
<trkpt lat="39.6809113" lon="-105.61246050000001"><ele>2839.16</ele></trkpt>
<trkpt lat="39.6806637" lon="-105.61243440000001"><ele>2840.79</ele></trkpt>
<trkpt lat="39.6804746" lon="-105.6125436"><ele>2842.2</ele></trkpt>
<trkpt lat="39.680305700000005" lon="-105.6128415"><ele>2844.08</ele></trkpt>
<trkpt lat="39.680290799999995" lon="-105.6131555"><ele>2845.48</ele></trkpt>
<trkpt lat="39.6804097" lon="-105.6140258"><ele>2849.53</ele></trkpt>
<trkpt lat="39.6805301" lon="-105.61473300000003"><ele>2853.1</ele></trkpt>
<trkpt lat="39.6806105" lon="-105.6152962"><ele>2855.98</ele></trkpt>
<trkpt lat="39.6806616" lon="-105.61592110000001"><ele>2859.44</ele></trkpt>
<trkpt lat="39.6805887" lon="-105.6162795"><ele>2861.65</ele></trkpt>
<trkpt lat="39.6805103" lon="-105.6164272"><ele>2862.69</ele></trkpt>
<trkpt lat="39.68033869999999" lon="-105.6166053"><ele>2864.31</ele></trkpt>
<trkpt lat="39.6800795" lon="-105.61670050000001"><ele>2866.2</ele></trkpt>
<trkpt lat="39.67974389999999" lon="-105.6166145"><ele>2868.44</ele></trkpt>
<trkpt lat="39.6791018" lon="-105.61625130000002"><ele>2873.32</ele></trkpt>
<trkpt lat="39.6788725" lon="-105.61620180000001"><ele>2875.05</ele></trkpt>
<trkpt lat="39.6786293" lon="-105.61624410000002"><ele>2876.83</ele></trkpt>
<trkpt lat="39.6784113" lon="-105.61640340000001"><ele>2878.46</ele></trkpt>
<trkpt lat="39.6780898" lon="-105.61673830000001"><ele>2881.03</ele></trkpt>
<trkpt lat="39.677850799999995" lon="-105.61690550000003"><ele>2882.62</ele></trkpt>
<trkpt lat="39.6775878" lon="-105.616952"><ele>2884.05</ele></trkpt>
<trkpt lat="39.6773451" lon="-105.6168669"><ele>2885.33</ele></trkpt>
<trkpt lat="39.6772158" lon="-105.61675719999998"><ele>2886.1</ele></trkpt>
<trkpt lat="39.6770885" lon="-105.61657290000001"><ele>2887.05</ele></trkpt>
<trkpt lat="39.676984" lon="-105.6162047"><ele>2888.59</ele></trkpt>
<trkpt lat="39.67698380000001" lon="-105.6159948"><ele>2889.35</ele></trkpt>
<trkpt lat="39.677111" lon="-105.6154985"><ele>2891.17</ele></trkpt>
<trkpt lat="39.6774075" lon="-105.61466"><ele>2894.92</ele></trkpt>
<trkpt lat="39.67778030000001" lon="-105.6135685"><ele>2900.48</ele></trkpt>
<trkpt lat="39.6779608" lon="-105.61299890000001"><ele>2903.49</ele></trkpt>
<trkpt lat="39.67801550000001" lon="-105.61248"><ele>2906.07</ele></trkpt>
<trkpt lat="39.6779849" lon="-105.6123142"><ele>2906.86</ele></trkpt>
<trkpt lat="39.6778568" lon="-105.6120211"><ele>2908.31</ele></trkpt>
<trkpt lat="39.6775771" lon="-105.61170789999998"><ele>2910.46</ele></trkpt>
<trkpt lat="39.67711" lon="-105.6113894"><ele>2913.63</ele></trkpt>
<trkpt lat="39.6768884" lon="-105.61110260000001"><ele>2915.46</ele></trkpt>
<trkpt lat="39.6767948" lon="-105.6108818"><ele>2916.55</ele></trkpt>
<trkpt lat="39.6767496" lon="-105.61047530000002"><ele>2918.37</ele></trkpt>
<trkpt lat="39.6768302" lon="-105.61011520000001"><ele>2920.12</ele></trkpt>
<trkpt lat="39.676922" lon="-105.60991729999999"><ele>2921.2</ele></trkpt>
<trkpt lat="39.6770967" lon="-105.6096953"><ele>2922.68</ele></trkpt>
<trkpt lat="39.6777101" lon="-105.6091601"><ele>2927.52</ele></trkpt>
<trkpt lat="39.6783299" lon="-105.6086399"><ele>2932.56</ele></trkpt>
<trkpt lat="39.6788527" lon="-105.6081858"><ele>2936.71</ele></trkpt>
<trkpt lat="39.6794501" lon="-105.60770149999999"><ele>2941.19</ele></trkpt>
<trkpt lat="39.6797635" lon="-105.60754979999999"><ele>2943.31</ele></trkpt>
<trkpt lat="39.6805059" lon="-105.6074487"><ele>2948.29</ele></trkpt>
<trkpt lat="39.6807846" lon="-105.607396"><ele>2950.23</ele></trkpt>
<trkpt lat="39.6811397" lon="-105.607206"><ele>2952.67</ele></trkpt>
<trkpt lat="39.6817178" lon="-105.6066838"><ele>2956.93</ele></trkpt>
<trkpt lat="39.6818954" lon="-105.60657949999998"><ele>2958.13</ele></trkpt>
<trkpt lat="39.6820751" lon="-105.6065384"><ele>2959.25</ele></trkpt>
<trkpt lat="39.6823502" lon="-105.6066036"><ele>2961.01</ele></trkpt>
<trkpt lat="39.6826181" lon="-105.6068518"><ele>2963.23</ele></trkpt>
<trkpt lat="39.6826892" lon="-105.60700300000002"><ele>2964.18</ele></trkpt>
<trkpt lat="39.6827495" lon="-105.6073119"><ele>2965.85</ele></trkpt>
<trkpt lat="39.682718" lon="-105.6077636"><ele>2968.09</ele></trkpt>
<trkpt lat="39.6826285" lon="-105.60809439999998"><ele>2969.7</ele></trkpt>
<trkpt lat="39.6824328" lon="-105.6086873"><ele>2972.62</ele></trkpt>
<trkpt lat="39.6823766" lon="-105.6089759"><ele>2974</ele></trkpt>
<trkpt lat="39.6824176" lon="-105.60921990000001"><ele>2975.13</ele></trkpt>
<trkpt lat="39.6824906" lon="-105.6093527"><ele>2975.85</ele></trkpt>
<trkpt lat="39.682716" lon="-105.60950160000002"><ele>2977.25</ele></trkpt>
<trkpt lat="39.68298930000001" lon="-105.6094267"><ele>2978.73</ele></trkpt>
<trkpt lat="39.6831273" lon="-105.6092368"><ele>2979.77</ele></trkpt>
<trkpt lat="39.68317510000001" lon="-105.6090431"><ele>2980.58</ele></trkpt>
<trkpt lat="39.6831604" lon="-105.6085306"><ele>2982.75</ele></trkpt>
<trkpt lat="39.6831107" lon="-105.60790040000002"><ele>2985.58</ele></trkpt>
<trkpt lat="39.6831148" lon="-105.6076048"><ele>2986.84</ele></trkpt>
<trkpt lat="39.6832293" lon="-105.6063889"><ele>2992.35</ele></trkpt>
<trkpt lat="39.6832383" lon="-105.60591729999999"><ele>2994.77</ele></trkpt>
<trkpt lat="39.6832173" lon="-105.6057358"><ele>2995.71</ele></trkpt>
<trkpt lat="39.6831288" lon="-105.60545769999999"><ele>2997.24</ele></trkpt>
<trkpt lat="39.682883" lon="-105.60513080000003"><ele>2999.63</ele></trkpt>
<trkpt lat="39.6826327" lon="-105.60499740000002"><ele>3001.6</ele></trkpt>
<trkpt lat="39.6822604" lon="-105.60496050000002"><ele>3004.1</ele></trkpt>
<trkpt lat="39.6812375" lon="-105.6049725"><ele>3010.16</ele></trkpt>
<trkpt lat="39.6805306" lon="-105.60498989999999"><ele>3014.23</ele></trkpt>
<trkpt lat="39.680193" lon="-105.60508"><ele>3016.23</ele></trkpt>
<trkpt lat="39.6795715" lon="-105.60535839999999"><ele>3020.49</ele></trkpt>
<trkpt lat="39.6792183" lon="-105.60538350000002"><ele>3022.99</ele></trkpt>
<trkpt lat="39.6789864" lon="-105.60528370000003"><ele>3024.64</ele></trkpt>
<trkpt lat="39.6787449" lon="-105.60503619999999"><ele>3026.64</ele></trkpt>
<trkpt lat="39.678612099999995" lon="-105.6047521"><ele>3028.21</ele></trkpt>
<trkpt lat="39.67847" lon="-105.6040424"><ele>3031.72</ele></trkpt>
<trkpt lat="39.6782497" lon="-105.60293"><ele>3037.47</ele></trkpt>
<trkpt lat="39.6780466" lon="-105.60205980000002"><ele>3042.06</ele></trkpt>
<trkpt lat="39.6774786" lon="-105.5998462"><ele>3053.51</ele></trkpt>
<trkpt lat="39.6772107" lon="-105.59895349999998"><ele>3058.24</ele></trkpt>
<trkpt lat="39.67693460000001" lon="-105.5983242"><ele>3062.12</ele></trkpt>
<trkpt lat="39.67672050000001" lon="-105.59795169999998"><ele>3064.59</ele></trkpt>
<trkpt lat="39.6762595" lon="-105.5972475"><ele>3069.82</ele></trkpt>
<trkpt lat="39.6760522" lon="-105.59686189999998"><ele>3072.5</ele></trkpt>
<trkpt lat="39.6759612" lon="-105.5966205"><ele>3073.99</ele></trkpt>
<trkpt lat="39.6759003" lon="-105.59634730000002"><ele>3075.45</ele></trkpt>
<trkpt lat="39.6758209" lon="-105.5957178"><ele>3078.71</ele></trkpt>
<trkpt lat="39.6757757" lon="-105.5955175"><ele>3079.8</ele></trkpt>
<trkpt lat="39.675641999999996" lon="-105.5951918"><ele>3081.76</ele></trkpt>
<trkpt lat="39.67549749999999" lon="-105.5950038"><ele>3083.17</ele></trkpt>
<trkpt lat="39.6752599" lon="-105.5948183"><ele>3085.08</ele></trkpt>
<trkpt lat="39.6747595" lon="-105.59449880000003"><ele>3089.09</ele></trkpt>
<trkpt lat="39.6745879" lon="-105.59435690000001"><ele>3090.47</ele></trkpt>
<trkpt lat="39.674122" lon="-105.59386799999999"><ele>3094.23</ele></trkpt>
<trkpt lat="39.6731676" lon="-105.5928387"><ele>3102.29</ele></trkpt>
<trkpt lat="39.6729481" lon="-105.59264020000002"><ele>3104.06</ele></trkpt>
<trkpt lat="39.6727171" lon="-105.59248970000002"><ele>3105.79</ele></trkpt>
<trkpt lat="39.6724948" lon="-105.59242390000001"><ele>3107.32</ele></trkpt>
<trkpt lat="39.672343" lon="-105.5924371"><ele>3108.3</ele></trkpt>
<trkpt lat="39.6720038" lon="-105.59259120000003"><ele>3110.62</ele></trkpt>
<trkpt lat="39.6718998" lon="-105.59269190000002"><ele>3111.45</ele></trkpt>
<trkpt lat="39.6717124" lon="-105.593001"><ele>3113.33</ele></trkpt>
<trkpt lat="39.6716456" lon="-105.59319160000003"><ele>3114.27</ele></trkpt>
<trkpt lat="39.6715907" lon="-105.59351780000001"><ele>3115.72</ele></trkpt>
<trkpt lat="39.6715198" lon="-105.5953497"><ele>3123.65</ele></trkpt>
<trkpt lat="39.6714903" lon="-105.5958903"><ele>3125.79</ele></trkpt>
<trkpt lat="39.67146509999999" lon="-105.59675210000002"><ele>3129.19</ele></trkpt>
<trkpt lat="39.671366400000004" lon="-105.59731980000001"><ele>3131.74</ele></trkpt>
<trkpt lat="39.6712258" lon="-105.5976299"><ele>3133.5</ele></trkpt>
<trkpt lat="39.670965599999995" lon="-105.59788680000001"><ele>3135.61</ele></trkpt>
<trkpt lat="39.6707595" lon="-105.5979557"><ele>3136.91</ele></trkpt>
<trkpt lat="39.6703504" lon="-105.59791630000002"><ele>3139.35</ele></trkpt>
<trkpt lat="39.6692517" lon="-105.5975098"><ele>3146.75</ele></trkpt>
<trkpt lat="39.66876119999999" lon="-105.5972197"><ele>3150.04</ele></trkpt>
<trkpt lat="39.6684419" lon="-105.59695250000003"><ele>3152.14</ele></trkpt>
<trkpt lat="39.6680318" lon="-105.59668720000002"><ele>3154.86</ele></trkpt>
<trkpt lat="39.667880700000005" lon="-105.5966319"><ele>3155.8</ele></trkpt>
<trkpt lat="39.667598000000005" lon="-105.5965904"><ele>3157.43</ele></trkpt>
<trkpt lat="39.6672062" lon="-105.59671350000004"><ele>3159.64</ele></trkpt>
<trkpt lat="39.6669035" lon="-105.59692830000003"><ele>3161.66</ele></trkpt>
<trkpt lat="39.6666639" lon="-105.5971761"><ele>3163.46</ele></trkpt>
<trkpt lat="39.6664008" lon="-105.5975922"><ele>3166</ele></trkpt>
<trkpt lat="39.6662613" lon="-105.5980086"><ele>3168.11</ele></trkpt>
<trkpt lat="39.6662311" lon="-105.5982813"><ele>3169.31</ele></trkpt>
<trkpt lat="39.6662431" lon="-105.5986187"><ele>3170.73</ele></trkpt>
<trkpt lat="39.66639219999999" lon="-105.5993218"><ele>3173.73</ele></trkpt>
<trkpt lat="39.666622" lon="-105.60031610000001"><ele>3178.35</ele></trkpt>
<trkpt lat="39.6667488" lon="-105.60081740000003"><ele>3180.82</ele></trkpt>
<trkpt lat="39.666850200000006" lon="-105.6015239"><ele>3184.53</ele></trkpt>
<trkpt lat="39.6668374" lon="-105.6016809"><ele>3185.37</ele></trkpt>
<trkpt lat="39.6667494" lon="-105.60196850000003"><ele>3186.93</ele></trkpt>
<trkpt lat="39.666635199999995" lon="-105.60214660000001"><ele>3188.02</ele></trkpt>
<trkpt lat="39.666469799999994" lon="-105.60229120000001"><ele>3189.2</ele></trkpt>
<trkpt lat="39.6663089" lon="-105.6023594"><ele>3190.17</ele></trkpt>
<trkpt lat="39.6661129" lon="-105.60236990000003"><ele>3191.2</ele></trkpt>
<trkpt lat="39.66550260000001" lon="-105.6022308"><ele>3194.53</ele></trkpt>
<trkpt lat="39.6652552" lon="-105.60219020000001"><ele>3196.06</ele></trkpt>
<trkpt lat="39.6648823" lon="-105.60218500000002"><ele>3198.54</ele></trkpt>
<trkpt lat="39.6640275" lon="-105.60226000000003"><ele>3204.73</ele></trkpt>
<trkpt lat="39.6630901" lon="-105.60237010000002"><ele>3211.37</ele></trkpt>
<trkpt lat="39.6624403" lon="-105.6024606"><ele>3215.56</ele></trkpt>
<trkpt lat="39.662072699999996" lon="-105.60259890000003"><ele>3218.08</ele></trkpt>
<trkpt lat="39.6618848" lon="-105.60274140000001"><ele>3219.51</ele></trkpt>
<trkpt lat="39.6616807" lon="-105.6029817"><ele>3221.37</ele></trkpt>
<trkpt lat="39.6615626" lon="-105.6031787"><ele>3222.67</ele></trkpt>
<trkpt lat="39.6613301" lon="-105.60384879999998"><ele>3226.39</ele></trkpt>
<trkpt lat="39.6611799" lon="-105.6041858"><ele>3228.46</ele></trkpt>
<trkpt lat="39.6609024" lon="-105.6045157"><ele>3231.08</ele></trkpt>
<trkpt lat="39.6605895" lon="-105.604628"><ele>3232.94</ele></trkpt>
<trkpt lat="39.6603276" lon="-105.60459849999998"><ele>3234.11</ele></trkpt>
<trkpt lat="39.6601327" lon="-105.60450140000003"><ele>3234.82</ele></trkpt>
<trkpt lat="39.6599109" lon="-105.60433049999999"><ele>3235.45</ele></trkpt>
<trkpt lat="39.6597202" lon="-105.6040702"><ele>3235.85</ele></trkpt>
<trkpt lat="39.6594877" lon="-105.6036033"><ele>3236.06</ele></trkpt>
<trkpt lat="39.6592603" lon="-105.6027512"><ele>3236.08</ele></trkpt>
<trkpt lat="39.6591198" lon="-105.6023315"><ele>3236.06</ele></trkpt>
<trkpt lat="39.658869" lon="-105.60177940000001"><ele>3235.93</ele></trkpt>
<trkpt lat="39.6584967" lon="-105.60108000000001"><ele>3236.03</ele></trkpt>
<trkpt lat="39.657911500000004" lon="-105.59998160000002"><ele>3237.81</ele></trkpt>
<trkpt lat="39.6576496" lon="-105.5993969"><ele>3238.99</ele></trkpt>
<trkpt lat="39.657385" lon="-105.59863650000001"><ele>3240.71</ele></trkpt>
<trkpt lat="39.6569976" lon="-105.59739119999999"><ele>3246.19</ele></trkpt>
<trkpt lat="39.6567929" lon="-105.59663840000002"><ele>3250.16</ele></trkpt>
<trkpt lat="39.6567292" lon="-105.59627990000001"><ele>3251.79</ele></trkpt>
<trkpt lat="39.6562902" lon="-105.5959208"><ele>3254.83</ele></trkpt>
<trkpt lat="39.65575040000001" lon="-105.5955893"><ele>3258.99</ele></trkpt>
<trkpt lat="39.6553691" lon="-105.59526910000001"><ele>3262.18</ele></trkpt>
<trkpt lat="39.65498680000001" lon="-105.59485550000001"><ele>3265.12</ele></trkpt>
<trkpt lat="39.6547446" lon="-105.5945444"><ele>3267.15</ele></trkpt>
<trkpt lat="39.6545681" lon="-105.5942333"><ele>3268.43</ele></trkpt>
<trkpt lat="39.654410500000004" lon="-105.593829"><ele>3268.88</ele></trkpt>
<trkpt lat="39.6542807" lon="-105.5933482"><ele>3268.96</ele></trkpt>
<trkpt lat="39.6541673" lon="-105.59311420000002"><ele>3269.57</ele></trkpt>
<trkpt lat="39.6540275" lon="-105.59308320000001"><ele>3270.3</ele></trkpt>
<trkpt lat="39.6539584" lon="-105.59330009999998"><ele>3271.38</ele></trkpt>
<trkpt lat="39.6540496" lon="-105.59404060000003"><ele>3274.62</ele></trkpt>
<trkpt lat="39.6541112" lon="-105.59478220000001"><ele>3278.09</ele></trkpt>
<trkpt lat="39.654239" lon="-105.5956957"><ele>3282.93</ele></trkpt>
<trkpt lat="39.6543011" lon="-105.59658259999999"><ele>3287.72</ele></trkpt>
<trkpt lat="39.6544312" lon="-105.5972332"><ele>3290.96</ele></trkpt>
<trkpt lat="39.6545384" lon="-105.5976656"><ele>3293.27</ele></trkpt>
<trkpt lat="39.6546299" lon="-105.5982237"><ele>3296.22</ele></trkpt>
<trkpt lat="39.6546586" lon="-105.59868000000002"><ele>3298.74</ele></trkpt>
<trkpt lat="39.6546109" lon="-105.5991334"><ele>3301.15</ele></trkpt>
<trkpt lat="39.6544966" lon="-105.59952670000001"><ele>3303.22</ele></trkpt>
<trkpt lat="39.6543401" lon="-105.599978"><ele>3305.78</ele></trkpt>
<trkpt lat="39.6541893" lon="-105.6003297"><ele>3307.86</ele></trkpt>
<trkpt lat="39.65353249999999" lon="-105.60146670000002"><ele>3315.07</ele></trkpt>
<trkpt lat="39.6532725" lon="-105.60206469999999"><ele>3318.61</ele></trkpt>
<trkpt lat="39.6530637" lon="-105.6026609"><ele>3321.99</ele></trkpt>
<trkpt lat="39.6529001" lon="-105.60376590000003"><ele>3327.71</ele></trkpt>
<trkpt lat="39.6528386" lon="-105.6040545"><ele>3329.23</ele></trkpt>
<trkpt lat="39.6524603" lon="-105.60552260000003"><ele>3337.39</ele></trkpt>
<trkpt lat="39.65242099999999" lon="-105.60576170000003"><ele>3338.66</ele></trkpt>
<trkpt lat="39.6523903" lon="-105.6062212"><ele>3340.95</ele></trkpt>
<trkpt lat="39.6523563" lon="-105.60641810000003"><ele>3341.96</ele></trkpt>
<trkpt lat="39.65228220000001" lon="-105.60651560000001"><ele>3342.61</ele></trkpt>
<trkpt lat="39.6521252" lon="-105.60649230000003"><ele>3343.47</ele></trkpt>
<trkpt lat="39.652054099999994" lon="-105.60627950000003"><ele>3344.24</ele></trkpt>
<trkpt lat="39.6520596" lon="-105.6053516"><ele>3347.38</ele></trkpt>
<trkpt lat="39.65203919999999" lon="-105.6050547"><ele>3348.71</ele></trkpt>
<trkpt lat="39.6518603" lon="-105.6033873"><ele>3357.55</ele></trkpt>
<trkpt lat="39.6518408" lon="-105.60306520000002"><ele>3359.24</ele></trkpt>
<trkpt lat="39.65184" lon="-105.6018179"><ele>3365.61</ele></trkpt>
<trkpt lat="39.651832" lon="-105.60112050000001"><ele>3369.19</ele></trkpt>
<trkpt lat="39.6518098" lon="-105.60037640000002"><ele>3373.1</ele></trkpt>
<trkpt lat="39.651746" lon="-105.5999688"><ele>3375.36</ele></trkpt>
<trkpt lat="39.6515636" lon="-105.59951779999999"><ele>3377.86</ele></trkpt>
<trkpt lat="39.651406699999995" lon="-105.59925620000001"><ele>3379.47</ele></trkpt>
<trkpt lat="39.6509156" lon="-105.59857720000001"><ele>3384.49</ele></trkpt>
<trkpt lat="39.6507892" lon="-105.59831610000002"><ele>3386.12</ele></trkpt>
<trkpt lat="39.6504544" lon="-105.5973967"><ele>3391.27</ele></trkpt>
<trkpt lat="39.65009270000001" lon="-105.59649620000002"><ele>3396.59</ele></trkpt>
<trkpt lat="39.6500401" lon="-105.5963196"><ele>3397.55</ele></trkpt>
<trkpt lat="39.6499191" lon="-105.59543209999998"><ele>3402.5</ele></trkpt>
<trkpt lat="39.6497607" lon="-105.59481040000001"><ele>3405.71</ele></trkpt>
<trkpt lat="39.649597799999995" lon="-105.59391780000001"><ele>3410.03</ele></trkpt>
<trkpt lat="39.649431400000005" lon="-105.59295010000002"><ele>3415.25</ele></trkpt>
<trkpt lat="39.6493204" lon="-105.5922297"><ele>3418.97</ele></trkpt>
<trkpt lat="39.6492513" lon="-105.59162179999998"><ele>3422.24</ele></trkpt>
<trkpt lat="39.649249499999996" lon="-105.59095750000002"><ele>3425.54</ele></trkpt>
<trkpt lat="39.6492301" lon="-105.5904872"><ele>3428.06</ele></trkpt>
<trkpt lat="39.649171" lon="-105.58997799999999"><ele>3430.77</ele></trkpt>
<trkpt lat="39.649117700000005" lon="-105.58969630000003"><ele>3432.26</ele></trkpt>
<trkpt lat="39.6486929" lon="-105.5883886"><ele>3439.66</ele></trkpt>
<trkpt lat="39.6485932" lon="-105.5878893"><ele>3442.33</ele></trkpt>
<trkpt lat="39.6485713" lon="-105.587477"><ele>3444.44</ele></trkpt>
<trkpt lat="39.6486009" lon="-105.5869479"><ele>3447.05</ele></trkpt>
<trkpt lat="39.6486789" lon="-105.58633830000001"><ele>3450.2</ele></trkpt>
<trkpt lat="39.6486888" lon="-105.58599999999998"><ele>3452.11</ele></trkpt>
<trkpt lat="39.6486494" lon="-105.5853816"><ele>3455.59</ele></trkpt>
<trkpt lat="39.6485288" lon="-105.5848714"><ele>3458.6</ele></trkpt>
<trkpt lat="39.6483287" lon="-105.58455200000003"><ele>3460.84</ele></trkpt>
<trkpt lat="39.6480911" lon="-105.5844143"><ele>3462.48</ele></trkpt>
<trkpt lat="39.6477879" lon="-105.5844768"><ele>3464.45</ele></trkpt>
<trkpt lat="39.6473845" lon="-105.58470080000001"><ele>3467.34</ele></trkpt>
<trkpt lat="39.6472527" lon="-105.5848327"><ele>3468.43</ele></trkpt>
<trkpt lat="39.646805" lon="-105.5856103"><ele>3473.3</ele></trkpt>
<trkpt lat="39.6466478" lon="-105.58638590000001"><ele>3477.55</ele></trkpt>
<trkpt lat="39.6464729" lon="-105.5869858"><ele>3480.52</ele></trkpt>
<trkpt lat="39.6463233" lon="-105.58732120000003"><ele>3482.25</ele></trkpt>
<trkpt lat="39.6461968" lon="-105.58753640000003"><ele>3483.56</ele></trkpt>
<trkpt lat="39.64585259999999" lon="-105.58788700000001"><ele>3486.46</ele></trkpt>
<trkpt lat="39.6455672" lon="-105.58814139999998"><ele>3488.84</ele></trkpt>
<trkpt lat="39.6450755" lon="-105.5885061"><ele>3492.43</ele></trkpt>
<trkpt lat="39.6448732" lon="-105.5886999"><ele>3493.99</ele></trkpt>
<trkpt lat="39.644758" lon="-105.58888160000001"><ele>3495.22</ele></trkpt>
<trkpt lat="39.644685900000006" lon="-105.58914079999998"><ele>3496.75</ele></trkpt>
<trkpt lat="39.644574500000004" lon="-105.58935489999999"><ele>3498.15</ele></trkpt>
<trkpt lat="39.6443138" lon="-105.589682"><ele>3500.6</ele></trkpt>
<trkpt lat="39.6441581" lon="-105.5900643"><ele>3502.9</ele></trkpt>
<trkpt lat="39.6440833" lon="-105.590347"><ele>3504.54</ele></trkpt>
<trkpt lat="39.6439286" lon="-105.5913309"><ele>3509.86</ele></trkpt>
<trkpt lat="39.6438" lon="-105.5917999"><ele>3512.5</ele></trkpt>
<trkpt lat="39.6436679" lon="-105.59213069999998"><ele>3514.41</ele></trkpt>
<trkpt lat="39.643572" lon="-105.5922946"><ele>3515.41</ele></trkpt>
<trkpt lat="39.6434029" lon="-105.59248430000001"><ele>3516.87</ele></trkpt>
<trkpt lat="39.6431414" lon="-105.5926942"><ele>3519.05</ele></trkpt>
<trkpt lat="39.6430426" lon="-105.59284240000002"><ele>3520.13</ele></trkpt>
<trkpt lat="39.6430893" lon="-105.5930341"><ele>3521.26</ele></trkpt>
<trkpt lat="39.6431715" lon="-105.5930914"><ele>3521.89</ele></trkpt>
<trkpt lat="39.6433897" lon="-105.59307550000003"><ele>3523.34</ele></trkpt>
<trkpt lat="39.6437189" lon="-105.592926"><ele>3525.65</ele></trkpt>
<trkpt lat="39.6439977" lon="-105.59267130000003"><ele>3527.83</ele></trkpt>
<trkpt lat="39.6441799" lon="-105.59244940000002"><ele>3529.3</ele></trkpt>
<trkpt lat="39.6443274" lon="-105.59216769999999"><ele>3530.91</ele></trkpt>
<trkpt lat="39.6444244" lon="-105.591768"><ele>3533.06</ele></trkpt>
<trkpt lat="39.6445142" lon="-105.59087240000001"><ele>3537.85</ele></trkpt>
<trkpt lat="39.6445732" lon="-105.59068270000003"><ele>3538.91</ele></trkpt>
<trkpt lat="39.6447301" lon="-105.59045980000003"><ele>3540.49</ele></trkpt>
<trkpt lat="39.6450652" lon="-105.5902695"><ele>3543.02</ele></trkpt>
<trkpt lat="39.6452619" lon="-105.590228"><ele>3544.39</ele></trkpt>
<trkpt lat="39.64552900000001" lon="-105.59026590000002"><ele>3546.36</ele></trkpt>
<trkpt lat="39.6456862" lon="-105.59036690000002"><ele>3547.65</ele></trkpt>
<trkpt lat="39.6457759" lon="-105.5905223"><ele>3548.73</ele></trkpt>
<trkpt lat="39.6458692" lon="-105.5909403"><ele>3551.04</ele></trkpt>
<trkpt lat="39.6459928" lon="-105.5917963"><ele>3555.38</ele></trkpt>
<trkpt lat="39.6459878" lon="-105.59202150000003"><ele>3556.53</ele></trkpt>
<trkpt lat="39.6458605" lon="-105.59308170000001"><ele>3561.77</ele></trkpt>
<trkpt lat="39.64583050000001" lon="-105.59378360000002"><ele>3565.36</ele></trkpt>
<trkpt lat="39.6458385" lon="-105.59437180000003"><ele>3568.46</ele></trkpt>
<trkpt lat="39.645949099999996" lon="-105.5951061"><ele>3572.52</ele></trkpt>
<trkpt lat="39.6459305" lon="-105.59550340000001"><ele>3574.7</ele></trkpt>
<trkpt lat="39.6458561" lon="-105.595782"><ele>3576.18</ele></trkpt>
<trkpt lat="39.645717000000005" lon="-105.5961228"><ele>3578.03</ele></trkpt>
<trkpt lat="39.64531" lon="-105.596821"><ele>3582.25</ele></trkpt>
<trkpt lat="39.6451499" lon="-105.5971826"><ele>3584.32</ele></trkpt>
<trkpt lat="39.6450001" lon="-105.5976524"><ele>3586.9</ele></trkpt>
<trkpt lat="39.6448912" lon="-105.59810639999999"><ele>3589.35</ele></trkpt>
<trkpt lat="39.6447107" lon="-105.59904809999999"><ele>3594.37</ele></trkpt>
<trkpt lat="39.6446707" lon="-105.59935429999999"><ele>3596.06</ele></trkpt>
<trkpt lat="39.64467" lon="-105.60048200000001"><ele>3601.73</ele></trkpt>
<trkpt lat="39.6446289" lon="-105.6008494"><ele>3603.7</ele></trkpt>
<trkpt lat="39.6445303" lon="-105.60100770000001"><ele>3604.71</ele></trkpt>
<trkpt lat="39.64435400000001" lon="-105.6010929"><ele>3605.88</ele></trkpt>
<trkpt lat="39.6435006" lon="-105.60138890000002"><ele>3611.48</ele></trkpt>
<trkpt lat="39.6428523" lon="-105.60151250000003"><ele>3615.6</ele></trkpt>
<trkpt lat="39.6420889" lon="-105.6017108"><ele>3620.95</ele></trkpt>
<trkpt lat="39.6411719" lon="-105.6019997"><ele>3627.19</ele></trkpt>
<trkpt lat="39.640771799999996" lon="-105.60214030000002"><ele>3629.9</ele></trkpt>
<trkpt lat="39.640457899999994" lon="-105.6023231"><ele>3632.21</ele></trkpt>
<trkpt lat="39.6396699" lon="-105.602985"><ele>3638.87</ele></trkpt>
<trkpt lat="39.6390909" lon="-105.6034499"><ele>3643.51</ele></trkpt>
<trkpt lat="39.6387301" lon="-105.6037792"><ele>3646.4</ele></trkpt>
<trkpt lat="39.6384399" lon="-105.6039997"><ele>3648.63</ele></trkpt>
<trkpt lat="39.6380639" lon="-105.60423730000002"><ele>3651.29</ele></trkpt>
<trkpt lat="39.6378273" lon="-105.6043526"><ele>3652.81</ele></trkpt>
<trkpt lat="39.6374471" lon="-105.6046645"><ele>3655.67</ele></trkpt>
<trkpt lat="39.63724349999999" lon="-105.60491580000001"><ele>3657.55</ele></trkpt>
<trkpt lat="39.636995" lon="-105.6052749"><ele>3660.29</ele></trkpt>
<trkpt lat="39.6367978" lon="-105.60566340000001"><ele>3662.96</ele></trkpt>
<trkpt lat="39.6365015" lon="-105.60619900000002"><ele>3666.56</ele></trkpt>
<trkpt lat="39.636262" lon="-105.60649920000002"><ele>3668.9</ele></trkpt>
<trkpt lat="39.6358343" lon="-105.6067831"><ele>3672.02</ele></trkpt>
<trkpt lat="39.63549999999999" lon="-105.60687319999998"><ele>3674.23</ele></trkpt>
<trkpt lat="39.6353619" lon="-105.6068349"><ele>3675.14</ele></trkpt>
<trkpt lat="39.6351463" lon="-105.60657720000002"><ele>3676.94</ele></trkpt>
<trkpt lat="39.6349175" lon="-105.6061274"><ele>3679.42</ele></trkpt>
<trkpt lat="39.63466879999999" lon="-105.6058015"><ele>3681.66</ele></trkpt>
<trkpt lat="39.6338181" lon="-105.6052469"><ele>3688.15</ele></trkpt>
<trkpt lat="39.6335021" lon="-105.60502050000001"><ele>3690.76</ele></trkpt>
<trkpt lat="39.6321017" lon="-105.60379229999998"><ele>3702.67</ele></trkpt>
<trkpt lat="39.6317754" lon="-105.60358359999998"><ele>3704.96</ele></trkpt>
<trkpt lat="39.6315552" lon="-105.60349960000003"><ele>3706.26</ele></trkpt>
<trkpt lat="39.63109740000001" lon="-105.60342089999999"><ele>3708.8</ele></trkpt>
<trkpt lat="39.6306525" lon="-105.6034312"><ele>3710.88</ele></trkpt>
<trkpt lat="39.6300796" lon="-105.60358150000002"><ele>3713.54</ele></trkpt>
<trkpt lat="39.6295555" lon="-105.60380620000002"><ele>3716.2</ele></trkpt>
<trkpt lat="39.6291398" lon="-105.60394929999998"><ele>3718.3</ele></trkpt>
<trkpt lat="39.62861289999999" lon="-105.60405"><ele>3720.94</ele></trkpt>
<trkpt lat="39.6283207" lon="-105.60407949999998"><ele>3722.44</ele></trkpt>
<trkpt lat="39.6278014" lon="-105.60409979999999"><ele>3725.38</ele></trkpt>
<trkpt lat="39.62727089999999" lon="-105.6040901"><ele>3728.51</ele></trkpt>
<trkpt lat="39.6266319" lon="-105.6039688"><ele>3732.06</ele></trkpt>
<trkpt lat="39.6263517" lon="-105.6038494"><ele>3733.68</ele></trkpt>
<trkpt lat="39.6261637" lon="-105.60372360000002"><ele>3734.87</ele></trkpt>
<trkpt lat="39.6258509" lon="-105.60345960000002"><ele>3736.91</ele></trkpt>
<trkpt lat="39.6256415" lon="-105.60323059999999"><ele>3738.34</ele></trkpt>
<trkpt lat="39.6252886" lon="-105.60277880000001"><ele>3740.81</ele></trkpt>
<trkpt lat="39.6248803" lon="-105.6022911"><ele>3743.54</ele></trkpt>
<trkpt lat="39.62452" lon="-105.6019008"><ele>3745.82</ele></trkpt>
<trkpt lat="39.6239831" lon="-105.6013661"><ele>3749.7</ele></trkpt>
<trkpt lat="39.6238594" lon="-105.60116600000003"><ele>3750.57</ele></trkpt>
<trkpt lat="39.62351999999999" lon="-105.60051130000002"><ele>3753.06</ele></trkpt>
<trkpt lat="39.6231606" lon="-105.59991210000003"><ele>3755.4</ele></trkpt>
<trkpt lat="39.6225981" lon="-105.599118"><ele>3758.71</ele></trkpt>
<trkpt lat="39.62219399999999" lon="-105.5986049"><ele>3760.73</ele></trkpt>
<trkpt lat="39.6219712" lon="-105.59841160000003"><ele>3762.04</ele></trkpt>
<trkpt lat="39.6216858" lon="-105.59831150000002"><ele>3764.16</ele></trkpt>
<trkpt lat="39.621379299999994" lon="-105.59844870000002"><ele>3766.48</ele></trkpt>
<trkpt lat="39.621294899999995" lon="-105.59853910000001"><ele>3767.1</ele></trkpt>
<trkpt lat="39.6210889" lon="-105.59903710000003"><ele>3769.17</ele></trkpt>
<trkpt lat="39.6210103" lon="-105.5995807"><ele>3771.9</ele></trkpt>
<trkpt lat="39.62105029999999" lon="-105.59995880000001"><ele>3773.92</ele></trkpt>
<trkpt lat="39.6211593" lon="-105.6005525"><ele>3776.81</ele></trkpt>
<trkpt lat="39.62130049999999" lon="-105.60203710000003"><ele>3784.49</ele></trkpt>
<trkpt lat="39.62145950000001" lon="-105.6027459"><ele>3788.22</ele></trkpt>
<trkpt lat="39.62173" lon="-105.6036233"><ele>3792.8</ele></trkpt>
<trkpt lat="39.6217856" lon="-105.603897"><ele>3794.27</ele></trkpt>
<trkpt lat="39.6218166" lon="-105.6042304"><ele>3795.94</ele></trkpt>
<trkpt lat="39.6217691" lon="-105.6048938"><ele>3799.18</ele></trkpt>
<trkpt lat="39.6216811" lon="-105.6058083"><ele>3803.78</ele></trkpt>
<trkpt lat="39.6215471" lon="-105.6077689"><ele>3813.71</ele></trkpt>
<trkpt lat="39.621506" lon="-105.60795240000002"><ele>3814.57</ele></trkpt>
<trkpt lat="39.621387" lon="-105.6082221"><ele>3815.68</ele></trkpt>
<trkpt lat="39.6212097" lon="-105.60850760000002"><ele>3816.83</ele></trkpt>
<trkpt lat="39.6209269" lon="-105.6088118"><ele>3818.34</ele></trkpt>
<trkpt lat="39.6206257" lon="-105.6090418"><ele>3819.55</ele></trkpt>
<trkpt lat="39.6202035" lon="-105.6091575"><ele>3820.92</ele></trkpt>
<trkpt lat="39.6199736" lon="-105.60915010000001"><ele>3821.64</ele></trkpt>
<trkpt lat="39.61959139999999" lon="-105.60907470000001"><ele>3822.46</ele></trkpt>
<trkpt lat="39.6192554" lon="-105.60884520000002"><ele>3822.42</ele></trkpt>
<trkpt lat="39.6189613" lon="-105.6085619"><ele>3822.29</ele></trkpt>
<trkpt lat="39.6186159" lon="-105.6082719"><ele>3822.74</ele></trkpt>
<trkpt lat="39.61816219999999" lon="-105.60792020000002"><ele>3823.83</ele></trkpt>
<trkpt lat="39.61756389999999" lon="-105.6074832"><ele>3826.01</ele></trkpt>
<trkpt lat="39.6173386" lon="-105.60734970000003"><ele>3827.2</ele></trkpt>
<trkpt lat="39.6166721" lon="-105.60706160000001"><ele>3830.18</ele></trkpt>
<trkpt lat="39.61636690000001" lon="-105.6069853"><ele>3831.41</ele></trkpt>
<trkpt lat="39.6159201" lon="-105.6069711"><ele>3833.09</ele></trkpt>
<trkpt lat="39.6155946" lon="-105.6070736"><ele>3834.36</ele></trkpt>
<trkpt lat="39.615094" lon="-105.607353"><ele>3836.74</ele></trkpt>
<trkpt lat="39.6147485" lon="-105.6075715"><ele>3838.62</ele></trkpt>
<trkpt lat="39.6143035" lon="-105.6079016"><ele>3840.98</ele></trkpt>
<trkpt lat="39.6141716" lon="-105.6081784"><ele>3841.86</ele></trkpt>
<trkpt lat="39.6141517" lon="-105.60852360000001"><ele>3842.31</ele></trkpt>
<trkpt lat="39.6141707" lon="-105.60883480000003"><ele>3842.34</ele></trkpt>
<trkpt lat="39.614330700000004" lon="-105.6095268"><ele>3842.11</ele></trkpt>
<trkpt lat="39.6143991" lon="-105.6099601"><ele>3842.09</ele></trkpt>
<trkpt lat="39.614428600000004" lon="-105.6103095"><ele>3842.17</ele></trkpt>
<trkpt lat="39.6143874" lon="-105.61093170000002"><ele>3842.45</ele></trkpt>
<trkpt lat="39.6142444" lon="-105.6114967"><ele>3842.66</ele></trkpt>
<trkpt lat="39.6140124" lon="-105.61206430000003"><ele>3843.19</ele></trkpt>
<trkpt lat="39.6135483" lon="-105.61289220000002"><ele>3844.06</ele></trkpt>
<trkpt lat="39.6132407" lon="-105.6133583"><ele>3844.98</ele></trkpt>
<trkpt lat="39.6128083" lon="-105.61393389999999"><ele>3846.52</ele></trkpt>
<trkpt lat="39.6124842" lon="-105.6144631"><ele>3848.11</ele></trkpt>
<trkpt lat="39.6121937" lon="-105.61517159999998"><ele>3849.92</ele></trkpt>
<trkpt lat="39.61204289999999" lon="-105.6156611"><ele>3851.57</ele></trkpt>
<trkpt lat="39.6118802" lon="-105.61670439999999"><ele>3855.62</ele></trkpt>
<trkpt lat="39.6118498" lon="-105.6174727"><ele>3859.31</ele></trkpt>
<trkpt lat="39.611709399999995" lon="-105.61825419999998"><ele>3863.43</ele></trkpt>
<trkpt lat="39.6115703" lon="-105.6190705"><ele>3867.42</ele></trkpt>
<trkpt lat="39.6115059" lon="-105.619527"><ele>3869.7</ele></trkpt>
<trkpt lat="39.6113593" lon="-105.6207097"><ele>3874.91</ele></trkpt>
<trkpt lat="39.6111269" lon="-105.6217292"><ele>3879.21</ele></trkpt>
<trkpt lat="39.61105870000001" lon="-105.6219502"><ele>3880.31</ele></trkpt>
<trkpt lat="39.6105729" lon="-105.62309489999998"><ele>3886.15</ele></trkpt>
<trkpt lat="39.6102698" lon="-105.6238586"><ele>3889.28</ele></trkpt>
<trkpt lat="39.6101178" lon="-105.6240657"><ele>3890.37</ele></trkpt>
<trkpt lat="39.60994" lon="-105.624191"><ele>3891.27</ele></trkpt>
<trkpt lat="39.609436900000006" lon="-105.62445050000001"><ele>3893.91</ele></trkpt>
<trkpt lat="39.6089157" lon="-105.62463829999999"><ele>3896.77</ele></trkpt>
<trkpt lat="39.6085909" lon="-105.6247855"><ele>3898.78</ele></trkpt>
<trkpt lat="39.608145" lon="-105.62502660000003"><ele>3901.84</ele></trkpt>
<trkpt lat="39.607718" lon="-105.6253123"><ele>3904.68</ele></trkpt>
<trkpt lat="39.6075019" lon="-105.6254801"><ele>3906.09</ele></trkpt>
<trkpt lat="39.6064399" lon="-105.6265701"><ele>3914.24</ele></trkpt>
<trkpt lat="39.606265500000006" lon="-105.6267296"><ele>3915.23</ele></trkpt>
<trkpt lat="39.6058255" lon="-105.62703280000001"><ele>3917.21</ele></trkpt>
<trkpt lat="39.6056332" lon="-105.6271404"><ele>3918.06</ele></trkpt>
<trkpt lat="39.6054387" lon="-105.62719960000001"><ele>3918.87</ele></trkpt>
<trkpt lat="39.6049804" lon="-105.6272291"><ele>3920.83</ele></trkpt>
<trkpt lat="39.604098" lon="-105.62714200000003"><ele>3925.6</ele></trkpt>
<trkpt lat="39.6033714" lon="-105.62701170000001"><ele>3930.62</ele></trkpt>
<trkpt lat="39.6028777" lon="-105.6270163"><ele>3933.81</ele></trkpt>
<trkpt lat="39.602762" lon="-105.62706710000002"><ele>3934.59</ele></trkpt>
<trkpt lat="39.6025376" lon="-105.6272552"><ele>3936.07</ele></trkpt>
<trkpt lat="39.6023415" lon="-105.6275709"><ele>3937.01</ele></trkpt>
<trkpt lat="39.6021906" lon="-105.62814080000003"><ele>3936.83</ele></trkpt>
<trkpt lat="39.602070299999994" lon="-105.62888140000001"><ele>3935.49</ele></trkpt>
<trkpt lat="39.6019611" lon="-105.629829"><ele>3933.97</ele></trkpt>
<trkpt lat="39.6019503" lon="-105.63020909999999"><ele>3933.5</ele></trkpt>
<trkpt lat="39.6019484" lon="-105.6314845"><ele>3931.87</ele></trkpt>
<trkpt lat="39.6018995" lon="-105.63183170000003"><ele>3931.4</ele></trkpt>
<trkpt lat="39.6017359" lon="-105.63226600000002"><ele>3930.92</ele></trkpt>
<trkpt lat="39.6012633" lon="-105.6330067"><ele>3929.76</ele></trkpt>
<trkpt lat="39.6008982" lon="-105.63360150000001"><ele>3928.98</ele></trkpt>
<trkpt lat="39.6006294" lon="-105.6339792"><ele>3928.59</ele></trkpt>
<trkpt lat="39.6004791" lon="-105.63414930000003"><ele>3928.25</ele></trkpt>
<trkpt lat="39.5999983" lon="-105.63455370000001"><ele>3927.3</ele></trkpt>
<trkpt lat="39.5996655" lon="-105.6349654"><ele>3926.42</ele></trkpt>
<trkpt lat="39.599401" lon="-105.6355209"><ele>3924.96</ele></trkpt>
<trkpt lat="39.5992508" lon="-105.63613879999998"><ele>3924.24</ele></trkpt>
<trkpt lat="39.59883" lon="-105.6383385"><ele>3918.23</ele></trkpt>
<trkpt lat="39.598719700000004" lon="-105.63883930000001"><ele>3916.91</ele></trkpt>
<trkpt lat="39.5985719" lon="-105.63931890000002"><ele>3915.38</ele></trkpt>
<trkpt lat="39.59836790000001" lon="-105.6397794"><ele>3913.43</ele></trkpt>
<trkpt lat="39.5980632" lon="-105.64026750000001"><ele>3910.96</ele></trkpt>
<trkpt lat="39.5978379" lon="-105.64053730000002"><ele>3909.47</ele></trkpt>
<trkpt lat="39.5975497" lon="-105.64075640000001"><ele>3908.58</ele></trkpt>
<trkpt lat="39.597389" lon="-105.6408171"><ele>3908.33</ele></trkpt>
<trkpt lat="39.5971504" lon="-105.6408161"><ele>3908.06</ele></trkpt>
<trkpt lat="39.596918" lon="-105.64062700000002"><ele>3908.04</ele></trkpt>
<trkpt lat="39.5967197" lon="-105.64023760000002"><ele>3908.24</ele></trkpt>
<trkpt lat="39.5963719" lon="-105.63936490000002"><ele>3908.21</ele></trkpt>
<trkpt lat="39.5959675" lon="-105.6383552"><ele>3909.3</ele></trkpt>
<trkpt lat="39.595711" lon="-105.6378224"><ele>3910.52</ele></trkpt>
<trkpt lat="39.5953659" lon="-105.63736560000002"><ele>3913.43</ele></trkpt>
<trkpt lat="39.5950052" lon="-105.63692520000001"><ele>3916.52</ele></trkpt>
<trkpt lat="39.594597" lon="-105.6365409"><ele>3920.23</ele></trkpt>
<trkpt lat="39.5941756" lon="-105.6360477"><ele>3923.74</ele></trkpt>
<trkpt lat="39.5930679" lon="-105.63502900000002"><ele>3932.37</ele></trkpt>
<trkpt lat="39.5927711" lon="-105.6347921"><ele>3934.48</ele></trkpt>
<trkpt lat="39.59218369999999" lon="-105.63441370000002"><ele>3938.93</ele></trkpt>
<trkpt lat="39.5916849" lon="-105.6340013"><ele>3943.31</ele></trkpt>
<trkpt lat="39.5912737" lon="-105.63377079999998"><ele>3946.29</ele></trkpt>
<trkpt lat="39.59050320000001" lon="-105.6332413"><ele>3951.7</ele></trkpt>
<trkpt lat="39.5901359" lon="-105.6328563"><ele>3954.82</ele></trkpt>
<trkpt lat="39.589247699999994" lon="-105.6319604"><ele>3962.14</ele></trkpt>
<trkpt lat="39.5889429" lon="-105.6317427"><ele>3964.38</ele></trkpt>
<trkpt lat="39.5884737" lon="-105.6314569"><ele>3967.72</ele></trkpt>
<trkpt lat="39.5878996" lon="-105.63107120000002"><ele>3971.75</ele></trkpt>
<trkpt lat="39.5873119" lon="-105.63075970000003"><ele>3976.02</ele></trkpt>
<trkpt lat="39.5866315" lon="-105.6302609"><ele>3981.39</ele></trkpt>
<trkpt lat="39.5862594" lon="-105.62996910000003"><ele>3984.24</ele></trkpt>
<trkpt lat="39.5855709" lon="-105.6293698"><ele>3989.52</ele></trkpt>
<trkpt lat="39.5852496" lon="-105.62901769999999"><ele>3992.21</ele></trkpt>
<trkpt lat="39.584862" lon="-105.6284422"><ele>3996.13</ele></trkpt>
<trkpt lat="39.5847276" lon="-105.6282055"><ele>3997.71</ele></trkpt>
<trkpt lat="39.5839373" lon="-105.62712250000003"><ele>4004.6</ele></trkpt>
<trkpt lat="39.5837928" lon="-105.62694100000003"><ele>4006.01</ele></trkpt>
<trkpt lat="39.5837022" lon="-105.62691480000001"><ele>4006.67</ele></trkpt>
<trkpt lat="39.5836399" lon="-105.62700400000001"><ele>4007.28</ele></trkpt>
<trkpt lat="39.5836613" lon="-105.62714079999999"><ele>4007.89</ele></trkpt>
<trkpt lat="39.5839111" lon="-105.62757490000003"><ele>4010.06</ele></trkpt>
<trkpt lat="39.584303500000004" lon="-105.62829240000002"><ele>4014.21</ele></trkpt>
<trkpt lat="39.5845145" lon="-105.62855600000003"><ele>4015.72</ele></trkpt>
<trkpt lat="39.5845543" lon="-105.6287124"><ele>4016.52</ele></trkpt>
<trkpt lat="39.58443569999999" lon="-105.62880970000002"><ele>4017.51</ele></trkpt>
<trkpt lat="39.5840081" lon="-105.62820800000003"><ele>4021.56</ele></trkpt>
<trkpt lat="39.58359039999999" lon="-105.62769140000003"><ele>4025.4</ele></trkpt>
<trkpt lat="39.5828732" lon="-105.62694100000003"><ele>4031.6</ele></trkpt>
<trkpt lat="39.5825644" lon="-105.6267547"><ele>4033.59</ele></trkpt>
<trkpt lat="39.582399" lon="-105.6266862"><ele>4034.42</ele></trkpt>
<trkpt lat="39.5821219" lon="-105.62670669999999"><ele>4034.63</ele></trkpt>
<trkpt lat="39.5818428" lon="-105.6270029"><ele>4033.03</ele></trkpt>
<trkpt lat="39.5814907" lon="-105.6277075"><ele>4028.56</ele></trkpt>
<trkpt lat="39.5809605" lon="-105.62857999999999"><ele>4022.64</ele></trkpt>
<trkpt lat="39.5806505" lon="-105.62914260000002"><ele>4020.26</ele></trkpt>
<trkpt lat="39.5799678" lon="-105.63018840000002"><ele>4019.03</ele></trkpt>
<trkpt lat="39.5796937" lon="-105.63080200000003"><ele>4019.36</ele></trkpt>
<trkpt lat="39.57959" lon="-105.6311014"><ele>4019.87</ele></trkpt>
<trkpt lat="39.5795197" lon="-105.63139700000002"><ele>4020.73</ele></trkpt>
<trkpt lat="39.5794508" lon="-105.63196670000004"><ele>4023.18</ele></trkpt>
<trkpt lat="39.57940670000001" lon="-105.6326133"><ele>4026.44</ele></trkpt>
<trkpt lat="39.5793925" lon="-105.63311509999998"><ele>4028.8</ele></trkpt>
<trkpt lat="39.5794004" lon="-105.633878"><ele>4032.11</ele></trkpt>
<trkpt lat="39.57949289999999" lon="-105.63448030000004"><ele>4034.66</ele></trkpt>
<trkpt lat="39.5794697" lon="-105.6349313"><ele>4036.75</ele></trkpt>
<trkpt lat="39.57942" lon="-105.63526740000002"><ele>4038.44</ele></trkpt>
<trkpt lat="39.5793811" lon="-105.63659910000003"><ele>4044.09</ele></trkpt>
<trkpt lat="39.5792658" lon="-105.6371301"><ele>4046.43</ele></trkpt>
<trkpt lat="39.579265" lon="-105.63723869999998"><ele>4046.9</ele></trkpt>
<trkpt lat="39.5793522" lon="-105.6373103"><ele>4047.52</ele></trkpt>
<trkpt lat="39.579444" lon="-105.63719190000003"><ele>4048.28</ele></trkpt>
<trkpt lat="39.5795602" lon="-105.63667219999999"><ele>4050.44</ele></trkpt>
<trkpt lat="39.5796994" lon="-105.6361336"><ele>4053</ele></trkpt>
<trkpt lat="39.5798716" lon="-105.635607"><ele>4055.66</ele></trkpt>
<trkpt lat="39.5801684" lon="-105.6348426"><ele>4059.71</ele></trkpt>
<trkpt lat="39.5804092" lon="-105.63408090000003"><ele>4063.6</ele></trkpt>
<trkpt lat="39.5805069" lon="-105.63358720000002"><ele>4066.17</ele></trkpt>
<trkpt lat="39.58053989999999" lon="-105.63322160000001"><ele>4068.03</ele></trkpt>
<trkpt lat="39.58054049999999" lon="-105.6327904"><ele>4070.17</ele></trkpt>
<trkpt lat="39.5804258" lon="-105.6321465"><ele>4073.56</ele></trkpt>
<trkpt lat="39.5804562" lon="-105.63181420000001"><ele>4075.07</ele></trkpt>
<trkpt lat="39.5806" lon="-105.63145109999999"><ele>4076.72</ele></trkpt>
<trkpt lat="39.5808427" lon="-105.6309333"><ele>4078.66</ele></trkpt>
<trkpt lat="39.5810901" lon="-105.63060810000002"><ele>4079.81</ele></trkpt>
<trkpt lat="39.58151719999999" lon="-105.629925"><ele>4081.5</ele></trkpt>
<trkpt lat="39.5816398" lon="-105.6296007"><ele>4082.16</ele></trkpt>
<trkpt lat="39.5817911" lon="-105.6290568"><ele>4083.81</ele></trkpt>
<trkpt lat="39.5819136" lon="-105.6288893"><ele>4084.49</ele></trkpt>
<trkpt lat="39.58205960000001" lon="-105.62886599999999"><ele>4085.15</ele></trkpt>
<trkpt lat="39.582237" lon="-105.6289625"><ele>4086.18</ele></trkpt>
<trkpt lat="39.5823495" lon="-105.62909640000001"><ele>4087.1</ele></trkpt>
<trkpt lat="39.5825649" lon="-105.6294566"><ele>4089.33</ele></trkpt>
<trkpt lat="39.583009" lon="-105.63012980000002"><ele>4093.28</ele></trkpt>
<trkpt lat="39.583724600000004" lon="-105.63136790000003"><ele>4100.26</ele></trkpt>
<trkpt lat="39.584005299999994" lon="-105.63178360000003"><ele>4103.03</ele></trkpt>
<trkpt lat="39.5839773" lon="-105.63193780000002"><ele>4104.06</ele></trkpt>
<trkpt lat="39.5838256" lon="-105.63189640000002"><ele>4105.43</ele></trkpt>
<trkpt lat="39.5835861" lon="-105.63155210000001"><ele>4107.75</ele></trkpt>
<trkpt lat="39.5832928" lon="-105.63130250000003"><ele>4109.86</ele></trkpt>
<trkpt lat="39.5825137" lon="-105.63081720000001"><ele>4115.22</ele></trkpt>
<trkpt lat="39.5822192" lon="-105.6306741"><ele>4117.16</ele></trkpt>
<trkpt lat="39.5820588" lon="-105.63064310000003"><ele>4118.22</ele></trkpt>
<trkpt lat="39.5818027" lon="-105.6306607"><ele>4120.03</ele></trkpt>
<trkpt lat="39.5816805" lon="-105.6308294"><ele>4121.3</ele></trkpt>
<trkpt lat="39.581623" lon="-105.6311422"><ele>4122.89</ele></trkpt>
<trkpt lat="39.581643" lon="-105.63179050000001"><ele>4125.86</ele></trkpt>
<trkpt lat="39.5817418" lon="-105.63212950000002"><ele>4127.41</ele></trkpt>
<trkpt lat="39.581877" lon="-105.6323941"><ele>4128.61</ele></trkpt>
<trkpt lat="39.5820245" lon="-105.6325888"><ele>4129.69</ele></trkpt>
<trkpt lat="39.5822222" lon="-105.63272379999998"><ele>4130.94</ele></trkpt>
<trkpt lat="39.5826392" lon="-105.63289340000001"><ele>4133.64</ele></trkpt>
<trkpt lat="39.58281159999999" lon="-105.63302270000001"><ele>4134.82</ele></trkpt>
<trkpt lat="39.5829809" lon="-105.633235"><ele>4136.32</ele></trkpt>
<trkpt lat="39.58300530000001" lon="-105.63351530000001"><ele>4137.91</ele></trkpt>
<trkpt lat="39.5828588" lon="-105.63370419999998"><ele>4139.33</ele></trkpt>
<trkpt lat="39.5824858" lon="-105.63389390000002"><ele>4141.71</ele></trkpt>
<trkpt lat="39.5823713" lon="-105.63400220000001"><ele>4142.49</ele></trkpt>
<trkpt lat="39.5822229" lon="-105.6342794"><ele>4143.94</ele></trkpt>
<trkpt lat="39.5821702" lon="-105.63459019999999"><ele>4145.4</ele></trkpt>
<trkpt lat="39.58196070000001" lon="-105.6350501"><ele>4148.04</ele></trkpt>
<trkpt lat="39.58175" lon="-105.63568060000001"><ele>4151.32</ele></trkpt>
<trkpt lat="39.581681200000006" lon="-105.635946"><ele>4152.64</ele></trkpt>
<trkpt lat="39.5815583" lon="-105.6367366"><ele>4156.52</ele></trkpt>
<trkpt lat="39.5814567" lon="-105.63746819999999"><ele>4160.2</ele></trkpt>
<trkpt lat="39.5812075" lon="-105.63899730000001"><ele>4167.45</ele></trkpt>
<trkpt lat="39.581232" lon="-105.6393203"><ele>4168.9</ele></trkpt>
<trkpt lat="39.5813202" lon="-105.6394215"><ele>4169.57</ele></trkpt>
<trkpt lat="39.5814191" lon="-105.6392793"><ele>4170.37</ele></trkpt>
<trkpt lat="39.5813782" lon="-105.6388605"><ele>4171.65</ele></trkpt>
<trkpt lat="39.581589" lon="-105.63837080000002"><ele>4173.96</ele></trkpt>
<trkpt lat="39.5817338" lon="-105.6379435"><ele>4176.16</ele></trkpt>
<trkpt lat="39.5818526" lon="-105.6377538"><ele>4177.35</ele></trkpt>
<trkpt lat="39.5820216" lon="-105.6376114"><ele>4178.61</ele></trkpt>
<trkpt lat="39.5824956" lon="-105.6373422"><ele>4181.67</ele></trkpt>
<trkpt lat="39.582916" lon="-105.63707710000003"><ele>4184.42</ele></trkpt>
<trkpt lat="39.5830657" lon="-105.6370786"><ele>4185.44</ele></trkpt>
<trkpt lat="39.5830984" lon="-105.63730970000003"><ele>4186.88</ele></trkpt>
<trkpt lat="39.5829133" lon="-105.6378409"><ele>4189.91</ele></trkpt>
<trkpt lat="39.58288" lon="-105.6382953"><ele>4192.02</ele></trkpt>
<trkpt lat="39.5828931" lon="-105.63845910000002"><ele>4192.78</ele></trkpt>
<trkpt lat="39.5830682" lon="-105.6392508"><ele>4196.48</ele></trkpt>
<trkpt lat="39.5833314" lon="-105.63988849999998"><ele>4199.86</ele></trkpt>
<trkpt lat="39.5835987" lon="-105.6402111"><ele>4202.08</ele></trkpt>
<trkpt lat="39.5837631" lon="-105.6407884"><ele>4204.79</ele></trkpt>
<trkpt lat="39.5839168" lon="-105.6411808"><ele>4206.74</ele></trkpt>
<trkpt lat="39.58395689999999" lon="-105.64145150000002"><ele>4207.98</ele></trkpt>
<trkpt lat="39.5840205" lon="-105.64242580000001"><ele>4212.32</ele></trkpt>
<trkpt lat="39.5841137" lon="-105.6425685"><ele>4213.25</ele></trkpt>
<trkpt lat="39.5842336" lon="-105.6424193"><ele>4214.36</ele></trkpt>
<trkpt lat="39.5842504" lon="-105.6420165"><ele>4216.1</ele></trkpt>
<trkpt lat="39.5843509" lon="-105.64132189999998"><ele>4218.94</ele></trkpt>
<trkpt lat="39.5845588" lon="-105.64063060000002"><ele>4222.04</ele></trkpt>
<trkpt lat="39.5846792" lon="-105.6400303"><ele>4225.13</ele></trkpt>
<trkpt lat="39.5847588" lon="-105.6394006"><ele>4228.31</ele></trkpt>
<trkpt lat="39.5847599" lon="-105.63875719999999"><ele>4231.33</ele></trkpt>
<trkpt lat="39.5847265" lon="-105.63829820000001"><ele>4233.77</ele></trkpt>
<trkpt lat="39.5847668" lon="-105.6381642"><ele>4234.59</ele></trkpt>
<trkpt lat="39.5849245" lon="-105.6382347"><ele>4235.85</ele></trkpt>
<trkpt lat="39.5849782" lon="-105.63842430000001"><ele>4236.75</ele></trkpt>
<trkpt lat="39.5850404" lon="-105.63888970000001"><ele>4238.55</ele></trkpt>
<trkpt lat="39.5850704" lon="-105.63937790000001"><ele>4240.51</ele></trkpt>
<trkpt lat="39.58513000000001" lon="-105.6398098"><ele>4242.36</ele></trkpt>
<trkpt lat="39.585175" lon="-105.64036660000002"><ele>4244.88</ele></trkpt>
<trkpt lat="39.5852825" lon="-105.64131419999998"><ele>4249.54</ele></trkpt>
<trkpt lat="39.5853861" lon="-105.64171070000002"><ele>4251.76</ele></trkpt>
<trkpt lat="39.5854199" lon="-105.6420584"><ele>4253.45</ele></trkpt>
<trkpt lat="39.5857006" lon="-105.6433886"><ele>4260.18</ele></trkpt>
<trkpt lat="39.5857204" lon="-105.64371310000001"><ele>4261.52</ele></trkpt>
<trkpt lat="39.5857911" lon="-105.64381430000002"><ele>4262.14</ele></trkpt>
<trkpt lat="39.5858727" lon="-105.6437776"><ele>4262.65</ele></trkpt>
<trkpt lat="39.5858987" lon="-105.64364290000002"><ele>4263.28</ele></trkpt>
<trkpt lat="39.5859192" lon="-105.6429057"><ele>4266.74</ele></trkpt>
<trkpt lat="39.5859009" lon="-105.64259610000002"><ele>4268.05</ele></trkpt>
<trkpt lat="39.5859162" lon="-105.642326"><ele>4269.14</ele></trkpt>
<trkpt lat="39.5858907" lon="-105.64195"><ele>4270.83</ele></trkpt>
<trkpt lat="39.5859249" lon="-105.641068"><ele>4274.78</ele></trkpt>
<trkpt lat="39.5858507" lon="-105.6404439"><ele>4277.25</ele></trkpt>
<trkpt lat="39.5857909" lon="-105.64012939999999"><ele>4278.61</ele></trkpt>
<trkpt lat="39.5859038" lon="-105.63998600000001"><ele>4279.62</ele></trkpt>
<trkpt lat="39.585979800000004" lon="-105.64009059999998"><ele>4280.3</ele></trkpt>
<trkpt lat="39.5859877" lon="-105.64036190000002"><ele>4281.53</ele></trkpt>
<trkpt lat="39.586060999999994" lon="-105.64078230000003"><ele>4283.28</ele></trkpt>
<trkpt lat="39.5862215" lon="-105.64118630000002"><ele>4285.14</ele></trkpt>
<trkpt lat="39.5864248" lon="-105.6418067"><ele>4288.35</ele></trkpt>
<trkpt lat="39.5869187" lon="-105.6426604"><ele>4293.36</ele></trkpt>
<trkpt lat="39.5871494" lon="-105.643245"><ele>4296.34</ele></trkpt>
<trkpt lat="39.5872239" lon="-105.6435553"><ele>4297.8</ele></trkpt>
<trkpt lat="39.5871797" lon="-105.6440185"><ele>4300.01</ele></trkpt>
<trkpt lat="39.587188999999995" lon="-105.64420680000003"><ele>4300.89</ele></trkpt>
<trkpt lat="39.5873043" lon="-105.6442513"><ele>4301.65</ele></trkpt>
<trkpt lat="39.587366200000005" lon="-105.64415800000002"><ele>4302.2</ele></trkpt>
<trkpt lat="39.587412625000006" lon="-105.6439795503586"><ele>4302.9349999999995</ele></trkpt>
</trkseg>
</trk></gpx>
