<?xml version="1.0" encoding="UTF-8"?>
<gpx version="1.1" creator="BikeTerra" xmlns="http://www.topografix.com/GPX/1/1" xmlns:biketerra="https://biketerra.com/xmlns/gpx/1">
    <metadata>
        <name>King Ridge CA</name>
        <extensions>
            <biketerra:version>2.0.0</biketerra:version>
            <biketerra:isLoop>false</biketerra:isLoop>
            <biketerra:defaultSurface>asphalt</biketerra:defaultSurface>
        </extensions>
    </metadata>
    <trk>
        <name>King Ridge CA</name>
        <trkseg>
            <trkpt lat="38.5763106" lon="-123.1146656"><ele>115.54</ele></trkpt>
            <trkpt lat="38.5763387" lon="-123.1151926"><ele>113.64</ele></trkpt>
            <trkpt lat="38.5764667" lon="-123.115531"><ele>112.34</ele></trkpt>
            <trkpt lat="38.5764928" lon="-123.1158035"><ele>111.43</ele></trkpt>
            <trkpt lat="38.5765279" lon="-123.1159085"><ele>111.08</ele></trkpt>
            <trkpt lat="38.5765939" lon="-123.115996"><ele>110.71</ele></trkpt>
            <trkpt lat="38.576836" lon="-123.1161663"><ele>109.72</ele></trkpt>
            <trkpt lat="38.5770608" lon="-123.116466"><ele>108.71</ele></trkpt>
            <trkpt lat="38.5771414" lon="-123.1165477"><ele>108.44</ele></trkpt>
            <trkpt lat="38.5772322" lon="-123.1166063"><ele>108.19</ele></trkpt>
            <trkpt lat="38.577449" lon="-123.1166557"><ele>107.75</ele></trkpt>
            <trkpt lat="38.5776221" lon="-123.1166436"><ele>107.49</ele></trkpt>
            <trkpt lat="38.5777119" lon="-123.1166148"><ele>107.38</ele></trkpt>
            <trkpt lat="38.5778524" lon="-123.1165019"><ele>107.24</ele></trkpt>
            <trkpt lat="38.5782881" lon="-123.1160169"><ele>107.05</ele></trkpt>
            <trkpt lat="38.5784627" lon="-123.1158464"><ele>107.07</ele></trkpt>
            <trkpt lat="38.5790451" lon="-123.1155805"><ele>107.36</ele></trkpt>
            <trkpt lat="38.5792195" lon="-123.115533"><ele>107.5</ele></trkpt>
            <trkpt lat="38.5793689" lon="-123.1155345"><ele>107.66</ele></trkpt>
            <trkpt lat="38.5794688" lon="-123.1155856"><ele>107.8</ele></trkpt>
            <trkpt lat="38.5796337" lon="-123.1157243"><ele>108.11</ele></trkpt>
            <trkpt lat="38.5797253" lon="-123.1158687"><ele>108.39</ele></trkpt>
            <trkpt lat="38.5798018" lon="-123.116154"><ele>108.94</ele></trkpt>
            <trkpt lat="38.5798131" lon="-123.1164305"><ele>109.59</ele></trkpt>
            <trkpt lat="38.5798333" lon="-123.1165621"><ele>109.96</ele></trkpt>
            <trkpt lat="38.5798728" lon="-123.116689"><ele>110.39</ele></trkpt>
            <trkpt lat="38.5799326" lon="-123.1168069"><ele>110.88</ele></trkpt>
            <trkpt lat="38.5800084" lon="-123.1169097"><ele>111.44</ele></trkpt>
            <trkpt lat="38.5800841" lon="-123.116972"><ele>111.93</ele></trkpt>
            <trkpt lat="38.5802615" lon="-123.1170685"><ele>113.13</ele></trkpt>
            <trkpt lat="38.5804239" lon="-123.1171541"><ele>114.38</ele></trkpt>
            <trkpt lat="38.5805251" lon="-123.1171838"><ele>115.19</ele></trkpt>
            <trkpt lat="38.5806549" lon="-123.1171843"><ele>116.27</ele></trkpt>
            <trkpt lat="38.5808677" lon="-123.1171506"><ele>118.23</ele></trkpt>
            <trkpt lat="38.5809703" lon="-123.1171593"><ele>119.24</ele></trkpt>
            <trkpt lat="38.5811478" lon="-123.117226"><ele>121.14</ele></trkpt>
            <trkpt lat="38.5813421" lon="-123.1173676"><ele>123.56</ele></trkpt>
            <trkpt lat="38.5814001" lon="-123.1173933"><ele>124.24</ele></trkpt>
            <trkpt lat="38.5815081" lon="-123.1173899"><ele>125.45</ele></trkpt>
            <trkpt lat="38.5817012" lon="-123.1172959"><ele>127.81</ele></trkpt>
            <trkpt lat="38.5818118" lon="-123.1173265"><ele>129.1</ele></trkpt>
            <trkpt lat="38.5818745" lon="-123.1173903"><ele>130.02</ele></trkpt>
            <trkpt lat="38.5819568" lon="-123.1175735"><ele>131.9</ele></trkpt>
            <trkpt lat="38.5819736" lon="-123.1176803"><ele>132.87</ele></trkpt>
            <trkpt lat="38.5819904" lon="-123.117994"><ele>135.63</ele></trkpt>
            <trkpt lat="38.582025" lon="-123.1181399"><ele>136.95</ele></trkpt>
            <trkpt lat="38.5820895" lon="-123.1182337"><ele>138.04</ele></trkpt>
            <trkpt lat="38.582184" lon="-123.1182853"><ele>139.17</ele></trkpt>
            <trkpt lat="38.5824451" lon="-123.1182612"><ele>142.06</ele></trkpt>
            <trkpt lat="38.5825412" lon="-123.1182233"><ele>143.18</ele></trkpt>
            <trkpt lat="38.5825948" lon="-123.1181274"><ele>144.22</ele></trkpt>
            <trkpt lat="38.5826408" lon="-123.1178871"><ele>146.42</ele></trkpt>
            <trkpt lat="38.5826971" lon="-123.1177878"><ele>147.54</ele></trkpt>
            <trkpt lat="38.582811" lon="-123.1177226"><ele>149.01</ele></trkpt>
            <trkpt lat="38.5829296" lon="-123.1177143"><ele>150.44</ele></trkpt>
            <trkpt lat="38.5829674" lon="-123.1177255"><ele>150.92</ele></trkpt>
            <trkpt lat="38.583045" lon="-123.1177778"><ele>151.99</ele></trkpt>
            <trkpt lat="38.5832397" lon="-123.1180298"><ele>155.48</ele></trkpt>
            <trkpt lat="38.5833096" lon="-123.1180871"><ele>156.54</ele></trkpt>
            <trkpt lat="38.583371" lon="-123.1181128"><ele>157.37</ele></trkpt>
            <trkpt lat="38.5834296" lon="-123.1181126"><ele>158.13</ele></trkpt>
            <trkpt lat="38.5834964" lon="-123.1180882"><ele>159.04</ele></trkpt>
            <trkpt lat="38.5837505" lon="-123.1179271"><ele>162.76</ele></trkpt>
            <trkpt lat="38.58383" lon="-123.1179111"><ele>163.82</ele></trkpt>
            <trkpt lat="38.5839149" lon="-123.1179252"><ele>164.96</ele></trkpt>
            <trkpt lat="38.5841112" lon="-123.1180252"><ele>167.74</ele></trkpt>
            <trkpt lat="38.5844707" lon="-123.1181462"><ele>172.63</ele></trkpt>
            <trkpt lat="38.5847039" lon="-123.1183796"><ele>176.5</ele></trkpt>
            <trkpt lat="38.5848786" lon="-123.1184356"><ele>178.84</ele></trkpt>
            <trkpt lat="38.5849843" lon="-123.1185015"><ele>180.36</ele></trkpt>
            <trkpt lat="38.5850928" lon="-123.1186105"><ele>182.14</ele></trkpt>
            <trkpt lat="38.5851784" lon="-123.118741"><ele>183.85</ele></trkpt>
            <trkpt lat="38.585212" lon="-123.1188493"><ele>185.02</ele></trkpt>
            <trkpt lat="38.585244" lon="-123.1191989"><ele>188.55</ele></trkpt>
            <trkpt lat="38.5852651" lon="-123.1192949"><ele>189.55</ele></trkpt>
            <trkpt lat="38.5853355" lon="-123.1194117"><ele>191.03</ele></trkpt>
            <trkpt lat="38.5855131" lon="-123.119561"><ele>193.75</ele></trkpt>
            <trkpt lat="38.5855413" lon="-123.1196241"><ele>194.47</ele></trkpt>
            <trkpt lat="38.5855534" lon="-123.1196995"><ele>195.24</ele></trkpt>
            <trkpt lat="38.5855343" lon="-123.1198049"><ele>196.31</ele></trkpt>
            <trkpt lat="38.5854731" lon="-123.1199623"><ele>198.05</ele></trkpt>
            <trkpt lat="38.5854116" lon="-123.1200459"><ele>199.17</ele></trkpt>
            <trkpt lat="38.5853206" lon="-123.1201068"><ele>200.45</ele></trkpt>
            <trkpt lat="38.5852462" lon="-123.1201235"><ele>201.39</ele></trkpt>
            <trkpt lat="38.5851879" lon="-123.1201074"><ele>202.12</ele></trkpt>
            <trkpt lat="38.5851264" lon="-123.1200605"><ele>203</ele></trkpt>
            <trkpt lat="38.5850873" lon="-123.1199787"><ele>203.91</ele></trkpt>
            <trkpt lat="38.5849824" lon="-123.1195867"><ele>207.78</ele></trkpt>
            <trkpt lat="38.5848828" lon="-123.1194408"><ele>209.55</ele></trkpt>
            <trkpt lat="38.584771" lon="-123.1193608"><ele>211.04</ele></trkpt>
            <trkpt lat="38.5844305" lon="-123.1193139"><ele>214.96</ele></trkpt>
            <trkpt lat="38.5842816" lon="-123.1192601"><ele>216.73</ele></trkpt>
            <trkpt lat="38.584216" lon="-123.1192624"><ele>217.49</ele></trkpt>
            <trkpt lat="38.5841103" lon="-123.1193086"><ele>218.79</ele></trkpt>
            <trkpt lat="38.5839116" lon="-123.1194342"><ele>221.42</ele></trkpt>
            <trkpt lat="38.5838739" lon="-123.1194879"><ele>222.11</ele></trkpt>
            <trkpt lat="38.583874" lon="-123.1195577"><ele>222.78</ele></trkpt>
            <trkpt lat="38.5839062" lon="-123.1196039"><ele>223.39</ele></trkpt>
            <trkpt lat="38.5839516" lon="-123.1196181"><ele>223.98</ele></trkpt>
            <trkpt lat="38.5842674" lon="-123.1195572"><ele>228.17</ele></trkpt>
            <trkpt lat="38.5844131" lon="-123.1195934"><ele>230.24</ele></trkpt>
            <trkpt lat="38.584495" lon="-123.1196472"><ele>231.57</ele></trkpt>
            <trkpt lat="38.5845783" lon="-123.1197316"><ele>233.16</ele></trkpt>
            <trkpt lat="38.5846186" lon="-123.1197909"><ele>234.11</ele></trkpt>
            <trkpt lat="38.5846485" lon="-123.1198709"><ele>235.19</ele></trkpt>
            <trkpt lat="38.5846704" lon="-123.1200188"><ele>237.08</ele></trkpt>
            <trkpt lat="38.5846765" lon="-123.1203102"><ele>240.86</ele></trkpt>
            <trkpt lat="38.5846212" lon="-123.1207589"><ele>246.9</ele></trkpt>
            <trkpt lat="38.5845943" lon="-123.1211031"><ele>251.48</ele></trkpt>
            <trkpt lat="38.5845752" lon="-123.1213586"><ele>254.8</ele></trkpt>
            <trkpt lat="38.5845606" lon="-123.1215542"><ele>257.26</ele></trkpt>
            <trkpt lat="38.5845427" lon="-123.1217746"><ele>259.94</ele></trkpt>
            <trkpt lat="38.5845096" lon="-123.1219021"><ele>261.5</ele></trkpt>
            <trkpt lat="38.5842976" lon="-123.1224269"><ele>268.07</ele></trkpt>
            <trkpt lat="38.584285" lon="-123.1225175"><ele>269.05</ele></trkpt>
            <trkpt lat="38.5842948" lon="-123.1226284"><ele>270.22</ele></trkpt>
            <trkpt lat="38.5843658" lon="-123.1227841"><ele>272.05</ele></trkpt>
            <trkpt lat="38.5844581" lon="-123.1229009"><ele>273.67</ele></trkpt>
            <trkpt lat="38.584817" lon="-123.1232745"><ele>279.23</ele></trkpt>
            <trkpt lat="38.5850476" lon="-123.1234542"><ele>282.34</ele></trkpt>
            <trkpt lat="38.5851773" lon="-123.1235939"><ele>284.24</ele></trkpt>
            <trkpt lat="38.585258" lon="-123.1236352"><ele>285.2</ele></trkpt>
            <trkpt lat="38.585539" lon="-123.1236857"><ele>288.28</ele></trkpt>
            <trkpt lat="38.5856601" lon="-123.1237575"><ele>289.71</ele></trkpt>
            <trkpt lat="38.5857288" lon="-123.1238511"><ele>290.77</ele></trkpt>
            <trkpt lat="38.5857712" lon="-123.1239442"><ele>291.66</ele></trkpt>
            <trkpt lat="38.5858051" lon="-123.124249"><ele>294.18</ele></trkpt>
            <trkpt lat="38.5858555" lon="-123.1243914"><ele>295.45</ele></trkpt>
            <trkpt lat="38.5859134" lon="-123.1244648"><ele>296.29</ele></trkpt>
            <trkpt lat="38.5860981" lon="-123.1246016"><ele>298.5</ele></trkpt>
            <trkpt lat="38.5862144" lon="-123.1247683"><ele>300.3</ele></trkpt>
            <trkpt lat="38.5862289" lon="-123.1248647"><ele>301.09</ele></trkpt>
            <trkpt lat="38.5862163" lon="-123.1249705"><ele>301.95</ele></trkpt>
            <trkpt lat="38.5860748" lon="-123.1253819"><ele>305.53</ele></trkpt>
            <trkpt lat="38.5860466" lon="-123.1257432"><ele>308.38</ele></trkpt>
            <trkpt lat="38.5860584" lon="-123.1258503"><ele>309.21</ele></trkpt>
            <trkpt lat="38.5860925" lon="-123.1259692"><ele>310.17</ele></trkpt>
            <trkpt lat="38.5862735" lon="-123.1262639"><ele>312.93</ele></trkpt>
            <trkpt lat="38.5862956" lon="-123.1263265"><ele>313.41</ele></trkpt>
            <trkpt lat="38.5863001" lon="-123.1264041"><ele>313.96</ele></trkpt>
            <trkpt lat="38.5862662" lon="-123.1265112"><ele>314.74</ele></trkpt>
            <trkpt lat="38.5861428" lon="-123.1266732"><ele>316.19</ele></trkpt>
            <trkpt lat="38.5860841" lon="-123.1267873"><ele>317.01</ele></trkpt>
            <trkpt lat="38.5860553" lon="-123.1269048"><ele>317.7</ele></trkpt>
            <trkpt lat="38.5860491" lon="-123.127065"><ele>318.54</ele></trkpt>
            <trkpt lat="38.5861049" lon="-123.1273428"><ele>319.86</ele></trkpt>
            <trkpt lat="38.586161" lon="-123.1276047"><ele>320.88</ele></trkpt>
            <trkpt lat="38.5862018" lon="-123.1277592"><ele>321.38</ele></trkpt>
            <trkpt lat="38.5862727" lon="-123.1279178"><ele>321.84</ele></trkpt>
            <trkpt lat="38.5863551" lon="-123.1280413"><ele>322.15</ele></trkpt>
            <trkpt lat="38.5864513" lon="-123.1281471"><ele>322.39</ele></trkpt>
            <trkpt lat="38.5867753" lon="-123.1284041"><ele>322.78</ele></trkpt>
            <trkpt lat="38.5870527" lon="-123.1287763"><ele>322.9</ele></trkpt>
            <trkpt lat="38.5872001" lon="-123.1289144"><ele>322.89</ele></trkpt>
            <trkpt lat="38.5872955" lon="-123.1289779"><ele>322.87</ele></trkpt>
            <trkpt lat="38.5873904" lon="-123.1290001"><ele>322.85</ele></trkpt>
            <trkpt lat="38.5877457" lon="-123.1290121"><ele>322.72</ele></trkpt>
            <trkpt lat="38.5879646" lon="-123.1290591"><ele>322.61</ele></trkpt>
            <trkpt lat="38.5881621" lon="-123.1291147"><ele>322.48</ele></trkpt>
            <trkpt lat="38.5882194" lon="-123.1291506"><ele>322.42</ele></trkpt>
            <trkpt lat="38.588282" lon="-123.1292196"><ele>322.35</ele></trkpt>
            <trkpt lat="38.5884764" lon="-123.1294607"><ele>322.02</ele></trkpt>
            <trkpt lat="38.588573" lon="-123.1295806"><ele>321.81</ele></trkpt>
            <trkpt lat="38.5887177" lon="-123.1297603"><ele>321.42</ele></trkpt>
            <trkpt lat="38.5888488" lon="-123.1299558"><ele>320.94</ele></trkpt>
            <trkpt lat="38.5889079" lon="-123.1301211"><ele>320.56</ele></trkpt>
            <trkpt lat="38.5890175" lon="-123.1306185"><ele>319.39</ele></trkpt>
            <trkpt lat="38.5890695" lon="-123.1307012"><ele>319.14</ele></trkpt>
            <trkpt lat="38.5891503" lon="-123.1307555"><ele>318.88</ele></trkpt>
            <trkpt lat="38.5893236" lon="-123.1308237"><ele>318.39</ele></trkpt>
            <trkpt lat="38.5894807" lon="-123.1308745"><ele>317.99</ele></trkpt>
            <trkpt lat="38.5896918" lon="-123.1308853"><ele>317.51</ele></trkpt>
            <trkpt lat="38.5898801" lon="-123.1308947"><ele>317.14</ele></trkpt>
            <trkpt lat="38.5899781" lon="-123.1309261"><ele>316.95</ele></trkpt>
            <trkpt lat="38.5901722" lon="-123.1310512"><ele>316.57</ele></trkpt>
            <trkpt lat="38.590448" lon="-123.1311084"><ele>316.1</ele></trkpt>
            <trkpt lat="38.5905055" lon="-123.1311469"><ele>315.98</ele></trkpt>
            <trkpt lat="38.5905343" lon="-123.1311884"><ele>315.91</ele></trkpt>
            <trkpt lat="38.5905528" lon="-123.13129"><ele>315.76</ele></trkpt>
            <trkpt lat="38.5905389" lon="-123.1313968"><ele>315.6</ele></trkpt>
            <trkpt lat="38.5903575" lon="-123.132325"><ele>314.12</ele></trkpt>
            <trkpt lat="38.5902918" lon="-123.1326684"><ele>313.6</ele></trkpt>
            <trkpt lat="38.5902519" lon="-123.1330715"><ele>313.1</ele></trkpt>
            <trkpt lat="38.5902706" lon="-123.1334357"><ele>312.78</ele></trkpt>
            <trkpt lat="38.5903084" lon="-123.1336622"><ele>312.67</ele></trkpt>
            <trkpt lat="38.5903628" lon="-123.1338828"><ele>312.66</ele></trkpt>
            <trkpt lat="38.5905855" lon="-123.1344711"><ele>313</ele></trkpt>
            <trkpt lat="38.5906481" lon="-123.1346421"><ele>313.21</ele></trkpt>
            <trkpt lat="38.5907929" lon="-123.1352584"><ele>314.33</ele></trkpt>
            <trkpt lat="38.5910059" lon="-123.1357449"><ele>315.75</ele></trkpt>
            <trkpt lat="38.5911149" lon="-123.136011"><ele>316.73</ele></trkpt>
            <trkpt lat="38.5911227" lon="-123.1361214"><ele>317.15</ele></trkpt>
            <trkpt lat="38.5911332" lon="-123.1364709"><ele>318.62</ele></trkpt>
            <trkpt lat="38.5911643" lon="-123.1366479"><ele>319.48</ele></trkpt>
            <trkpt lat="38.591397" lon="-123.1372382"><ele>322.9</ele></trkpt>
            <trkpt lat="38.5916835" lon="-123.1379465"><ele>327.35</ele></trkpt>
            <trkpt lat="38.591832" lon="-123.1381863"><ele>329.11</ele></trkpt>
            <trkpt lat="38.5921376" lon="-123.1385032"><ele>332.06</ele></trkpt>
            <trkpt lat="38.5923039" lon="-123.1387644"><ele>334.04</ele></trkpt>
            <trkpt lat="38.5924005" lon="-123.1389738"><ele>335.46</ele></trkpt>
            <trkpt lat="38.5928036" lon="-123.1400671"><ele>342.45</ele></trkpt>
            <trkpt lat="38.5935071" lon="-123.1411824"><ele>350.44</ele></trkpt>
            <trkpt lat="38.5938123" lon="-123.1419206"><ele>354.78</ele></trkpt>
            <trkpt lat="38.5939053" lon="-123.1421499"><ele>356.02</ele></trkpt>
            <trkpt lat="38.5939507" lon="-123.1423024"><ele>356.76</ele></trkpt>
            <trkpt lat="38.5940448" lon="-123.1426513"><ele>358.32</ele></trkpt>
            <trkpt lat="38.5940509" lon="-123.1429748"><ele>359.59</ele></trkpt>
            <trkpt lat="38.5940039" lon="-123.1436792"><ele>362.17</ele></trkpt>
            <trkpt lat="38.5940329" lon="-123.1439485"><ele>363.14</ele></trkpt>
            <trkpt lat="38.5941025" lon="-123.1441796"><ele>364.01</ele></trkpt>
            <trkpt lat="38.5942777" lon="-123.1445428"><ele>365.52</ele></trkpt>
            <trkpt lat="38.5943802" lon="-123.1447029"><ele>366.26</ele></trkpt>
            <trkpt lat="38.5944499" lon="-123.1447826"><ele>366.7</ele></trkpt>
            <trkpt lat="38.5947583" lon="-123.1450431"><ele>368.44</ele></trkpt>
            <trkpt lat="38.5948578" lon="-123.1451626"><ele>369.09</ele></trkpt>
            <trkpt lat="38.5949384" lon="-123.1453018"><ele>369.75</ele></trkpt>
            <trkpt lat="38.5952288" lon="-123.1459709"><ele>372.7</ele></trkpt>
            <trkpt lat="38.5954542" lon="-123.1466493"><ele>375.57</ele></trkpt>
            <trkpt lat="38.5955941" lon="-123.1470362"><ele>377.2</ele></trkpt>
            <trkpt lat="38.5956912" lon="-123.1471529"><ele>377.83</ele></trkpt>
            <trkpt lat="38.5959092" lon="-123.1472631"><ele>378.91</ele></trkpt>
            <trkpt lat="38.5959964" lon="-123.1473295"><ele>379.36</ele></trkpt>
            <trkpt lat="38.5960448" lon="-123.1474034"><ele>379.68</ele></trkpt>
            <trkpt lat="38.5961067" lon="-123.1475704"><ele>380.27</ele></trkpt>
            <trkpt lat="38.5961136" lon="-123.1476635"><ele>380.56</ele></trkpt>
            <trkpt lat="38.5960933" lon="-123.147951"><ele>381.37</ele></trkpt>
            <trkpt lat="38.596107" lon="-123.1482513"><ele>382.09</ele></trkpt>
            <trkpt lat="38.5960786" lon="-123.1484756"><ele>382.54</ele></trkpt>
            <trkpt lat="38.5959929" lon="-123.1487032"><ele>382.94</ele></trkpt>
            <trkpt lat="38.5958068" lon="-123.1490196"><ele>383.34</ele></trkpt>
            <trkpt lat="38.5957563" lon="-123.1491745"><ele>383.43</ele></trkpt>
            <trkpt lat="38.5957643" lon="-123.1493174"><ele>383.47</ele></trkpt>
            <trkpt lat="38.5958937" lon="-123.1497713"><ele>383.34</ele></trkpt>
            <trkpt lat="38.5958972" lon="-123.1499276"><ele>383.22</ele></trkpt>
            <trkpt lat="38.5958798" lon="-123.1500146"><ele>383.13</ele></trkpt>
            <trkpt lat="38.5958351" lon="-123.1500927"><ele>383.02</ele></trkpt>
            <trkpt lat="38.5957726" lon="-123.1501439"><ele>382.88</ele></trkpt>
            <trkpt lat="38.5956923" lon="-123.1501719"><ele>382.71</ele></trkpt>
            <trkpt lat="38.5954648" lon="-123.1502038"><ele>382.14</ele></trkpt>
            <trkpt lat="38.5953897" lon="-123.1502555"><ele>381.9</ele></trkpt>
            <trkpt lat="38.595341" lon="-123.1503217"><ele>381.68</ele></trkpt>
            <trkpt lat="38.5952886" lon="-123.1504453"><ele>381.31</ele></trkpt>
            <trkpt lat="38.5952131" lon="-123.1507154"><ele>380.5</ele></trkpt>
            <trkpt lat="38.5951149" lon="-123.1512473"><ele>378.81</ele></trkpt>
            <trkpt lat="38.5950375" lon="-123.1514289"><ele>378.17</ele></trkpt>
            <trkpt lat="38.5949036" lon="-123.1516529"><ele>377.31</ele></trkpt>
            <trkpt lat="38.5947248" lon="-123.1520856"><ele>375.94</ele></trkpt>
            <trkpt lat="38.5945509" lon="-123.1523225"><ele>375.2</ele></trkpt>
            <trkpt lat="38.5944214" lon="-123.1525272"><ele>374.75</ele></trkpt>
            <trkpt lat="38.5942837" lon="-123.152749"><ele>374.47</ele></trkpt>
            <trkpt lat="38.5941723" lon="-123.1529472"><ele>374.4</ele></trkpt>
            <trkpt lat="38.5940821" lon="-123.1531812"><ele>374.52</ele></trkpt>
            <trkpt lat="38.5940356" lon="-123.1533511"><ele>374.74</ele></trkpt>
            <trkpt lat="38.5939935" lon="-123.1535658"><ele>375.15</ele></trkpt>
            <trkpt lat="38.5939687" lon="-123.1537825"><ele>375.72</ele></trkpt>
            <trkpt lat="38.5939735" lon="-123.1539395"><ele>376.24</ele></trkpt>
            <trkpt lat="38.5940006" lon="-123.1540822"><ele>376.79</ele></trkpt>
            <trkpt lat="38.5941294" lon="-123.1544793"><ele>378.75</ele></trkpt>
            <trkpt lat="38.5942197" lon="-123.1547437"><ele>380.32</ele></trkpt>
            <trkpt lat="38.5943004" lon="-123.1550172"><ele>382.15</ele></trkpt>
            <trkpt lat="38.594363" lon="-123.1553142"><ele>384.31</ele></trkpt>
            <trkpt lat="38.5944349" lon="-123.1556452"><ele>386.95</ele></trkpt>
            <trkpt lat="38.5945326" lon="-123.1558572"><ele>388.98</ele></trkpt>
            <trkpt lat="38.5947464" lon="-123.1561683"><ele>392.55</ele></trkpt>
            <trkpt lat="38.5948644" lon="-123.1565063"><ele>395.84</ele></trkpt>
            <trkpt lat="38.5949545" lon="-123.1567472"><ele>398.23</ele></trkpt>
            <trkpt lat="38.5950259" lon="-123.1568738"><ele>399.64</ele></trkpt>
            <trkpt lat="38.5952044" lon="-123.1570912"><ele>402.47</ele></trkpt>
            <trkpt lat="38.5953544" lon="-123.1573596"><ele>405.42</ele></trkpt>
            <trkpt lat="38.5954257" lon="-123.1575922"><ele>407.64</ele></trkpt>
            <trkpt lat="38.5955783" lon="-123.1578814"><ele>410.74</ele></trkpt>
            <trkpt lat="38.5956775" lon="-123.1581109"><ele>413.07</ele></trkpt>
            <trkpt lat="38.5957921" lon="-123.1584054"><ele>416.01</ele></trkpt>
            <trkpt lat="38.5958896" lon="-123.158722"><ele>419.08</ele></trkpt>
            <trkpt lat="38.5960632" lon="-123.159057"><ele>422.75</ele></trkpt>
            <trkpt lat="38.5961445" lon="-123.1593073"><ele>425.27</ele></trkpt>
            <trkpt lat="38.5962548" lon="-123.1595332"><ele>427.79</ele></trkpt>
            <trkpt lat="38.5963192" lon="-123.1598"><ele>430.48</ele></trkpt>
            <trkpt lat="38.5963231" lon="-123.1598983"><ele>431.45</ele></trkpt>
            <trkpt lat="38.5962747" lon="-123.1599608"><ele>432.32</ele></trkpt>
            <trkpt lat="38.5962135" lon="-123.1599498"><ele>433.1</ele></trkpt>
            <trkpt lat="38.5961572" lon="-123.1598644"><ele>434.22</ele></trkpt>
            <trkpt lat="38.5960666" lon="-123.1596316"><ele>436.87</ele></trkpt>
            <trkpt lat="38.5960034" lon="-123.159512"><ele>438.35</ele></trkpt>
            <trkpt lat="38.5956284" lon="-123.1589814"><ele>445.81</ele></trkpt>
            <trkpt lat="38.5954628" lon="-123.1587079"><ele>449.43</ele></trkpt>
            <trkpt lat="38.5953552" lon="-123.1585855"><ele>451.33</ele></trkpt>
            <trkpt lat="38.5953193" lon="-123.1585636"><ele>451.86</ele></trkpt>
            <trkpt lat="38.5952762" lon="-123.1585664"><ele>452.43</ele></trkpt>
            <trkpt lat="38.595243" lon="-123.1585995"><ele>452.98</ele></trkpt>
            <trkpt lat="38.5952292" lon="-123.158646"><ele>453.49</ele></trkpt>
            <trkpt lat="38.5952516" lon="-123.1587911"><ele>454.99</ele></trkpt>
            <trkpt lat="38.5953529" lon="-123.1590978"><ele>458.3</ele></trkpt>
            <trkpt lat="38.5954603" lon="-123.1594492"><ele>461.93</ele></trkpt>
            <trkpt lat="38.5955421" lon="-123.1597167"><ele>464.58</ele></trkpt>
            <trkpt lat="38.5956223" lon="-123.1599803"><ele>467.09</ele></trkpt>
            <trkpt lat="38.5956488" lon="-123.1601021"><ele>468.17</ele></trkpt>
            <trkpt lat="38.5956603" lon="-123.160321"><ele>469.99</ele></trkpt>
            <trkpt lat="38.5956801" lon="-123.1607611"><ele>473.48</ele></trkpt>
            <trkpt lat="38.5957097" lon="-123.1608958"><ele>474.55</ele></trkpt>
            <trkpt lat="38.5957473" lon="-123.1609526"><ele>475.12</ele></trkpt>
            <trkpt lat="38.5958164" lon="-123.1609943"><ele>475.85</ele></trkpt>
            <trkpt lat="38.5960314" lon="-123.1609794"><ele>477.86</ele></trkpt>
            <trkpt lat="38.5961284" lon="-123.1610061"><ele>478.77</ele></trkpt>
            <trkpt lat="38.5963856" lon="-123.1612505"><ele>481.63</ele></trkpt>
            <trkpt lat="38.5964515" lon="-123.1613176"><ele>482.36</ele></trkpt>
            <trkpt lat="38.5965175" lon="-123.161385"><ele>483.08</ele></trkpt>
            <trkpt lat="38.5965919" lon="-123.1614628"><ele>483.88</ele></trkpt>
            <trkpt lat="38.5966369" lon="-123.1615349"><ele>484.47</ele></trkpt>
            <trkpt lat="38.5966569" lon="-123.1616502"><ele>485.19</ele></trkpt>
            <trkpt lat="38.5966418" lon="-123.1617671"><ele>485.89</ele></trkpt>
            <trkpt lat="38.5965366" lon="-123.1620318"><ele>487.54</ele></trkpt>
            <trkpt lat="38.5964677" lon="-123.1622163"><ele>488.55</ele></trkpt>
            <trkpt lat="38.5964189" lon="-123.1623977"><ele>489.4</ele></trkpt>
            <trkpt lat="38.5963666" lon="-123.1625787"><ele>490.14</ele></trkpt>
            <trkpt lat="38.5963238" lon="-123.1626751"><ele>490.51</ele></trkpt>
            <trkpt lat="38.596278" lon="-123.1627385"><ele>490.77</ele></trkpt>
            <trkpt lat="38.5961796" lon="-123.1627934"><ele>491.14</ele></trkpt>
            <trkpt lat="38.5959697" lon="-123.1628154"><ele>491.69</ele></trkpt>
            <trkpt lat="38.5958345" lon="-123.162867"><ele>491.96</ele></trkpt>
            <trkpt lat="38.5957034" lon="-123.1629534"><ele>492.14</ele></trkpt>
            <trkpt lat="38.5956094" lon="-123.1630989"><ele>492.24</ele></trkpt>
            <trkpt lat="38.595565" lon="-123.1632413"><ele>492.27</ele></trkpt>
            <trkpt lat="38.5955397" lon="-123.1635755"><ele>492.2</ele></trkpt>
            <trkpt lat="38.5955186" lon="-123.1636749"><ele>492.14</ele></trkpt>
            <trkpt lat="38.595343" lon="-123.1640382"><ele>491.78</ele></trkpt>
            <trkpt lat="38.5953365" lon="-123.1641395"><ele>491.67</ele></trkpt>
            <trkpt lat="38.5953586" lon="-123.1643038"><ele>491.44</ele></trkpt>
            <trkpt lat="38.5953568" lon="-123.1643953"><ele>491.3</ele></trkpt>
            <trkpt lat="38.5952764" lon="-123.1646518"><ele>490.81</ele></trkpt>
            <trkpt lat="38.5952407" lon="-123.1649707"><ele>490.09</ele></trkpt>
            <trkpt lat="38.5951496" lon="-123.1653005"><ele>489.16</ele></trkpt>
            <trkpt lat="38.5951489" lon="-123.1653809"><ele>488.92</ele></trkpt>
            <trkpt lat="38.5951675" lon="-123.1654453"><ele>488.71</ele></trkpt>
            <trkpt lat="38.5953076" lon="-123.1656232"><ele>487.86</ele></trkpt>
            <trkpt lat="38.5953557" lon="-123.1657211"><ele>487.44</ele></trkpt>
            <trkpt lat="38.5954326" lon="-123.1660302"><ele>486.2</ele></trkpt>
            <trkpt lat="38.5955519" lon="-123.1663715"><ele>484.7</ele></trkpt>
            <trkpt lat="38.5955905" lon="-123.1665321"><ele>484.02</ele></trkpt>
            <trkpt lat="38.5955779" lon="-123.1666656"><ele>483.49</ele></trkpt>
            <trkpt lat="38.5954949" lon="-123.166886"><ele>482.55</ele></trkpt>
            <trkpt lat="38.5954418" lon="-123.1670645"><ele>481.87</ele></trkpt>
            <trkpt lat="38.595426" lon="-123.1672088"><ele>481.39</ele></trkpt>
            <trkpt lat="38.5954183" lon="-123.1674106"><ele>480.78</ele></trkpt>
            <trkpt lat="38.595407" lon="-123.1676299"><ele>480.19</ele></trkpt>
            <trkpt lat="38.5953592" lon="-123.1679082"><ele>479.53</ele></trkpt>
            <trkpt lat="38.5952893" lon="-123.168228"><ele>478.87</ele></trkpt>
            <trkpt lat="38.5952401" lon="-123.1684531"><ele>478.44</ele></trkpt>
            <trkpt lat="38.5952303" lon="-123.1685854"><ele>478.2</ele></trkpt>
            <trkpt lat="38.5952389" lon="-123.1687299"><ele>477.93</ele></trkpt>
            <trkpt lat="38.595266" lon="-123.1688553"><ele>477.67</ele></trkpt>
            <trkpt lat="38.5953632" lon="-123.1691"><ele>477.08</ele></trkpt>
            <trkpt lat="38.5954049" lon="-123.1692329"><ele>476.73</ele></trkpt>
            <trkpt lat="38.5954013" lon="-123.1693769"><ele>476.35</ele></trkpt>
            <trkpt lat="38.5953368" lon="-123.1695627"><ele>475.75</ele></trkpt>
            <trkpt lat="38.5953286" lon="-123.169659"><ele>475.45</ele></trkpt>
            <trkpt lat="38.5953469" lon="-123.1697273"><ele>475.21</ele></trkpt>
            <trkpt lat="38.5953857" lon="-123.1697799"><ele>474.96</ele></trkpt>
            <trkpt lat="38.5955658" lon="-123.1698787"><ele>474.07</ele></trkpt>
            <trkpt lat="38.5956467" lon="-123.1699736"><ele>473.56</ele></trkpt>
            <trkpt lat="38.5957612" lon="-123.1702094"><ele>472.53</ele></trkpt>
            <trkpt lat="38.5957779" lon="-123.1702973"><ele>472.21</ele></trkpt>
            <trkpt lat="38.5957767" lon="-123.170381"><ele>471.91</ele></trkpt>
            <trkpt lat="38.5957554" lon="-123.1704865"><ele>471.54</ele></trkpt>
            <trkpt lat="38.5956995" lon="-123.1706656"><ele>470.94</ele></trkpt>
            <trkpt lat="38.5956286" lon="-123.1708921"><ele>470.27</ele></trkpt>
            <trkpt lat="38.5955542" lon="-123.1711661"><ele>469.66</ele></trkpt>
            <trkpt lat="38.5954775" lon="-123.1712871"><ele>469.42</ele></trkpt>
            <trkpt lat="38.5952532" lon="-123.1715441"><ele>469.09</ele></trkpt>
            <trkpt lat="38.5951813" lon="-123.1716713"><ele>469.07</ele></trkpt>
            <trkpt lat="38.5951414" lon="-123.1717788"><ele>469.1</ele></trkpt>
            <trkpt lat="38.5951223" lon="-123.1720433"><ele>469.34</ele></trkpt>
            <trkpt lat="38.5950978" lon="-123.1721355"><ele>469.48</ele></trkpt>
            <trkpt lat="38.595066" lon="-123.1721942"><ele>469.6</ele></trkpt>
            <trkpt lat="38.5949814" lon="-123.1722699"><ele>469.86</ele></trkpt>
            <trkpt lat="38.5947495" lon="-123.1724201"><ele>470.69</ele></trkpt>
            <trkpt lat="38.5946641" lon="-123.1724999"><ele>471.1</ele></trkpt>
            <trkpt lat="38.5946227" lon="-123.1725638"><ele>471.36</ele></trkpt>
            <trkpt lat="38.5945964" lon="-123.172651"><ele>471.68</ele></trkpt>
            <trkpt lat="38.5945854" lon="-123.1729192"><ele>472.65</ele></trkpt>
            <trkpt lat="38.5945635" lon="-123.1730319"><ele>473.1</ele></trkpt>
            <trkpt lat="38.5944847" lon="-123.1732304"><ele>473.99</ele></trkpt>
            <trkpt lat="38.5943236" lon="-123.1735119"><ele>475.43</ele></trkpt>
            <trkpt lat="38.5942957" lon="-123.1736359"><ele>475.97</ele></trkpt>
            <trkpt lat="38.5942981" lon="-123.1737752"><ele>476.54</ele></trkpt>
            <trkpt lat="38.5943235" lon="-123.1738829"><ele>477</ele></trkpt>
            <trkpt lat="38.5943742" lon="-123.1739905"><ele>477.5</ele></trkpt>
            <trkpt lat="38.5945693" lon="-123.1742709"><ele>478.97</ele></trkpt>
            <trkpt lat="38.5946357" lon="-123.1744021"><ele>479.56</ele></trkpt>
            <trkpt lat="38.5946759" lon="-123.17458"><ele>480.23</ele></trkpt>
            <trkpt lat="38.5946961" lon="-123.175004"><ele>481.69</ele></trkpt>
            <trkpt lat="38.5947323" lon="-123.175154"><ele>482.18</ele></trkpt>
            <trkpt lat="38.5947915" lon="-123.1752236"><ele>482.5</ele></trkpt>
            <trkpt lat="38.5949458" lon="-123.175278"><ele>483.07</ele></trkpt>
            <trkpt lat="38.5949955" lon="-123.1753176"><ele>483.26</ele></trkpt>
            <trkpt lat="38.5951988" lon="-123.1756662"><ele>484.25</ele></trkpt>
            <trkpt lat="38.5953733" lon="-123.1758917"><ele>484.78</ele></trkpt>
            <trkpt lat="38.5954648" lon="-123.1762277"><ele>485.11</ele></trkpt>
            <trkpt lat="38.5955656" lon="-123.1764499"><ele>485.16</ele></trkpt>
            <trkpt lat="38.5956" lon="-123.176625"><ele>485.07</ele></trkpt>
            <trkpt lat="38.5956288" lon="-123.1768012"><ele>484.89</ele></trkpt>
            <trkpt lat="38.5957058" lon="-123.1770768"><ele>484.39</ele></trkpt>
            <trkpt lat="38.5957256" lon="-123.1772231"><ele>484.05</ele></trkpt>
            <trkpt lat="38.5957254" lon="-123.1773302"><ele>483.76</ele></trkpt>
            <trkpt lat="38.5956636" lon="-123.1775914"><ele>482.89</ele></trkpt>
            <trkpt lat="38.5955973" lon="-123.1780691"><ele>481</ele></trkpt>
            <trkpt lat="38.5955435" lon="-123.1783009"><ele>479.92</ele></trkpt>
            <trkpt lat="38.5955076" lon="-123.1786499"><ele>478.15</ele></trkpt>
            <trkpt lat="38.595458" lon="-123.17891"><ele>476.67</ele></trkpt>
            <trkpt lat="38.5954268" lon="-123.1791531"><ele>475.22</ele></trkpt>
            <trkpt lat="38.5954251" lon="-123.1795201"><ele>472.94</ele></trkpt>
            <trkpt lat="38.5954409" lon="-123.1797676"><ele>471.36</ele></trkpt>
            <trkpt lat="38.5954914" lon="-123.1801551"><ele>468.86</ele></trkpt>
            <trkpt lat="38.5954959" lon="-123.1803215"><ele>467.84</ele></trkpt>
            <trkpt lat="38.5954709" lon="-123.1804562"><ele>467.01</ele></trkpt>
            <trkpt lat="38.5953748" lon="-123.1808095"><ele>464.96</ele></trkpt>
            <trkpt lat="38.5953354" lon="-123.1810456"><ele>463.81</ele></trkpt>
            <trkpt lat="38.5953204" lon="-123.181259"><ele>462.96</ele></trkpt>
            <trkpt lat="38.595323" lon="-123.1814302"><ele>462.41</ele></trkpt>
            <trkpt lat="38.595353" lon="-123.1816554"><ele>461.86</ele></trkpt>
            <trkpt lat="38.595392" lon="-123.1818893"><ele>461.52</ele></trkpt>
            <trkpt lat="38.5954529" lon="-123.1821385"><ele>461.41</ele></trkpt>
            <trkpt lat="38.5955608" lon="-123.1824145"><ele>461.57</ele></trkpt>
            <trkpt lat="38.5956173" lon="-123.182626"><ele>461.86</ele></trkpt>
            <trkpt lat="38.5956933" lon="-123.1829479"><ele>462.51</ele></trkpt>
            <trkpt lat="38.5957944" lon="-123.183162"><ele>463.08</ele></trkpt>
            <trkpt lat="38.5959754" lon="-123.183457"><ele>463.98</ele></trkpt>
            <trkpt lat="38.5961167" lon="-123.1836728"><ele>464.59</ele></trkpt>
            <trkpt lat="38.5961931" lon="-123.1837411"><ele>464.81</ele></trkpt>
            <trkpt lat="38.5963789" lon="-123.1838196"><ele>465.19</ele></trkpt>
            <trkpt lat="38.5966085" lon="-123.1839854"><ele>465.45</ele></trkpt>
            <trkpt lat="38.5967709" lon="-123.1840158"><ele>465.46</ele></trkpt>
            <trkpt lat="38.5969802" lon="-123.1840102"><ele>465.27</ele></trkpt>
            <trkpt lat="38.5970398" lon="-123.1840171"><ele>465.18</ele></trkpt>
            <trkpt lat="38.5971126" lon="-123.1840504"><ele>465.02</ele></trkpt>
            <trkpt lat="38.5972508" lon="-123.184188"><ele>464.58</ele></trkpt>
            <trkpt lat="38.5973961" lon="-123.1843837"><ele>463.86</ele></trkpt>
            <trkpt lat="38.5974436" lon="-123.1844825"><ele>463.51</ele></trkpt>
            <trkpt lat="38.5975841" lon="-123.1848116"><ele>462.24</ele></trkpt>
            <trkpt lat="38.5976691" lon="-123.1850155"><ele>461.39</ele></trkpt>
            <trkpt lat="38.5976932" lon="-123.1851253"><ele>460.96</ele></trkpt>
            <trkpt lat="38.5976927" lon="-123.1852211"><ele>460.59</ele></trkpt>
            <trkpt lat="38.597636" lon="-123.1856031"><ele>459.05</ele></trkpt>
            <trkpt lat="38.5976314" lon="-123.1857346"><ele>458.52</ele></trkpt>
            <trkpt lat="38.5976495" lon="-123.1858624"><ele>458</ele></trkpt>
            <trkpt lat="38.597685" lon="-123.1859459"><ele>457.62</ele></trkpt>
            <trkpt lat="38.5978951" lon="-123.1861626"><ele>456.21</ele></trkpt>
            <trkpt lat="38.5981911" lon="-123.1864312"><ele>454.31</ele></trkpt>
            <trkpt lat="38.5983622" lon="-123.1865751"><ele>453.24</ele></trkpt>
            <trkpt lat="38.5987768" lon="-123.1868772"><ele>450.8</ele></trkpt>
            <trkpt lat="38.5988872" lon="-123.1869924"><ele>450.11</ele></trkpt>
            <trkpt lat="38.5990717" lon="-123.1872946"><ele>448.79</ele></trkpt>
            <trkpt lat="38.5992311" lon="-123.1875573"><ele>447.79</ele></trkpt>
            <trkpt lat="38.599384" lon="-123.1877458"><ele>447.1</ele></trkpt>
            <trkpt lat="38.599538" lon="-123.1879315"><ele>446.55</ele></trkpt>
            <trkpt lat="38.5998367" lon="-123.1882947"><ele>445.76</ele></trkpt>
            <trkpt lat="38.5998991" lon="-123.1884076"><ele>445.61</ele></trkpt>
            <trkpt lat="38.5999374" lon="-123.1885211"><ele>445.5</ele></trkpt>
            <trkpt lat="38.5999893" lon="-123.1887348"><ele>445.37</ele></trkpt>
            <trkpt lat="38.6000012" lon="-123.1888472"><ele>445.33</ele></trkpt>
            <trkpt lat="38.60001" lon="-123.1892465"><ele>445.33</ele></trkpt>
            <trkpt lat="38.6000225" lon="-123.1897217"><ele>445.49</ele></trkpt>
            <trkpt lat="38.6000874" lon="-123.1901178"><ele>445.73</ele></trkpt>
            <trkpt lat="38.6002824" lon="-123.1905935"><ele>446.19</ele></trkpt>
            <trkpt lat="38.6002986" lon="-123.190725"><ele>446.32</ele></trkpt>
            <trkpt lat="38.6003009" lon="-123.191062"><ele>446.7</ele></trkpt>
            <trkpt lat="38.6003207" lon="-123.1912233"><ele>446.91</ele></trkpt>
            <trkpt lat="38.6003921" lon="-123.1914495"><ele>447.27</ele></trkpt>
            <trkpt lat="38.6005501" lon="-123.1917903"><ele>447.99</ele></trkpt>
            <trkpt lat="38.6006323" lon="-123.1919592"><ele>448.42</ele></trkpt>
            <trkpt lat="38.6007263" lon="-123.1920995"><ele>448.87</ele></trkpt>
            <trkpt lat="38.6008832" lon="-123.1922831"><ele>449.65</ele></trkpt>
            <trkpt lat="38.6010524" lon="-123.1924416"><ele>450.52</ele></trkpt>
            <trkpt lat="38.6012613" lon="-123.1926133"><ele>451.65</ele></trkpt>
            <trkpt lat="38.6014806" lon="-123.1927439"><ele>452.8</ele></trkpt>
            <trkpt lat="38.6017914" lon="-123.1927963"><ele>454.26</ele></trkpt>
            <trkpt lat="38.6020798" lon="-123.1927754"><ele>455.42</ele></trkpt>
            <trkpt lat="38.6022511" lon="-123.1927609"><ele>455.96</ele></trkpt>
            <trkpt lat="38.6024206" lon="-123.1927573"><ele>456.35</ele></trkpt>
            <trkpt lat="38.6025675" lon="-123.1927796"><ele>456.56</ele></trkpt>
            <trkpt lat="38.6026745" lon="-123.1927967"><ele>456.63</ele></trkpt>
            <trkpt lat="38.6027778" lon="-123.1928273"><ele>456.65</ele></trkpt>
            <trkpt lat="38.6032075" lon="-123.1931245"><ele>456.36</ele></trkpt>
            <trkpt lat="38.6033642" lon="-123.1932346"><ele>456.22</ele></trkpt>
            <trkpt lat="38.6035668" lon="-123.193362"><ele>456.1</ele></trkpt>
            <trkpt lat="38.6037455" lon="-123.1934116"><ele>456.11</ele></trkpt>
            <trkpt lat="38.6038902" lon="-123.1934319"><ele>456.23</ele></trkpt>
            <trkpt lat="38.6039927" lon="-123.1934163"><ele>456.39</ele></trkpt>
            <trkpt lat="38.6042132" lon="-123.1932217"><ele>457.09</ele></trkpt>
            <trkpt lat="38.6043305" lon="-123.1931657"><ele>457.58</ele></trkpt>
            <trkpt lat="38.6044298" lon="-123.1931627"><ele>458.06</ele></trkpt>
            <trkpt lat="38.6045131" lon="-123.1931868"><ele>458.55</ele></trkpt>
            <trkpt lat="38.6046063" lon="-123.1932456"><ele>459.22</ele></trkpt>
            <trkpt lat="38.6046892" lon="-123.1933397"><ele>460.05</ele></trkpt>
            <trkpt lat="38.604756" lon="-123.1934816"><ele>461.13</ele></trkpt>
            <trkpt lat="38.6047936" lon="-123.1936803"><ele>462.64</ele></trkpt>
            <trkpt lat="38.6047704" lon="-123.1942273"><ele>467.22</ele></trkpt>
            <trkpt lat="38.6049178" lon="-123.194614"><ele>471.14</ele></trkpt>
            <trkpt lat="38.6049269" lon="-123.194743"><ele>472.36</ele></trkpt>
            <trkpt lat="38.6048825" lon="-123.1949054"><ele>474.01</ele></trkpt>
            <trkpt lat="38.6046353" lon="-123.1951464"><ele>477.85</ele></trkpt>
            <trkpt lat="38.6045505" lon="-123.1953235"><ele>479.84</ele></trkpt>
            <trkpt lat="38.6045125" lon="-123.1955145"><ele>481.69</ele></trkpt>
            <trkpt lat="38.604512" lon="-123.1957094"><ele>483.47</ele></trkpt>
            <trkpt lat="38.6045691" lon="-123.1960809"><ele>486.78</ele></trkpt>
            <trkpt lat="38.6045758" lon="-123.1962782"><ele>488.41</ele></trkpt>
            <trkpt lat="38.6045118" lon="-123.1964466"><ele>489.89</ele></trkpt>
            <trkpt lat="38.6043241" lon="-123.1966549"><ele>492.22</ele></trkpt>
            <trkpt lat="38.6042727" lon="-123.1967424"><ele>492.97</ele></trkpt>
            <trkpt lat="38.6042464" lon="-123.1968308"><ele>493.6</ele></trkpt>
            <trkpt lat="38.6042445" lon="-123.1969199"><ele>494.17</ele></trkpt>
            <trkpt lat="38.6042971" lon="-123.1972311"><ele>496.07</ele></trkpt>
            <trkpt lat="38.6043189" lon="-123.1975293"><ele>497.66</ele></trkpt>
            <trkpt lat="38.6043415" lon="-123.1976287"><ele>498.16</ele></trkpt>
            <trkpt lat="38.6044367" lon="-123.1978767"><ele>499.38</ele></trkpt>
            <trkpt lat="38.6044557" lon="-123.1980161"><ele>499.93</ele></trkpt>
            <trkpt lat="38.6044351" lon="-123.1982307"><ele>500.69</ele></trkpt>
            <trkpt lat="38.6043983" lon="-123.1985018"><ele>501.49</ele></trkpt>
            <trkpt lat="38.6043192" lon="-123.198903"><ele>502.46</ele></trkpt>
            <trkpt lat="38.6043088" lon="-123.1994239"><ele>503.39</ele></trkpt>
            <trkpt lat="38.6042912" lon="-123.1997071"><ele>503.8</ele></trkpt>
            <trkpt lat="38.6042587" lon="-123.1999337"><ele>504.09</ele></trkpt>
            <trkpt lat="38.6042245" lon="-123.2000835"><ele>504.27</ele></trkpt>
            <trkpt lat="38.6039811" lon="-123.2006936"><ele>505.06</ele></trkpt>
            <trkpt lat="38.6038576" lon="-123.2011188"><ele>505.73</ele></trkpt>
            <trkpt lat="38.6037981" lon="-123.2012601"><ele>506.03</ele></trkpt>
            <trkpt lat="38.6037069" lon="-123.2014291"><ele>506.49</ele></trkpt>
            <trkpt lat="38.6036211" lon="-123.2015361"><ele>506.89</ele></trkpt>
            <trkpt lat="38.6035521" lon="-123.2015943"><ele>507.2</ele></trkpt>
            <trkpt lat="38.6032472" lon="-123.2017889"><ele>508.66</ele></trkpt>
            <trkpt lat="38.6026724" lon="-123.2020263"><ele>511.69</ele></trkpt>
            <trkpt lat="38.6025526" lon="-123.2021329"><ele>512.48</ele></trkpt>
            <trkpt lat="38.6024656" lon="-123.2022645"><ele>513.24</ele></trkpt>
            <trkpt lat="38.6024055" lon="-123.2024418"><ele>514.12</ele></trkpt>
            <trkpt lat="38.602393" lon="-123.2026518"><ele>515.12</ele></trkpt>
            <trkpt lat="38.6024231" lon="-123.2028183"><ele>515.93</ele></trkpt>
            <trkpt lat="38.6025589" lon="-123.2031914"><ele>517.91</ele></trkpt>
            <trkpt lat="38.6025729" lon="-123.2032952"><ele>518.41</ele></trkpt>
            <trkpt lat="38.6025654" lon="-123.2033977"><ele>518.89</ele></trkpt>
            <trkpt lat="38.6024916" lon="-123.2035537"><ele>519.72</ele></trkpt>
            <trkpt lat="38.6021918" lon="-123.2038624"><ele>521.86</ele></trkpt>
            <trkpt lat="38.6021009" lon="-123.2040074"><ele>522.6</ele></trkpt>
            <trkpt lat="38.6020423" lon="-123.2042044"><ele>523.37</ele></trkpt>
            <trkpt lat="38.6019597" lon="-123.2045928"><ele>524.62</ele></trkpt>
            <trkpt lat="38.6018948" lon="-123.2048727"><ele>525.34</ele></trkpt>
            <trkpt lat="38.6018193" lon="-123.2051504"><ele>525.86</ele></trkpt>
            <trkpt lat="38.6017497" lon="-123.2054067"><ele>526.15</ele></trkpt>
            <trkpt lat="38.6016747" lon="-123.2057013"><ele>526.25</ele></trkpt>
            <trkpt lat="38.6016625" lon="-123.2058834"><ele>526.19</ele></trkpt>
            <trkpt lat="38.6016711" lon="-123.2060905"><ele>526</ele></trkpt>
            <trkpt lat="38.6017121" lon="-123.2063222"><ele>525.63</ele></trkpt>
            <trkpt lat="38.6018476" lon="-123.2067828"><ele>524.49</ele></trkpt>
            <trkpt lat="38.601935" lon="-123.2070768"><ele>523.52</ele></trkpt>
            <trkpt lat="38.6020343" lon="-123.2074004"><ele>522.19</ele></trkpt>
            <trkpt lat="38.6021866" lon="-123.207633"><ele>520.84</ele></trkpt>
            <trkpt lat="38.6024766" lon="-123.2079184"><ele>518.48</ele></trkpt>
            <trkpt lat="38.6025747" lon="-123.2080403"><ele>517.53</ele></trkpt>
            <trkpt lat="38.6026475" lon="-123.2081869"><ele>516.54</ele></trkpt>
            <trkpt lat="38.6028066" lon="-123.2086241"><ele>513.69</ele></trkpt>
            <trkpt lat="38.6028842" lon="-123.208794"><ele>512.49</ele></trkpt>
            <trkpt lat="38.6029495" lon="-123.2089975"><ele>511.14</ele></trkpt>
            <trkpt lat="38.6030092" lon="-123.2090693"><ele>510.49</ele></trkpt>
            <trkpt lat="38.6031922" lon="-123.209169"><ele>508.91</ele></trkpt>
            <trkpt lat="38.6032526" lon="-123.2092229"><ele>508.33</ele></trkpt>
            <trkpt lat="38.6032943" lon="-123.209322"><ele>507.63</ele></trkpt>
            <trkpt lat="38.6033223" lon="-123.2095814"><ele>506</ele></trkpt>
            <trkpt lat="38.6033553" lon="-123.2096853"><ele>505.31</ele></trkpt>
            <trkpt lat="38.6035029" lon="-123.2098854"><ele>503.61</ele></trkpt>
            <trkpt lat="38.6036804" lon="-123.2100275"><ele>501.98</ele></trkpt>
        </trkseg>
    </trk>
</gpx>
