<?xml version="1.0" encoding="utf-8"?>
<gpx xmlns:xsd="http://www.w3.org/2001/XMLSchema" xmlns:xsi="http://www.w3.org/2001/XMLSchema-instance" version="1.1" creator="Geo::Gpx" xsi:schemaLocation="http://www.topografix.com/GPX/1/1 http://www.topografix.com/GPX/1/1/gpx.xsd" xmlns="http://www.topografix.com/GPX/1/1">
<metadata>
<name>piban</name>
<author>
<link href="https://www.strava.com/athletes/462432">
</link>
<name>Ryan Yates</name>
</author>
<time>2026-08-31T16:12:54Z</time>
<keywords>processGPX</keywords>
<copyright>2020 https://www.openstreetmap.org/copyright</copyright>
<link href="https://www.strava.com/routes/3529529658366223156">
</link>
<bounds maxlat="36.5475039477132" maxlon="127.572006162502" minlat="36.5325159450054" minlon="127.55312419164" />
</metadata>
<trk>
<link href="https://www.strava.com/routes/3529529658366223156">
</link>
<name>piban</name>
<trkseg>
<trkpt lat="36.5467850412086" lon="127.55312419164">
<ele>131.49817542713</ele>
</trkpt>
<trkpt lat="36.5466727274505" lon="127.553380909492">
<ele>132.352381485293</ele>
</trkpt>
<trkpt lat="36.5465963624187" lon="127.553555458394">
<ele>133.280080551554</ele>
</trkpt>
<trkpt lat="36.5465180255722" lon="127.55372803311">
<ele>134.431912651386</ele>
</trkpt>
<trkpt lat="36.5463821135218" lon="127.5539476104">
<ele>136.480220107884</ele>
</trkpt>
<trkpt lat="36.5462286576216" lon="127.554149103744">
<ele>138.614163904128</ele>
</trkpt>
<trkpt lat="36.5460754143367" lon="127.554315315508">
<ele>140.297595859843</ele>
</trkpt>
<trkpt lat="36.5459085030979" lon="127.554456268137">
<ele>141.713796887978</ele>
</trkpt>
<trkpt lat="36.5456743656829" lon="127.554582316701">
<ele>143.089106331799</ele>
</trkpt>
<trkpt lat="36.5454304717167" lon="127.554679664975">
<ele>144.140751864898</ele>
</trkpt>
<trkpt lat="36.5452672091952" lon="127.554742016388">
<ele>144.548501411951</ele>
</trkpt>
<trkpt lat="36.5445921610202" lon="127.555005363002">
<ele>145.700092570726</ele>
</trkpt>
<trkpt lat="36.5444091185162" lon="127.555146661124">
<ele>146.347385140275</ele>
</trkpt>
<trkpt lat="36.5442368503977" lon="127.555295681165">
<ele>147.197583158652</ele>
</trkpt>
<trkpt lat="36.544184516354" lon="127.555405815649">
<ele>147.645945159319</ele>
</trkpt>
<trkpt lat="36.5441680847477" lon="127.555523743766">
<ele>147.999978994245</ele>
</trkpt>
<trkpt lat="36.5442042003594" lon="127.555683086538">
<ele>148.424478046566</ele>
</trkpt>
<trkpt lat="36.5442692079004" lon="127.555815975322">
<ele>148.91615760067</ele>
</trkpt>
<trkpt lat="36.5445580596145" lon="127.556324087876">
<ele>151.677202489844</ele>
</trkpt>
<trkpt lat="36.5446327222735" lon="127.556530730391">
<ele>152.88064002682</ele>
</trkpt>
<trkpt lat="36.5446341990382" lon="127.556608838079">
<ele>153.392028834262</ele>
</trkpt>
<trkpt lat="36.5446078154552" lon="127.556712269313">
<ele>154.181698136019</ele>
</trkpt>
<trkpt lat="36.5444208920218" lon="127.557353753803">
<ele>159.891216094924</ele>
</trkpt>
<trkpt lat="36.5444100448046" lon="127.557549150912">
<ele>161.473817077905</ele>
</trkpt>
<trkpt lat="36.5444211226668" lon="127.557738517126">
<ele>162.887099916364</ele>
</trkpt>
<trkpt lat="36.5444501248248" lon="127.55792098815">
<ele>164.111802364346</ele>
</trkpt>
<trkpt lat="36.5444845535629" lon="127.558028628394">
<ele>164.77966128402</ele>
</trkpt>
<trkpt lat="36.5449003749005" lon="127.558758966478">
<ele>168.851151908584</ele>
</trkpt>
<trkpt lat="36.5450082206166" lon="127.559071209559">
<ele>170.436136286443</ele>
</trkpt>
<trkpt lat="36.5450232913393" lon="127.559203662295">
<ele>171.229974115878</ele>
</trkpt>
<trkpt lat="36.5450124961383" lon="127.559375554862">
<ele>172.294347903829</ele>
</trkpt>
<trkpt lat="36.5449345469803" lon="127.559836236037">
<ele>174.659559855809</ele>
</trkpt>
<trkpt lat="36.5449499304756" lon="127.560093712975">
<ele>176.047283205816</ele>
</trkpt>
<trkpt lat="36.5449950192063" lon="127.560281286644">
<ele>176.830146378039</ele>
</trkpt>
<trkpt lat="36.5450784803698" lon="127.560440545371">
<ele>177.61222856889</ele>
</trkpt>
<trkpt lat="36.5451629247313" lon="127.560587085166">
<ele>178.710866051442</ele>
</trkpt>
<trkpt lat="36.5452811042562" lon="127.560728266641">
<ele>180.119232841984</ele>
</trkpt>
<trkpt lat="36.5454349746128" lon="127.560874262083">
<ele>181.171453927851</ele>
</trkpt>
<trkpt lat="36.5455768266426" lon="127.560962803679">
<ele>182.017413355515</ele>
</trkpt>
<trkpt lat="36.5459250003746" lon="127.561149998521">
<ele>184.555155215226</ele>
</trkpt>
<trkpt lat="36.5463122546552" lon="127.56135827069">
<ele>186.279143617638</ele>
</trkpt>
<trkpt lat="36.5463883966736" lon="127.56140303801">
<ele>186.828541327817</ele>
</trkpt>
<trkpt lat="36.546465656191" lon="127.561462849861">
<ele>187.607154407521</ele>
</trkpt>
<trkpt lat="36.5465741586887" lon="127.561565113915">
<ele>188.929951949217</ele>
</trkpt>
<trkpt lat="36.546664491354" lon="127.561680661192">
<ele>190.034544792705</ele>
</trkpt>
<trkpt lat="36.5468727690207" lon="127.561992901607">
<ele>192.214281187032</ele>
</trkpt>
<trkpt lat="36.5471022789439" lon="127.56236230996">
<ele>195.01717924958</ele>
</trkpt>
<trkpt lat="36.5473183864431" lon="127.562710281412">
<ele>197.390637886181</ele>
</trkpt>
<trkpt lat="36.547385927602" lon="127.562819422454">
<ele>198.3453594093</ele>
</trkpt>
<trkpt lat="36.5474265203161" lon="127.562891954892">
<ele>199.127813711486</ele>
</trkpt>
<trkpt lat="36.5475035042797" lon="127.563102190548">
<ele>201.462919493478</ele>
</trkpt>
<trkpt lat="36.5475039477132" lon="127.563277841719">
<ele>202.944810047531</ele>
</trkpt>
<trkpt lat="36.5474761105381" lon="127.563405544837">
<ele>203.916923836871</ele>
</trkpt>
<trkpt lat="36.5474299088204" lon="127.563530812824">
<ele>204.82158499454</ele>
</trkpt>
<trkpt lat="36.5473319297782" lon="127.563739019775">
<ele>205.966182584151</ele>
</trkpt>
<trkpt lat="36.5473032082935" lon="127.56385527474">
<ele>206.483715200103</ele>
</trkpt>
<trkpt lat="36.5472977008878" lon="127.564094614938">
<ele>207.741403864912</ele>
</trkpt>
<trkpt lat="36.5473127093881" lon="127.564409905497">
<ele>210.014164222312</ele>
</trkpt>
<trkpt lat="36.5472722986835" lon="127.564542184815">
<ele>211.103540554911</ele>
</trkpt>
<trkpt lat="36.5472089652331" lon="127.564635222449">
<ele>211.881945824754</ele>
</trkpt>
<trkpt lat="36.5470961079391" lon="127.564714609268">
<ele>212.708928576651</ele>
</trkpt>
<trkpt lat="36.5469117015364" lon="127.56472351787">
<ele>213.865229665078</ele>
</trkpt>
<trkpt lat="36.5467590680996" lon="127.564666949674">
<ele>214.760170373315</ele>
</trkpt>
<trkpt lat="36.5465186838683" lon="127.564563522607">
<ele>215.883304260258</ele>
</trkpt>
<trkpt lat="36.5462817108187" lon="127.564536709118">
<ele>216.831347624054</ele>
</trkpt>
<trkpt lat="36.546001231363" lon="127.564597487294">
<ele>218.264803488531</ele>
</trkpt>
<trkpt lat="36.5455364831284" lon="127.564843964923">
<ele>221.614513109383</ele>
</trkpt>
<trkpt lat="36.5454343990022" lon="127.564875853121">
<ele>222.27892633161</ele>
</trkpt>
<trkpt lat="36.545101955072" lon="127.564883341648">
<ele>224.233969430711</ele>
</trkpt>
<trkpt lat="36.5446566739526" lon="127.564886666571">
<ele>226.607938296121</ele>
</trkpt>
<trkpt lat="36.5441000771076" lon="127.564934839182">
<ele>229.207458284141</ele>
</trkpt>
<trkpt lat="36.5439105424842" lon="127.564906809691">
<ele>230.434514419929</ele>
</trkpt>
<trkpt lat="36.5429139474098" lon="127.564732223707">
<ele>237.602568850809</ele>
</trkpt>
<trkpt lat="36.5427100683164" lon="127.564709631472">
<ele>238.950070194452</ele>
</trkpt>
<trkpt lat="36.5425356408783" lon="127.564768533732">
<ele>239.901786662146</ele>
</trkpt>
<trkpt lat="36.5422669644509" lon="127.564998432077">
<ele>241.299808740666</ele>
</trkpt>
<trkpt lat="36.5421503888394" lon="127.56507474478">
<ele>242.269089098454</ele>
</trkpt>
<trkpt lat="36.5420282061375" lon="127.565137823592">
<ele>243.411789161457</ele>
</trkpt>
<trkpt lat="36.5418358299148" lon="127.565125106077">
<ele>244.984949855441</ele>
</trkpt>
<trkpt lat="36.5412917871878" lon="127.565056239011">
<ele>249.055344779879</ele>
</trkpt>
<trkpt lat="36.5410517965436" lon="127.565078250037">
<ele>250.706144768142</ele>
</trkpt>
<trkpt lat="36.5409529328745" lon="127.565144123338">
<ele>251.521179109269</ele>
</trkpt>
<trkpt lat="36.5407902369558" lon="127.565315596058">
<ele>252.957427378554</ele>
</trkpt>
<trkpt lat="36.5404962223297" lon="127.565561154508">
<ele>254.761501982481</ele>
</trkpt>
<trkpt lat="36.5404085539705" lon="127.565598350311">
<ele>255.346077327567</ele>
</trkpt>
<trkpt lat="36.540289828561" lon="127.565622974238">
<ele>256.222909755389</ele>
</trkpt>
<trkpt lat="36.5398801669021" lon="127.565576018434">
<ele>259.490157390583</ele>
</trkpt>
<trkpt lat="36.5395713433064" lon="127.565631728925">
<ele>261.731123518686</ele>
</trkpt>
<trkpt lat="36.5394042756803" lon="127.565622549252">
<ele>262.659372205226</ele>
</trkpt>
<trkpt lat="36.5391973317245" lon="127.565545999002">
<ele>263.832486061429</ele>
</trkpt>
<trkpt lat="36.5390108433955" lon="127.565465753154">
<ele>265.112990663936</ele>
</trkpt>
<trkpt lat="36.5387647332329" lon="127.565319444424">
<ele>267.350177927384</ele>
</trkpt>
<trkpt lat="36.5386397042466" lon="127.56528293074">
<ele>268.372170322932</ele>
</trkpt>
<trkpt lat="36.5385344762374" lon="127.565290574351">
<ele>269.103075955362</ele>
</trkpt>
<trkpt lat="36.5382946482605" lon="127.565361341228">
<ele>270.653869264081</ele>
</trkpt>
<trkpt lat="36.5381884519447" lon="127.565376148379">
<ele>271.337321093916</ele>
</trkpt>
<trkpt lat="36.5378192164414" lon="127.565335389154">
<ele>273.864843645492</ele>
</trkpt>
<trkpt lat="36.5371800003602" lon="127.565119997929">
<ele>278.665137268826</ele>
</trkpt>
<trkpt lat="36.5365735900128" lon="127.564915161841">
<ele>282.666632346385</ele>
</trkpt>
<trkpt lat="36.5364738075145" lon="127.564894053332">
<ele>283.206388039285</ele>
</trkpt>
<trkpt lat="36.5361499542891" lon="127.564905930915">
<ele>284.653556682257</ele>
</trkpt>
<trkpt lat="36.5360734856667" lon="127.564891714207">
<ele>285.03495701646</ele>
</trkpt>
<trkpt lat="36.535920002443" lon="127.5647777694">
<ele>286.020994180981</ele>
</trkpt>
<trkpt lat="36.5357598624562" lon="127.564541831772">
<ele>287.316810186446</ele>
</trkpt>
<trkpt lat="36.5356862770082" lon="127.564459246922">
<ele>287.76237341972</ele>
</trkpt>
<trkpt lat="36.535567067321" lon="127.564383856347">
<ele>288.491422469044</ele>
</trkpt>
<trkpt lat="36.5354578817015" lon="127.564349161046">
<ele>289.366408269466</ele>
</trkpt>
<trkpt lat="36.5352547616587" lon="127.564325868006">
<ele>291.209672849674</ele>
</trkpt>
<trkpt lat="36.5351100212933" lon="127.564331065759">
<ele>292.384391106835</ele>
</trkpt>
<trkpt lat="36.5350206056186" lon="127.564359221046">
<ele>293.049181568768</ele>
</trkpt>
<trkpt lat="36.5348182786442" lon="127.564469518453">
<ele>294.486499676506</ele>
</trkpt>
<trkpt lat="36.5347421905959" lon="127.564483310665">
<ele>294.992922394539</ele>
</trkpt>
<trkpt lat="36.5340299999389" lon="127.564414999215">
<ele>300.049219788551</ele>
</trkpt>
<trkpt lat="36.5333126226835" lon="127.564344744407">
<ele>306.025343964251</ele>
</trkpt>
<trkpt lat="36.5332111333639" lon="127.56434795601">
<ele>306.872440412952</ele>
</trkpt>
<trkpt lat="36.5329594768144" lon="127.564383984589">
<ele>309.031826401639</ele>
</trkpt>
<trkpt lat="36.5327640711654" lon="127.564451787196">
<ele>310.666966887378</ele>
</trkpt>
<trkpt lat="36.5326657148572" lon="127.564521202691">
<ele>311.287548293032</ele>
</trkpt>
<trkpt lat="36.5325722521339" lon="127.564663959678">
<ele>311.924382915787</ele>
</trkpt>
<trkpt lat="36.5325436572278" lon="127.564766732245">
<ele>312.428471142788</ele>
</trkpt>
<trkpt lat="36.5325159450054" lon="127.565020777807">
<ele>313.926405356817</ele>
</trkpt>
<trkpt lat="36.5325370394952" lon="127.565256959993">
<ele>315.124730113758</ele>
</trkpt>
<trkpt lat="36.5326121071127" lon="127.565426699895">
<ele>316.343014926604</ele>
</trkpt>
<trkpt lat="36.5327755144985" lon="127.565758467908">
<ele>319.439680402088</ele>
</trkpt>
<trkpt lat="36.5328614057113" lon="127.565929047974">
<ele>320.829964955777</ele>
</trkpt>
<trkpt lat="36.5329549904942" lon="127.566084984213">
<ele>321.808556462228</ele>
</trkpt>
<trkpt lat="36.5332340818631" lon="127.566520593803">
<ele>324.250436268565</ele>
</trkpt>
<trkpt lat="36.5335541892291" lon="127.566822054281">
<ele>326.304403703051</ele>
</trkpt>
<trkpt lat="36.5336784505302" lon="127.566985914904">
<ele>327.193681657732</ele>
</trkpt>
<trkpt lat="36.5337292957271" lon="127.567081521797">
<ele>327.704501809054</ele>
</trkpt>
<trkpt lat="36.5337533335952" lon="127.567224021037">
<ele>328.384391885172</ele>
</trkpt>
<trkpt lat="36.5337173720786" lon="127.567620498286">
<ele>330.209083235613</ele>
</trkpt>
<trkpt lat="36.5337041219601" lon="127.567827341899">
<ele>331.312962455263</ele>
</trkpt>
<trkpt lat="36.533720908362" lon="127.568020944813">
<ele>332.520783216439</ele>
</trkpt>
<trkpt lat="36.53376950199" lon="127.568149323543">
<ele>333.376934331345</ele>
</trkpt>
<trkpt lat="36.5338654063478" lon="127.568279173172">
<ele>334.258024770569</ele>
</trkpt>
<trkpt lat="36.5339729735371" lon="127.568374615594">
<ele>335.01517093854</ele>
</trkpt>
<trkpt lat="36.5343621369124" lon="127.568666600506">
<ele>338.127657466538</ele>
</trkpt>
<trkpt lat="36.5347909611663" lon="127.568969645809">
<ele>341.694713237153</ele>
</trkpt>
<trkpt lat="36.534886559876" lon="127.569036186101">
<ele>342.36120100269</ele>
</trkpt>
<trkpt lat="36.534979577253" lon="127.569113395993">
<ele>342.862661755958</ele>
</trkpt>
<trkpt lat="36.5352032824361" lon="127.56939838492">
<ele>343.891649742911</ele>
</trkpt>
<trkpt lat="36.5355548413761" lon="127.569895295497">
<ele>346.10507987429</ele>
</trkpt>
<trkpt lat="36.5356603999685" lon="127.570044499775">
<ele>347.16896904691</ele>
</trkpt>
<trkpt lat="36.5359776449748" lon="127.570492917345">
<ele>351.244080929273</ele>
</trkpt>
<trkpt lat="36.5361028112136" lon="127.570684797695">
<ele>352.668790152006</ele>
</trkpt>
<trkpt lat="36.5361472967382" lon="127.570871500801">
<ele>353.724448464437</ele>
</trkpt>
<trkpt lat="36.5361685318509" lon="127.571131703116">
<ele>355.642325796008</ele>
</trkpt>
<trkpt lat="36.5361679331816" lon="127.571305679529">
<ele>356.755790346892</ele>
</trkpt>
<trkpt lat="36.5361543544624" lon="127.571444514541">
<ele>357.420770464542</ele>
</trkpt>
<trkpt lat="36.5361226918632" lon="127.571595896114">
<ele>357.97083459669</ele>
</trkpt>
<trkpt lat="36.5360864281234" lon="127.571698546576">
<ele>358.250697473817</ele>
</trkpt>
<trkpt lat="36.5359521128816" lon="127.571943513801">
<ele>358.611248501328</ele>
</trkpt>
<trkpt lat="36.5358920350915" lon="127.572006162502">
<ele>358.662370483623</ele>
</trkpt>
</trkseg>
<type>cycling</type>
</trk>
</gpx>
