<?xml version='1.0' encoding='UTF-8'?>
<gpx version="1.1"
  creator="GPXmagic"
  xmlns="http://www.topografix.com/GPX/1/1"
  xmlns:rgt="http://www.rgtcycling.com/XML/GpxExtensions/v1"
  xmlns:xsi="http://www.w3.org/2001/XMLSchema-instance" xsi:schemaLocation="http://www.topografix.com/GPX/1/1
  http://www.topografix.com/GPX/1/1/gpx.xsd">
  <metadata>
    <name>Smoothed with GPXmagic</name>
    <author>
      <link href="https://www.stepwiserefinement.co.uk">
        <text>GPXmagic v3</text>
        <type>text/html</type>
      </link>
    </author>
  </metadata>
<trk>  <name>Cartaxo&#32;30m</name>
<trkseg>
<trkpt lat="39.165946" lon="-8.7806708"><ele>44.5</ele></trkpt>
<trkpt lat="39.1661262" lon="-8.7804374"><ele>44.82</ele></trkpt>
<trkpt lat="39.1663204" lon="-8.7802329"><ele>44.82</ele></trkpt>
<trkpt lat="39.1668607" lon="-8.7797044"><ele>44.03</ele></trkpt>
<trkpt lat="39.1674706" lon="-8.7791533"><ele>42.94</ele></trkpt>
<trkpt lat="39.16771" lon="-8.7789239"><ele>42.39</ele></trkpt>
<trkpt lat="39.1678313" lon="-8.778762600000002"><ele>42.12</ele></trkpt>
<trkpt lat="39.1680318" lon="-8.7785802"><ele>41.89</ele></trkpt>
<trkpt lat="39.1686697" lon="-8.778151800000002"><ele>41.72</ele></trkpt>
<trkpt lat="39.1689399" lon="-8.778007"><ele>41.77</ele></trkpt>
<trkpt lat="39.1693473" lon="-8.7776671"><ele>42.06</ele></trkpt>
<trkpt lat="39.1695398" lon="-8.7775572"><ele>42.35</ele></trkpt>
<trkpt lat="39.1698787" lon="-8.7774196"><ele>43.25</ele></trkpt>
<trkpt lat="39.1700974" lon="-8.7772465"><ele>44.28</ele></trkpt>
<trkpt lat="39.170406" lon="-8.776855999999999"><ele>46.55</ele></trkpt>
<trkpt lat="39.1708137" lon="-8.7764662"><ele>49.26</ele></trkpt>
<trkpt lat="39.17107" lon="-8.776194999999998"><ele>50.47</ele></trkpt>
<trkpt lat="39.17131" lon="-8.775920000000003"><ele>50.84</ele></trkpt>
<trkpt lat="39.1716696" lon="-8.7754909"><ele>50.7</ele></trkpt>
<trkpt lat="39.1719928" lon="-8.775085900000002"><ele>50.23</ele></trkpt>
<trkpt lat="39.1721284" lon="-8.7749012"><ele>49.86</ele></trkpt>
<trkpt lat="39.17228010000001" lon="-8.7746796"><ele>49.15</ele></trkpt>
<trkpt lat="39.172631" lon="-8.7741497"><ele>46.67</ele></trkpt>
<trkpt lat="39.172735" lon="-8.7740051"><ele>46.05</ele></trkpt>
<trkpt lat="39.1731437" lon="-8.773406999999999"><ele>44.53</ele></trkpt>
<trkpt lat="39.1732492" lon="-8.773238599999999"><ele>44.32</ele></trkpt>
<trkpt lat="39.1734691" lon="-8.7728594"><ele>44.3</ele></trkpt>
<trkpt lat="39.1736737" lon="-8.7723938"><ele>45.38</ele></trkpt>
<trkpt lat="39.1737536" lon="-8.7722005"><ele>46.29</ele></trkpt>
<trkpt lat="39.1741793" lon="-8.7711487"><ele>52.65</ele></trkpt>
<trkpt lat="39.1743326" lon="-8.7707424"><ele>54.71</ele></trkpt>
<trkpt lat="39.1745302" lon="-8.7701549"><ele>57.31</ele></trkpt>
<trkpt lat="39.1746529" lon="-8.7697917"><ele>58.73</ele></trkpt>
<trkpt lat="39.1747456" lon="-8.7694884"><ele>59.38</ele></trkpt>
<trkpt lat="39.174977" lon="-8.7688075"><ele>58.84</ele></trkpt>
<trkpt lat="39.1751605" lon="-8.768278600000002"><ele>57.86</ele></trkpt>
<trkpt lat="39.1753831" lon="-8.7676515"><ele>57.34</ele></trkpt>
<trkpt lat="39.1755321" lon="-8.7674008"><ele>57.35</ele></trkpt>
<trkpt lat="39.1757706" lon="-8.767029900000002"><ele>57.69</ele></trkpt>
<trkpt lat="39.1761008" lon="-8.7665323"><ele>58.47</ele></trkpt>
<trkpt lat="39.1762503" lon="-8.766236799999998"><ele>58.82</ele></trkpt>
<trkpt lat="39.1762731" lon="-8.7661002"><ele>58.9</ele></trkpt>
<trkpt lat="39.1762915" lon="-8.765848599999998"><ele>58.89</ele></trkpt>
<trkpt lat="39.1763194" lon="-8.764983400000002"><ele>58.11</ele></trkpt>
<trkpt lat="39.1763427" lon="-8.764710100000002"><ele>58.09</ele></trkpt>
<trkpt lat="39.176389" lon="-8.7644858"><ele>58.25</ele></trkpt>
<trkpt lat="39.176480100000006" lon="-8.7642"><ele>58.66</ele></trkpt>
<trkpt lat="39.1765899" lon="-8.7639527"><ele>59.14</ele></trkpt>
<trkpt lat="39.1769866" lon="-8.76328"><ele>60.67</ele></trkpt>
<trkpt lat="39.177297" lon="-8.7627461"><ele>61.44</ele></trkpt>
<trkpt lat="39.1775661" lon="-8.7623401"><ele>61.58</ele></trkpt>
<trkpt lat="39.1777791" lon="-8.762019199999997"><ele>61.3</ele></trkpt>
<trkpt lat="39.177981" lon="-8.761665100000002"><ele>60.85</ele></trkpt>
<trkpt lat="39.1781579" lon="-8.761381"><ele>60.58</ele></trkpt>
<trkpt lat="39.1782974" lon="-8.761193699999998"><ele>60.52</ele></trkpt>
<trkpt lat="39.1786114" lon="-8.7608303"><ele>60.58</ele></trkpt>
<trkpt lat="39.1790443" lon="-8.7601671"><ele>60.51</ele></trkpt>
<trkpt lat="39.179235199999994" lon="-8.7598901"><ele>60.65</ele></trkpt>
<trkpt lat="39.1795229" lon="-8.759538"><ele>61.48</ele></trkpt>
<trkpt lat="39.17969750000001" lon="-8.7593012"><ele>62.28</ele></trkpt>
<trkpt lat="39.1798499" lon="-8.7590602"><ele>62.94</ele></trkpt>
<trkpt lat="39.1799867" lon="-8.7588267"><ele>63.28</ele></trkpt>
<trkpt lat="39.18018409999999" lon="-8.758472300000001"><ele>63.34</ele></trkpt>
<trkpt lat="39.1805683" lon="-8.7578267"><ele>63.51</ele></trkpt>
<trkpt lat="39.1807187" lon="-8.7576128"><ele>64.2</ele></trkpt>
<trkpt lat="39.1808516" lon="-8.7574398"><ele>65.16</ele></trkpt>
<trkpt lat="39.18107270000001" lon="-8.7571981"><ele>66.87</ele></trkpt>
<trkpt lat="39.1813039" lon="-8.756957"><ele>68.43</ele></trkpt>
<trkpt lat="39.18174299999999" lon="-8.756515299999998"><ele>71.37</ele></trkpt>
<trkpt lat="39.1819807" lon="-8.7562553"><ele>73.18</ele></trkpt>
<trkpt lat="39.1822424" lon="-8.7559829"><ele>73.82</ele></trkpt>
<trkpt lat="39.1826135" lon="-8.7556006"><ele>73.05</ele></trkpt>
<trkpt lat="39.18347880000001" lon="-8.754694200000001"><ele>69.3</ele></trkpt>
<trkpt lat="39.1836377" lon="-8.7545258"><ele>68.49</ele></trkpt>
<trkpt lat="39.1840915" lon="-8.754067999999998"><ele>66.26</ele></trkpt>
<trkpt lat="39.1843068" lon="-8.7538432"><ele>66.03</ele></trkpt>
<trkpt lat="39.18462310000001" lon="-8.7535169"><ele>67.32</ele></trkpt>
<trkpt lat="39.1851137" lon="-8.753014599999998"><ele>69.82</ele></trkpt>
<trkpt lat="39.1856833" lon="-8.752429999999999"><ele>71.67</ele></trkpt>
<trkpt lat="39.1858589" lon="-8.7522511"><ele>72</ele></trkpt>
<trkpt lat="39.1861274" lon="-8.7519632"><ele>72.11</ele></trkpt>
<trkpt lat="39.1865634" lon="-8.7515056"><ele>71.75</ele></trkpt>
<trkpt lat="39.186898400000004" lon="-8.7511294"><ele>71.72</ele></trkpt>
<trkpt lat="39.1869993" lon="-8.7509638"><ele>71.73</ele></trkpt>
<trkpt lat="39.1873092" lon="-8.7503402"><ele>71.73</ele></trkpt>
<trkpt lat="39.1874621" lon="-8.750003699999999"><ele>71.94</ele></trkpt>
<trkpt lat="39.1876532" lon="-8.7496062"><ele>72.29</ele></trkpt>
<trkpt lat="39.1878331" lon="-8.7492439"><ele>72.43</ele></trkpt>
<trkpt lat="39.1882457" lon="-8.748398199999999"><ele>72.25</ele></trkpt>
<trkpt lat="39.18838970000001" lon="-8.7480799"><ele>72.5</ele></trkpt>
<trkpt lat="39.188541400000005" lon="-8.747695699999998"><ele>73.12</ele></trkpt>
<trkpt lat="39.1887203" lon="-8.747209099999997"><ele>73.91</ele></trkpt>
<trkpt lat="39.1891818" lon="-8.7459368"><ele>74.7</ele></trkpt>
<trkpt lat="39.1894197" lon="-8.7452749"><ele>75.12</ele></trkpt>
<trkpt lat="39.18954" lon="-8.7449299"><ele>75.03</ele></trkpt>
<trkpt lat="39.1897679" lon="-8.744275200000002"><ele>73.99</ele></trkpt>
<trkpt lat="39.189867299999996" lon="-8.7439412"><ele>73.43</ele></trkpt>
<trkpt lat="39.1898977" lon="-8.743723"><ele>73.13</ele></trkpt>
<trkpt lat="39.189893" lon="-8.7431905"><ele>72.52</ele></trkpt>
<trkpt lat="39.1899302" lon="-8.742940299999999"><ele>72.2</ele></trkpt>
<trkpt lat="39.1900311" lon="-8.742690800000004"><ele>71.8</ele></trkpt>
<trkpt lat="39.1901413" lon="-8.7425363"><ele>71.48</ele></trkpt>
<trkpt lat="39.1902907" lon="-8.742430799999998"><ele>71.14</ele></trkpt>
<trkpt lat="39.1907051" lon="-8.7422299"><ele>70.1</ele></trkpt>
<trkpt lat="39.1908079" lon="-8.7421669"><ele>69.72</ele></trkpt>
<trkpt lat="39.1911535" lon="-8.7418614"><ele>67.45</ele></trkpt>
<trkpt lat="39.191559899999994" lon="-8.741509599999999"><ele>63.4</ele></trkpt>
<trkpt lat="39.19172410000001" lon="-8.7413135"><ele>61.6</ele></trkpt>
<trkpt lat="39.1918569" lon="-8.741049999999998"><ele>59.86</ele></trkpt>
<trkpt lat="39.191908899999994" lon="-8.7408713"><ele>58.91</ele></trkpt>
<trkpt lat="39.1919321" lon="-8.740681"><ele>57.98</ele></trkpt>
<trkpt lat="39.19194799999999" lon="-8.7403552"><ele>56.34</ele></trkpt>
<trkpt lat="39.191965" lon="-8.7402144"><ele>55.52</ele></trkpt>
<trkpt lat="39.1920044" lon="-8.740083299999998"><ele>54.61</ele></trkpt>
<trkpt lat="39.1920909" lon="-8.739935599999999"><ele>53.29</ele></trkpt>
<trkpt lat="39.1922943" lon="-8.7397068"><ele>50.67</ele></trkpt>
<trkpt lat="39.1924692" lon="-8.739561099999998"><ele>48.75</ele></trkpt>
<trkpt lat="39.1926504" lon="-8.7394252"><ele>47.02</ele></trkpt>
<trkpt lat="39.1928174" lon="-8.739276799999999"><ele>45.63</ele></trkpt>
<trkpt lat="39.1929631" lon="-8.739045099999998"><ele>44.38</ele></trkpt>
<trkpt lat="39.1930951" lon="-8.73871"><ele>42.95</ele></trkpt>
<trkpt lat="39.1931826" lon="-8.7385307"><ele>42.03</ele></trkpt>
<trkpt lat="39.1934775" lon="-8.7381071"><ele>39.07</ele></trkpt>
<trkpt lat="39.19360449999999" lon="-8.7378482"><ele>37.41</ele></trkpt>
<trkpt lat="39.19363899999999" lon="-8.7377305"><ele>36.81</ele></trkpt>
<trkpt lat="39.1936593" lon="-8.737559"><ele>36.1</ele></trkpt>
<trkpt lat="39.1936328" lon="-8.7370416"><ele>34.68</ele></trkpt>
<trkpt lat="39.1936784" lon="-8.7365453"><ele>33.38</ele></trkpt>
<trkpt lat="39.1936885" lon="-8.7361856"><ele>32.27</ele></trkpt>
<trkpt lat="39.19366660000001" lon="-8.735781100000002"><ele>30.96</ele></trkpt>
<trkpt lat="39.1936334" lon="-8.7355301"><ele>30.19</ele></trkpt>
<trkpt lat="39.1936462" lon="-8.735079600000002"><ele>28.98</ele></trkpt>
<trkpt lat="39.1936236" lon="-8.7350001"><ele>28.79</ele></trkpt>
<trkpt lat="39.1935107" lon="-8.7347668"><ele>28.28</ele></trkpt>
<trkpt lat="39.1933189" lon="-8.734426199999998"><ele>27.75</ele></trkpt>
<trkpt lat="39.193121" lon="-8.7340328"><ele>27.47</ele></trkpt>
<trkpt lat="39.193007" lon="-8.733733200000003"><ele>27.53</ele></trkpt>
<trkpt lat="39.19280839999999" lon="-8.7332622"><ele>27.79</ele></trkpt>
<trkpt lat="39.1927376" lon="-8.733153100000001"><ele>27.85</ele></trkpt>
<trkpt lat="39.1925022" lon="-8.732871100000002"><ele>27.92</ele></trkpt>
<trkpt lat="39.1921784" lon="-8.7323714"><ele>27.23</ele></trkpt>
<trkpt lat="39.1921011" lon="-8.7321827"><ele>26.87</ele></trkpt>
<trkpt lat="39.1920304" lon="-8.731945099999999"><ele>26.51</ele></trkpt>
<trkpt lat="39.1919963" lon="-8.7317603"><ele>26.32</ele></trkpt>
<trkpt lat="39.1919892" lon="-8.7315373"><ele>26.17</ele></trkpt>
<trkpt lat="39.191877899999994" lon="-8.7311268"><ele>26.01</ele></trkpt>
<trkpt lat="39.191787" lon="-8.730906"><ele>25.99</ele></trkpt>
<trkpt lat="39.1914365" lon="-8.730216100000002"><ele>26.21</ele></trkpt>
<trkpt lat="39.1911762" lon="-8.7296022"><ele>26.58</ele></trkpt>
<trkpt lat="39.1910214" lon="-8.7293411"><ele>26.89</ele></trkpt>
<trkpt lat="39.19083489999999" lon="-8.7289298"><ele>27.78</ele></trkpt>
<trkpt lat="39.190642" lon="-8.7284429"><ele>29.13</ele></trkpt>
<trkpt lat="39.1905849" lon="-8.7282847"><ele>29.5</ele></trkpt>
<trkpt lat="39.1903902" lon="-8.7277797"><ele>30.25</ele></trkpt>
<trkpt lat="39.1902577" lon="-8.7274254"><ele>30.15</ele></trkpt>
<trkpt lat="39.1900668" lon="-8.7269989"><ele>29.55</ele></trkpt>
<trkpt lat="39.1896392" lon="-8.726331"><ele>27.9</ele></trkpt>
<trkpt lat="39.18945709999999" lon="-8.726096800000002"><ele>26.89</ele></trkpt>
<trkpt lat="39.1892598" lon="-8.725903799999998"><ele>26.01</ele></trkpt>
<trkpt lat="39.1891416" lon="-8.7258296"><ele>25.66</ele></trkpt>
<trkpt lat="39.188804999999995" lon="-8.72565"><ele>24.91</ele></trkpt>
<trkpt lat="39.1884832" lon="-8.7254917"><ele>24.26</ele></trkpt>
<trkpt lat="39.1877097" lon="-8.725118700000001"><ele>23.19</ele></trkpt>
<trkpt lat="39.1873106" lon="-8.7248814"><ele>21.55</ele></trkpt>
<trkpt lat="39.1867317" lon="-8.7245864"><ele>18.83</ele></trkpt>
<trkpt lat="39.1861719" lon="-8.7242802"><ele>16.41</ele></trkpt>
<trkpt lat="39.1860429" lon="-8.724156999999998"><ele>15.62</ele></trkpt>
<trkpt lat="39.1858833" lon="-8.723890299999999"><ele>14.3</ele></trkpt>
<trkpt lat="39.1857484" lon="-8.7237439"><ele>13.58</ele></trkpt>
<trkpt lat="39.1851039" lon="-8.7233124"><ele>11.55</ele></trkpt>
<trkpt lat="39.1845916" lon="-8.7229626"><ele>10.16</ele></trkpt>
<trkpt lat="39.184494400000005" lon="-8.722916999999999"><ele>10.03</ele></trkpt>
<trkpt lat="39.18439140000001" lon="-8.7229142"><ele>9.95</ele></trkpt>
<trkpt lat="39.1840873" lon="-8.723094200000002"><ele>9.7</ele></trkpt>
<trkpt lat="39.183980299999995" lon="-8.723136999999998"><ele>9.47</ele></trkpt>
<trkpt lat="39.1839243" lon="-8.7231216"><ele>9.32</ele></trkpt>
<trkpt lat="39.1837406" lon="-8.7228796"><ele>8.54</ele></trkpt>
<trkpt lat="39.1831509" lon="-8.721982"><ele>6.78</ele></trkpt>
<trkpt lat="39.1829965" lon="-8.7217539"><ele>6.17</ele></trkpt>
<trkpt lat="39.182829" lon="-8.721601999999999"><ele>5.5</ele></trkpt>
<trkpt lat="39.1826495" lon="-8.721545199999998"><ele>4.9</ele></trkpt>
<trkpt lat="39.1823556" lon="-8.72153"><ele>4.25</ele></trkpt>
<trkpt lat="39.1813" lon="-8.72152"><ele>4.03</ele></trkpt>
<trkpt lat="39.1800582" lon="-8.72151"><ele>4.34</ele></trkpt>
<trkpt lat="39.179183" lon="-8.72152"><ele>4.83</ele></trkpt>
<trkpt lat="39.178415" lon="-8.721520099999998"><ele>5.13</ele></trkpt>
<trkpt lat="39.177514" lon="-8.72154"><ele>5.67</ele></trkpt>
<trkpt lat="39.17669" lon="-8.72155"><ele>5.31</ele></trkpt>
<trkpt lat="39.175785399999995" lon="-8.72154"><ele>4.97</ele></trkpt>
<trkpt lat="39.1750381" lon="-8.72155"><ele>4.59</ele></trkpt>
<trkpt lat="39.17421" lon="-8.72155"><ele>5.38</ele></trkpt>
<trkpt lat="39.1738218" lon="-8.721560600000002"><ele>5.76</ele></trkpt>
<trkpt lat="39.1736787" lon="-8.7215812"><ele>5.85</ele></trkpt>
<trkpt lat="39.1735351" lon="-8.721629999999998"><ele>5.91</ele></trkpt>
<trkpt lat="39.1726702" lon="-8.722019400000002"><ele>6.04</ele></trkpt>
<trkpt lat="39.1719654" lon="-8.7223591"><ele>6</ele></trkpt>
<trkpt lat="39.1700328" lon="-8.723273000000002"><ele>6.49</ele></trkpt>
<trkpt lat="39.1694412" lon="-8.723549"><ele>6.21</ele></trkpt>
<trkpt lat="39.1682975" lon="-8.7241017"><ele>6.65</ele></trkpt>
<trkpt lat="39.1674928" lon="-8.7244892"><ele>6.34</ele></trkpt>
<trkpt lat="39.16677270000001" lon="-8.724832800000001"><ele>6.26</ele></trkpt>
<trkpt lat="39.1665209" lon="-8.7249521"><ele>6.46</ele></trkpt>
<trkpt lat="39.166061799999994" lon="-8.725180800000002"><ele>7.21</ele></trkpt>
<trkpt lat="39.165855" lon="-8.725290600000001"><ele>7.48</ele></trkpt>
<trkpt lat="39.1656901" lon="-8.7253949"><ele>7.55</ele></trkpt>
<trkpt lat="39.1650094" lon="-8.725849399999998"><ele>6.92</ele></trkpt>
<trkpt lat="39.1644707" lon="-8.7262006"><ele>5.89</ele></trkpt>
<trkpt lat="39.164021600000005" lon="-8.726501199999998"><ele>5.53</ele></trkpt>
<trkpt lat="39.1636444" lon="-8.726770699999998"><ele>5.84</ele></trkpt>
<trkpt lat="39.1634898" lon="-8.7269115"><ele>5.96</ele></trkpt>
<trkpt lat="39.1632887" lon="-8.7271479"><ele>5.99</ele></trkpt>
<trkpt lat="39.162959699999995" lon="-8.7274669"><ele>5.77</ele></trkpt>
<trkpt lat="39.1627001" lon="-8.7276586"><ele>5.61</ele></trkpt>
<trkpt lat="39.1617315" lon="-8.7282391"><ele>5.41</ele></trkpt>
<trkpt lat="39.1608646" lon="-8.7287638"><ele>5.82</ele></trkpt>
<trkpt lat="39.1603459" lon="-8.7290761"><ele>5.85</ele></trkpt>
<trkpt lat="39.1598116" lon="-8.7293896"><ele>5.52</ele></trkpt>
<trkpt lat="39.1592222" lon="-8.729744500000002"><ele>4.87</ele></trkpt>
<trkpt lat="39.1588871" lon="-8.7299407"><ele>4.84</ele></trkpt>
<trkpt lat="39.1581505" lon="-8.7303993"><ele>5.69</ele></trkpt>
<trkpt lat="39.15771889999999" lon="-8.7306507"><ele>5.97</ele></trkpt>
<trkpt lat="39.1557762" lon="-8.7318058"><ele>5.9</ele></trkpt>
<trkpt lat="39.1554399" lon="-8.7320008"><ele>6.08</ele></trkpt>
<trkpt lat="39.1541711" lon="-8.732783600000001"><ele>7.59</ele></trkpt>
<trkpt lat="39.1538457" lon="-8.7329701"><ele>8.35</ele></trkpt>
<trkpt lat="39.1533663" lon="-8.733260900000001"><ele>10.44</ele></trkpt>
<trkpt lat="39.1531356" lon="-8.733384999999998"><ele>10.92</ele></trkpt>
<trkpt lat="39.15266" lon="-8.73367"><ele>9.9</ele></trkpt>
<trkpt lat="39.1522063" lon="-8.7339379"><ele>8.56</ele></trkpt>
<trkpt lat="39.1514574" lon="-8.7343886"><ele>6.88</ele></trkpt>
<trkpt lat="39.15061490000001" lon="-8.7348851"><ele>6.38</ele></trkpt>
<trkpt lat="39.15038859999999" lon="-8.735023299999998"><ele>5.9</ele></trkpt>
<trkpt lat="39.1499313" lon="-8.7352884"><ele>4.78</ele></trkpt>
<trkpt lat="39.14962709999999" lon="-8.735475599999997"><ele>4.67</ele></trkpt>
<trkpt lat="39.148987" lon="-8.7358511"><ele>5.54</ele></trkpt>
<trkpt lat="39.1486772" lon="-8.7360326"><ele>5.61</ele></trkpt>
<trkpt lat="39.1483677" lon="-8.7362404"><ele>5.58</ele></trkpt>
<trkpt lat="39.1474652" lon="-8.7367649"><ele>5.8</ele></trkpt>
<trkpt lat="39.14680189999999" lon="-8.7371689"><ele>5.41</ele></trkpt>
<trkpt lat="39.1464214" lon="-8.7373914"><ele>5.22</ele></trkpt>
<trkpt lat="39.1456781" lon="-8.737818999999998"><ele>5.5</ele></trkpt>
<trkpt lat="39.1454073" lon="-8.7379287"><ele>5.61</ele></trkpt>
<trkpt lat="39.1452092" lon="-8.7379701"><ele>5.66</ele></trkpt>
<trkpt lat="39.1444516" lon="-8.738068"><ele>5.78</ele></trkpt>
<trkpt lat="39.143914" lon="-8.738124"><ele>5.79</ele></trkpt>
<trkpt lat="39.1431103" lon="-8.7382102"><ele>5.37</ele></trkpt>
<trkpt lat="39.1420449" lon="-8.738335"><ele>5.14</ele></trkpt>
<trkpt lat="39.14080069999999" lon="-8.7384685"><ele>5.61</ele></trkpt>
<trkpt lat="39.1398585" lon="-8.7384423"><ele>5.5</ele></trkpt>
<trkpt lat="39.139075" lon="-8.7384203"><ele>4.49</ele></trkpt>
<trkpt lat="39.1388364" lon="-8.7384214"><ele>4.22</ele></trkpt>
<trkpt lat="39.138676" lon="-8.738468399999999"><ele>4.12</ele></trkpt>
<trkpt lat="39.1385432" lon="-8.738593"><ele>4.11</ele></trkpt>
<trkpt lat="39.138375499999995" lon="-8.7388575"><ele>4.29</ele></trkpt>
<trkpt lat="39.13832310000001" lon="-8.738984200000003"><ele>4.42</ele></trkpt>
<trkpt lat="39.1382915" lon="-8.7393063"><ele>4.77</ele></trkpt>
<trkpt lat="39.1383163" lon="-8.7394428"><ele>4.89</ele></trkpt>
<trkpt lat="39.13842519999999" lon="-8.7397608"><ele>5.01</ele></trkpt>
<trkpt lat="39.1388196" lon="-8.740919600000002"><ele>4</ele></trkpt>
<trkpt lat="39.13912" lon="-8.7418472"><ele>4.41</ele></trkpt>
<trkpt lat="39.1394292" lon="-8.7428136"><ele>5.71</ele></trkpt>
<trkpt lat="39.1395917" lon="-8.7433083"><ele>5.7</ele></trkpt>
<trkpt lat="39.1398692" lon="-8.744155999999998"><ele>4.57</ele></trkpt>
<trkpt lat="39.1400901" lon="-8.7448306"><ele>4.45</ele></trkpt>
<trkpt lat="39.1404092" lon="-8.745802"><ele>4.97</ele></trkpt>
<trkpt lat="39.14073140000001" lon="-8.7468157"><ele>4.94</ele></trkpt>
<trkpt lat="39.1412201" lon="-8.748367"><ele>3.83</ele></trkpt>
<trkpt lat="39.141559699999995" lon="-8.74938"><ele>3.96</ele></trkpt>
<trkpt lat="39.1417639" lon="-8.7500382"><ele>3.87</ele></trkpt>
<trkpt lat="39.141808600000005" lon="-8.750215"><ele>3.79</ele></trkpt>
<trkpt lat="39.1418464" lon="-8.7510086"><ele>3.32</ele></trkpt>
<trkpt lat="39.1418505" lon="-8.751459399999998"><ele>3.26</ele></trkpt>
<trkpt lat="39.14187" lon="-8.751919799999998"><ele>3.38</ele></trkpt>
<trkpt lat="39.14194" lon="-8.7524693"><ele>3.53</ele></trkpt>
<trkpt lat="39.1420334" lon="-8.7531669"><ele>3.53</ele></trkpt>
<trkpt lat="39.14219059999999" lon="-8.7541734"><ele>3.45</ele></trkpt>
<trkpt lat="39.1423427" lon="-8.755071100000002"><ele>3.46</ele></trkpt>
<trkpt lat="39.142469" lon="-8.7558253"><ele>3.14</ele></trkpt>
<trkpt lat="39.142539799999994" lon="-8.756571100000002"><ele>3.51</ele></trkpt>
<trkpt lat="39.1425897" lon="-8.757194600000002"><ele>4.93</ele></trkpt>
<trkpt lat="39.14260989999999" lon="-8.757563199999998"><ele>6.75</ele></trkpt>
<trkpt lat="39.142590000000006" lon="-8.7580884"><ele>10.7</ele></trkpt>
<trkpt lat="39.1426056" lon="-8.7584238"><ele>13.54</ele></trkpt>
<trkpt lat="39.142620799999996" lon="-8.7585491"><ele>14.56</ele></trkpt>
<trkpt lat="39.1426558" lon="-8.7586647"><ele>15.5</ele></trkpt>
<trkpt lat="39.1428242" lon="-8.758882200000002"><ele>17.36</ele></trkpt>
<trkpt lat="39.1429098" lon="-8.7589337"><ele>17.9</ele></trkpt>
<trkpt lat="39.143219" lon="-8.7590316"><ele>18.88</ele></trkpt>
<trkpt lat="39.1434619" lon="-8.759147299999999"><ele>19.05</ele></trkpt>
<trkpt lat="39.14356" lon="-8.759206699999998"><ele>19.05</ele></trkpt>
<trkpt lat="39.1437427" lon="-8.759358900000002"><ele>19.04</ele></trkpt>
<trkpt lat="39.1440079" lon="-8.75962"><ele>19.34</ele></trkpt>
<trkpt lat="39.1441765" lon="-8.759828400000002"><ele>19.9</ele></trkpt>
<trkpt lat="39.144312799999994" lon="-8.7600624"><ele>20.52</ele></trkpt>
<trkpt lat="39.1443907" lon="-8.7601892"><ele>20.78</ele></trkpt>
<trkpt lat="39.1445904" lon="-8.760448100000001"><ele>21.03</ele></trkpt>
<trkpt lat="39.144747" lon="-8.7606229"><ele>21.03</ele></trkpt>
<trkpt lat="39.145242" lon="-8.761133900000003"><ele>20.87</ele></trkpt>
<trkpt lat="39.145459800000005" lon="-8.7613731"><ele>20.9</ele></trkpt>
<trkpt lat="39.14592040000001" lon="-8.761919699999998"><ele>21.6</ele></trkpt>
<trkpt lat="39.1464489" lon="-8.7625097"><ele>23.3</ele></trkpt>
<trkpt lat="39.146822" lon="-8.7629614"><ele>24.66</ele></trkpt>
<trkpt lat="39.1475669" lon="-8.7638065"><ele>27.03</ele></trkpt>
<trkpt lat="39.1479015" lon="-8.7641392"><ele>28.66</ele></trkpt>
<trkpt lat="39.1484303" lon="-8.7645393"><ele>31.2</ele></trkpt>
<trkpt lat="39.1487381" lon="-8.7647566"><ele>32.91</ele></trkpt>
<trkpt lat="39.1491364" lon="-8.7650285"><ele>35.41</ele></trkpt>
<trkpt lat="39.149646" lon="-8.7653856"><ele>38.71</ele></trkpt>
<trkpt lat="39.1500141" lon="-8.7656392"><ele>40.95</ele></trkpt>
<trkpt lat="39.1505919" lon="-8.766047"><ele>43.71</ele></trkpt>
<trkpt lat="39.150942" lon="-8.7662504"><ele>44.71</ele></trkpt>
<trkpt lat="39.15153109999999" lon="-8.7665406"><ele>46.26</ele></trkpt>
<trkpt lat="39.1518193" lon="-8.7666896"><ele>47.09</ele></trkpt>
<trkpt lat="39.1520191" lon="-8.766821100000001"><ele>47.82</ele></trkpt>
<trkpt lat="39.152559999999994" lon="-8.767285"><ele>50.56</ele></trkpt>
<trkpt lat="39.152747" lon="-8.7674537"><ele>51.31</ele></trkpt>
<trkpt lat="39.1531859" lon="-8.767865199999997"><ele>52.37</ele></trkpt>
<trkpt lat="39.1534323" lon="-8.7680838"><ele>52.58</ele></trkpt>
<trkpt lat="39.1539611" lon="-8.7685584"><ele>52.58</ele></trkpt>
<trkpt lat="39.15413929999999" lon="-8.768740700000002"><ele>52.56</ele></trkpt>
<trkpt lat="39.15437099999999" lon="-8.7690021"><ele>52.46</ele></trkpt>
<trkpt lat="39.1545238" lon="-8.7692073"><ele>52.3</ele></trkpt>
<trkpt lat="39.1547985" lon="-8.7697004"><ele>51.9</ele></trkpt>
<trkpt lat="39.1549285" lon="-8.7699885"><ele>51.64</ele></trkpt>
<trkpt lat="39.1550824" lon="-8.7704014"><ele>51.06</ele></trkpt>
<trkpt lat="39.1552904" lon="-8.7709599"><ele>49.56</ele></trkpt>
<trkpt lat="39.15545" lon="-8.7713332"><ele>48.54</ele></trkpt>
<trkpt lat="39.15554" lon="-8.771605100000002"><ele>48.05</ele></trkpt>
<trkpt lat="39.15566079999999" lon="-8.7720666"><ele>47.48</ele></trkpt>
<trkpt lat="39.155776" lon="-8.7724149"><ele>46.91</ele></trkpt>
<trkpt lat="39.1559213" lon="-8.7727382"><ele>45.97</ele></trkpt>
<trkpt lat="39.156009600000004" lon="-8.7729073"><ele>45.21</ele></trkpt>
<trkpt lat="39.1562218" lon="-8.773258399999998"><ele>43.14</ele></trkpt>
<trkpt lat="39.1564197" lon="-8.773498300000002"><ele>41.48</ele></trkpt>
<trkpt lat="39.1567636" lon="-8.773883100000003"><ele>38.88</ele></trkpt>
<trkpt lat="39.1569726" lon="-8.774151"><ele>37.63</ele></trkpt>
<trkpt lat="39.1570718" lon="-8.774313"><ele>37.1</ele></trkpt>
<trkpt lat="39.1572275" lon="-8.7749102"><ele>35.83</ele></trkpt>
<trkpt lat="39.1573482" lon="-8.7754305"><ele>35.51</ele></trkpt>
<trkpt lat="39.1574525" lon="-8.7759025"><ele>35.34</ele></trkpt>
<trkpt lat="39.1575425" lon="-8.7762759"><ele>34.88</ele></trkpt>
<trkpt lat="39.1577132" lon="-8.7768134"><ele>33.78</ele></trkpt>
<trkpt lat="39.1578271" lon="-8.7770452"><ele>33.19</ele></trkpt>
<trkpt lat="39.1579247" lon="-8.7771748"><ele>32.86</ele></trkpt>
<trkpt lat="39.1579996" lon="-8.7772418"><ele>32.69</ele></trkpt>
<trkpt lat="39.1583163" lon="-8.7774643"><ele>32.41</ele></trkpt>
<trkpt lat="39.1589204" lon="-8.7778814"><ele>32.45</ele></trkpt>
<trkpt lat="39.1591547" lon="-8.7781108"><ele>32.33</ele></trkpt>
<trkpt lat="39.15935" lon="-8.7783506"><ele>32.36</ele></trkpt>
<trkpt lat="39.1595842" lon="-8.778681499999998"><ele>33</ele></trkpt>
<trkpt lat="39.1597985" lon="-8.779045"><ele>34.11</ele></trkpt>
<trkpt lat="39.1599541" lon="-8.7794113"><ele>34.99</ele></trkpt>
<trkpt lat="39.1599948" lon="-8.7794883"><ele>35.13</ele></trkpt>
<trkpt lat="39.1601457" lon="-8.7796902"><ele>35.35</ele></trkpt>
<trkpt lat="39.1604191" lon="-8.779884800000003"><ele>35.42</ele></trkpt>
<trkpt lat="39.1607508" lon="-8.7800776"><ele>35.65</ele></trkpt>
<trkpt lat="39.1610602" lon="-8.7802181"><ele>36.26</ele></trkpt>
<trkpt lat="39.16182770000001" lon="-8.780474899999998"><ele>38.58</ele></trkpt>
<trkpt lat="39.1622582" lon="-8.7806552"><ele>40.16</ele></trkpt>
<trkpt lat="39.1625663" lon="-8.7808705"><ele>41.2</ele></trkpt>
<trkpt lat="39.1627551" lon="-8.7810191"><ele>41.65</ele></trkpt>
<trkpt lat="39.1631192" lon="-8.7812715"><ele>42.08</ele></trkpt>
<trkpt lat="39.1633332" lon="-8.7813882"><ele>42.25</ele></trkpt>
<trkpt lat="39.1636206" lon="-8.781472299999999"><ele>42.42</ele></trkpt>
<trkpt lat="39.1638339" lon="-8.7815148"><ele>42.49</ele></trkpt>
<trkpt lat="39.164237199999995" lon="-8.781584499999997"><ele>42.61</ele></trkpt>
<trkpt lat="39.1644742" lon="-8.7817668"><ele>42.8</ele></trkpt>
<trkpt lat="39.1646812" lon="-8.7820183"><ele>42.99</ele></trkpt>
<trkpt lat="39.1647625" lon="-8.7820806"><ele>43.01</ele></trkpt>
<trkpt lat="39.16484880000001" lon="-8.7820575"><ele>43</ele></trkpt>
<trkpt lat="39.1650659" lon="-8.781922399999997"><ele>42.86</ele></trkpt>
<trkpt lat="39.1654991" lon="-8.7813198"><ele>42.87</ele></trkpt>
<trkpt lat="39.1656162" lon="-8.7811373"><ele>43.27</ele></trkpt>
<trkpt lat="39.165946" lon="-8.7806708"><ele>44.5</ele></trkpt>
</trkseg>
</trk></gpx>
