<?xml version="1.0" encoding="UTF-8"?>
<gpx version="1.1" creator="BikeTerra" xmlns="http://www.topografix.com/GPX/1/1" xmlns:biketerra="https://biketerra.com/xmlns/gpx/1">
    <metadata>
        <name>Egg Carton Mountains</name>
        <extensions>
            <biketerra:version>2.0.0</biketerra:version>
            <biketerra:isLoop>true</biketerra:isLoop>
            <biketerra:defaultSurface>asphalt</biketerra:defaultSurface>
        </extensions>
    </metadata>
    <trk>
        <name>Egg Carton Mountains</name>
        <trkseg>
            <trkpt lat="25.189131" lon="110.252172"><ele>149.98</ele></trkpt>
            <trkpt lat="25.189985" lon="110.251464"><ele>153.14</ele></trkpt>
            <trkpt lat="25.191694" lon="110.250048"><ele>150.46</ele></trkpt>
            <trkpt lat="25.192548" lon="110.24934"><ele>152.43</ele></trkpt>
            <trkpt lat="25.193635" lon="110.243933"><ele>158.9</ele></trkpt>
            <trkpt lat="25.194748" lon="110.24379"><ele>159.93</ele></trkpt>
            <trkpt lat="25.196975" lon="110.243504"><ele>159.73</ele></trkpt>
            <trkpt lat="25.19889" lon="110.242016"><ele>161.44</ele></trkpt>
            <trkpt lat="25.199848" lon="110.241272"><ele>160.75</ele></trkpt>
            <trkpt lat="25.201324" lon="110.239298"><ele>161.59</ele></trkpt>
            <trkpt lat="25.202799" lon="110.237796"><ele>162.17</ele></trkpt>
            <trkpt lat="25.203537" lon="110.237045"><ele>162.28</ele></trkpt>
            <trkpt lat="25.204275" lon="110.236294"><ele>163.91</ele></trkpt>
            <trkpt lat="25.205155" lon="110.234062"><ele>166.12</ele></trkpt>
            <trkpt lat="25.205595" lon="110.232946"><ele>165.95</ele></trkpt>
            <trkpt lat="25.203921" lon="110.232222"><ele>166</ele></trkpt>
            <trkpt lat="25.20141" lon="110.231134"><ele>168.85</ele></trkpt>
            <trkpt lat="25.199736" lon="110.23041"><ele>167.89</ele></trkpt>
            <trkpt lat="25.198062" lon="110.229685"><ele>168.26</ele></trkpt>
            <trkpt lat="25.197726" lon="110.228512"><ele>167.89</ele></trkpt>
            <trkpt lat="25.197052" lon="110.226166"><ele>168</ele></trkpt>
            <trkpt lat="25.194878" lon="110.226466"><ele>168.29</ele></trkpt>
            <trkpt lat="25.192703" lon="110.226767"><ele>172.28</ele></trkpt>
            <trkpt lat="25.190746" lon="110.226732"><ele>173.93</ele></trkpt>
            <trkpt lat="25.18781" lon="110.226681"><ele>172.54</ele></trkpt>
            <trkpt lat="25.186754" lon="110.226818"><ele>173.65</ele></trkpt>
            <trkpt lat="25.185697" lon="110.226955"><ele>177.47</ele></trkpt>
            <trkpt lat="25.183585" lon="110.22723"><ele>178.64</ele></trkpt>
            <trkpt lat="25.182528" lon="110.227367"><ele>173.85</ele></trkpt>
            <trkpt lat="25.181659" lon="110.227711"><ele>169.08</ele></trkpt>
            <trkpt lat="25.179919" lon="110.228397"><ele>166.1</ele></trkpt>
            <trkpt lat="25.178179" lon="110.229084"><ele>169.65</ele></trkpt>
            <trkpt lat="25.17735" lon="110.229484"><ele>170.18</ele></trkpt>
            <trkpt lat="25.176522" lon="110.229885"><ele>170.11</ele></trkpt>
            <trkpt lat="25.174864" lon="110.230686"><ele>177.74</ele></trkpt>
            <trkpt lat="25.174036" lon="110.231087"><ele>186.22</ele></trkpt>
            <trkpt lat="25.173207" lon="110.231487"><ele>186.73</ele></trkpt>
            <trkpt lat="25.17253" lon="110.232174"><ele>182.45</ele></trkpt>
            <trkpt lat="25.171853" lon="110.232861"><ele>176.45</ele></trkpt>
            <trkpt lat="25.1705" lon="110.234234"><ele>169.4</ele></trkpt>
            <trkpt lat="25.169823" lon="110.23492"><ele>165.43</ele></trkpt>
            <trkpt lat="25.168469" lon="110.236294"><ele>164.14</ele></trkpt>
            <trkpt lat="25.166255" lon="110.236079"><ele>168.68</ele></trkpt>
            <trkpt lat="25.165148" lon="110.235972"><ele>172.44</ele></trkpt>
            <trkpt lat="25.164041" lon="110.235865"><ele>171.3</ele></trkpt>
            <trkpt lat="25.163015" lon="110.23571"><ele>168.95</ele></trkpt>
            <trkpt lat="25.160965" lon="110.235401"><ele>161.69</ele></trkpt>
            <trkpt lat="25.158914" lon="110.235092"><ele>160.89</ele></trkpt>
            <trkpt lat="25.156894" lon="110.234474"><ele>159.9</ele></trkpt>
            <trkpt lat="25.154874" lon="110.233856"><ele>162.66</ele></trkpt>
            <trkpt lat="25.153864" lon="110.233547"><ele>164.37</ele></trkpt>
            <trkpt lat="25.152103" lon="110.232689"><ele>164.2</ele></trkpt>
            <trkpt lat="25.151222" lon="110.23226"><ele>163.88</ele></trkpt>
            <trkpt lat="25.148891" lon="110.232603"><ele>169.21</ele></trkpt>
            <trkpt lat="25.147726" lon="110.232775"><ele>168.48</ele></trkpt>
            <trkpt lat="25.146716" lon="110.23256"><ele>166.5</ele></trkpt>
            <trkpt lat="25.145706" lon="110.232346"><ele>162.98</ele></trkpt>
            <trkpt lat="25.143686" lon="110.231916"><ele>158.96</ele></trkpt>
            <trkpt lat="25.142734" lon="110.23138"><ele>157.56</ele></trkpt>
            <trkpt lat="25.14083" lon="110.230307"><ele>157.92</ele></trkpt>
            <trkpt lat="25.139879" lon="110.229771"><ele>156.2</ele></trkpt>
            <trkpt lat="25.137983" lon="110.229084"><ele>154.2</ele></trkpt>
            <trkpt lat="25.136087" lon="110.228397"><ele>155.7</ele></trkpt>
            <trkpt lat="25.135139" lon="110.228054"><ele>155.7</ele></trkpt>
            <trkpt lat="25.132809" lon="110.227247"><ele>158.31</ele></trkpt>
            <trkpt lat="25.131797" lon="110.224964"><ele>158.68</ele></trkpt>
            <trkpt lat="25.130476" lon="110.222732"><ele>157.29</ele></trkpt>
            <trkpt lat="25.128456" lon="110.220758"><ele>153.87</ele></trkpt>
            <trkpt lat="25.128611" lon="110.21784"><ele>154.24</ele></trkpt>
            <trkpt lat="25.129699" lon="110.217583"><ele>156.25</ele></trkpt>
            <trkpt lat="25.130787" lon="110.217325"><ele>158.79</ele></trkpt>
            <trkpt lat="25.131875" lon="110.217068"><ele>162.43</ele></trkpt>
            <trkpt lat="25.132859" lon="110.216639"><ele>160.52</ele></trkpt>
            <trkpt lat="25.133844" lon="110.216209"><ele>158.58</ele></trkpt>
            <trkpt lat="25.134828" lon="110.21578"><ele>156.94</ele></trkpt>
            <trkpt lat="25.136123" lon="110.213835"><ele>156.28</ele></trkpt>
            <trkpt lat="25.13677" lon="110.212862"><ele>155.34</ele></trkpt>
            <trkpt lat="25.137185" lon="110.211718"><ele>156.89</ele></trkpt>
            <trkpt lat="25.138014" lon="110.209429"><ele>157.09</ele></trkpt>
            <trkpt lat="25.137276" lon="110.207197"><ele>155.93</ele></trkpt>
            <trkpt lat="25.136537" lon="110.204966"><ele>156.74</ele></trkpt>
            <trkpt lat="25.134206" lon="110.201961"><ele>157.87</ele></trkpt>
            <trkpt lat="25.132756" lon="110.199959"><ele>154.7</ele></trkpt>
            <trkpt lat="25.132031" lon="110.198957"><ele>155.02</ele></trkpt>
            <trkpt lat="25.13172" lon="110.197962"><ele>155.75</ele></trkpt>
            <trkpt lat="25.130787" lon="110.194975"><ele>154.7</ele></trkpt>
            <trkpt lat="25.130476" lon="110.193979"><ele>155.03</ele></trkpt>
            <trkpt lat="25.132341" lon="110.192606"><ele>155.77</ele></trkpt>
            <trkpt lat="25.13545" lon="110.193464"><ele>156.07</ele></trkpt>
            <trkpt lat="25.138713" lon="110.195438"><ele>156.23</ele></trkpt>
            <trkpt lat="25.140422" lon="110.196597"><ele>153.76</ele></trkpt>
            <trkpt lat="25.142132" lon="110.197756"><ele>153.64</ele></trkpt>
            <trkpt lat="25.143103" lon="110.198013"><ele>153.83</ele></trkpt>
            <trkpt lat="25.146017" lon="110.198786"><ele>156.26</ele></trkpt>
            <trkpt lat="25.148076" lon="110.198571"><ele>153.04</ele></trkpt>
            <trkpt lat="25.150135" lon="110.198357"><ele>152.17</ele></trkpt>
            <trkpt lat="25.151792" lon="110.197555"><ele>152.86</ele></trkpt>
            <trkpt lat="25.152621" lon="110.197155"><ele>153.25</ele></trkpt>
            <trkpt lat="25.154278" lon="110.196354"><ele>150.58</ele></trkpt>
            <trkpt lat="25.155107" lon="110.195953"><ele>150.75</ele></trkpt>
            <trkpt lat="25.156065" lon="110.196411"><ele>151.55</ele></trkpt>
            <trkpt lat="25.157023" lon="110.196869"><ele>151.35</ele></trkpt>
            <trkpt lat="25.157981" lon="110.197327"><ele>151.86</ele></trkpt>
            <trkpt lat="25.158261" lon="110.199352"><ele>152.17</ele></trkpt>
            <trkpt lat="25.158401" lon="110.200365"><ele>151.94</ele></trkpt>
            <trkpt lat="25.158681" lon="110.202391"><ele>153.87</ele></trkpt>
            <trkpt lat="25.159561" lon="110.204222"><ele>153.46</ele></trkpt>
            <trkpt lat="25.160001" lon="110.205137"><ele>154.31</ele></trkpt>
            <trkpt lat="25.162099" lon="110.204279"><ele>155.67</ele></trkpt>
            <trkpt lat="25.163167" lon="110.204193"><ele>155.74</ele></trkpt>
            <trkpt lat="25.165303" lon="110.204021"><ele>156.27</ele></trkpt>
            <trkpt lat="25.166371" lon="110.203936"><ele>153.68</ele></trkpt>
            <trkpt lat="25.167355" lon="110.203821"><ele>152.46</ele></trkpt>
            <trkpt lat="25.169323" lon="110.203592"><ele>154.24</ele></trkpt>
            <trkpt lat="25.16944" lon="110.202519"><ele>154.3</ele></trkpt>
            <trkpt lat="25.169673" lon="110.200374"><ele>156.29</ele></trkpt>
            <trkpt lat="25.169789" lon="110.199301"><ele>157.29</ele></trkpt>
            <trkpt lat="25.169479" lon="110.197155"><ele>152.25</ele></trkpt>
            <trkpt lat="25.169168" lon="110.195009"><ele>151.01</ele></trkpt>
            <trkpt lat="25.168391" lon="110.192949"><ele>151.1</ele></trkpt>
            <trkpt lat="25.167614" lon="110.190889"><ele>152.48</ele></trkpt>
            <trkpt lat="25.166876" lon="110.188701"><ele>151.47</ele></trkpt>
            <trkpt lat="25.166507" lon="110.187606"><ele>150.67</ele></trkpt>
            <trkpt lat="25.166138" lon="110.186512"><ele>151.02</ele></trkpt>
            <trkpt lat="25.164999" lon="110.184853"><ele>149.34</ele></trkpt>
            <trkpt lat="25.16386" lon="110.183193"><ele>148.57</ele></trkpt>
            <trkpt lat="25.16272" lon="110.181534"><ele>149.81</ele></trkpt>
            <trkpt lat="25.164398" lon="110.180469"><ele>150.13</ele></trkpt>
            <trkpt lat="25.165237" lon="110.179937"><ele>149.55</ele></trkpt>
            <trkpt lat="25.166915" lon="110.178873"><ele>149.81</ele></trkpt>
            <trkpt lat="25.168802" lon="110.179388"><ele>150.11</ele></trkpt>
            <trkpt lat="25.169745" lon="110.179645"><ele>150.73</ele></trkpt>
            <trkpt lat="25.170688" lon="110.179903"><ele>150.25</ele></trkpt>
            <trkpt lat="25.172575" lon="110.180418"><ele>150.12</ele></trkpt>
            <trkpt lat="25.173518" lon="110.180675"><ele>149.81</ele></trkpt>
            <trkpt lat="25.176004" lon="110.181705"><ele>153.8</ele></trkpt>
            <trkpt lat="25.176703" lon="110.182461"><ele>156.12</ele></trkpt>
            <trkpt lat="25.178101" lon="110.183971"><ele>152.83</ele></trkpt>
            <trkpt lat="25.179499" lon="110.185482"><ele>151.35</ele></trkpt>
            <trkpt lat="25.180664" lon="110.187313"><ele>153.02</ele></trkpt>
            <trkpt lat="25.181247" lon="110.188229"><ele>153.59</ele></trkpt>
            <trkpt lat="25.181829" lon="110.189144"><ele>154.51</ele></trkpt>
            <trkpt lat="25.182995" lon="110.190975"><ele>153.16</ele></trkpt>
            <trkpt lat="25.184814" lon="110.194408"><ele>155.83</ele></trkpt>
            <trkpt lat="25.185269" lon="110.195267"><ele>159.42</ele></trkpt>
            <trkpt lat="25.185724" lon="110.196125"><ele>166.51</ele></trkpt>
            <trkpt lat="25.186179" lon="110.196983"><ele>170.66</ele></trkpt>
            <trkpt lat="25.186839" lon="110.197691"><ele>169.57</ele></trkpt>
            <trkpt lat="25.187499" lon="110.198399"><ele>167.25</ele></trkpt>
            <trkpt lat="25.18816" lon="110.199108"><ele>163.29</ele></trkpt>
            <trkpt lat="25.18882" lon="110.199816"><ele>159.92</ele></trkpt>
            <trkpt lat="25.189985" lon="110.199987"><ele>157.45</ele></trkpt>
            <trkpt lat="25.19115" lon="110.200159"><ele>157.76</ele></trkpt>
            <trkpt lat="25.191719" lon="110.199387"><ele>156.85</ele></trkpt>
            <trkpt lat="25.192859" lon="110.197842"><ele>156.84</ele></trkpt>
            <trkpt lat="25.193806" lon="110.197275"><ele>156.34</ele></trkpt>
            <trkpt lat="25.194754" lon="110.196709"><ele>156.6</ele></trkpt>
            <trkpt lat="25.196649" lon="110.195576"><ele>155.3</ele></trkpt>
            <trkpt lat="25.197596" lon="110.195009"><ele>158.35</ele></trkpt>
            <trkpt lat="25.198621" lon="110.195335"><ele>162</ele></trkpt>
            <trkpt lat="25.199646" lon="110.195661"><ele>158.56</ele></trkpt>
            <trkpt lat="25.200672" lon="110.195988"><ele>157.33</ele></trkpt>
            <trkpt lat="25.202722" lon="110.19664"><ele>154.88</ele></trkpt>
            <trkpt lat="25.205828" lon="110.199318"><ele>155.12</ele></trkpt>
            <trkpt lat="25.206605" lon="110.199987"><ele>155.89</ele></trkpt>
            <trkpt lat="25.208515" lon="110.202202"><ele>153.9</ele></trkpt>
            <trkpt lat="25.209789" lon="110.203678"><ele>153.63</ele></trkpt>
            <trkpt lat="25.211419" lon="110.206382"><ele>156</ele></trkpt>
            <trkpt lat="25.211963" lon="110.207283"><ele>157.23</ele></trkpt>
            <trkpt lat="25.214137" lon="110.2096"><ele>156.05</ele></trkpt>
            <trkpt lat="25.214142" lon="110.210699"><ele>156.89</ele></trkpt>
            <trkpt lat="25.214157" lon="110.213993"><ele>156.81</ele></trkpt>
            <trkpt lat="25.214162" lon="110.215092"><ele>157.27</ele></trkpt>
            <trkpt lat="25.214172" lon="110.217288"><ele>157.58</ele></trkpt>
            <trkpt lat="25.214177" lon="110.218387"><ele>159.95</ele></trkpt>
            <trkpt lat="25.213747" lon="110.219684"><ele>165.89</ele></trkpt>
            <trkpt lat="25.213317" lon="110.220981"><ele>175.89</ele></trkpt>
            <trkpt lat="25.213345" lon="110.22205"><ele>182.29</ele></trkpt>
            <trkpt lat="25.213402" lon="110.224188"><ele>184.42</ele></trkpt>
            <trkpt lat="25.214463" lon="110.225916"><ele>187.83</ele></trkpt>
            <trkpt lat="25.213946" lon="110.228495"><ele>189.45</ele></trkpt>
            <trkpt lat="25.21308" lon="110.229358"><ele>191.09</ele></trkpt>
            <trkpt lat="25.213111" lon="110.230499"><ele>197.74</ele></trkpt>
            <trkpt lat="25.213143" lon="110.23164"><ele>199.8</ele></trkpt>
            <trkpt lat="25.213175" lon="110.232781"><ele>192.49</ele></trkpt>
            <trkpt lat="25.213239" lon="110.235063"><ele>179.83</ele></trkpt>
            <trkpt lat="25.21337" lon="110.23617"><ele>178.25</ele></trkpt>
            <trkpt lat="25.213764" lon="110.239488"><ele>177.79</ele></trkpt>
            <trkpt lat="25.213896" lon="110.240594"><ele>179.25</ele></trkpt>
            <trkpt lat="25.214432" lon="110.243605"><ele>183.27</ele></trkpt>
            <trkpt lat="25.214789" lon="110.245612"><ele>181.87</ele></trkpt>
            <trkpt lat="25.2148" lon="110.246764"><ele>181.18</ele></trkpt>
            <trkpt lat="25.214822" lon="110.249068"><ele>176.15</ele></trkpt>
            <trkpt lat="25.214834" lon="110.25022"><ele>174.74</ele></trkpt>
            <trkpt lat="25.214473" lon="110.251338"><ele>173.58</ele></trkpt>
            <trkpt lat="25.214113" lon="110.252457"><ele>171.5</ele></trkpt>
            <trkpt lat="25.213752" lon="110.253575"><ele>171</ele></trkpt>
            <trkpt lat="25.212847" lon="110.255846"><ele>173.99</ele></trkpt>
            <trkpt lat="25.212848" lon="110.256932"><ele>174.05</ele></trkpt>
            <trkpt lat="25.212848" lon="110.258018"><ele>169.5</ele></trkpt>
            <trkpt lat="25.212851" lon="110.263448"><ele>160.9</ele></trkpt>
            <trkpt lat="25.212818" lon="110.26555"><ele>159.68</ele></trkpt>
            <trkpt lat="25.212768" lon="110.268703"><ele>157.8</ele></trkpt>
            <trkpt lat="25.211799" lon="110.269541"><ele>161.85</ele></trkpt>
            <trkpt lat="25.21083" lon="110.27038"><ele>165.27</ele></trkpt>
            <trkpt lat="25.209914" lon="110.269743"><ele>168.5</ele></trkpt>
            <trkpt lat="25.208997" lon="110.269106"><ele>165.48</ele></trkpt>
            <trkpt lat="25.208081" lon="110.26847"><ele>163.51</ele></trkpt>
            <trkpt lat="25.206787" lon="110.266667"><ele>166.2</ele></trkpt>
            <trkpt lat="25.206139" lon="110.265766"><ele>170.56</ele></trkpt>
            <trkpt lat="25.204068" lon="110.265165"><ele>174.82</ele></trkpt>
            <trkpt lat="25.203033" lon="110.264865"><ele>165.89</ele></trkpt>
            <trkpt lat="25.20091" lon="110.264922"><ele>157.21</ele></trkpt>
            <trkpt lat="25.199849" lon="110.26495"><ele>156.29</ele></trkpt>
            <trkpt lat="25.197333" lon="110.266109"><ele>152.36</ele></trkpt>
            <trkpt lat="25.195655" lon="110.266882"><ele>153.28</ele></trkpt>
            <trkpt lat="25.194529" lon="110.269714"><ele>153.87</ele></trkpt>
            <trkpt lat="25.191442" lon="110.270454"><ele>153.99</ele></trkpt>
            <trkpt lat="25.190413" lon="110.270701"><ele>154.23</ele></trkpt>
            <trkpt lat="25.189519" lon="110.271275"><ele>153.02</ele></trkpt>
            <trkpt lat="25.186839" lon="110.272996"><ele>151.57</ele></trkpt>
            <trkpt lat="25.184796" lon="110.27349"><ele>150.87</ele></trkpt>
            <trkpt lat="25.182753" lon="110.273984"><ele>153.87</ele></trkpt>
            <trkpt lat="25.181731" lon="110.274231"><ele>153.24</ele></trkpt>
            <trkpt lat="25.179194" lon="110.272776"><ele>149.66</ele></trkpt>
            <trkpt lat="25.178348" lon="110.272292"><ele>148.89</ele></trkpt>
            <trkpt lat="25.178521" lon="110.270252"><ele>146.71</ele></trkpt>
            <trkpt lat="25.178694" lon="110.268212"><ele>147.74</ele></trkpt>
            <trkpt lat="25.179121" lon="110.26435"><ele>148.49</ele></trkpt>
            <trkpt lat="25.180589" lon="110.261723"><ele>150.03</ele></trkpt>
            <trkpt lat="25.181568" lon="110.259972"><ele>149.88</ele></trkpt>
            <trkpt lat="25.182908" lon="110.258256"><ele>150.3</ele></trkpt>
            <trkpt lat="25.184248" lon="110.256539"><ele>150.29</ele></trkpt>
            <trkpt lat="25.187503" lon="110.253628"><ele>150.86</ele></trkpt>
            <trkpt lat="25.188317" lon="110.2529"><ele>150.64</ele></trkpt>
            <trkpt lat="25.189131" lon="110.252172"><ele>149.98</ele></trkpt>
        </trkseg>
    </trk>
</gpx>
