<?xml version="1.0" encoding="UTF-8"?>
<gpx version="1.1" creator="BikeTerra" xmlns="http://www.topografix.com/GPX/1/1" xmlns:biketerra="https://biketerra.com/xmlns/gpx/1">
    <metadata>
        <name>SF to Oregon 9 of 22</name>
        <extensions>
            <biketerra:version>2.0.0</biketerra:version>
            <biketerra:isLoop>false</biketerra:isLoop>
            <biketerra:defaultSurface>asphalt</biketerra:defaultSurface>
        </extensions>
    </metadata>
    <trk>
        <name>SF to Oregon 9 of 22</name>
        <trkseg>
            <trkpt lat="39.242544" lon="-123.773707"><ele>41.93</ele></trkpt>
            <trkpt lat="39.242628" lon="-123.773754"><ele>42.16</ele></trkpt>
            <trkpt lat="39.242714" lon="-123.773842"><ele>42.7</ele></trkpt>
            <trkpt lat="39.242793" lon="-123.773972"><ele>43.32</ele></trkpt>
            <trkpt lat="39.242846" lon="-123.774094"><ele>43.84</ele></trkpt>
            <trkpt lat="39.242864" lon="-123.774187"><ele>44.19</ele></trkpt>
            <trkpt lat="39.242896" lon="-123.774648"><ele>45.86</ele></trkpt>
            <trkpt lat="39.24291" lon="-123.774881"><ele>46.68</ele></trkpt>
            <trkpt lat="39.242888" lon="-123.775141"><ele>47.58</ele></trkpt>
            <trkpt lat="39.24285" lon="-123.775285"><ele>48.1</ele></trkpt>
            <trkpt lat="39.242796" lon="-123.775396"><ele>48.55</ele></trkpt>
            <trkpt lat="39.242694" lon="-123.775523"><ele>49.17</ele></trkpt>
            <trkpt lat="39.242563" lon="-123.775672"><ele>49.95</ele></trkpt>
            <trkpt lat="39.242502" lon="-123.775781"><ele>50.42</ele></trkpt>
            <trkpt lat="39.242461" lon="-123.775911"><ele>50.93</ele></trkpt>
            <trkpt lat="39.242442" lon="-123.776032"><ele>51.39</ele></trkpt>
            <trkpt lat="39.242446" lon="-123.776147"><ele>51.84</ele></trkpt>
            <trkpt lat="39.242484" lon="-123.776236"><ele>52.24</ele></trkpt>
            <trkpt lat="39.242551" lon="-123.776308"><ele>52.69</ele></trkpt>
            <trkpt lat="39.242631" lon="-123.776352"><ele>53.16</ele></trkpt>
            <trkpt lat="39.242741" lon="-123.776368"><ele>53.77</ele></trkpt>
            <trkpt lat="39.24287" lon="-123.77637"><ele>54.5</ele></trkpt>
            <trkpt lat="39.24305" lon="-123.77637"><ele>55.55</ele></trkpt>
            <trkpt lat="39.24331" lon="-123.77633"><ele>57.08</ele></trkpt>
            <trkpt lat="39.24349" lon="-123.776283"><ele>58.12</ele></trkpt>
            <trkpt lat="39.24367" lon="-123.776237"><ele>59.07</ele></trkpt>
            <trkpt lat="39.24385" lon="-123.77619"><ele>59.91</ele></trkpt>
            <trkpt lat="39.244037" lon="-123.776114"><ele>60.65</ele></trkpt>
            <trkpt lat="39.244235" lon="-123.776033"><ele>61.22</ele></trkpt>
            <trkpt lat="39.244383" lon="-123.775981"><ele>61.5</ele></trkpt>
            <trkpt lat="39.244506" lon="-123.775963"><ele>61.63</ele></trkpt>
            <trkpt lat="39.244694" lon="-123.77597"><ele>61.72</ele></trkpt>
            <trkpt lat="39.244911" lon="-123.77598"><ele>61.68</ele></trkpt>
            <trkpt lat="39.245211" lon="-123.77597"><ele>61.53</ele></trkpt>
            <trkpt lat="39.245338" lon="-123.775995"><ele>61.47</ele></trkpt>
            <trkpt lat="39.245493" lon="-123.776048"><ele>61.42</ele></trkpt>
            <trkpt lat="39.245603" lon="-123.776103"><ele>61.41</ele></trkpt>
            <trkpt lat="39.245759" lon="-123.776209"><ele>61.42</ele></trkpt>
            <trkpt lat="39.2459" lon="-123.776339"><ele>61.47</ele></trkpt>
            <trkpt lat="39.246026" lon="-123.776493"><ele>61.53</ele></trkpt>
            <trkpt lat="39.24612" lon="-123.776639"><ele>61.58</ele></trkpt>
            <trkpt lat="39.24622" lon="-123.776826"><ele>61.62</ele></trkpt>
            <trkpt lat="39.246338" lon="-123.777043"><ele>61.63</ele></trkpt>
            <trkpt lat="39.246427" lon="-123.777159"><ele>61.61</ele></trkpt>
            <trkpt lat="39.246502" lon="-123.777237"><ele>61.59</ele></trkpt>
            <trkpt lat="39.24669" lon="-123.777374"><ele>61.54</ele></trkpt>
            <trkpt lat="39.246906" lon="-123.777496"><ele>61.49</ele></trkpt>
            <trkpt lat="39.247088" lon="-123.777598"><ele>61.5</ele></trkpt>
            <trkpt lat="39.247271" lon="-123.777701"><ele>61.57</ele></trkpt>
            <trkpt lat="39.247397" lon="-123.777752"><ele>61.66</ele></trkpt>
            <trkpt lat="39.247547" lon="-123.777778"><ele>61.79</ele></trkpt>
            <trkpt lat="39.247642" lon="-123.777768"><ele>61.89</ele></trkpt>
            <trkpt lat="39.24777" lon="-123.777726"><ele>62.05</ele></trkpt>
            <trkpt lat="39.24786" lon="-123.777677"><ele>62.17</ele></trkpt>
            <trkpt lat="39.248" lon="-123.777594"><ele>62.36</ele></trkpt>
            <trkpt lat="39.248091" lon="-123.777562"><ele>62.47</ele></trkpt>
            <trkpt lat="39.248242" lon="-123.777544"><ele>62.64</ele></trkpt>
            <trkpt lat="39.248773" lon="-123.777587"><ele>63.15</ele></trkpt>
            <trkpt lat="39.248979" lon="-123.777625"><ele>63.31</ele></trkpt>
            <trkpt lat="39.249162" lon="-123.777714"><ele>63.42</ele></trkpt>
            <trkpt lat="39.249285" lon="-123.777797"><ele>63.48</ele></trkpt>
            <trkpt lat="39.24951" lon="-123.77798"><ele>63.57</ele></trkpt>
            <trkpt lat="39.24975" lon="-123.77822"><ele>63.62</ele></trkpt>
            <trkpt lat="39.24988" lon="-123.7784"><ele>63.64</ele></trkpt>
            <trkpt lat="39.24999" lon="-123.77859"><ele>63.64</ele></trkpt>
            <trkpt lat="39.250259" lon="-123.779199"><ele>63.59</ele></trkpt>
            <trkpt lat="39.250353" lon="-123.779408"><ele>63.55</ele></trkpt>
            <trkpt lat="39.250396" lon="-123.779484"><ele>63.53</ele></trkpt>
            <trkpt lat="39.250473" lon="-123.779586"><ele>63.49</ele></trkpt>
            <trkpt lat="39.250575" lon="-123.779678"><ele>63.43</ele></trkpt>
            <trkpt lat="39.250671" lon="-123.779749"><ele>63.35</ele></trkpt>
            <trkpt lat="39.25087" lon="-123.77986"><ele>63.12</ele></trkpt>
            <trkpt lat="39.2511" lon="-123.77995"><ele>62.73</ele></trkpt>
            <trkpt lat="39.25157" lon="-123.78004"><ele>61.54</ele></trkpt>
            <trkpt lat="39.252133" lon="-123.780107"><ele>59.39</ele></trkpt>
            <trkpt lat="39.25232" lon="-123.78013"><ele>58.44</ele></trkpt>
            <trkpt lat="39.252508" lon="-123.780152"><ele>57.29</ele></trkpt>
            <trkpt lat="39.25307" lon="-123.78022"><ele>53.22</ele></trkpt>
            <trkpt lat="39.25333" lon="-123.78026"><ele>51.17</ele></trkpt>
            <trkpt lat="39.25357" lon="-123.78034"><ele>49.18</ele></trkpt>
            <trkpt lat="39.25378" lon="-123.78043"><ele>47.41</ele></trkpt>
            <trkpt lat="39.25417" lon="-123.78065"><ele>44.15</ele></trkpt>
            <trkpt lat="39.254725" lon="-123.781032"><ele>39.77</ele></trkpt>
            <trkpt lat="39.25491" lon="-123.78116"><ele>38.48</ele></trkpt>
            <trkpt lat="39.25544" lon="-123.78149"><ele>35.36</ele></trkpt>
            <trkpt lat="39.25573" lon="-123.78163"><ele>33.97</ele></trkpt>
            <trkpt lat="39.25686" lon="-123.78189"><ele>29.65</ele></trkpt>
            <trkpt lat="39.257468" lon="-123.78204"><ele>27.39</ele></trkpt>
            <trkpt lat="39.25767" lon="-123.78209"><ele>26.6</ele></trkpt>
            <trkpt lat="39.258248" lon="-123.782247"><ele>24.16</ele></trkpt>
            <trkpt lat="39.25844" lon="-123.7823"><ele>23.26</ele></trkpt>
            <trkpt lat="39.258719" lon="-123.782415"><ele>21.82</ele></trkpt>
            <trkpt lat="39.259039" lon="-123.782582"><ele>20.06</ele></trkpt>
            <trkpt lat="39.259259" lon="-123.782721"><ele>18.86</ele></trkpt>
            <trkpt lat="39.259444" lon="-123.782863"><ele>17.93</ele></trkpt>
            <trkpt lat="39.259628" lon="-123.783004"><ele>17.21</ele></trkpt>
            <trkpt lat="39.2598" lon="-123.78316"><ele>16.74</ele></trkpt>
            <trkpt lat="39.259955" lon="-123.78335"><ele>16.56</ele></trkpt>
            <trkpt lat="39.26011" lon="-123.78354"><ele>16.65</ele></trkpt>
            <trkpt lat="39.26025" lon="-123.78368"><ele>16.9</ele></trkpt>
            <trkpt lat="39.26045" lon="-123.78384"><ele>17.42</ele></trkpt>
            <trkpt lat="39.26059" lon="-123.78392"><ele>17.82</ele></trkpt>
            <trkpt lat="39.2608" lon="-123.78401"><ele>18.41</ele></trkpt>
            <trkpt lat="39.26154" lon="-123.7842"><ele>20.34</ele></trkpt>
            <trkpt lat="39.262845" lon="-123.78454"><ele>23.21</ele></trkpt>
            <trkpt lat="39.263593" lon="-123.784732"><ele>25.26</ele></trkpt>
            <trkpt lat="39.26378" lon="-123.78478"><ele>25.96</ele></trkpt>
            <trkpt lat="39.264165" lon="-123.78488"><ele>27.79</ele></trkpt>
            <trkpt lat="39.26455" lon="-123.78498"><ele>30.05</ele></trkpt>
            <trkpt lat="39.264743" lon="-123.785027"><ele>31.33</ele></trkpt>
            <trkpt lat="39.26532" lon="-123.78517"><ele>35.42</ele></trkpt>
            <trkpt lat="39.26555" lon="-123.78524"><ele>36.95</ele></trkpt>
            <trkpt lat="39.265917" lon="-123.7854"><ele>39.06</ele></trkpt>
            <trkpt lat="39.2661" lon="-123.78548"><ele>39.84</ele></trkpt>
            <trkpt lat="39.266283" lon="-123.78556"><ele>40.35</ele></trkpt>
            <trkpt lat="39.266467" lon="-123.78564"><ele>40.6</ele></trkpt>
            <trkpt lat="39.26665" lon="-123.78572"><ele>40.61</ele></trkpt>
            <trkpt lat="39.26681" lon="-123.7858"><ele>40.46</ele></trkpt>
            <trkpt lat="39.26713" lon="-123.78596"><ele>39.95</ele></trkpt>
            <trkpt lat="39.26731" lon="-123.786055"><ele>39.64</ele></trkpt>
            <trkpt lat="39.26749" lon="-123.78615"><ele>39.39</ele></trkpt>
            <trkpt lat="39.267647" lon="-123.786243"><ele>39.23</ele></trkpt>
            <trkpt lat="39.267803" lon="-123.786337"><ele>39.13</ele></trkpt>
            <trkpt lat="39.26796" lon="-123.78643"><ele>39.08</ele></trkpt>
            <trkpt lat="39.26814" lon="-123.78655"><ele>39.02</ele></trkpt>
            <trkpt lat="39.268323" lon="-123.786682"><ele>38.91</ele></trkpt>
            <trkpt lat="39.268688" lon="-123.786947"><ele>38.38</ele></trkpt>
            <trkpt lat="39.26887" lon="-123.78708"><ele>37.83</ele></trkpt>
            <trkpt lat="39.269053" lon="-123.787212"><ele>36.99</ele></trkpt>
            <trkpt lat="39.269418" lon="-123.787477"><ele>34.72</ele></trkpt>
            <trkpt lat="39.2696" lon="-123.78761"><ele>33.39</ele></trkpt>
            <trkpt lat="39.26978" lon="-123.787742"><ele>31.97</ele></trkpt>
            <trkpt lat="39.27032" lon="-123.78814"><ele>27.6</ele></trkpt>
            <trkpt lat="39.27054" lon="-123.78833"><ele>25.96</ele></trkpt>
            <trkpt lat="39.27072" lon="-123.78851"><ele>24.76</ele></trkpt>
            <trkpt lat="39.27083" lon="-123.78864"><ele>24.08</ele></trkpt>
            <trkpt lat="39.27094" lon="-123.78877"><ele>23.47</ele></trkpt>
            <trkpt lat="39.2711" lon="-123.78898"><ele>22.66</ele></trkpt>
            <trkpt lat="39.271483" lon="-123.789659"><ele>20.5</ele></trkpt>
            <trkpt lat="39.271626" lon="-123.789911"><ele>19.6</ele></trkpt>
            <trkpt lat="39.27178" lon="-123.790125"><ele>18.64</ele></trkpt>
            <trkpt lat="39.27192" lon="-123.790242"><ele>17.85</ele></trkpt>
            <trkpt lat="39.272023" lon="-123.790292"><ele>17.28</ele></trkpt>
            <trkpt lat="39.272135" lon="-123.790321"><ele>16.67</ele></trkpt>
            <trkpt lat="39.272387" lon="-123.790317"><ele>15.21</ele></trkpt>
            <trkpt lat="39.272552" lon="-123.790258"><ele>14.18</ele></trkpt>
            <trkpt lat="39.272673" lon="-123.790213"><ele>13.41</ele></trkpt>
            <trkpt lat="39.272809" lon="-123.79019"><ele>12.57</ele></trkpt>
            <trkpt lat="39.27297" lon="-123.790195"><ele>11.59</ele></trkpt>
            <trkpt lat="39.27313" lon="-123.7902"><ele>10.67</ele></trkpt>
            <trkpt lat="39.27331" lon="-123.79023"><ele>9.69</ele></trkpt>
            <trkpt lat="39.273596" lon="-123.790289"><ele>8.37</ele></trkpt>
            <trkpt lat="39.27382" lon="-123.79039"><ele>7.56</ele></trkpt>
            <trkpt lat="39.274019" lon="-123.790519"><ele>7.11</ele></trkpt>
            <trkpt lat="39.274149" lon="-123.790643"><ele>7.01</ele></trkpt>
            <trkpt lat="39.274218" lon="-123.79073"><ele>7.05</ele></trkpt>
            <trkpt lat="39.274255" lon="-123.790792"><ele>7.12</ele></trkpt>
            <trkpt lat="39.274285" lon="-123.790858"><ele>7.21</ele></trkpt>
            <trkpt lat="39.27432" lon="-123.790987"><ele>7.45</ele></trkpt>
            <trkpt lat="39.274337" lon="-123.791191"><ele>7.98</ele></trkpt>
            <trkpt lat="39.274307" lon="-123.791422"><ele>8.79</ele></trkpt>
            <trkpt lat="39.274172" lon="-123.791722"><ele>10.3</ele></trkpt>
            <trkpt lat="39.274114" lon="-123.79188"><ele>11.17</ele></trkpt>
            <trkpt lat="39.274095" lon="-123.792021"><ele>11.93</ele></trkpt>
            <trkpt lat="39.274111" lon="-123.792181"><ele>12.83</ele></trkpt>
            <trkpt lat="39.274181" lon="-123.792355"><ele>13.95</ele></trkpt>
            <trkpt lat="39.27426" lon="-123.792452"><ele>14.78</ele></trkpt>
            <trkpt lat="39.274387" lon="-123.792532"><ele>15.85</ele></trkpt>
            <trkpt lat="39.27445" lon="-123.792548"><ele>16.34</ele></trkpt>
            <trkpt lat="39.274556" lon="-123.792546"><ele>17.13</ele></trkpt>
            <trkpt lat="39.274636" lon="-123.792519"><ele>17.74</ele></trkpt>
            <trkpt lat="39.274711" lon="-123.792472"><ele>18.34</ele></trkpt>
            <trkpt lat="39.27481" lon="-123.79236"><ele>19.27</ele></trkpt>
            <trkpt lat="39.274912" lon="-123.792205"><ele>20.35</ele></trkpt>
            <trkpt lat="39.275075" lon="-123.791944"><ele>22.07</ele></trkpt>
            <trkpt lat="39.275191" lon="-123.791798"><ele>23.11</ele></trkpt>
            <trkpt lat="39.275267" lon="-123.791729"><ele>23.69</ele></trkpt>
            <trkpt lat="39.275501" lon="-123.791614"><ele>25.23</ele></trkpt>
            <trkpt lat="39.27574" lon="-123.791581"><ele>26.65</ele></trkpt>
            <trkpt lat="39.27648" lon="-123.79159"><ele>30.8</ele></trkpt>
            <trkpt lat="39.27803" lon="-123.7916"><ele>38.54</ele></trkpt>
            <trkpt lat="39.278593" lon="-123.791607"><ele>41.23</ele></trkpt>
            <trkpt lat="39.27878" lon="-123.79161"><ele>42.11</ele></trkpt>
            <trkpt lat="39.27953" lon="-123.79162"><ele>45.61</ele></trkpt>
            <trkpt lat="39.28028" lon="-123.79162"><ele>49.09</ele></trkpt>
            <trkpt lat="39.28048" lon="-123.79164"><ele>49.99</ele></trkpt>
            <trkpt lat="39.28083" lon="-123.79171"><ele>51.49</ele></trkpt>
            <trkpt lat="39.28118" lon="-123.79181"><ele>52.88</ele></trkpt>
            <trkpt lat="39.28148" lon="-123.79193"><ele>53.93</ele></trkpt>
            <trkpt lat="39.281685" lon="-123.792015"><ele>54.52</ele></trkpt>
            <trkpt lat="39.2823" lon="-123.79227"><ele>55.8</ele></trkpt>
            <trkpt lat="39.28312" lon="-123.79261"><ele>56.6</ele></trkpt>
            <trkpt lat="39.28394" lon="-123.79295"><ele>56.33</ele></trkpt>
            <trkpt lat="39.284465" lon="-123.793175"><ele>55.52</ele></trkpt>
            <trkpt lat="39.28464" lon="-123.79325"><ele>55.09</ele></trkpt>
            <trkpt lat="39.284815" lon="-123.793325"><ele>54.53</ele></trkpt>
            <trkpt lat="39.28534" lon="-123.79355"><ele>52.45</ele></trkpt>
            <trkpt lat="39.28604" lon="-123.79385"><ele>49.22</ele></trkpt>
            <trkpt lat="39.286215" lon="-123.793922"><ele>48.35</ele></trkpt>
            <trkpt lat="39.28744" lon="-123.79444"><ele>42</ele></trkpt>
            <trkpt lat="39.28781" lon="-123.79455"><ele>40.23</ele></trkpt>
            <trkpt lat="39.28809" lon="-123.79461"><ele>39.01</ele></trkpt>
            <trkpt lat="39.288315" lon="-123.79462"><ele>38.17</ele></trkpt>
            <trkpt lat="39.28854" lon="-123.79463"><ele>37.45</ele></trkpt>
            <trkpt lat="39.28899" lon="-123.79464"><ele>36.36</ele></trkpt>
            <trkpt lat="39.28928" lon="-123.79462"><ele>35.95</ele></trkpt>
            <trkpt lat="39.289633" lon="-123.79454"><ele>35.86</ele></trkpt>
            <trkpt lat="39.28981" lon="-123.7945"><ele>36.03</ele></trkpt>
            <trkpt lat="39.289985" lon="-123.79445"><ele>36.35</ele></trkpt>
            <trkpt lat="39.290335" lon="-123.79435"><ele>37.36</ele></trkpt>
            <trkpt lat="39.29051" lon="-123.7943"><ele>37.99</ele></trkpt>
            <trkpt lat="39.290682" lon="-123.79425"><ele>38.68</ele></trkpt>
            <trkpt lat="39.290855" lon="-123.7942"><ele>39.39</ele></trkpt>
            <trkpt lat="39.291028" lon="-123.79415"><ele>40.09</ele></trkpt>
            <trkpt lat="39.2912" lon="-123.7941"><ele>40.74</ele></trkpt>
            <trkpt lat="39.291425" lon="-123.79405"><ele>41.5</ele></trkpt>
            <trkpt lat="39.29165" lon="-123.794"><ele>42.13</ele></trkpt>
            <trkpt lat="39.291845" lon="-123.793985"><ele>42.57</ele></trkpt>
            <trkpt lat="39.29204" lon="-123.79397"><ele>42.92</ele></trkpt>
            <trkpt lat="39.29232" lon="-123.79398"><ele>43.27</ele></trkpt>
            <trkpt lat="39.29248" lon="-123.794005"><ele>43.4</ele></trkpt>
            <trkpt lat="39.29264" lon="-123.79403"><ele>43.48</ele></trkpt>
            <trkpt lat="39.29284" lon="-123.79407"><ele>43.5</ele></trkpt>
            <trkpt lat="39.29314" lon="-123.79417"><ele>43.37</ele></trkpt>
            <trkpt lat="39.293305" lon="-123.794245"><ele>43.18</ele></trkpt>
            <trkpt lat="39.29347" lon="-123.79432"><ele>42.89</ele></trkpt>
            <trkpt lat="39.293668" lon="-123.794422"><ele>42.35</ele></trkpt>
            <trkpt lat="39.294063" lon="-123.794627"><ele>40.84</ele></trkpt>
            <trkpt lat="39.29426" lon="-123.79473"><ele>39.84</ele></trkpt>
            <trkpt lat="39.294458" lon="-123.794832"><ele>38.67</ele></trkpt>
            <trkpt lat="39.294853" lon="-123.795037"><ele>36.1</ele></trkpt>
            <trkpt lat="39.29505" lon="-123.79514"><ele>34.88</ele></trkpt>
            <trkpt lat="39.295245" lon="-123.795242"><ele>33.82</ele></trkpt>
            <trkpt lat="39.295635" lon="-123.795447"><ele>32.15</ele></trkpt>
            <trkpt lat="39.29583" lon="-123.79555"><ele>31.58</ele></trkpt>
            <trkpt lat="39.29608" lon="-123.795659"><ele>31.17</ele></trkpt>
            <trkpt lat="39.29633" lon="-123.795738"><ele>31</ele></trkpt>
            <trkpt lat="39.29656" lon="-123.795787"><ele>30.97</ele></trkpt>
            <trkpt lat="39.296831" lon="-123.795817"><ele>30.95</ele></trkpt>
            <trkpt lat="39.29713" lon="-123.79581"><ele>30.86</ele></trkpt>
            <trkpt lat="39.29728" lon="-123.7958"><ele>30.73</ele></trkpt>
            <trkpt lat="39.29744" lon="-123.79578"><ele>30.52</ele></trkpt>
            <trkpt lat="39.297595" lon="-123.795742"><ele>30.23</ele></trkpt>
            <trkpt lat="39.297751" lon="-123.795703"><ele>29.86</ele></trkpt>
            <trkpt lat="39.2979" lon="-123.795651"><ele>29.42</ele></trkpt>
            <trkpt lat="39.29805" lon="-123.795581"><ele>28.91</ele></trkpt>
            <trkpt lat="39.298201" lon="-123.795512"><ele>28.36</ele></trkpt>
            <trkpt lat="39.298491" lon="-123.795333"><ele>27.18</ele></trkpt>
            <trkpt lat="39.2989" lon="-123.79499"><ele>25.41</ele></trkpt>
            <trkpt lat="39.29904" lon="-123.79484"><ele>24.8</ele></trkpt>
            <trkpt lat="39.299175" lon="-123.794685"><ele>24.24</ele></trkpt>
            <trkpt lat="39.29931" lon="-123.79453"><ele>23.71</ele></trkpt>
            <trkpt lat="39.299447" lon="-123.79435"><ele>23.18</ele></trkpt>
            <trkpt lat="39.29972" lon="-123.79399"><ele>22.15</ele></trkpt>
            <trkpt lat="39.30012" lon="-123.79345"><ele>20.56</ele></trkpt>
            <trkpt lat="39.30039" lon="-123.79315"><ele>19.55</ele></trkpt>
            <trkpt lat="39.3006" lon="-123.79295"><ele>18.87</ele></trkpt>
            <trkpt lat="39.30078" lon="-123.79278"><ele>18.41</ele></trkpt>
            <trkpt lat="39.30116" lon="-123.79249"><ele>17.78</ele></trkpt>
            <trkpt lat="39.30142" lon="-123.79231"><ele>17.48</ele></trkpt>
            <trkpt lat="39.30165" lon="-123.79218"><ele>17.28</ele></trkpt>
            <trkpt lat="39.3018" lon="-123.79211"><ele>17.16</ele></trkpt>
            <trkpt lat="39.30211" lon="-123.792"><ele>16.95</ele></trkpt>
            <trkpt lat="39.30248" lon="-123.79192"><ele>16.74</ele></trkpt>
            <trkpt lat="39.302693" lon="-123.79189"><ele>16.69</ele></trkpt>
            <trkpt lat="39.302806" lon="-123.79189"><ele>16.69</ele></trkpt>
            <trkpt lat="39.303382" lon="-123.79189"><ele>17.03</ele></trkpt>
            <trkpt lat="39.30377" lon="-123.79195"><ele>17.74</ele></trkpt>
            <trkpt lat="39.303975" lon="-123.791995"><ele>18.36</ele></trkpt>
            <trkpt lat="39.30418" lon="-123.79204"><ele>19.17</ele></trkpt>
            <trkpt lat="39.30442" lon="-123.79213"><ele>20.37</ele></trkpt>
            <trkpt lat="39.30467" lon="-123.79223"><ele>21.81</ele></trkpt>
            <trkpt lat="39.3049" lon="-123.792345"><ele>23.3</ele></trkpt>
            <trkpt lat="39.30513" lon="-123.79246"><ele>24.88</ele></trkpt>
            <trkpt lat="39.30539" lon="-123.79257"><ele>26.68</ele></trkpt>
            <trkpt lat="39.30564" lon="-123.7927"><ele>28.46</ele></trkpt>
            <trkpt lat="39.305871" lon="-123.792861"><ele>30.17</ele></trkpt>
            <trkpt lat="39.305989" lon="-123.792939"><ele>31.02</ele></trkpt>
            <trkpt lat="39.30657" lon="-123.79342"><ele>35.37</ele></trkpt>
            <trkpt lat="39.30711" lon="-123.793877"><ele>39.39</ele></trkpt>
            <trkpt lat="39.30729" lon="-123.79403"><ele>40.71</ele></trkpt>
            <trkpt lat="39.30747" lon="-123.79418"><ele>42.01</ele></trkpt>
            <trkpt lat="39.30801" lon="-123.79463"><ele>45.77</ele></trkpt>
            <trkpt lat="39.30873" lon="-123.79524"><ele>50.33</ele></trkpt>
            <trkpt lat="39.30927" lon="-123.79569"><ele>53.14</ele></trkpt>
            <trkpt lat="39.30945" lon="-123.79584"><ele>53.85</ele></trkpt>
            <trkpt lat="39.30963" lon="-123.795992"><ele>54.35</ele></trkpt>
            <trkpt lat="39.31017" lon="-123.79645"><ele>55.13</ele></trkpt>
            <trkpt lat="39.3104" lon="-123.79662"><ele>55.13</ele></trkpt>
            <trkpt lat="39.31064" lon="-123.79677"><ele>54.86</ele></trkpt>
            <trkpt lat="39.31113" lon="-123.79704"><ele>53.77</ele></trkpt>
            <trkpt lat="39.31138" lon="-123.79715"><ele>53.04</ele></trkpt>
            <trkpt lat="39.3122" lon="-123.79744"><ele>50.14</ele></trkpt>
            <trkpt lat="39.312823" lon="-123.797657"><ele>47.6</ele></trkpt>
            <trkpt lat="39.31303" lon="-123.79773"><ele>46.67</ele></trkpt>
            <trkpt lat="39.31319" lon="-123.797795"><ele>45.88</ele></trkpt>
            <trkpt lat="39.31335" lon="-123.79786"><ele>45.05</ele></trkpt>
            <trkpt lat="39.31402" lon="-123.79804"><ele>41.52</ele></trkpt>
            <trkpt lat="39.314393" lon="-123.798133"><ele>39.66</ele></trkpt>
            <trkpt lat="39.31458" lon="-123.79818"><ele>38.83</ele></trkpt>
            <trkpt lat="39.314767" lon="-123.79823"><ele>38.12</ele></trkpt>
            <trkpt lat="39.314953" lon="-123.79828"><ele>37.57</ele></trkpt>
            <trkpt lat="39.31514" lon="-123.79833"><ele>37.17</ele></trkpt>
            <trkpt lat="39.31536" lon="-123.798387"><ele>36.87</ele></trkpt>
            <trkpt lat="39.31558" lon="-123.798443"><ele>36.73</ele></trkpt>
            <trkpt lat="39.3158" lon="-123.7985"><ele>36.69</ele></trkpt>
            <trkpt lat="39.316017" lon="-123.798557"><ele>36.67</ele></trkpt>
            <trkpt lat="39.31645" lon="-123.79867"><ele>36.55</ele></trkpt>
            <trkpt lat="39.31693" lon="-123.79882"><ele>36.07</ele></trkpt>
            <trkpt lat="39.31737" lon="-123.798987"><ele>35.17</ele></trkpt>
            <trkpt lat="39.31759" lon="-123.79907"><ele>34.51</ele></trkpt>
            <trkpt lat="39.31775" lon="-123.79914"><ele>33.91</ele></trkpt>
            <trkpt lat="39.31807" lon="-123.79928"><ele>32.53</ele></trkpt>
            <trkpt lat="39.31861" lon="-123.799557"><ele>30.04</ele></trkpt>
            <trkpt lat="39.31879" lon="-123.79965"><ele>29.36</ele></trkpt>
            <trkpt lat="39.31897" lon="-123.79974"><ele>28.85</ele></trkpt>
            <trkpt lat="39.32008" lon="-123.80032"><ele>27.24</ele></trkpt>
            <trkpt lat="39.32084" lon="-123.80072"><ele>27.83</ele></trkpt>
            <trkpt lat="39.3216" lon="-123.80112"><ele>29.57</ele></trkpt>
            <trkpt lat="39.32292" lon="-123.80182"><ele>32.83</ele></trkpt>
            <trkpt lat="39.32368" lon="-123.80222"><ele>33.72</ele></trkpt>
            <trkpt lat="39.32387" lon="-123.80232"><ele>33.71</ele></trkpt>
            <trkpt lat="39.324053" lon="-123.802412"><ele>33.55</ele></trkpt>
            <trkpt lat="39.324418" lon="-123.802597"><ele>32.95</ele></trkpt>
            <trkpt lat="39.3246" lon="-123.80269"><ele>32.61</ele></trkpt>
            <trkpt lat="39.32478" lon="-123.802782"><ele>32.27</ele></trkpt>
            <trkpt lat="39.32532" lon="-123.80306"><ele>31.43</ele></trkpt>
            <trkpt lat="39.32558" lon="-123.80322"><ele>31.21</ele></trkpt>
            <trkpt lat="39.326143" lon="-123.803527"><ele>31.28</ele></trkpt>
            <trkpt lat="39.32633" lon="-123.80363"><ele>31.46</ele></trkpt>
            <trkpt lat="39.32669" lon="-123.80381"><ele>32.09</ele></trkpt>
            <trkpt lat="39.32687" lon="-123.8039"><ele>32.51</ele></trkpt>
            <trkpt lat="39.32738" lon="-123.80411"><ele>33.82</ele></trkpt>
            <trkpt lat="39.327525" lon="-123.80416"><ele>34.18</ele></trkpt>
            <trkpt lat="39.32767" lon="-123.80421"><ele>34.52</ele></trkpt>
            <trkpt lat="39.328093" lon="-123.80433"><ele>35.43</ele></trkpt>
            <trkpt lat="39.330448" lon="-123.80492"><ele>40.22</ele></trkpt>
            <trkpt lat="39.33064" lon="-123.80497"><ele>40.83</ele></trkpt>
            <trkpt lat="39.330833" lon="-123.80502"><ele>41.65</ele></trkpt>
            <trkpt lat="39.331623" lon="-123.805213"><ele>45.78</ele></trkpt>
            <trkpt lat="39.33205" lon="-123.8053"><ele>48.04</ele></trkpt>
            <trkpt lat="39.332253" lon="-123.805352"><ele>49.04</ele></trkpt>
            <trkpt lat="39.33286" lon="-123.80551"><ele>51.66</ele></trkpt>
            <trkpt lat="39.33367" lon="-123.80572"><ele>54.45</ele></trkpt>
            <trkpt lat="39.334323" lon="-123.805907"><ele>56.3</ele></trkpt>
            <trkpt lat="39.33454" lon="-123.80597"><ele>56.86</ele></trkpt>
            <trkpt lat="39.334755" lon="-123.806035"><ele>57.39</ele></trkpt>
            <trkpt lat="39.335185" lon="-123.806165"><ele>58.43</ele></trkpt>
            <trkpt lat="39.3354" lon="-123.80623"><ele>58.96</ele></trkpt>
            <trkpt lat="39.335574" lon="-123.806282"><ele>59.4</ele></trkpt>
            <trkpt lat="39.33627" lon="-123.80649"><ele>61.2</ele></trkpt>
            <trkpt lat="39.33694" lon="-123.80667"><ele>62.92</ele></trkpt>
            <trkpt lat="39.337163" lon="-123.80673"><ele>63.47</ele></trkpt>
            <trkpt lat="39.33761" lon="-123.80685"><ele>64.51</ele></trkpt>
            <trkpt lat="39.33828" lon="-123.80704"><ele>65.99</ele></trkpt>
            <trkpt lat="39.338888" lon="-123.807205"><ele>67.27</ele></trkpt>
            <trkpt lat="39.33909" lon="-123.80726"><ele>67.7</ele></trkpt>
            <trkpt lat="39.33929" lon="-123.807315"><ele>68.11</ele></trkpt>
            <trkpt lat="39.33989" lon="-123.80748"><ele>69.34</ele></trkpt>
            <trkpt lat="39.34009" lon="-123.807537"><ele>69.75</ele></trkpt>
            <trkpt lat="39.34069" lon="-123.80771"><ele>70.96</ele></trkpt>
            <trkpt lat="39.341298" lon="-123.807875"><ele>72.14</ele></trkpt>
            <trkpt lat="39.3415" lon="-123.80793"><ele>72.53</ele></trkpt>
            <trkpt lat="39.3417" lon="-123.807987"><ele>72.9</ele></trkpt>
            <trkpt lat="39.3421" lon="-123.808102"><ele>73.65</ele></trkpt>
            <trkpt lat="39.3423" lon="-123.80816"><ele>74.02</ele></trkpt>
            <trkpt lat="39.3425" lon="-123.808215"><ele>74.38</ele></trkpt>
            <trkpt lat="39.3431" lon="-123.80838"><ele>75.4</ele></trkpt>
            <trkpt lat="39.343633" lon="-123.80847"><ele>76.12</ele></trkpt>
            <trkpt lat="39.34381" lon="-123.8085"><ele>76.28</ele></trkpt>
            <trkpt lat="39.344028" lon="-123.808527"><ele>76.38</ele></trkpt>
            <trkpt lat="39.344463" lon="-123.808582"><ele>76.33</ele></trkpt>
            <trkpt lat="39.34468" lon="-123.80861"><ele>76.18</ele></trkpt>
            <trkpt lat="39.34489" lon="-123.808617"><ele>75.92</ele></trkpt>
            <trkpt lat="39.34552" lon="-123.80864"><ele>74.78</ele></trkpt>
            <trkpt lat="39.34632" lon="-123.80864"><ele>72.91</ele></trkpt>
            <trkpt lat="39.346927" lon="-123.80864"><ele>71.31</ele></trkpt>
            <trkpt lat="39.34713" lon="-123.80864"><ele>70.74</ele></trkpt>
            <trkpt lat="39.34793" lon="-123.80864"><ele>68.44</ele></trkpt>
            <trkpt lat="39.348537" lon="-123.80864"><ele>66.68</ele></trkpt>
            <trkpt lat="39.34874" lon="-123.80864"><ele>66.11</ele></trkpt>
            <trkpt lat="39.34934" lon="-123.80864"><ele>64.51</ele></trkpt>
            <trkpt lat="39.34954" lon="-123.80864"><ele>64.04</ele></trkpt>
            <trkpt lat="39.349742" lon="-123.80864"><ele>63.61</ele></trkpt>
            <trkpt lat="39.35095" lon="-123.80864"><ele>61.38</ele></trkpt>
            <trkpt lat="39.35115" lon="-123.80864"><ele>61.01</ele></trkpt>
            <trkpt lat="39.351352" lon="-123.80864"><ele>60.62</ele></trkpt>
            <trkpt lat="39.35196" lon="-123.80864"><ele>59.38</ele></trkpt>
            <trkpt lat="39.352568" lon="-123.808633"><ele>57.99</ele></trkpt>
            <trkpt lat="39.35277" lon="-123.80863"><ele>57.51</ele></trkpt>
            <trkpt lat="39.35358" lon="-123.80861"><ele>55.53</ele></trkpt>
            <trkpt lat="39.35418" lon="-123.808595"><ele>54.07</ele></trkpt>
            <trkpt lat="39.35438" lon="-123.80859"><ele>53.55</ele></trkpt>
            <trkpt lat="39.354583" lon="-123.808588"><ele>52.98</ele></trkpt>
            <trkpt lat="39.354988" lon="-123.808583"><ele>51.72</ele></trkpt>
            <trkpt lat="39.35519" lon="-123.80858"><ele>51</ele></trkpt>
            <trkpt lat="39.355798" lon="-123.808565"><ele>48.64</ele></trkpt>
            <trkpt lat="39.356" lon="-123.80856"><ele>47.86</ele></trkpt>
            <trkpt lat="39.356203" lon="-123.808558"><ele>47.11</ele></trkpt>
            <trkpt lat="39.356608" lon="-123.808553"><ele>45.77</ele></trkpt>
            <trkpt lat="39.35681" lon="-123.80855"><ele>45.2</ele></trkpt>
            <trkpt lat="39.35699" lon="-123.808548"><ele>44.78</ele></trkpt>
            <trkpt lat="39.35717" lon="-123.808545"><ele>44.44</ele></trkpt>
            <trkpt lat="39.35735" lon="-123.808543"><ele>44.19</ele></trkpt>
            <trkpt lat="39.35753" lon="-123.80854"><ele>44.03</ele></trkpt>
            <trkpt lat="39.357695" lon="-123.80854"><ele>43.96</ele></trkpt>
            <trkpt lat="39.35786" lon="-123.80854"><ele>43.98</ele></trkpt>
            <trkpt lat="39.35803" lon="-123.80853"><ele>44.08</ele></trkpt>
            <trkpt lat="39.35899" lon="-123.8085"><ele>45.18</ele></trkpt>
            <trkpt lat="39.36144" lon="-123.80843"><ele>49.32</ele></trkpt>
            <trkpt lat="39.36188" lon="-123.80844"><ele>50.63</ele></trkpt>
            <trkpt lat="39.36225" lon="-123.80847"><ele>51.84</ele></trkpt>
            <trkpt lat="39.36258" lon="-123.80853"><ele>52.77</ele></trkpt>
            <trkpt lat="39.36292" lon="-123.80861"><ele>53.5</ele></trkpt>
            <trkpt lat="39.36324" lon="-123.80871"><ele>54.04</ele></trkpt>
            <trkpt lat="39.363681" lon="-123.80888"><ele>54.62</ele></trkpt>
            <trkpt lat="39.36407" lon="-123.80908"><ele>54.99</ele></trkpt>
            <trkpt lat="39.36434" lon="-123.80925"><ele>55.09</ele></trkpt>
            <trkpt lat="39.36496" lon="-123.80969"><ele>54.86</ele></trkpt>
            <trkpt lat="39.365798" lon="-123.810337"><ele>53.68</ele></trkpt>
            <trkpt lat="39.3663" lon="-123.81072"><ele>52.35</ele></trkpt>
            <trkpt lat="39.36765" lon="-123.81174"><ele>47.09</ele></trkpt>
            <trkpt lat="39.367833" lon="-123.81188"><ele>46.25</ele></trkpt>
            <trkpt lat="39.36838" lon="-123.8123"><ele>43.41</ele></trkpt>
            <trkpt lat="39.36911" lon="-123.81285"><ele>39.47</ele></trkpt>
            <trkpt lat="39.36985" lon="-123.8134"><ele>35.6</ele></trkpt>
            <trkpt lat="39.37058" lon="-123.81395"><ele>31.98</ele></trkpt>
            <trkpt lat="39.37131" lon="-123.81451"><ele>28.6</ele></trkpt>
            <trkpt lat="39.37174" lon="-123.81482"><ele>26.78</ele></trkpt>
            <trkpt lat="39.371955" lon="-123.814975"><ele>25.95</ele></trkpt>
            <trkpt lat="39.37217" lon="-123.81513"><ele>25.2</ele></trkpt>
            <trkpt lat="39.37248" lon="-123.81533"><ele>24.28</ele></trkpt>
            <trkpt lat="39.37295" lon="-123.81559"><ele>23.15</ele></trkpt>
            <trkpt lat="39.37311" lon="-123.81567"><ele>22.85</ele></trkpt>
            <trkpt lat="39.373748" lon="-123.81588"><ele>21.92</ele></trkpt>
            <trkpt lat="39.37396" lon="-123.81595"><ele>21.68</ele></trkpt>
            <trkpt lat="39.37462" lon="-123.81614"><ele>21.08</ele></trkpt>
            <trkpt lat="39.37488" lon="-123.81618"><ele>20.88</ele></trkpt>
            <trkpt lat="39.37526" lon="-123.81622"><ele>20.65</ele></trkpt>
            <trkpt lat="39.375453" lon="-123.81622"><ele>20.56</ele></trkpt>
            <trkpt lat="39.37584" lon="-123.81622"><ele>20.46</ele></trkpt>
            <trkpt lat="39.37635" lon="-123.81616"><ele>20.53</ele></trkpt>
            <trkpt lat="39.3774" lon="-123.81596"><ele>21.25</ele></trkpt>
            <trkpt lat="39.37807" lon="-123.81576"><ele>22.11</ele></trkpt>
            <trkpt lat="39.37873" lon="-123.81554"><ele>23.22</ele></trkpt>
            <trkpt lat="39.37949" lon="-123.81527"><ele>24.55</ele></trkpt>
            <trkpt lat="39.38025" lon="-123.815"><ele>25.65</ele></trkpt>
            <trkpt lat="39.38044" lon="-123.814933"><ele>25.84</ele></trkpt>
            <trkpt lat="39.38082" lon="-123.814798"><ele>26.03</ele></trkpt>
            <trkpt lat="39.38101" lon="-123.81473"><ele>26.05</ele></trkpt>
            <trkpt lat="39.38176" lon="-123.81446"><ele>25.83</ele></trkpt>
            <trkpt lat="39.38233" lon="-123.814258"><ele>25.63</ele></trkpt>
            <trkpt lat="39.38252" lon="-123.81419"><ele>25.59</ele></trkpt>
            <trkpt lat="39.38404" lon="-123.81366"><ele>25.41</ele></trkpt>
            <trkpt lat="39.38488" lon="-123.81338"><ele>25.04</ele></trkpt>
            <trkpt lat="39.38572" lon="-123.8131"><ele>24.42</ele></trkpt>
            <trkpt lat="39.38616" lon="-123.812953"><ele>24.08</ele></trkpt>
            <trkpt lat="39.38638" lon="-123.81288"><ele>23.95</ele></trkpt>
            <trkpt lat="39.3866" lon="-123.812807"><ele>23.86</ele></trkpt>
            <trkpt lat="39.38682" lon="-123.812733"><ele>23.84</ele></trkpt>
            <trkpt lat="39.38704" lon="-123.81266"><ele>23.88</ele></trkpt>
            <trkpt lat="39.38726" lon="-123.81259"><ele>23.99</ele></trkpt>
            <trkpt lat="39.3877" lon="-123.81245"><ele>24.34</ele></trkpt>
            <trkpt lat="39.387923" lon="-123.812377"><ele>24.55</ele></trkpt>
            <trkpt lat="39.38915" lon="-123.81196"><ele>25.94</ele></trkpt>
            <trkpt lat="39.389735" lon="-123.811758"><ele>26.56</ele></trkpt>
            <trkpt lat="39.38993" lon="-123.81169"><ele>26.76</ele></trkpt>
            <trkpt lat="39.390125" lon="-123.811623"><ele>26.95</ele></trkpt>
            <trkpt lat="39.390515" lon="-123.811488"><ele>27.32</ele></trkpt>
            <trkpt lat="39.391295" lon="-123.811218"><ele>28.19</ele></trkpt>
            <trkpt lat="39.39149" lon="-123.81115"><ele>28.47</ele></trkpt>
            <trkpt lat="39.391685" lon="-123.811083"><ele>28.83</ele></trkpt>
            <trkpt lat="39.392075" lon="-123.810948"><ele>29.68</ele></trkpt>
            <trkpt lat="39.39227" lon="-123.81088"><ele>30.15</ele></trkpt>
            <trkpt lat="39.392447" lon="-123.810823"><ele>30.62</ele></trkpt>
            <trkpt lat="39.3928" lon="-123.81071"><ele>31.59</ele></trkpt>
            <trkpt lat="39.393145" lon="-123.81059"><ele>32.57</ele></trkpt>
            <trkpt lat="39.39349" lon="-123.81047"><ele>33.56</ele></trkpt>
            <trkpt lat="39.39418" lon="-123.81022"><ele>35.56</ele></trkpt>
            <trkpt lat="39.394705" lon="-123.81004"><ele>37.08</ele></trkpt>
            <trkpt lat="39.39488" lon="-123.80998"><ele>37.58</ele></trkpt>
            <trkpt lat="39.395103" lon="-123.80991"><ele>38.19</ele></trkpt>
            <trkpt lat="39.39555" lon="-123.80977"><ele>39.34</ele></trkpt>
            <trkpt lat="39.395883" lon="-123.80969"><ele>40.1</ele></trkpt>
            <trkpt lat="39.39605" lon="-123.80965"><ele>40.42</ele></trkpt>
            <trkpt lat="39.396213" lon="-123.80961"><ele>40.68</ele></trkpt>
            <trkpt lat="39.39654" lon="-123.80953"><ele>41.09</ele></trkpt>
            <trkpt lat="39.397" lon="-123.80944"><ele>41.44</ele></trkpt>
            <trkpt lat="39.39745" lon="-123.80936"><ele>41.57</ele></trkpt>
            <trkpt lat="39.39828" lon="-123.80927"><ele>41.39</ele></trkpt>
            <trkpt lat="39.398918" lon="-123.809233"><ele>40.95</ele></trkpt>
            <trkpt lat="39.39913" lon="-123.80922"><ele>40.72</ele></trkpt>
            <trkpt lat="39.39999" lon="-123.80917"><ele>39.46</ele></trkpt>
            <trkpt lat="39.400635" lon="-123.809125"><ele>38.36</ele></trkpt>
            <trkpt lat="39.401065" lon="-123.809098"><ele>37.55</ele></trkpt>
            <trkpt lat="39.40256" lon="-123.80901"><ele>34.51</ele></trkpt>
            <trkpt lat="39.40318" lon="-123.80897"><ele>33.13</ele></trkpt>
            <trkpt lat="39.4038" lon="-123.80894"><ele>31.68</ele></trkpt>
            <trkpt lat="39.40446" lon="-123.8089"><ele>30.2</ele></trkpt>
            <trkpt lat="39.40507" lon="-123.80888"><ele>29.03</ele></trkpt>
            <trkpt lat="39.405723" lon="-123.80882"><ele>28.11</ele></trkpt>
            <trkpt lat="39.40594" lon="-123.8088"><ele>27.91</ele></trkpt>
            <trkpt lat="39.406133" lon="-123.80879"><ele>27.81</ele></trkpt>
            <trkpt lat="39.40749" lon="-123.80872"><ele>27.64</ele></trkpt>
            <trkpt lat="39.40826" lon="-123.80867"><ele>27.48</ele></trkpt>
            <trkpt lat="39.40995" lon="-123.80857"><ele>26.82</ele></trkpt>
            <trkpt lat="39.411256" lon="-123.808483"><ele>26.2</ele></trkpt>
            <trkpt lat="39.411438" lon="-123.808428"><ele>26.13</ele></trkpt>
            <trkpt lat="39.411953" lon="-123.808393"><ele>26.01</ele></trkpt>
            <trkpt lat="39.412089" lon="-123.808367"><ele>25.98</ele></trkpt>
            <trkpt lat="39.412203" lon="-123.808295"><ele>25.97</ele></trkpt>
            <trkpt lat="39.412323" lon="-123.808122"><ele>25.96</ele></trkpt>
            <trkpt lat="39.41241" lon="-123.808087"><ele>25.96</ele></trkpt>
            <trkpt lat="39.412463" lon="-123.808095"><ele>25.95</ele></trkpt>
            <trkpt lat="39.412848" lon="-123.808249"><ele>25.95</ele></trkpt>
            <trkpt lat="39.412994" lon="-123.808323"><ele>25.94</ele></trkpt>
            <trkpt lat="39.413148" lon="-123.808349"><ele>25.93</ele></trkpt>
            <trkpt lat="39.41408" lon="-123.8083"><ele>25.78</ele></trkpt>
            <trkpt lat="39.414285" lon="-123.808288"><ele>25.69</ele></trkpt>
            <trkpt lat="39.4149" lon="-123.80825"><ele>25.22</ele></trkpt>
            <trkpt lat="39.416345" lon="-123.808163"><ele>23.56</ele></trkpt>
            <trkpt lat="39.41655" lon="-123.80815"><ele>23.32</ele></trkpt>
            <trkpt lat="39.416755" lon="-123.808138"><ele>23.1</ele></trkpt>
            <trkpt lat="39.417165" lon="-123.808113"><ele>22.77</ele></trkpt>
            <trkpt lat="39.41737" lon="-123.8081"><ele>22.74</ele></trkpt>
            <trkpt lat="39.417575" lon="-123.80809"><ele>22.84</ele></trkpt>
            <trkpt lat="39.41924" lon="-123.80799"><ele>25.21</ele></trkpt>
            <trkpt lat="39.41969" lon="-123.80797"><ele>26.39</ele></trkpt>
            <trkpt lat="39.42036" lon="-123.80793"><ele>28.72</ele></trkpt>
            <trkpt lat="39.42119" lon="-123.80785"><ele>31.59</ele></trkpt>
            <trkpt lat="39.421597" lon="-123.80781"><ele>32.72</ele></trkpt>
            <trkpt lat="39.4218" lon="-123.80779"><ele>33.13</ele></trkpt>
            <trkpt lat="39.422655" lon="-123.807685"><ele>34.21</ele></trkpt>
            <trkpt lat="39.42339" lon="-123.80758"><ele>34.65</ele></trkpt>
            <trkpt lat="39.42359" lon="-123.80753"><ele>34.69</ele></trkpt>
            <trkpt lat="39.423997" lon="-123.807457"><ele>34.64</ele></trkpt>
            <trkpt lat="39.4242" lon="-123.80742"><ele>34.55</ele></trkpt>
            <trkpt lat="39.4248" lon="-123.80731"><ele>34.16</ele></trkpt>
            <trkpt lat="39.424977" lon="-123.80728"><ele>34.02</ele></trkpt>
            <trkpt lat="39.42551" lon="-123.80719"><ele>33.62</ele></trkpt>
            <trkpt lat="39.42621" lon="-123.80708"><ele>33.38</ele></trkpt>
            <trkpt lat="39.42795" lon="-123.80676"><ele>33.47</ele></trkpt>
            <trkpt lat="39.429443" lon="-123.806505"><ele>33.65</ele></trkpt>
            <trkpt lat="39.42965" lon="-123.80647"><ele>33.68</ele></trkpt>
            <trkpt lat="39.43048" lon="-123.80634"><ele>33.79</ele></trkpt>
            <trkpt lat="39.43111" lon="-123.80627"><ele>33.74</ele></trkpt>
            <trkpt lat="39.431998" lon="-123.806233"><ele>33.11</ele></trkpt>
            <trkpt lat="39.433667" lon="-123.806157"><ele>30.5</ele></trkpt>
            <trkpt lat="39.434307" lon="-123.806143"><ele>29.23</ele></trkpt>
            <trkpt lat="39.43542" lon="-123.806105"><ele>26.81</ele></trkpt>
            <trkpt lat="39.43668" lon="-123.80607"><ele>24.27</ele></trkpt>
            <trkpt lat="39.43794" lon="-123.806035"><ele>22.37</ele></trkpt>
            <trkpt lat="39.438705" lon="-123.806015"><ele>21.69</ele></trkpt>
            <trkpt lat="39.44046" lon="-123.80597"><ele>21.2</ele></trkpt>
            <trkpt lat="39.44131" lon="-123.80594"><ele>21.32</ele></trkpt>
            <trkpt lat="39.44277" lon="-123.80596"><ele>22.08</ele></trkpt>
            <trkpt lat="39.4435" lon="-123.80597"><ele>22.72</ele></trkpt>
            <trkpt lat="39.44423" lon="-123.80598"><ele>23.51</ele></trkpt>
            <trkpt lat="39.44478" lon="-123.80595"><ele>24.02</ele></trkpt>
            <trkpt lat="39.44496" lon="-123.805945"><ele>24.14</ele></trkpt>
            <trkpt lat="39.4466" lon="-123.80592"><ele>24.64</ele></trkpt>
            <trkpt lat="39.4474" lon="-123.80593"><ele>24.64</ele></trkpt>
            <trkpt lat="39.44803" lon="-123.80593"><ele>24.46</ele></trkpt>
            <trkpt lat="39.44824" lon="-123.805927"><ele>24.36</ele></trkpt>
            <trkpt lat="39.44866" lon="-123.80592"><ele>24.07</ele></trkpt>
            <trkpt lat="39.44977" lon="-123.80591"><ele>23.12</ele></trkpt>
            <trkpt lat="39.45118" lon="-123.80589"><ele>21.82</ele></trkpt>
            <trkpt lat="39.45203" lon="-123.8059"><ele>20.81</ele></trkpt>
            <trkpt lat="39.45223" lon="-123.8059"><ele>20.48</ele></trkpt>
            <trkpt lat="39.452443" lon="-123.805885"><ele>20.02</ele></trkpt>
            <trkpt lat="39.45308" lon="-123.80584"><ele>18.38</ele></trkpt>
            <trkpt lat="39.454863" lon="-123.805577"><ele>13.32</ele></trkpt>
            <trkpt lat="39.45507" lon="-123.80555"><ele>12.83</ele></trkpt>
            <trkpt lat="39.45532" lon="-123.80554"><ele>12.35</ele></trkpt>
            <trkpt lat="39.455524" lon="-123.805562"><ele>12.04</ele></trkpt>
            <trkpt lat="39.4558" lon="-123.805625"><ele>11.69</ele></trkpt>
            <trkpt lat="39.45601" lon="-123.80568"><ele>11.44</ele></trkpt>
            <trkpt lat="39.456865" lon="-123.806005"><ele>10.46</ele></trkpt>
            <trkpt lat="39.45706" lon="-123.80607"><ele>10.24</ele></trkpt>
            <trkpt lat="39.45784" lon="-123.8063"><ele>9.39</ele></trkpt>
            <trkpt lat="39.45854" lon="-123.80645"><ele>8.95</ele></trkpt>
            <trkpt lat="39.45894" lon="-123.80651"><ele>8.96</ele></trkpt>
            <trkpt lat="39.45915" lon="-123.80653"><ele>9.09</ele></trkpt>
            <trkpt lat="39.45935" lon="-123.80654"><ele>9.31</ele></trkpt>
            <trkpt lat="39.45959" lon="-123.80653"><ele>9.66</ele></trkpt>
            <trkpt lat="39.4601" lon="-123.80647"><ele>10.55</ele></trkpt>
            <trkpt lat="39.46045" lon="-123.80641"><ele>11.16</ele></trkpt>
            <trkpt lat="39.46085" lon="-123.806317"><ele>11.81</ele></trkpt>
            <trkpt lat="39.46105" lon="-123.80627"><ele>12.09</ele></trkpt>
            <trkpt lat="39.46171" lon="-123.80614"><ele>12.87</ele></trkpt>
            <trkpt lat="39.46237" lon="-123.80602"><ele>13.48</ele></trkpt>
            <trkpt lat="39.46315" lon="-123.80576"><ele>14</ele></trkpt>
            <trkpt lat="39.46487" lon="-123.80507"><ele>14.64</ele></trkpt>
            <trkpt lat="39.46583" lon="-123.80458"><ele>14.78</ele></trkpt>
            <trkpt lat="39.46647" lon="-123.80419"><ele>14.79</ele></trkpt>
            <trkpt lat="39.46711" lon="-123.8038"><ele>14.8</ele></trkpt>
            <trkpt lat="39.46816" lon="-123.803213"><ele>14.88</ele></trkpt>
            <trkpt lat="39.468373" lon="-123.803043"><ele>14.9</ele></trkpt>
            <trkpt lat="39.468613" lon="-123.80273"><ele>14.92</ele></trkpt>
            <trkpt lat="39.468753" lon="-123.80251"><ele>14.92</ele></trkpt>
            <trkpt lat="39.46915" lon="-123.80188"><ele>14.83</ele></trkpt>
            <trkpt lat="39.46925" lon="-123.8017"><ele>14.78</ele></trkpt>
            <trkpt lat="39.469507" lon="-123.801007"><ele>14.46</ele></trkpt>
            <trkpt lat="39.46995" lon="-123.79984"><ele>13.58</ele></trkpt>
            <trkpt lat="39.47008" lon="-123.79958"><ele>13.27</ele></trkpt>
            <trkpt lat="39.47019" lon="-123.79939"><ele>12.97</ele></trkpt>
            <trkpt lat="39.4703" lon="-123.7992"><ele>12.63</ele></trkpt>
            <trkpt lat="39.47058" lon="-123.79884"><ele>11.87</ele></trkpt>
            <trkpt lat="39.47076" lon="-123.79864"><ele>11.47</ele></trkpt>
            <trkpt lat="39.47098" lon="-123.79842"><ele>11.16</ele></trkpt>
            <trkpt lat="39.47113" lon="-123.79831"><ele>11.08</ele></trkpt>
            <trkpt lat="39.471285" lon="-123.798225"><ele>11.12</ele></trkpt>
            <trkpt lat="39.47144" lon="-123.79814"><ele>11.27</ele></trkpt>
            <trkpt lat="39.471635" lon="-123.798045"><ele>11.59</ele></trkpt>
            <trkpt lat="39.471831" lon="-123.79795"><ele>12.06</ele></trkpt>
            <trkpt lat="39.471969" lon="-123.7979"><ele>12.44</ele></trkpt>
            <trkpt lat="39.47232" lon="-123.79783"><ele>13.51</ele></trkpt>
            <trkpt lat="39.472537" lon="-123.79781"><ele>14.18</ele></trkpt>
            <trkpt lat="39.47297" lon="-123.79777"><ele>15.42</ele></trkpt>
            <trkpt lat="39.473173" lon="-123.797768"><ele>15.91</ele></trkpt>
            <trkpt lat="39.47378" lon="-123.79776"><ele>17.04</ele></trkpt>
            <trkpt lat="39.47459" lon="-123.79774"><ele>18.02</ele></trkpt>
            <trkpt lat="39.47539" lon="-123.79773"><ele>18.66</ele></trkpt>
            <trkpt lat="39.47581" lon="-123.79778"><ele>18.93</ele></trkpt>
            <trkpt lat="39.47618" lon="-123.79785"><ele>19.15</ele></trkpt>
            <trkpt lat="39.476703" lon="-123.79792"><ele>19.49</ele></trkpt>
            <trkpt lat="39.477013" lon="-123.797921"><ele>19.73</ele></trkpt>
            <trkpt lat="39.477359" lon="-123.79784"><ele>20.03</ele></trkpt>
            <trkpt lat="39.47774" lon="-123.79764"><ele>20.34</ele></trkpt>
            <trkpt lat="39.47822" lon="-123.79732"><ele>20.6</ele></trkpt>
            <trkpt lat="39.4787" lon="-123.797"><ele>20.63</ele></trkpt>
            <trkpt lat="39.47955" lon="-123.79626"><ele>20.33</ele></trkpt>
            <trkpt lat="39.48003" lon="-123.795818"><ele>20.25</ele></trkpt>
            <trkpt lat="39.480353" lon="-123.79552"><ele>20.35</ele></trkpt>
            <trkpt lat="39.48149" lon="-123.79448"><ele>21.2</ele></trkpt>
            <trkpt lat="39.4821" lon="-123.79386"><ele>21.63</ele></trkpt>
            <trkpt lat="39.48293" lon="-123.79303"><ele>22.04</ele></trkpt>
            <trkpt lat="39.48353" lon="-123.79228"><ele>22.22</ele></trkpt>
            <trkpt lat="39.484" lon="-123.79164"><ele>22.13</ele></trkpt>
            <trkpt lat="39.48447" lon="-123.79099"><ele>21.62</ele></trkpt>
            <trkpt lat="39.484783" lon="-123.790563"><ele>20.89</ele></trkpt>
            <trkpt lat="39.48494" lon="-123.79035"><ele>20.32</ele></trkpt>
            <trkpt lat="39.485097" lon="-123.790137"><ele>19.56</ele></trkpt>
            <trkpt lat="39.48573" lon="-123.78925"><ele>15.68</ele></trkpt>
            <trkpt lat="39.486017" lon="-123.788857"><ele>13.82</ele></trkpt>
            <trkpt lat="39.48616" lon="-123.78866"><ele>12.91</ele></trkpt>
            <trkpt lat="39.48638" lon="-123.78842"><ele>11.74</ele></trkpt>
            <trkpt lat="39.48677" lon="-123.78812"><ele>10.24</ele></trkpt>
            <trkpt lat="39.48716" lon="-123.78782"><ele>9.34</ele></trkpt>
            <trkpt lat="39.48792" lon="-123.78736"><ele>9.04</ele></trkpt>
            <trkpt lat="39.4883" lon="-123.787153"><ele>9.6</ele></trkpt>
            <trkpt lat="39.48849" lon="-123.78705"><ele>10.17</ele></trkpt>
            <trkpt lat="39.48868" lon="-123.78693"><ele>10.98</ele></trkpt>
            <trkpt lat="39.48887" lon="-123.78681"><ele>11.99</ele></trkpt>
            <trkpt lat="39.48946" lon="-123.78636"><ele>15.76</ele></trkpt>
            <trkpt lat="39.48969" lon="-123.78617"><ele>17.25</ele></trkpt>
            <trkpt lat="39.49" lon="-123.78588"><ele>19.18</ele></trkpt>
            <trkpt lat="39.4904" lon="-123.78544"><ele>21.46</ele></trkpt>
            <trkpt lat="39.4908" lon="-123.78493"><ele>23.39</ele></trkpt>
            <trkpt lat="39.49148" lon="-123.78389"><ele>26.21</ele></trkpt>
            <trkpt lat="39.49197" lon="-123.78315"><ele>28.21</ele></trkpt>
            <trkpt lat="39.492145" lon="-123.78293"><ele>28.95</ele></trkpt>
            <trkpt lat="39.492447" lon="-123.782533"><ele>30.43</ele></trkpt>
            <trkpt lat="39.49307" lon="-123.78166"><ele>33.87</ele></trkpt>
            <trkpt lat="39.493309" lon="-123.781384"><ele>34.98</ele></trkpt>
            <trkpt lat="39.493422" lon="-123.781283"><ele>35.41</ele></trkpt>
            <trkpt lat="39.493682" lon="-123.781135"><ele>36.2</ele></trkpt>
            <trkpt lat="39.49399" lon="-123.78104"><ele>36.9</ele></trkpt>
            <trkpt lat="39.49418" lon="-123.78099"><ele>37.24</ele></trkpt>
            <trkpt lat="39.49511" lon="-123.78085"><ele>38.42</ele></trkpt>
            <trkpt lat="39.49573" lon="-123.78063"><ele>39.1</ele></trkpt>
            <trkpt lat="39.49635" lon="-123.78041"><ele>39.81</ele></trkpt>
            <trkpt lat="39.49682" lon="-123.78019"><ele>40.5</ele></trkpt>
            <trkpt lat="39.49727" lon="-123.77996"><ele>41.3</ele></trkpt>
            <trkpt lat="39.49753" lon="-123.77978"><ele>41.84</ele></trkpt>
            <trkpt lat="39.49795" lon="-123.7794"><ele>42.81</ele></trkpt>
            <trkpt lat="39.498162" lon="-123.779204"><ele>43.24</ele></trkpt>
            <trkpt lat="39.498342" lon="-123.779034"><ele>43.54</ele></trkpt>
            <trkpt lat="39.498472" lon="-123.778869"><ele>43.71</ele></trkpt>
            <trkpt lat="39.498536" lon="-123.778741"><ele>43.78</ele></trkpt>
            <trkpt lat="39.498573" lon="-123.778539"><ele>43.8</ele></trkpt>
            <trkpt lat="39.49857" lon="-123.77769"><ele>43.54</ele></trkpt>
            <trkpt lat="39.49855" lon="-123.7769"><ele>42.92</ele></trkpt>
            <trkpt lat="39.49853" lon="-123.7761"><ele>42.12</ele></trkpt>
            <trkpt lat="39.49851" lon="-123.775499"><ele>41.56</ele></trkpt>
            <trkpt lat="39.49852" lon="-123.775322"><ele>41.42</ele></trkpt>
            <trkpt lat="39.498541" lon="-123.775106"><ele>41.27</ele></trkpt>
            <trkpt lat="39.498619" lon="-123.774834"><ele>41.11</ele></trkpt>
            <trkpt lat="39.498723" lon="-123.774615"><ele>40.97</ele></trkpt>
            <trkpt lat="39.498787" lon="-123.774515"><ele>40.89</ele></trkpt>
            <trkpt lat="39.498932" lon="-123.774328"><ele>40.7</ele></trkpt>
            <trkpt lat="39.499027" lon="-123.774242"><ele>40.56</ele></trkpt>
            <trkpt lat="39.499253" lon="-123.774094"><ele>40.18</ele></trkpt>
            <trkpt lat="39.49942" lon="-123.77404"><ele>39.83</ele></trkpt>
            <trkpt lat="39.49962" lon="-123.77401"><ele>39.33</ele></trkpt>
            <trkpt lat="39.500082" lon="-123.774027"><ele>37.97</ele></trkpt>
            <trkpt lat="39.500259" lon="-123.774005"><ele>37.42</ele></trkpt>
            <trkpt lat="39.500348" lon="-123.773966"><ele>37.14</ele></trkpt>
            <trkpt lat="39.50087" lon="-123.77355"><ele>35.39</ele></trkpt>
            <trkpt lat="39.50154" lon="-123.77301"><ele>33.82</ele></trkpt>
            <trkpt lat="39.50186" lon="-123.77271"><ele>33.46</ele></trkpt>
            <trkpt lat="39.50203" lon="-123.77251"><ele>33.41</ele></trkpt>
            <trkpt lat="39.50233" lon="-123.77205"><ele>33.53</ele></trkpt>
            <trkpt lat="39.50247" lon="-123.77188"><ele>33.55</ele></trkpt>
            <trkpt lat="39.50278" lon="-123.77155"><ele>33.42</ele></trkpt>
            <trkpt lat="39.503388" lon="-123.770947"><ele>32.75</ele></trkpt>
            <trkpt lat="39.503572" lon="-123.770682"><ele>32.47</ele></trkpt>
            <trkpt lat="39.50396" lon="-123.77004"><ele>31.88</ele></trkpt>
            <trkpt lat="39.50451" lon="-123.76916"><ele>31.44</ele></trkpt>
            <trkpt lat="39.504923" lon="-123.7685"><ele>31.48</ele></trkpt>
            <trkpt lat="39.50506" lon="-123.76828"><ele>31.57</ele></trkpt>
            <trkpt lat="39.50537" lon="-123.76783"><ele>31.87</ele></trkpt>
            <trkpt lat="39.505485" lon="-123.767695"><ele>31.97</ele></trkpt>
            <trkpt lat="39.5056" lon="-123.76756"><ele>32.05</ele></trkpt>
            <trkpt lat="39.505733" lon="-123.76742"><ele>32.12</ele></trkpt>
            <trkpt lat="39.505867" lon="-123.76728"><ele>32.17</ele></trkpt>
            <trkpt lat="39.506" lon="-123.76714"><ele>32.22</ele></trkpt>
            <trkpt lat="39.50613" lon="-123.767003"><ele>32.26</ele></trkpt>
            <trkpt lat="39.50626" lon="-123.766867"><ele>32.31</ele></trkpt>
            <trkpt lat="39.506512" lon="-123.766614"><ele>32.46</ele></trkpt>
            <trkpt lat="39.50703" lon="-123.766121"><ele>32.78</ele></trkpt>
            <trkpt lat="39.507232" lon="-123.765954"><ele>32.78</ele></trkpt>
            <trkpt lat="39.507344" lon="-123.765895"><ele>32.7</ele></trkpt>
            <trkpt lat="39.507497" lon="-123.76584"><ele>32.5</ele></trkpt>
            <trkpt lat="39.507721" lon="-123.76578"><ele>31.97</ele></trkpt>
            <trkpt lat="39.507859" lon="-123.765743"><ele>31.5</ele></trkpt>
            <trkpt lat="39.508095" lon="-123.76567"><ele>30.46</ele></trkpt>
            <trkpt lat="39.50832" lon="-123.7656"><ele>29.27</ele></trkpt>
            <trkpt lat="39.50855" lon="-123.76549"><ele>27.94</ele></trkpt>
            <trkpt lat="39.50876" lon="-123.76536"><ele>26.75</ele></trkpt>
            <trkpt lat="39.5089" lon="-123.76524"><ele>26.04</ele></trkpt>
            <trkpt lat="39.509057" lon="-123.765065"><ele>25.43</ele></trkpt>
            <trkpt lat="39.509127" lon="-123.764986"><ele>25.27</ele></trkpt>
            <trkpt lat="39.509185" lon="-123.764922"><ele>25.21</ele></trkpt>
            <trkpt lat="39.509278" lon="-123.764836"><ele>25.21</ele></trkpt>
            <trkpt lat="39.509392" lon="-123.764764"><ele>25.35</ele></trkpt>
            <trkpt lat="39.509601" lon="-123.764702"><ele>25.87</ele></trkpt>
            <trkpt lat="39.509847" lon="-123.764683"><ele>26.78</ele></trkpt>
            <trkpt lat="39.5102" lon="-123.76467"><ele>28.34</ele></trkpt>
            <trkpt lat="39.510377" lon="-123.764663"><ele>29.1</ele></trkpt>
            <trkpt lat="39.51073" lon="-123.76465"><ele>30.36</ele></trkpt>
            <trkpt lat="39.51089" lon="-123.764635"><ele>30.74</ele></trkpt>
            <trkpt lat="39.51105" lon="-123.76462"><ele>30.95</ele></trkpt>
            <trkpt lat="39.51129" lon="-123.76458"><ele>30.96</ele></trkpt>
            <trkpt lat="39.511455" lon="-123.764545"><ele>30.78</ele></trkpt>
            <trkpt lat="39.51162" lon="-123.76451"><ele>30.49</ele></trkpt>
            <trkpt lat="39.511794" lon="-123.764456"><ele>30.09</ele></trkpt>
            <trkpt lat="39.512316" lon="-123.764294"><ele>28.84</ele></trkpt>
            <trkpt lat="39.51249" lon="-123.76424"><ele>28.57</ele></trkpt>
            <trkpt lat="39.51265" lon="-123.764183"><ele>28.47</ele></trkpt>
            <trkpt lat="39.51297" lon="-123.76407"><ele>28.62</ele></trkpt>
            <trkpt lat="39.51344" lon="-123.76391"><ele>29.44</ele></trkpt>
            <trkpt lat="39.51434" lon="-123.76362"><ele>31.77</ele></trkpt>
            <trkpt lat="39.514985" lon="-123.76344"><ele>33.32</ele></trkpt>
            <trkpt lat="39.5152" lon="-123.76338"><ele>33.65</ele></trkpt>
            <trkpt lat="39.515435" lon="-123.7633"><ele>33.79</ele></trkpt>
            <trkpt lat="39.51567" lon="-123.76322"><ele>33.67</ele></trkpt>
            <trkpt lat="39.51614" lon="-123.76306"><ele>32.96</ele></trkpt>
            <trkpt lat="39.51667" lon="-123.76292"><ele>31.84</ele></trkpt>
            <trkpt lat="39.5174" lon="-123.76269"><ele>30.16</ele></trkpt>
            <trkpt lat="39.51814" lon="-123.76246"><ele>28.68</ele></trkpt>
            <trkpt lat="39.518688" lon="-123.76228"><ele>27.83</ele></trkpt>
            <trkpt lat="39.51887" lon="-123.76222"><ele>27.61</ele></trkpt>
            <trkpt lat="39.51964" lon="-123.76199"><ele>26.78</ele></trkpt>
            <trkpt lat="39.519833" lon="-123.761935"><ele>26.5</ele></trkpt>
            <trkpt lat="39.520988" lon="-123.761598"><ele>24.19</ele></trkpt>
            <trkpt lat="39.52118" lon="-123.76154"><ele>23.7</ele></trkpt>
            <trkpt lat="39.52137" lon="-123.761485"><ele>23.16</ele></trkpt>
            <trkpt lat="39.52175" lon="-123.761375"><ele>22.05</ele></trkpt>
            <trkpt lat="39.52194" lon="-123.76132"><ele>21.62</ele></trkpt>
            <trkpt lat="39.522102" lon="-123.761246"><ele>21.37</ele></trkpt>
            <trkpt lat="39.522265" lon="-123.761171"><ele>21.27</ele></trkpt>
            <trkpt lat="39.52244" lon="-123.761091"><ele>21.36</ele></trkpt>
            <trkpt lat="39.522527" lon="-123.761053"><ele>21.47</ele></trkpt>
            <trkpt lat="39.5226" lon="-123.761025"><ele>21.6</ele></trkpt>
            <trkpt lat="39.52279" lon="-123.760991"><ele>22.03</ele></trkpt>
            <trkpt lat="39.522958" lon="-123.76099"><ele>22.49</ele></trkpt>
            <trkpt lat="39.52317" lon="-123.76101"><ele>23.14</ele></trkpt>
            <trkpt lat="39.52357" lon="-123.76105"><ele>24.33</ele></trkpt>
            <trkpt lat="39.52387" lon="-123.76103"><ele>25.07</ele></trkpt>
            <trkpt lat="39.52426" lon="-123.76095"><ele>25.74</ele></trkpt>
            <trkpt lat="39.52469" lon="-123.76082"><ele>26.09</ele></trkpt>
            <trkpt lat="39.52516" lon="-123.76064"><ele>25.99</ele></trkpt>
            <trkpt lat="39.52573" lon="-123.76039"><ele>25.22</ele></trkpt>
            <trkpt lat="39.525913" lon="-123.76031"><ele>24.8</ele></trkpt>
            <trkpt lat="39.526097" lon="-123.76023"><ele>24.26</ele></trkpt>
            <trkpt lat="39.52628" lon="-123.76015"><ele>23.64</ele></trkpt>
            <trkpt lat="39.526463" lon="-123.760073"><ele>22.99</ele></trkpt>
            <trkpt lat="39.526647" lon="-123.759997"><ele>22.38</ele></trkpt>
            <trkpt lat="39.526831" lon="-123.759919"><ele>21.86</ele></trkpt>
            <trkpt lat="39.527008" lon="-123.759824"><ele>21.52</ele></trkpt>
            <trkpt lat="39.527113" lon="-123.759766"><ele>21.41</ele></trkpt>
            <trkpt lat="39.527178" lon="-123.759726"><ele>21.4</ele></trkpt>
            <trkpt lat="39.527247" lon="-123.75967"><ele>21.42</ele></trkpt>
            <trkpt lat="39.52728" lon="-123.75964"><ele>21.45</ele></trkpt>
            <trkpt lat="39.527347" lon="-123.75958"><ele>21.55</ele></trkpt>
            <trkpt lat="39.527478" lon="-123.759478"><ele>21.86</ele></trkpt>
            <trkpt lat="39.527558" lon="-123.759419"><ele>22.11</ele></trkpt>
            <trkpt lat="39.52772" lon="-123.759315"><ele>22.72</ele></trkpt>
            <trkpt lat="39.527874" lon="-123.759218"><ele>23.39</ele></trkpt>
            <trkpt lat="39.527977" lon="-123.759172"><ele>23.83</ele></trkpt>
            <trkpt lat="39.528175" lon="-123.75912"><ele>24.64</ele></trkpt>
            <trkpt lat="39.528275" lon="-123.75911"><ele>25.01</ele></trkpt>
            <trkpt lat="39.52846" lon="-123.7591"><ele>25.61</ele></trkpt>
            <trkpt lat="39.528945" lon="-123.759182"><ele>26.76</ele></trkpt>
            <trkpt lat="39.529206" lon="-123.759215"><ele>27.09</ele></trkpt>
            <trkpt lat="39.52996" lon="-123.75914"><ele>27.3</ele></trkpt>
            <trkpt lat="39.53076" lon="-123.75907"><ele>27.07</ele></trkpt>
            <trkpt lat="39.53155" lon="-123.759"><ele>26.7</ele></trkpt>
        </trkseg>
    </trk>
</gpx>
