<?xml version="1.0" encoding="UTF-8"?>
<gpx version="1.1" creator="BikeTerra" xmlns="http://www.topografix.com/GPX/1/1" xmlns:biketerra="https://biketerra.com/xmlns/gpx/1">
    <metadata>
        <name>Genesee Loop</name>
        <extensions>
            <biketerra:version>2.0.0</biketerra:version>
            <biketerra:isLoop>true</biketerra:isLoop>
            <biketerra:defaultSurface>asphalt</biketerra:defaultSurface>
        </extensions>
    </metadata>
    <trk>
        <name>Genesee Loop</name>
        <trkseg>
            <trkpt lat="39.694429" lon="-105.2733466"><ele>2364.54</ele></trkpt>
            <trkpt lat="39.6942332" lon="-105.2734913"><ele>2363.84</ele></trkpt>
            <trkpt lat="39.6941029" lon="-105.2736094"><ele>2363.16</ele></trkpt>
            <trkpt lat="39.6939682" lon="-105.2737973"><ele>2362.12</ele></trkpt>
            <trkpt lat="39.6939052" lon="-105.2739379"><ele>2361.37</ele></trkpt>
            <trkpt lat="39.6938231" lon="-105.2742502"><ele>2359.63</ele></trkpt>
            <trkpt lat="39.6937956" lon="-105.2745732"><ele>2357.73</ele></trkpt>
            <trkpt lat="39.6937783" lon="-105.2747832"><ele>2356.43</ele></trkpt>
            <trkpt lat="39.693728" lon="-105.2750983"><ele>2354.41</ele></trkpt>
            <trkpt lat="39.6936551" lon="-105.2753547"><ele>2352.67</ele></trkpt>
            <trkpt lat="39.6936" lon="-105.2755174"><ele>2351.53</ele></trkpt>
            <trkpt lat="39.6934716" lon="-105.2758199"><ele>2349.28</ele></trkpt>
            <trkpt lat="39.6933438" lon="-105.2759902"><ele>2347.73</ele></trkpt>
            <trkpt lat="39.6932228" lon="-105.276101"><ele>2346.48</ele></trkpt>
            <trkpt lat="39.6931097" lon="-105.2761671"><ele>2345.43</ele></trkpt>
            <trkpt lat="39.6930205" lon="-105.2761826"><ele>2344.67</ele></trkpt>
            <trkpt lat="39.6929294" lon="-105.2761742"><ele>2343.9</ele></trkpt>
            <trkpt lat="39.6928374" lon="-105.2761455"><ele>2343.1</ele></trkpt>
            <trkpt lat="39.6927155" lon="-105.2760719"><ele>2341.97</ele></trkpt>
            <trkpt lat="39.6926324" lon="-105.2759883"><ele>2341.08</ele></trkpt>
            <trkpt lat="39.6922694" lon="-105.2754542"><ele>2336.43</ele></trkpt>
            <trkpt lat="39.6921956" lon="-105.2753569"><ele>2335.52</ele></trkpt>
            <trkpt lat="39.6919705" lon="-105.2752075"><ele>2333.3</ele></trkpt>
            <trkpt lat="39.6917749" lon="-105.2751561"><ele>2331.54</ele></trkpt>
            <trkpt lat="39.6916722" lon="-105.275176"><ele>2330.63</ele></trkpt>
            <trkpt lat="39.6915715" lon="-105.2752442"><ele>2329.63</ele></trkpt>
            <trkpt lat="39.6911788" lon="-105.2756712"><ele>2325.33</ele></trkpt>
            <trkpt lat="39.6909021" lon="-105.2759763"><ele>2322.77</ele></trkpt>
            <trkpt lat="39.6907309" lon="-105.2761719"><ele>2321.58</ele></trkpt>
            <trkpt lat="39.6907116" lon="-105.2762168"><ele>2321.41</ele></trkpt>
            <trkpt lat="39.6907092" lon="-105.2762742"><ele>2321.24</ele></trkpt>
            <trkpt lat="39.6907602" lon="-105.276547"><ele>2320.52</ele></trkpt>
            <trkpt lat="39.6907707" lon="-105.276816"><ele>2319.92</ele></trkpt>
            <trkpt lat="39.6907154" lon="-105.2770765"><ele>2319.23</ele></trkpt>
            <trkpt lat="39.6906422" lon="-105.2774015"><ele>2318.06</ele></trkpt>
            <trkpt lat="39.6906187" lon="-105.2775007"><ele>2317.6</ele></trkpt>
            <trkpt lat="39.6905662" lon="-105.2776805"><ele>2316.64</ele></trkpt>
            <trkpt lat="39.6903589" lon="-105.2783821"><ele>2312.13</ele></trkpt>
            <trkpt lat="39.6903481" lon="-105.2784647"><ele>2311.62</ele></trkpt>
            <trkpt lat="39.6903619" lon="-105.2786076"><ele>2310.76</ele></trkpt>
            <trkpt lat="39.6904124" lon="-105.2787569"><ele>2309.82</ele></trkpt>
            <trkpt lat="39.6907255" lon="-105.279343"><ele>2305.96</ele></trkpt>
            <trkpt lat="39.6908805" lon="-105.2799216"><ele>2302.9</ele></trkpt>
            <trkpt lat="39.69095" lon="-105.28019"><ele>2301.68</ele></trkpt>
            <trkpt lat="39.691016" lon="-105.280445"><ele>2300.76</ele></trkpt>
            <trkpt lat="39.6911479" lon="-105.2809544"><ele>2299.47</ele></trkpt>
            <trkpt lat="39.6913535" lon="-105.2815146"><ele>2298.44</ele></trkpt>
            <trkpt lat="39.6913489" lon="-105.281653"><ele>2298.23</ele></trkpt>
            <trkpt lat="39.6912951" lon="-105.2818057"><ele>2297.97</ele></trkpt>
            <trkpt lat="39.6912367" lon="-105.2818571"><ele>2297.82</ele></trkpt>
            <trkpt lat="39.6911369" lon="-105.2818838"><ele>2297.6</ele></trkpt>
            <trkpt lat="39.6905882" lon="-105.2818401"><ele>2296.24</ele></trkpt>
            <trkpt lat="39.6904555" lon="-105.2818494"><ele>2295.79</ele></trkpt>
            <trkpt lat="39.6903354" lon="-105.2818856"><ele>2295.3</ele></trkpt>
            <trkpt lat="39.6901564" lon="-105.2820069"><ele>2294.33</ele></trkpt>
            <trkpt lat="39.6898481" lon="-105.2822339"><ele>2292.28</ele></trkpt>
            <trkpt lat="39.6896102" lon="-105.2823157"><ele>2290.56</ele></trkpt>
            <trkpt lat="39.6893081" lon="-105.2824136"><ele>2287.99</ele></trkpt>
            <trkpt lat="39.6891069" lon="-105.2825473"><ele>2285.86</ele></trkpt>
            <trkpt lat="39.6881673" lon="-105.2832382"><ele>2274.59</ele></trkpt>
            <trkpt lat="39.6879191" lon="-105.2834227"><ele>2271.63</ele></trkpt>
            <trkpt lat="39.6876225" lon="-105.2836938"><ele>2267.92</ele></trkpt>
            <trkpt lat="39.6875084" lon="-105.283856"><ele>2266.15</ele></trkpt>
            <trkpt lat="39.6874163" lon="-105.2840397"><ele>2264.33</ele></trkpt>
            <trkpt lat="39.6873515" lon="-105.2842335"><ele>2262.5</ele></trkpt>
            <trkpt lat="39.6873296" lon="-105.2843356"><ele>2261.57</ele></trkpt>
            <trkpt lat="39.6873102" lon="-105.2844437"><ele>2260.57</ele></trkpt>
            <trkpt lat="39.6872965" lon="-105.2847124"><ele>2258.13</ele></trkpt>
            <trkpt lat="39.6872992" lon="-105.2847925"><ele>2257.41</ele></trkpt>
            <trkpt lat="39.6873133" lon="-105.2849269"><ele>2256.18</ele></trkpt>
            <trkpt lat="39.6873854" lon="-105.2852106"><ele>2253.5</ele></trkpt>
            <trkpt lat="39.687443" lon="-105.2853688"><ele>2251.97</ele></trkpt>
            <trkpt lat="39.68764" lon="-105.28584"><ele>2247.36</ele></trkpt>
            <trkpt lat="39.6877057" lon="-105.2859971"><ele>2245.88</ele></trkpt>
            <trkpt lat="39.687837" lon="-105.2863112"><ele>2243.07</ele></trkpt>
            <trkpt lat="39.6879298" lon="-105.2865429"><ele>2241.17</ele></trkpt>
            <trkpt lat="39.6880281" lon="-105.2868608"><ele>2238.92</ele></trkpt>
            <trkpt lat="39.6880562" lon="-105.2870948"><ele>2237.48</ele></trkpt>
            <trkpt lat="39.6880529" lon="-105.2872938"><ele>2236.35</ele></trkpt>
            <trkpt lat="39.6880062" lon="-105.2875362"><ele>2234.98</ele></trkpt>
            <trkpt lat="39.6878894" lon="-105.2877975"><ele>2233.41</ele></trkpt>
            <trkpt lat="39.6877936" lon="-105.2879427"><ele>2232.48</ele></trkpt>
            <trkpt lat="39.6876611" lon="-105.2880991"><ele>2231.47</ele></trkpt>
            <trkpt lat="39.6874711" lon="-105.2882605"><ele>2230.45</ele></trkpt>
            <trkpt lat="39.6872234" lon="-105.2883998"><ele>2229.73</ele></trkpt>
            <trkpt lat="39.6870148" lon="-105.2885606"><ele>2229.62</ele></trkpt>
            <trkpt lat="39.6868875" lon="-105.2887001"><ele>2229.84</ele></trkpt>
            <trkpt lat="39.6868267" lon="-105.2887806"><ele>2230.04</ele></trkpt>
            <trkpt lat="39.6867201" lon="-105.2889629"><ele>2230.56</ele></trkpt>
            <trkpt lat="39.6866425" lon="-105.2891349"><ele>2231.08</ele></trkpt>
            <trkpt lat="39.6865693" lon="-105.289369"><ele>2231.75</ele></trkpt>
            <trkpt lat="39.6865247" lon="-105.289668"><ele>2232.53</ele></trkpt>
            <trkpt lat="39.686543" lon="-105.2899767"><ele>2233.34</ele></trkpt>
            <trkpt lat="39.6866034" lon="-105.290267"><ele>2234.23</ele></trkpt>
            <trkpt lat="39.6866967" lon="-105.2906133"><ele>2235.59</ele></trkpt>
            <trkpt lat="39.6867895" lon="-105.2909582"><ele>2237.29</ele></trkpt>
            <trkpt lat="39.6868656" lon="-105.2912408"><ele>2238.99</ele></trkpt>
            <trkpt lat="39.6869808" lon="-105.2916708"><ele>2241.96</ele></trkpt>
            <trkpt lat="39.6870002" lon="-105.2917854"><ele>2242.77</ele></trkpt>
            <trkpt lat="39.6870073" lon="-105.2919648"><ele>2244.03</ele></trkpt>
            <trkpt lat="39.6869739" lon="-105.292242"><ele>2246</ele></trkpt>
            <trkpt lat="39.686895" lon="-105.2925188"><ele>2248.06</ele></trkpt>
            <trkpt lat="39.6868351" lon="-105.2926474"><ele>2249.09</ele></trkpt>
            <trkpt lat="39.6867696" lon="-105.2927297"><ele>2249.88</ele></trkpt>
            <trkpt lat="39.6866398" lon="-105.2928437"><ele>2251.2</ele></trkpt>
            <trkpt lat="39.6861233" lon="-105.2931233"><ele>2255.58</ele></trkpt>
            <trkpt lat="39.6859339" lon="-105.2932916"><ele>2257.16</ele></trkpt>
            <trkpt lat="39.6858629" lon="-105.2933752"><ele>2257.73</ele></trkpt>
            <trkpt lat="39.6857819" lon="-105.293586"><ele>2258.61</ele></trkpt>
            <trkpt lat="39.685758" lon="-105.2938654"><ele>2259.27</ele></trkpt>
            <trkpt lat="39.6857557" lon="-105.2940867"><ele>2259.47</ele></trkpt>
            <trkpt lat="39.6857814" lon="-105.2943767"><ele>2259.36</ele></trkpt>
            <trkpt lat="39.6857845" lon="-105.2945224"><ele>2259.17</ele></trkpt>
            <trkpt lat="39.6857632" lon="-105.2946793"><ele>2258.86</ele></trkpt>
            <trkpt lat="39.6857254" lon="-105.294818"><ele>2258.48</ele></trkpt>
            <trkpt lat="39.6856775" lon="-105.2949303"><ele>2258.07</ele></trkpt>
            <trkpt lat="39.685611" lon="-105.2950292"><ele>2257.55</ele></trkpt>
            <trkpt lat="39.6855274" lon="-105.2951194"><ele>2256.89</ele></trkpt>
            <trkpt lat="39.6854688" lon="-105.2951728"><ele>2256.39</ele></trkpt>
            <trkpt lat="39.6853809" lon="-105.2952411"><ele>2255.61</ele></trkpt>
            <trkpt lat="39.6850989" lon="-105.2954435"><ele>2252.71</ele></trkpt>
            <trkpt lat="39.6847072" lon="-105.295659"><ele>2248.53</ele></trkpt>
            <trkpt lat="39.6845309" lon="-105.2957429"><ele>2246.73</ele></trkpt>
            <trkpt lat="39.6844185" lon="-105.2957624"><ele>2245.69</ele></trkpt>
            <trkpt lat="39.6843189" lon="-105.2957495"><ele>2244.8</ele></trkpt>
            <trkpt lat="39.6842282" lon="-105.2956995"><ele>2243.94</ele></trkpt>
            <trkpt lat="39.6841455" lon="-105.2956156"><ele>2243.06</ele></trkpt>
            <trkpt lat="39.684019" lon="-105.2954086"><ele>2241.39</ele></trkpt>
            <trkpt lat="39.6839615" lon="-105.2952697"><ele>2240.42</ele></trkpt>
            <trkpt lat="39.6839032" lon="-105.2950478"><ele>2239</ele></trkpt>
            <trkpt lat="39.6838941" lon="-105.2948703"><ele>2237.96</ele></trkpt>
            <trkpt lat="39.6839066" lon="-105.2947455"><ele>2237.27</ele></trkpt>
            <trkpt lat="39.6839469" lon="-105.2944569"><ele>2235.83</ele></trkpt>
            <trkpt lat="39.683999" lon="-105.2942874"><ele>2235.11</ele></trkpt>
            <trkpt lat="39.6841515" lon="-105.2938739"><ele>2233.94</ele></trkpt>
            <trkpt lat="39.6842434" lon="-105.2936219"><ele>2233.72</ele></trkpt>
            <trkpt lat="39.68429" lon="-105.29342"><ele>2233.85</ele></trkpt>
            <trkpt lat="39.684311" lon="-105.2932999"><ele>2234.04</ele></trkpt>
            <trkpt lat="39.6843185" lon="-105.2931721"><ele>2234.32</ele></trkpt>
            <trkpt lat="39.6843018" lon="-105.2929344"><ele>2234.98</ele></trkpt>
            <trkpt lat="39.684252" lon="-105.292646"><ele>2235.89</ele></trkpt>
            <trkpt lat="39.6842214" lon="-105.2924684"><ele>2236.4</ele></trkpt>
            <trkpt lat="39.6841972" lon="-105.2922154"><ele>2236.91</ele></trkpt>
            <trkpt lat="39.6841726" lon="-105.2919407"><ele>2237.11</ele></trkpt>
            <trkpt lat="39.6841638" lon="-105.2918004"><ele>2237.03</ele></trkpt>
            <trkpt lat="39.6841765" lon="-105.2916076"><ele>2236.73</ele></trkpt>
            <trkpt lat="39.6842311" lon="-105.2912433"><ele>2235.65</ele></trkpt>
            <trkpt lat="39.68428" lon="-105.29105"><ele>2234.87</ele></trkpt>
            <trkpt lat="39.6843282" lon="-105.2908585"><ele>2234.01</ele></trkpt>
            <trkpt lat="39.6843777" lon="-105.2904889"><ele>2232.34</ele></trkpt>
            <trkpt lat="39.68438" lon="-105.2901793"><ele>2231.04</ele></trkpt>
            <trkpt lat="39.6843906" lon="-105.28993"><ele>2230.09</ele></trkpt>
            <trkpt lat="39.6844457" lon="-105.2897163"><ele>2229.29</ele></trkpt>
            <trkpt lat="39.6845356" lon="-105.2895779"><ele>2228.67</ele></trkpt>
            <trkpt lat="39.6846612" lon="-105.2894908"><ele>2228.02</ele></trkpt>
            <trkpt lat="39.6848101" lon="-105.2894763"><ele>2227.29</ele></trkpt>
            <trkpt lat="39.6849277" lon="-105.2895044"><ele>2226.66</ele></trkpt>
            <trkpt lat="39.6852409" lon="-105.2896742"><ele>2224.7</ele></trkpt>
            <trkpt lat="39.6853405" lon="-105.2896973"><ele>2224.08</ele></trkpt>
            <trkpt lat="39.6854204" lon="-105.2896972"><ele>2223.58</ele></trkpt>
            <trkpt lat="39.6855314" lon="-105.2896595"><ele>2222.84</ele></trkpt>
            <trkpt lat="39.6856444" lon="-105.289557"><ele>2221.93</ele></trkpt>
            <trkpt lat="39.685706" lon="-105.2894453"><ele>2221.2</ele></trkpt>
            <trkpt lat="39.6857432" lon="-105.2892883"><ele>2220.28</ele></trkpt>
            <trkpt lat="39.6857394" lon="-105.2891408"><ele>2219.4</ele></trkpt>
            <trkpt lat="39.6857219" lon="-105.2890614"><ele>2218.89</ele></trkpt>
            <trkpt lat="39.6856588" lon="-105.2889225"><ele>2217.84</ele></trkpt>
            <trkpt lat="39.685284" lon="-105.288416"><ele>2212.96</ele></trkpt>
            <trkpt lat="39.6851519" lon="-105.2882245"><ele>2211.3</ele></trkpt>
            <trkpt lat="39.6850377" lon="-105.2880266"><ele>2209.94</ele></trkpt>
            <trkpt lat="39.6849683" lon="-105.2878887"><ele>2209.21</ele></trkpt>
            <trkpt lat="39.6849026" lon="-105.2877503"><ele>2208.66</ele></trkpt>
            <trkpt lat="39.6848724" lon="-105.2876681"><ele>2208.43</ele></trkpt>
            <trkpt lat="39.6847605" lon="-105.2873373"><ele>2208.11</ele></trkpt>
            <trkpt lat="39.6846868" lon="-105.287121"><ele>2208.42</ele></trkpt>
            <trkpt lat="39.6846384" lon="-105.2870233"><ele>2208.73</ele></trkpt>
            <trkpt lat="39.6845272" lon="-105.2869011"><ele>2209.44</ele></trkpt>
            <trkpt lat="39.6844514" lon="-105.2868442"><ele>2209.96</ele></trkpt>
            <trkpt lat="39.6842299" lon="-105.2867453"><ele>2211.56</ele></trkpt>
            <trkpt lat="39.6837246" lon="-105.2866689"><ele>2215.23</ele></trkpt>
            <trkpt lat="39.6833725" lon="-105.2865708"><ele>2217.59</ele></trkpt>
            <trkpt lat="39.6832632" lon="-105.2864974"><ele>2218.37</ele></trkpt>
            <trkpt lat="39.6831618" lon="-105.2864051"><ele>2219.18</ele></trkpt>
            <trkpt lat="39.6830452" lon="-105.2862757"><ele>2220.23</ele></trkpt>
            <trkpt lat="39.6829201" lon="-105.2861008"><ele>2221.59</ele></trkpt>
            <trkpt lat="39.6828846" lon="-105.2860361"><ele>2222.07</ele></trkpt>
            <trkpt lat="39.68284" lon="-105.2859293"><ele>2222.83</ele></trkpt>
            <trkpt lat="39.6827631" lon="-105.2856554"><ele>2224.76</ele></trkpt>
            <trkpt lat="39.6827416" lon="-105.2855477"><ele>2225.52</ele></trkpt>
            <trkpt lat="39.682724" lon="-105.2854508"><ele>2226.22</ele></trkpt>
            <trkpt lat="39.6826373" lon="-105.2849764"><ele>2229.7</ele></trkpt>
            <trkpt lat="39.6826125" lon="-105.2848871"><ele>2230.38</ele></trkpt>
            <trkpt lat="39.6824973" lon="-105.2845922"><ele>2232.77</ele></trkpt>
            <trkpt lat="39.6823961" lon="-105.284414"><ele>2234.33</ele></trkpt>
            <trkpt lat="39.6822156" lon="-105.2841083"><ele>2236.77</ele></trkpt>
            <trkpt lat="39.6821294" lon="-105.2839622"><ele>2237.67</ele></trkpt>
            <trkpt lat="39.6820428" lon="-105.2838058"><ele>2238.3</ele></trkpt>
            <trkpt lat="39.6820075" lon="-105.2837829"><ele>2238.41</ele></trkpt>
            <trkpt lat="39.681974" lon="-105.2837895"><ele>2238.48</ele></trkpt>
            <trkpt lat="39.6818559" lon="-105.2839069"><ele>2238.58</ele></trkpt>
            <trkpt lat="39.6816347" lon="-105.2841178"><ele>2237.93</ele></trkpt>
            <trkpt lat="39.6815096" lon="-105.2842152"><ele>2237.25</ele></trkpt>
            <trkpt lat="39.6814386" lon="-105.2842581"><ele>2236.8</ele></trkpt>
            <trkpt lat="39.6812941" lon="-105.2843197"><ele>2235.8</ele></trkpt>
            <trkpt lat="39.6810982" lon="-105.2843896"><ele>2234.32</ele></trkpt>
            <trkpt lat="39.6809134" lon="-105.2844294"><ele>2232.87</ele></trkpt>
            <trkpt lat="39.680821" lon="-105.2844376"><ele>2232.13</ele></trkpt>
            <trkpt lat="39.6807087" lon="-105.2844298"><ele>2231.2</ele></trkpt>
            <trkpt lat="39.6806054" lon="-105.2844071"><ele>2230.3</ele></trkpt>
            <trkpt lat="39.6805157" lon="-105.284371"><ele>2229.45</ele></trkpt>
            <trkpt lat="39.6803585" lon="-105.2842749"><ele>2227.79</ele></trkpt>
            <trkpt lat="39.6800096" lon="-105.2839196"><ele>2223.22</ele></trkpt>
            <trkpt lat="39.6796408" lon="-105.2835423"><ele>2218.24</ele></trkpt>
            <trkpt lat="39.6794526" lon="-105.2833752"><ele>2215.87</ele></trkpt>
            <trkpt lat="39.6793241" lon="-105.283281"><ele>2214.37</ele></trkpt>
            <trkpt lat="39.6790596" lon="-105.2831244"><ele>2211.5</ele></trkpt>
            <trkpt lat="39.6787628" lon="-105.2829486"><ele>2208.46</ele></trkpt>
            <trkpt lat="39.6786323" lon="-105.2828657"><ele>2207.21</ele></trkpt>
            <trkpt lat="39.6785076" lon="-105.2827327"><ele>2205.93</ele></trkpt>
            <trkpt lat="39.6784607" lon="-105.2826063"><ele>2205.14</ele></trkpt>
            <trkpt lat="39.6784382" lon="-105.2824843"><ele>2204.47</ele></trkpt>
            <trkpt lat="39.6784281" lon="-105.2823191"><ele>2203.64</ele></trkpt>
            <trkpt lat="39.6784009" lon="-105.2818421"><ele>2201.53</ele></trkpt>
            <trkpt lat="39.6783495" lon="-105.2815981"><ele>2200.67</ele></trkpt>
            <trkpt lat="39.6782543" lon="-105.2812769"><ele>2199.93</ele></trkpt>
            <trkpt lat="39.6781885" lon="-105.2810032"><ele>2199.77</ele></trkpt>
            <trkpt lat="39.6782046" lon="-105.280842"><ele>2199.89</ele></trkpt>
            <trkpt lat="39.6782749" lon="-105.2807111"><ele>2200.16</ele></trkpt>
            <trkpt lat="39.6783429" lon="-105.2806477"><ele>2200.42</ele></trkpt>
            <trkpt lat="39.6784103" lon="-105.2806107"><ele>2200.71</ele></trkpt>
            <trkpt lat="39.6785886" lon="-105.2805524"><ele>2201.64</ele></trkpt>
            <trkpt lat="39.6795527" lon="-105.2805441"><ele>2207.97</ele></trkpt>
            <trkpt lat="39.6802071" lon="-105.2805393"><ele>2212.21</ele></trkpt>
            <trkpt lat="39.6803613" lon="-105.2805102"><ele>2213.03</ele></trkpt>
            <trkpt lat="39.6804596" lon="-105.2804453"><ele>2213.5</ele></trkpt>
            <trkpt lat="39.6805431" lon="-105.2803236"><ele>2213.91</ele></trkpt>
            <trkpt lat="39.6806101" lon="-105.2800676"><ele>2214.32</ele></trkpt>
            <trkpt lat="39.6806032" lon="-105.2798406"><ele>2214.42</ele></trkpt>
            <trkpt lat="39.6805558" lon="-105.2796927"><ele>2214.37</ele></trkpt>
            <trkpt lat="39.6805197" lon="-105.2796259"><ele>2214.32</ele></trkpt>
            <trkpt lat="39.6804767" lon="-105.2795671"><ele>2214.26</ele></trkpt>
            <trkpt lat="39.6803766" lon="-105.279479"><ele>2214.11</ele></trkpt>
            <trkpt lat="39.6802029" lon="-105.2794189"><ele>2213.88</ele></trkpt>
            <trkpt lat="39.6796765" lon="-105.2793301"><ele>2213.28</ele></trkpt>
            <trkpt lat="39.679421" lon="-105.2792456"><ele>2213.04</ele></trkpt>
            <trkpt lat="39.6793007" lon="-105.2791811"><ele>2212.92</ele></trkpt>
            <trkpt lat="39.6791828" lon="-105.2790882"><ele>2212.78</ele></trkpt>
            <trkpt lat="39.678993" lon="-105.2788734"><ele>2212.5</ele></trkpt>
            <trkpt lat="39.6788897" lon="-105.2787048"><ele>2212.31</ele></trkpt>
            <trkpt lat="39.6787776" lon="-105.2784401"><ele>2212.03</ele></trkpt>
            <trkpt lat="39.6786569" lon="-105.2780384"><ele>2211.64</ele></trkpt>
            <trkpt lat="39.6785897" lon="-105.2776752"><ele>2211.24</ele></trkpt>
            <trkpt lat="39.6785604" lon="-105.2773916"><ele>2210.8</ele></trkpt>
            <trkpt lat="39.6785516" lon="-105.2770085"><ele>2210</ele></trkpt>
            <trkpt lat="39.6785969" lon="-105.2763164"><ele>2208.33</ele></trkpt>
            <trkpt lat="39.6785923" lon="-105.2761156"><ele>2207.99</ele></trkpt>
            <trkpt lat="39.678566" lon="-105.2759905"><ele>2207.86</ele></trkpt>
            <trkpt lat="39.6784766" lon="-105.2758665"><ele>2207.77</ele></trkpt>
            <trkpt lat="39.6783105" lon="-105.275775"><ele>2207.79</ele></trkpt>
            <trkpt lat="39.678223" lon="-105.2757592"><ele>2207.84</ele></trkpt>
            <trkpt lat="39.6778326" lon="-105.275749"><ele>2208.07</ele></trkpt>
            <trkpt lat="39.6776893" lon="-105.2756943"><ele>2208.05</ele></trkpt>
            <trkpt lat="39.6775275" lon="-105.2755658"><ele>2207.85</ele></trkpt>
            <trkpt lat="39.677425" lon="-105.2753585"><ele>2207.39</ele></trkpt>
            <trkpt lat="39.6772619" lon="-105.2749716"><ele>2205.94</ele></trkpt>
            <trkpt lat="39.6771808" lon="-105.2747776"><ele>2204.93</ele></trkpt>
            <trkpt lat="39.6771374" lon="-105.274639"><ele>2204.13</ele></trkpt>
            <trkpt lat="39.6770822" lon="-105.2744144"><ele>2202.73</ele></trkpt>
            <trkpt lat="39.6770636" lon="-105.274282"><ele>2201.89</ele></trkpt>
            <trkpt lat="39.6770619" lon="-105.2739215"><ele>2199.6</ele></trkpt>
            <trkpt lat="39.6771006" lon="-105.2736335"><ele>2197.81</ele></trkpt>
            <trkpt lat="39.6771427" lon="-105.2734612"><ele>2196.78</ele></trkpt>
            <trkpt lat="39.6772034" lon="-105.2732952"><ele>2195.84</ele></trkpt>
            <trkpt lat="39.6772487" lon="-105.273171"><ele>2195.23</ele></trkpt>
            <trkpt lat="39.6772913" lon="-105.2730221"><ele>2194.65</ele></trkpt>
            <trkpt lat="39.6773054" lon="-105.2728781"><ele>2194.26</ele></trkpt>
            <trkpt lat="39.6772943" lon="-105.2726976"><ele>2193.99</ele></trkpt>
            <trkpt lat="39.6772694" lon="-105.2725764"><ele>2193.96</ele></trkpt>
            <trkpt lat="39.6772236" lon="-105.2724635"><ele>2194.05</ele></trkpt>
            <trkpt lat="39.676975" lon="-105.2718776"><ele>2195.73</ele></trkpt>
            <trkpt lat="39.6769052" lon="-105.2717125"><ele>2196.48</ele></trkpt>
            <trkpt lat="39.6768611" lon="-105.2715857"><ele>2197.14</ele></trkpt>
            <trkpt lat="39.6768314" lon="-105.2714582"><ele>2197.85</ele></trkpt>
            <trkpt lat="39.6767723" lon="-105.2711924"><ele>2199.47</ele></trkpt>
            <trkpt lat="39.6767521" lon="-105.2710102"><ele>2200.64</ele></trkpt>
            <trkpt lat="39.6767527" lon="-105.2708799"><ele>2201.48</ele></trkpt>
            <trkpt lat="39.6767882" lon="-105.2705591"><ele>2203.61</ele></trkpt>
            <trkpt lat="39.6767933" lon="-105.2703532"><ele>2204.96</ele></trkpt>
            <trkpt lat="39.6767377" lon="-105.269981"><ele>2207.45</ele></trkpt>
            <trkpt lat="39.6767099" lon="-105.2697982"><ele>2208.68</ele></trkpt>
            <trkpt lat="39.67667" lon="-105.2694401"><ele>2211.12</ele></trkpt>
            <trkpt lat="39.6766436" lon="-105.2691709"><ele>2212.97</ele></trkpt>
            <trkpt lat="39.6765864" lon="-105.2685444"><ele>2217.3</ele></trkpt>
            <trkpt lat="39.6765053" lon="-105.267657"><ele>2223.45</ele></trkpt>
            <trkpt lat="39.6764913" lon="-105.267503"><ele>2224.52</ele></trkpt>
            <trkpt lat="39.6764809" lon="-105.267348"><ele>2225.57</ele></trkpt>
            <trkpt lat="39.676481" lon="-105.2671239"><ele>2227.05</ele></trkpt>
            <trkpt lat="39.6764907" lon="-105.2670319"><ele>2227.63</ele></trkpt>
            <trkpt lat="39.6765813" lon="-105.2667244"><ele>2229.51</ele></trkpt>
            <trkpt lat="39.6766454" lon="-105.2665801"><ele>2230.3</ele></trkpt>
            <trkpt lat="39.6767497" lon="-105.2663483"><ele>2231.26</ele></trkpt>
            <trkpt lat="39.6768127" lon="-105.2662049"><ele>2231.63</ele></trkpt>
            <trkpt lat="39.6768571" lon="-105.2660512"><ele>2231.82</ele></trkpt>
            <trkpt lat="39.6769014" lon="-105.2658552"><ele>2231.84</ele></trkpt>
            <trkpt lat="39.6769328" lon="-105.265655"><ele>2231.67</ele></trkpt>
            <trkpt lat="39.6769789" lon="-105.2653218"><ele>2231.13</ele></trkpt>
            <trkpt lat="39.6770278" lon="-105.2650964"><ele>2230.68</ele></trkpt>
            <trkpt lat="39.677095" lon="-105.2649386"><ele>2230.34</ele></trkpt>
            <trkpt lat="39.6772845" lon="-105.2646259"><ele>2229.68</ele></trkpt>
            <trkpt lat="39.6773148" lon="-105.2645256"><ele>2229.53</ele></trkpt>
            <trkpt lat="39.6773413" lon="-105.2643472"><ele>2229.34</ele></trkpt>
            <trkpt lat="39.6773362" lon="-105.2641999"><ele>2229.23</ele></trkpt>
            <trkpt lat="39.6772789" lon="-105.2640221"><ele>2229.19</ele></trkpt>
            <trkpt lat="39.677175" lon="-105.2638178"><ele>2229.3</ele></trkpt>
            <trkpt lat="39.677096" lon="-105.2636555"><ele>2229.55</ele></trkpt>
            <trkpt lat="39.6770691" lon="-105.2635558"><ele>2229.76</ele></trkpt>
            <trkpt lat="39.6770735" lon="-105.2634536"><ele>2230.01</ele></trkpt>
            <trkpt lat="39.6771201" lon="-105.2633486"><ele>2230.37</ele></trkpt>
            <trkpt lat="39.6773273" lon="-105.2631151"><ele>2231.78</ele></trkpt>
            <trkpt lat="39.6774333" lon="-105.262958"><ele>2232.81</ele></trkpt>
            <trkpt lat="39.6775398" lon="-105.2627348"><ele>2234.26</ele></trkpt>
            <trkpt lat="39.6776196" lon="-105.262465"><ele>2235.95</ele></trkpt>
            <trkpt lat="39.6776541" lon="-105.2621416"><ele>2237.86</ele></trkpt>
            <trkpt lat="39.6776485" lon="-105.2619569"><ele>2238.93</ele></trkpt>
            <trkpt lat="39.6775764" lon="-105.2613462"><ele>2242.42</ele></trkpt>
            <trkpt lat="39.6776018" lon="-105.2610432"><ele>2244.17</ele></trkpt>
            <trkpt lat="39.6776668" lon="-105.2607534"><ele>2246</ele></trkpt>
            <trkpt lat="39.677798" lon="-105.2603275"><ele>2248.99</ele></trkpt>
            <trkpt lat="39.6778819" lon="-105.2600555"><ele>2251.01</ele></trkpt>
            <trkpt lat="39.6780213" lon="-105.2595901"><ele>2254.54</ele></trkpt>
            <trkpt lat="39.6780676" lon="-105.2593898"><ele>2256.01</ele></trkpt>
            <trkpt lat="39.6780983" lon="-105.2590511"><ele>2258.39</ele></trkpt>
            <trkpt lat="39.6780982" lon="-105.2589106"><ele>2259.36</ele></trkpt>
            <trkpt lat="39.6780929" lon="-105.258512"><ele>2262.08</ele></trkpt>
            <trkpt lat="39.6780971" lon="-105.2582696"><ele>2263.7</ele></trkpt>
            <trkpt lat="39.6781647" lon="-105.2579526"><ele>2265.84</ele></trkpt>
            <trkpt lat="39.6782532" lon="-105.2577942"><ele>2267.07</ele></trkpt>
            <trkpt lat="39.6783363" lon="-105.2577225"><ele>2267.86</ele></trkpt>
            <trkpt lat="39.6784387" lon="-105.2576821"><ele>2268.69</ele></trkpt>
            <trkpt lat="39.6785399" lon="-105.2576626"><ele>2269.47</ele></trkpt>
            <trkpt lat="39.6786399" lon="-105.2576617"><ele>2270.22</ele></trkpt>
            <trkpt lat="39.6787739" lon="-105.2577256"><ele>2271.3</ele></trkpt>
            <trkpt lat="39.6788478" lon="-105.2578033"><ele>2272.02</ele></trkpt>
            <trkpt lat="39.6789156" lon="-105.2579078"><ele>2272.85</ele></trkpt>
            <trkpt lat="39.6789751" lon="-105.2580233"><ele>2273.72</ele></trkpt>
            <trkpt lat="39.6791683" lon="-105.2585419"><ele>2277.62</ele></trkpt>
            <trkpt lat="39.6793781" lon="-105.2594171"><ele>2284.47</ele></trkpt>
            <trkpt lat="39.6794494" lon="-105.2596161"><ele>2286.1</ele></trkpt>
            <trkpt lat="39.6795593" lon="-105.2598642"><ele>2288.21</ele></trkpt>
            <trkpt lat="39.6798665" lon="-105.260447"><ele>2293.39</ele></trkpt>
            <trkpt lat="39.679982" lon="-105.260666"><ele>2295.32</ele></trkpt>
            <trkpt lat="39.6801745" lon="-105.261031"><ele>2298.51</ele></trkpt>
            <trkpt lat="39.6802507" lon="-105.2611757"><ele>2299.79</ele></trkpt>
            <trkpt lat="39.6803063" lon="-105.2612898"><ele>2300.79</ele></trkpt>
            <trkpt lat="39.6804174" lon="-105.2615608"><ele>2303.06</ele></trkpt>
            <trkpt lat="39.6804708" lon="-105.2617649"><ele>2304.65</ele></trkpt>
            <trkpt lat="39.6804899" lon="-105.2619641"><ele>2306.11</ele></trkpt>
            <trkpt lat="39.6804788" lon="-105.2625868"><ele>2310.57</ele></trkpt>
            <trkpt lat="39.6804329" lon="-105.2630137"><ele>2313.7</ele></trkpt>
            <trkpt lat="39.6804155" lon="-105.2632667"><ele>2315.57</ele></trkpt>
            <trkpt lat="39.680453" lon="-105.2635941"><ele>2318.03</ele></trkpt>
            <trkpt lat="39.6805966" lon="-105.2641307"><ele>2322.27</ele></trkpt>
            <trkpt lat="39.6806453" lon="-105.264311"><ele>2323.68</ele></trkpt>
            <trkpt lat="39.6808476" lon="-105.2650688"><ele>2329.59</ele></trkpt>
            <trkpt lat="39.6808881" lon="-105.2653638"><ele>2331.78</ele></trkpt>
            <trkpt lat="39.6808901" lon="-105.2655064"><ele>2332.8</ele></trkpt>
            <trkpt lat="39.6808793" lon="-105.265639"><ele>2333.75</ele></trkpt>
            <trkpt lat="39.6808552" lon="-105.2657707"><ele>2334.69</ele></trkpt>
            <trkpt lat="39.6808164" lon="-105.2659076"><ele>2335.68</ele></trkpt>
            <trkpt lat="39.6807896" lon="-105.26598"><ele>2336.21</ele></trkpt>
            <trkpt lat="39.6807184" lon="-105.266143"><ele>2337.42</ele></trkpt>
            <trkpt lat="39.680582" lon="-105.2663669"><ele>2339.18</ele></trkpt>
            <trkpt lat="39.6804779" lon="-105.2665104"><ele>2340.32</ele></trkpt>
            <trkpt lat="39.680338" lon="-105.2666551"><ele>2341.62</ele></trkpt>
            <trkpt lat="39.6801522" lon="-105.2667673"><ele>2343.04</ele></trkpt>
            <trkpt lat="39.6800159" lon="-105.2668453"><ele>2344.05</ele></trkpt>
            <trkpt lat="39.6799375" lon="-105.2668985"><ele>2344.65</ele></trkpt>
            <trkpt lat="39.6798753" lon="-105.2669856"><ele>2345.26</ele></trkpt>
            <trkpt lat="39.6798197" lon="-105.2671151"><ele>2346.02</ele></trkpt>
            <trkpt lat="39.6798057" lon="-105.2672492"><ele>2346.7</ele></trkpt>
            <trkpt lat="39.6798421" lon="-105.2673778"><ele>2347.38</ele></trkpt>
            <trkpt lat="39.6799193" lon="-105.2674888"><ele>2348.1</ele></trkpt>
            <trkpt lat="39.6800236" lon="-105.2675471"><ele>2348.8</ele></trkpt>
            <trkpt lat="39.6801641" lon="-105.2675537"><ele>2349.64</ele></trkpt>
            <trkpt lat="39.6802881" lon="-105.2675156"><ele>2350.38</ele></trkpt>
            <trkpt lat="39.680458" lon="-105.2674014"><ele>2351.47</ele></trkpt>
            <trkpt lat="39.6810876" lon="-105.2667943"><ele>2355.82</ele></trkpt>
            <trkpt lat="39.6812778" lon="-105.2665695"><ele>2357.3</ele></trkpt>
            <trkpt lat="39.6815736" lon="-105.2661411"><ele>2359.92</ele></trkpt>
            <trkpt lat="39.6816813" lon="-105.2660666"><ele>2360.62</ele></trkpt>
            <trkpt lat="39.6817855" lon="-105.2660621"><ele>2361.2</ele></trkpt>
            <trkpt lat="39.6819566" lon="-105.2661141"><ele>2362.08</ele></trkpt>
            <trkpt lat="39.6820817" lon="-105.2661844"><ele>2362.66</ele></trkpt>
            <trkpt lat="39.6822173" lon="-105.2663131"><ele>2363.19</ele></trkpt>
            <trkpt lat="39.6823772" lon="-105.2664837"><ele>2363.55</ele></trkpt>
            <trkpt lat="39.6824826" lon="-105.2665909"><ele>2363.59</ele></trkpt>
            <trkpt lat="39.6825868" lon="-105.2666918"><ele>2363.51</ele></trkpt>
            <trkpt lat="39.6828795" lon="-105.2669666"><ele>2362.97</ele></trkpt>
            <trkpt lat="39.6830302" lon="-105.2671601"><ele>2362.71</ele></trkpt>
            <trkpt lat="39.6831074" lon="-105.2672892"><ele>2362.64</ele></trkpt>
            <trkpt lat="39.6831881" lon="-105.2674588"><ele>2362.7</ele></trkpt>
            <trkpt lat="39.6832943" lon="-105.267688"><ele>2363.04</ele></trkpt>
            <trkpt lat="39.6833644" lon="-105.2678257"><ele>2363.4</ele></trkpt>
            <trkpt lat="39.6834848" lon="-105.2679687"><ele>2364.02</ele></trkpt>
            <trkpt lat="39.6835847" lon="-105.2680425"><ele>2364.55</ele></trkpt>
            <trkpt lat="39.6838703" lon="-105.2681886"><ele>2366.27</ele></trkpt>
            <trkpt lat="39.6840999" lon="-105.2682941"><ele>2367.88</ele></trkpt>
            <trkpt lat="39.6841972" lon="-105.2683033"><ele>2368.58</ele></trkpt>
            <trkpt lat="39.6843341" lon="-105.2682506"><ele>2369.63</ele></trkpt>
            <trkpt lat="39.684477" lon="-105.2681862"><ele>2370.76</ele></trkpt>
            <trkpt lat="39.6846037" lon="-105.2681279"><ele>2371.75</ele></trkpt>
            <trkpt lat="39.68486" lon="-105.2680117"><ele>2373.58</ele></trkpt>
            <trkpt lat="39.6851814" lon="-105.2679029"><ele>2375.31</ele></trkpt>
            <trkpt lat="39.6853104" lon="-105.2678607"><ele>2375.77</ele></trkpt>
            <trkpt lat="39.6854355" lon="-105.2678266"><ele>2376.06</ele></trkpt>
            <trkpt lat="39.6856283" lon="-105.2677936"><ele>2376.2</ele></trkpt>
            <trkpt lat="39.6857909" lon="-105.2678049"><ele>2376.09</ele></trkpt>
            <trkpt lat="39.6858949" lon="-105.2678333"><ele>2375.93</ele></trkpt>
            <trkpt lat="39.6861621" lon="-105.2679548"><ele>2375.32</ele></trkpt>
            <trkpt lat="39.6865735" lon="-105.2681585"><ele>2374.35</ele></trkpt>
            <trkpt lat="39.6867375" lon="-105.2681936"><ele>2374.12</ele></trkpt>
            <trkpt lat="39.6868912" lon="-105.2682012"><ele>2374.04</ele></trkpt>
            <trkpt lat="39.6869921" lon="-105.2681878"><ele>2374.03</ele></trkpt>
            <trkpt lat="39.687158" lon="-105.2681182"><ele>2374.07</ele></trkpt>
            <trkpt lat="39.6872436" lon="-105.2680649"><ele>2374.09</ele></trkpt>
            <trkpt lat="39.6875131" lon="-105.26784"><ele>2373.94</ele></trkpt>
            <trkpt lat="39.6876215" lon="-105.2677537"><ele>2373.72</ele></trkpt>
            <trkpt lat="39.6877781" lon="-105.2676682"><ele>2373.23</ele></trkpt>
            <trkpt lat="39.6880016" lon="-105.2675699"><ele>2372.25</ele></trkpt>
            <trkpt lat="39.6881657" lon="-105.2675729"><ele>2371.45</ele></trkpt>
            <trkpt lat="39.6882827" lon="-105.2676249"><ele>2370.81</ele></trkpt>
            <trkpt lat="39.6884222" lon="-105.2677631"><ele>2369.86</ele></trkpt>
            <trkpt lat="39.6885489" lon="-105.2680218"><ele>2368.55</ele></trkpt>
            <trkpt lat="39.6885946" lon="-105.2680445"><ele>2368.27</ele></trkpt>
            <trkpt lat="39.6887381" lon="-105.2680548"><ele>2367.46</ele></trkpt>
            <trkpt lat="39.6888008" lon="-105.268079"><ele>2367.09</ele></trkpt>
            <trkpt lat="39.6889427" lon="-105.2681965"><ele>2366.16</ele></trkpt>
            <trkpt lat="39.6890788" lon="-105.2683223"><ele>2365.31</ele></trkpt>
            <trkpt lat="39.6892327" lon="-105.268508"><ele>2364.4</ele></trkpt>
            <trkpt lat="39.6896924" lon="-105.2690774"><ele>2362.37</ele></trkpt>
            <trkpt lat="39.6897468" lon="-105.2690923"><ele>2362.23</ele></trkpt>
            <trkpt lat="39.6901107" lon="-105.2686772"><ele>2361.07</ele></trkpt>
            <trkpt lat="39.690245" lon="-105.2684957"><ele>2360.41</ele></trkpt>
            <trkpt lat="39.69038" lon="-105.2683114"><ele>2359.5</ele></trkpt>
            <trkpt lat="39.69047" lon="-105.2681886"><ele>2358.75</ele></trkpt>
            <trkpt lat="39.69056" lon="-105.2680657"><ele>2357.89</ele></trkpt>
            <trkpt lat="39.6907411" lon="-105.2678213"><ele>2355.93</ele></trkpt>
            <trkpt lat="39.6910399" lon="-105.2674859"><ele>2352.64</ele></trkpt>
            <trkpt lat="39.69125" lon="-105.2673024"><ele>2350.46</ele></trkpt>
            <trkpt lat="39.6914209" lon="-105.2671942"><ele>2348.82</ele></trkpt>
            <trkpt lat="39.691798" lon="-105.2670603"><ele>2345.48</ele></trkpt>
            <trkpt lat="39.6919302" lon="-105.2670149"><ele>2344.32</ele></trkpt>
            <trkpt lat="39.6920575" lon="-105.2669713"><ele>2343.2</ele></trkpt>
            <trkpt lat="39.6925074" lon="-105.2668127"><ele>2339.23</ele></trkpt>
            <trkpt lat="39.6927757" lon="-105.2667043"><ele>2336.83</ele></trkpt>
            <trkpt lat="39.6929771" lon="-105.2666229"><ele>2335.01</ele></trkpt>
            <trkpt lat="39.6933807" lon="-105.2664618"><ele>2331.33</ele></trkpt>
            <trkpt lat="39.693632" lon="-105.2664047"><ele>2329.11</ele></trkpt>
            <trkpt lat="39.6937888" lon="-105.266403"><ele>2327.79</ele></trkpt>
            <trkpt lat="39.6940125" lon="-105.2664576"><ele>2325.97</ele></trkpt>
            <trkpt lat="39.6944402" lon="-105.2666263"><ele>2322.67</ele></trkpt>
            <trkpt lat="39.6946321" lon="-105.2666614"><ele>2321.34</ele></trkpt>
            <trkpt lat="39.6948393" lon="-105.2666559"><ele>2320.05</ele></trkpt>
            <trkpt lat="39.6952188" lon="-105.2665301"><ele>2318.24</ele></trkpt>
            <trkpt lat="39.6952555" lon="-105.2665402"><ele>2318.13</ele></trkpt>
            <trkpt lat="39.6952858" lon="-105.2665866"><ele>2318.04</ele></trkpt>
            <trkpt lat="39.6953086" lon="-105.2667167"><ele>2317.95</ele></trkpt>
            <trkpt lat="39.6953366" lon="-105.2668586"><ele>2318.08</ele></trkpt>
            <trkpt lat="39.6953657" lon="-105.266961"><ele>2318.31</ele></trkpt>
            <trkpt lat="39.6954747" lon="-105.267213"><ele>2319.45</ele></trkpt>
            <trkpt lat="39.6955769" lon="-105.2674448"><ele>2320.98</ele></trkpt>
            <trkpt lat="39.6956912" lon="-105.2676855"><ele>2322.88</ele></trkpt>
            <trkpt lat="39.6958539" lon="-105.2680139"><ele>2325.66</ele></trkpt>
            <trkpt lat="39.6961008" lon="-105.2683329"><ele>2328.89</ele></trkpt>
            <trkpt lat="39.6961771" lon="-105.2684331"><ele>2329.89</ele></trkpt>
            <trkpt lat="39.6962443" lon="-105.2685544"><ele>2330.96</ele></trkpt>
            <trkpt lat="39.6963571" lon="-105.2687992"><ele>2332.98</ele></trkpt>
            <trkpt lat="39.6964207" lon="-105.2690351"><ele>2334.73</ele></trkpt>
            <trkpt lat="39.696449" lon="-105.269255"><ele>2336.3</ele></trkpt>
            <trkpt lat="39.6964449" lon="-105.2695359"><ele>2338.29</ele></trkpt>
            <trkpt lat="39.6964155" lon="-105.2697317"><ele>2339.71</ele></trkpt>
            <trkpt lat="39.6963642" lon="-105.2699251"><ele>2341.18</ele></trkpt>
            <trkpt lat="39.6962322" lon="-105.2702187"><ele>2343.6</ele></trkpt>
            <trkpt lat="39.6961251" lon="-105.2703611"><ele>2344.98</ele></trkpt>
            <trkpt lat="39.6957789" lon="-105.2707446"><ele>2349.01</ele></trkpt>
            <trkpt lat="39.695658" lon="-105.270917"><ele>2350.6</ele></trkpt>
            <trkpt lat="39.695575" lon="-105.2710736"><ele>2351.9</ele></trkpt>
            <trkpt lat="39.6954515" lon="-105.2714123"><ele>2354.48</ele></trkpt>
            <trkpt lat="39.6952813" lon="-105.2721293"><ele>2359.6</ele></trkpt>
            <trkpt lat="39.6952389" lon="-105.2722966"><ele>2360.72</ele></trkpt>
            <trkpt lat="39.6951688" lon="-105.2725313"><ele>2362.16</ele></trkpt>
            <trkpt lat="39.6950949" lon="-105.2726988"><ele>2363.09</ele></trkpt>
            <trkpt lat="39.6949298" lon="-105.2729421"><ele>2364.23</ele></trkpt>
            <trkpt lat="39.6947533" lon="-105.27309"><ele>2364.72</ele></trkpt>
            <trkpt lat="39.694429" lon="-105.2733466"><ele>2364.54</ele></trkpt>
        </trkseg>
    </trk>
</gpx>
