<?xml version="1.0" encoding="UTF-8"?>
<gpx version="1.1" creator="BikeTerra" xmlns="http://www.topografix.com/GPX/1/1" xmlns:biketerra="https://biketerra.com/xmlns/gpx/1">
    <metadata>
        <name>Miquelon Canada</name>
        <extensions>
            <biketerra:version>2.0.0</biketerra:version>
            <biketerra:isLoop>true</biketerra:isLoop>
            <biketerra:defaultSurface>asphalt</biketerra:defaultSurface>
        </extensions>
    </metadata>
    <trk>
        <name>Miquelon Canada</name>
        <trkseg>
            <trkpt lat="47.1095145" lon="-56.3830544"><ele>6.3</ele></trkpt>
            <trkpt lat="47.1099394" lon="-56.383072"><ele>6.14</ele></trkpt>
            <trkpt lat="47.1102185" lon="-56.3830387"><ele>6.03</ele></trkpt>
            <trkpt lat="47.1107612" lon="-56.3829117"><ele>5.85</ele></trkpt>
            <trkpt lat="47.1113106" lon="-56.38286"><ele>5.8</ele></trkpt>
            <trkpt lat="47.1114198" lon="-56.3828576"><ele>5.82</ele></trkpt>
            <trkpt lat="47.1116327" lon="-56.3828992"><ele>5.93</ele></trkpt>
            <trkpt lat="47.1126432" lon="-56.3827019"><ele>6.95</ele></trkpt>
            <trkpt lat="47.1133002" lon="-56.3825382"><ele>8.24</ele></trkpt>
            <trkpt lat="47.1135767" lon="-56.3824333"><ele>9.1</ele></trkpt>
            <trkpt lat="47.113715" lon="-56.38238"><ele>9.66</ele></trkpt>
            <trkpt lat="47.1138533" lon="-56.3823267"><ele>10.3</ele></trkpt>
            <trkpt lat="47.1140611" lon="-56.3822466"><ele>11.42</ele></trkpt>
            <trkpt lat="47.114274" lon="-56.382154"><ele>12.7</ele></trkpt>
            <trkpt lat="47.1147783" lon="-56.3819229"><ele>15.89</ele></trkpt>
            <trkpt lat="47.114998" lon="-56.381802"><ele>17.19</ele></trkpt>
            <trkpt lat="47.1151457" lon="-56.3817142"><ele>17.96</ele></trkpt>
            <trkpt lat="47.1152877" lon="-56.3816242"><ele>18.57</ele></trkpt>
            <trkpt lat="47.115424" lon="-56.381532"><ele>19.04</ele></trkpt>
            <trkpt lat="47.115628" lon="-56.381394"><ele>19.49</ele></trkpt>
            <trkpt lat="47.1158991" lon="-56.3812086"><ele>19.64</ele></trkpt>
            <trkpt lat="47.1163634" lon="-56.3808078"><ele>19.05</ele></trkpt>
            <trkpt lat="47.1166004" lon="-56.3805723"><ele>18.33</ele></trkpt>
            <trkpt lat="47.1167706" lon="-56.3803948"><ele>17.58</ele></trkpt>
            <trkpt lat="47.1168866" lon="-56.3802739"><ele>16.97</ele></trkpt>
            <trkpt lat="47.1169898" lon="-56.3801662"><ele>16.37</ele></trkpt>
            <trkpt lat="47.1171287" lon="-56.3800155"><ele>15.51</ele></trkpt>
            <trkpt lat="47.1172561" lon="-56.3798159"><ele>14.57</ele></trkpt>
            <trkpt lat="47.1173714" lon="-56.3794994"><ele>13.41</ele></trkpt>
            <trkpt lat="47.1174224" lon="-56.3793277"><ele>12.89</ele></trkpt>
            <trkpt lat="47.1174771" lon="-56.3791419"><ele>12.4</ele></trkpt>
            <trkpt lat="47.1175609" lon="-56.3788621"><ele>11.89</ele></trkpt>
            <trkpt lat="47.1176343" lon="-56.3786686"><ele>11.7</ele></trkpt>
            <trkpt lat="47.1177457" lon="-56.3783814"><ele>11.73</ele></trkpt>
            <trkpt lat="47.1178914" lon="-56.3779986"><ele>12.32</ele></trkpt>
            <trkpt lat="47.1181063" lon="-56.3774202"><ele>14.12</ele></trkpt>
            <trkpt lat="47.1182874" lon="-56.3769223"><ele>16.46</ele></trkpt>
            <trkpt lat="47.118369" lon="-56.3766971"><ele>17.83</ele></trkpt>
            <trkpt lat="47.1184356" lon="-56.3764917"><ele>19.26</ele></trkpt>
            <trkpt lat="47.1184856" lon="-56.3763484"><ele>20.4</ele></trkpt>
            <trkpt lat="47.1185531" lon="-56.3762609"><ele>21.41</ele></trkpt>
            <trkpt lat="47.1186454" lon="-56.3762233"><ele>22.56</ele></trkpt>
            <trkpt lat="47.1187781" lon="-56.3761926"><ele>24.28</ele></trkpt>
            <trkpt lat="47.1191403" lon="-56.3760732"><ele>29.49</ele></trkpt>
            <trkpt lat="47.1196555" lon="-56.3758945"><ele>37.5</ele></trkpt>
            <trkpt lat="47.1199332" lon="-56.3758435"><ele>41.85</ele></trkpt>
            <trkpt lat="47.1200119" lon="-56.3757754"><ele>43.28</ele></trkpt>
            <trkpt lat="47.1200603" lon="-56.375682"><ele>44.53</ele></trkpt>
            <trkpt lat="47.1202029" lon="-56.3752414"><ele>49.7</ele></trkpt>
            <trkpt lat="47.1203356" lon="-56.3748276"><ele>54.46</ele></trkpt>
            <trkpt lat="47.1205481" lon="-56.3742864"><ele>60.77</ele></trkpt>
            <trkpt lat="47.1205949" lon="-56.374073"><ele>62.96</ele></trkpt>
            <trkpt lat="47.1206289" lon="-56.3738047"><ele>65.58</ele></trkpt>
            <trkpt lat="47.1206677" lon="-56.373063"><ele>72.46</ele></trkpt>
            <trkpt lat="47.1207051" lon="-56.3728028"><ele>74.84</ele></trkpt>
            <trkpt lat="47.120772" lon="-56.3725567"><ele>77.14</ele></trkpt>
            <trkpt lat="47.1210105" lon="-56.3719384"><ele>83.05</ele></trkpt>
            <trkpt lat="47.1210429" lon="-56.3717488"><ele>84.59</ele></trkpt>
            <trkpt lat="47.121054" lon="-56.3714894"><ele>86.51</ele></trkpt>
            <trkpt lat="47.121123" lon="-56.3713154"><ele>87.91</ele></trkpt>
            <trkpt lat="47.1213264" lon="-56.3710211"><ele>90.55</ele></trkpt>
            <trkpt lat="47.1213927" lon="-56.3708793"><ele>91.5</ele></trkpt>
            <trkpt lat="47.1214397" lon="-56.3706947"><ele>92.5</ele></trkpt>
            <trkpt lat="47.1214905" lon="-56.370308"><ele>94.15</ele></trkpt>
            <trkpt lat="47.121543" lon="-56.3701117"><ele>94.85</ele></trkpt>
            <trkpt lat="47.1216276" lon="-56.3699098"><ele>95.45</ele></trkpt>
            <trkpt lat="47.1216758" lon="-56.3697879"><ele>95.71</ele></trkpt>
            <trkpt lat="47.1217174" lon="-56.3696172"><ele>95.94</ele></trkpt>
            <trkpt lat="47.1217615" lon="-56.369392"><ele>96.08</ele></trkpt>
            <trkpt lat="47.1218014" lon="-56.3692244"><ele>96.06</ele></trkpt>
            <trkpt lat="47.1218852" lon="-56.369034"><ele>95.89</ele></trkpt>
            <trkpt lat="47.1219999" lon="-56.3688805"><ele>95.57</ele></trkpt>
            <trkpt lat="47.122128" lon="-56.3687783"><ele>95.16</ele></trkpt>
            <trkpt lat="47.122234" lon="-56.368732"><ele>94.77</ele></trkpt>
            <trkpt lat="47.1226649" lon="-56.3686417"><ele>92.94</ele></trkpt>
            <trkpt lat="47.1230166" lon="-56.368569"><ele>91.23</ele></trkpt>
            <trkpt lat="47.1232056" lon="-56.3684749"><ele>90.21</ele></trkpt>
            <trkpt lat="47.1232643" lon="-56.3683939"><ele>89.79</ele></trkpt>
            <trkpt lat="47.1232698" lon="-56.368274"><ele>89.35</ele></trkpt>
            <trkpt lat="47.1231761" lon="-56.3677565"><ele>87.39</ele></trkpt>
            <trkpt lat="47.1230811" lon="-56.3673621"><ele>85.86</ele></trkpt>
            <trkpt lat="47.1230917" lon="-56.3672605"><ele>85.48</ele></trkpt>
            <trkpt lat="47.1231553" lon="-56.3670865"><ele>84.76</ele></trkpt>
            <trkpt lat="47.1231667" lon="-56.36696"><ele>84.3</ele></trkpt>
            <trkpt lat="47.1231147" lon="-56.3665996"><ele>82.98</ele></trkpt>
            <trkpt lat="47.1231337" lon="-56.3661947"><ele>81.53</ele></trkpt>
            <trkpt lat="47.1230695" lon="-56.3660386"><ele>80.88</ele></trkpt>
            <trkpt lat="47.1230544" lon="-56.3659634"><ele>80.59</ele></trkpt>
            <trkpt lat="47.1230526" lon="-56.3656325"><ele>79.38</ele></trkpt>
            <trkpt lat="47.1230892" lon="-56.3654889"><ele>78.79</ele></trkpt>
            <trkpt lat="47.1231554" lon="-56.3654277"><ele>78.35</ele></trkpt>
            <trkpt lat="47.1233144" lon="-56.3654049"><ele>77.41</ele></trkpt>
            <trkpt lat="47.1233764" lon="-56.3653591"><ele>76.99</ele></trkpt>
            <trkpt lat="47.1234071" lon="-56.3652896"><ele>76.64</ele></trkpt>
            <trkpt lat="47.1234325" lon="-56.3651166"><ele>75.87</ele></trkpt>
            <trkpt lat="47.1234686" lon="-56.3650236"><ele>75.38</ele></trkpt>
            <trkpt lat="47.1235588" lon="-56.3648652"><ele>74.43</ele></trkpt>
            <trkpt lat="47.1236846" lon="-56.3647065"><ele>73.25</ele></trkpt>
            <trkpt lat="47.1239573" lon="-56.364419"><ele>70.79</ele></trkpt>
            <trkpt lat="47.1241704" lon="-56.3641948"><ele>68.87</ele></trkpt>
            <trkpt lat="47.1242785" lon="-56.3639857"><ele>67.61</ele></trkpt>
            <trkpt lat="47.1244176" lon="-56.3638161"><ele>66.4</ele></trkpt>
            <trkpt lat="47.1245754" lon="-56.3636328"><ele>65.2</ele></trkpt>
            <trkpt lat="47.124682" lon="-56.363533"><ele>64.53</ele></trkpt>
            <trkpt lat="47.124792" lon="-56.363462"><ele>63.97</ele></trkpt>
            <trkpt lat="47.1249165" lon="-56.36345"><ele>63.49</ele></trkpt>
            <trkpt lat="47.1251032" lon="-56.3634572"><ele>62.94</ele></trkpt>
            <trkpt lat="47.12523" lon="-56.3635484"><ele>62.67</ele></trkpt>
            <trkpt lat="47.1252941" lon="-56.3635577"><ele>62.6</ele></trkpt>
            <trkpt lat="47.1253621" lon="-56.3635046"><ele>62.54</ele></trkpt>
            <trkpt lat="47.1255903" lon="-56.3632036"><ele>62.63</ele></trkpt>
            <trkpt lat="47.1258096" lon="-56.3631014"><ele>62.99</ele></trkpt>
            <trkpt lat="47.1259238" lon="-56.3630592"><ele>63.28</ele></trkpt>
            <trkpt lat="47.1260112" lon="-56.3630476"><ele>63.54</ele></trkpt>
            <trkpt lat="47.1261039" lon="-56.3630925"><ele>63.86</ele></trkpt>
            <trkpt lat="47.1261625" lon="-56.3631515"><ele>64.13</ele></trkpt>
            <trkpt lat="47.1262" lon="-56.3632528"><ele>64.44</ele></trkpt>
            <trkpt lat="47.126207" lon="-56.3634618"><ele>65.05</ele></trkpt>
            <trkpt lat="47.1262597" lon="-56.3636593"><ele>65.7</ele></trkpt>
            <trkpt lat="47.1262834" lon="-56.3638723"><ele>66.39</ele></trkpt>
            <trkpt lat="47.1263535" lon="-56.3641073"><ele>67.21</ele></trkpt>
            <trkpt lat="47.1264017" lon="-56.3643029"><ele>67.86</ele></trkpt>
            <trkpt lat="47.1264583" lon="-56.3644237"><ele>68.3</ele></trkpt>
            <trkpt lat="47.1265207" lon="-56.364489"><ele>68.62</ele></trkpt>
            <trkpt lat="47.1266526" lon="-56.3645685"><ele>69.2</ele></trkpt>
            <trkpt lat="47.1267586" lon="-56.3645743"><ele>69.6</ele></trkpt>
            <trkpt lat="47.126899" lon="-56.3644519"><ele>70.18</ele></trkpt>
            <trkpt lat="47.1270453" lon="-56.3642452"><ele>70.84</ele></trkpt>
            <trkpt lat="47.1272335" lon="-56.3640136"><ele>71.57</ele></trkpt>
            <trkpt lat="47.127336" lon="-56.3639239"><ele>71.91</ele></trkpt>
            <trkpt lat="47.127476" lon="-56.36386"><ele>72.32</ele></trkpt>
            <trkpt lat="47.1277256" lon="-56.3635727"><ele>73.19</ele></trkpt>
            <trkpt lat="47.1278833" lon="-56.3632005"><ele>74.06</ele></trkpt>
            <trkpt lat="47.1279401" lon="-56.3629098"><ele>74.72</ele></trkpt>
            <trkpt lat="47.1279972" lon="-56.3627854"><ele>75.07</ele></trkpt>
            <trkpt lat="47.1280456" lon="-56.3627441"><ele>75.27</ele></trkpt>
            <trkpt lat="47.1281551" lon="-56.3627001"><ele>75.7</ele></trkpt>
            <trkpt lat="47.1284611" lon="-56.3624576"><ele>77.13</ele></trkpt>
            <trkpt lat="47.1284934" lon="-56.3623605"><ele>77.46</ele></trkpt>
            <trkpt lat="47.1284807" lon="-56.3621318"><ele>78.21</ele></trkpt>
            <trkpt lat="47.1284909" lon="-56.3620621"><ele>78.46</ele></trkpt>
            <trkpt lat="47.1285937" lon="-56.3619084"><ele>79.25</ele></trkpt>
            <trkpt lat="47.1286272" lon="-56.3616733"><ele>80.21</ele></trkpt>
            <trkpt lat="47.1286633" lon="-56.3615629"><ele>80.72</ele></trkpt>
            <trkpt lat="47.128849" lon="-56.3612302"><ele>82.7</ele></trkpt>
            <trkpt lat="47.128893" lon="-56.3611438"><ele>83.24</ele></trkpt>
            <trkpt lat="47.1289482" lon="-56.360968"><ele>84.25</ele></trkpt>
            <trkpt lat="47.1290566" lon="-56.3608055"><ele>85.52</ele></trkpt>
            <trkpt lat="47.1291041" lon="-56.3607047"><ele>86.25</ele></trkpt>
            <trkpt lat="47.1292158" lon="-56.3602326"><ele>89.42</ele></trkpt>
            <trkpt lat="47.1292685" lon="-56.3600885"><ele>90.53</ele></trkpt>
            <trkpt lat="47.1292749" lon="-56.3600083"><ele>91.1</ele></trkpt>
            <trkpt lat="47.1292573" lon="-56.3598101"><ele>92.54</ele></trkpt>
            <trkpt lat="47.129254" lon="-56.3597201"><ele>93.21</ele></trkpt>
            <trkpt lat="47.1292613" lon="-56.3596089"><ele>94.06</ele></trkpt>
            <trkpt lat="47.1292896" lon="-56.3595245"><ele>94.77</ele></trkpt>
            <trkpt lat="47.1294253" lon="-56.3593619"><ele>96.77</ele></trkpt>
            <trkpt lat="47.1295193" lon="-56.3592152"><ele>98.32</ele></trkpt>
            <trkpt lat="47.1296255" lon="-56.3591102"><ele>99.74</ele></trkpt>
            <trkpt lat="47.1297963" lon="-56.3588105"><ele>102.49</ele></trkpt>
            <trkpt lat="47.1298889" lon="-56.3586179"><ele>103.93</ele></trkpt>
            <trkpt lat="47.1299674" lon="-56.3584913"><ele>104.82</ele></trkpt>
            <trkpt lat="47.1300662" lon="-56.3583751"><ele>105.62</ele></trkpt>
            <trkpt lat="47.1301637" lon="-56.3582555"><ele>106.21</ele></trkpt>
            <trkpt lat="47.1302052" lon="-56.3581756"><ele>106.44</ele></trkpt>
            <trkpt lat="47.1302453" lon="-56.3580434"><ele>106.64</ele></trkpt>
            <trkpt lat="47.1302799" lon="-56.357943"><ele>106.71</ele></trkpt>
            <trkpt lat="47.1303137" lon="-56.357875"><ele>106.69</ele></trkpt>
            <trkpt lat="47.1303565" lon="-56.3578194"><ele>106.63</ele></trkpt>
            <trkpt lat="47.1304232" lon="-56.3577644"><ele>106.48</ele></trkpt>
            <trkpt lat="47.1304984" lon="-56.3577204"><ele>106.23</ele></trkpt>
            <trkpt lat="47.1305666" lon="-56.3576626"><ele>105.9</ele></trkpt>
            <trkpt lat="47.130662" lon="-56.3575025"><ele>105.12</ele></trkpt>
            <trkpt lat="47.130676" lon="-56.357362"><ele>104.48</ele></trkpt>
            <trkpt lat="47.1307014" lon="-56.3572953"><ele>104.1</ele></trkpt>
            <trkpt lat="47.1307413" lon="-56.3572737"><ele>103.78</ele></trkpt>
            <trkpt lat="47.1307972" lon="-56.3572548"><ele>103.33</ele></trkpt>
            <trkpt lat="47.1308354" lon="-56.3571681"><ele>102.75</ele></trkpt>
            <trkpt lat="47.1308407" lon="-56.3570386"><ele>102</ele></trkpt>
            <trkpt lat="47.1308133" lon="-56.3567856"><ele>100.49</ele></trkpt>
            <trkpt lat="47.1308207" lon="-56.3565184"><ele>98.96</ele></trkpt>
            <trkpt lat="47.130829" lon="-56.3562782"><ele>97.71</ele></trkpt>
            <trkpt lat="47.1308363" lon="-56.3560664"><ele>96.77</ele></trkpt>
            <trkpt lat="47.130848" lon="-56.3558454"><ele>95.98</ele></trkpt>
            <trkpt lat="47.1308559" lon="-56.3557317"><ele>95.66</ele></trkpt>
            <trkpt lat="47.1308793" lon="-56.355505"><ele>95.22</ele></trkpt>
            <trkpt lat="47.1308948" lon="-56.3553912"><ele>95.1</ele></trkpt>
            <trkpt lat="47.1309421" lon="-56.3551522"><ele>95.06</ele></trkpt>
            <trkpt lat="47.1309748" lon="-56.3550267"><ele>95.16</ele></trkpt>
            <trkpt lat="47.1310156" lon="-56.3549054"><ele>95.34</ele></trkpt>
            <trkpt lat="47.131108" lon="-56.3546738"><ele>95.9</ele></trkpt>
            <trkpt lat="47.1312456" lon="-56.3544208"><ele>96.83</ele></trkpt>
            <trkpt lat="47.1313834" lon="-56.3542229"><ele>97.8</ele></trkpt>
            <trkpt lat="47.1315863" lon="-56.3540017"><ele>99.13</ele></trkpt>
            <trkpt lat="47.1317338" lon="-56.35387"><ele>100</ele></trkpt>
            <trkpt lat="47.1318439" lon="-56.3537447"><ele>100.64</ele></trkpt>
            <trkpt lat="47.1319346" lon="-56.353576"><ele>101.22</ele></trkpt>
            <trkpt lat="47.1320401" lon="-56.3532258"><ele>101.99</ele></trkpt>
            <trkpt lat="47.1320554" lon="-56.3530569"><ele>102.2</ele></trkpt>
            <trkpt lat="47.1320241" lon="-56.3528992"><ele>102.32</ele></trkpt>
            <trkpt lat="47.1319818" lon="-56.3527037"><ele>102.33</ele></trkpt>
            <trkpt lat="47.1319646" lon="-56.3523521"><ele>102.03</ele></trkpt>
            <trkpt lat="47.1319059" lon="-56.3521001"><ele>101.56</ele></trkpt>
            <trkpt lat="47.1318698" lon="-56.3518997"><ele>101.06</ele></trkpt>
            <trkpt lat="47.1318228" lon="-56.3517081"><ele>100.46</ele></trkpt>
            <trkpt lat="47.1317298" lon="-56.3514464"><ele>99.45</ele></trkpt>
            <trkpt lat="47.1317253" lon="-56.3511106"><ele>98.17</ele></trkpt>
            <trkpt lat="47.1317031" lon="-56.3509245"><ele>97.43</ele></trkpt>
            <trkpt lat="47.1317048" lon="-56.3508151"><ele>97</ele></trkpt>
            <trkpt lat="47.1317913" lon="-56.3504953"><ele>95.68</ele></trkpt>
            <trkpt lat="47.1319499" lon="-56.3499454"><ele>93.64</ele></trkpt>
            <trkpt lat="47.1321784" lon="-56.349159"><ele>91.36</ele></trkpt>
            <trkpt lat="47.13221" lon="-56.348935"><ele>90.95</ele></trkpt>
            <trkpt lat="47.1322346" lon="-56.3487644"><ele>90.76</ele></trkpt>
            <trkpt lat="47.1322754" lon="-56.3486746"><ele>90.69</ele></trkpt>
            <trkpt lat="47.1323492" lon="-56.3485632"><ele>90.65</ele></trkpt>
            <trkpt lat="47.132528" lon="-56.3483055"><ele>90.83</ele></trkpt>
            <trkpt lat="47.1326527" lon="-56.3482137"><ele>91.05</ele></trkpt>
            <trkpt lat="47.13306" lon="-56.348085"><ele>92.07</ele></trkpt>
            <trkpt lat="47.133352" lon="-56.348002"><ele>92.95</ele></trkpt>
            <trkpt lat="47.1335573" lon="-56.3479182"><ele>93.62</ele></trkpt>
            <trkpt lat="47.1339984" lon="-56.3476055"><ele>95.19</ele></trkpt>
            <trkpt lat="47.1343312" lon="-56.3474599"><ele>96.27</ele></trkpt>
            <trkpt lat="47.1344829" lon="-56.3472729"><ele>96.86</ele></trkpt>
            <trkpt lat="47.1346155" lon="-56.3471039"><ele>97.36</ele></trkpt>
            <trkpt lat="47.1346767" lon="-56.3470805"><ele>97.53</ele></trkpt>
            <trkpt lat="47.1349492" lon="-56.3470619"><ele>98.28</ele></trkpt>
            <trkpt lat="47.1350832" lon="-56.3469862"><ele>98.67</ele></trkpt>
            <trkpt lat="47.1351512" lon="-56.3469162"><ele>98.9</ele></trkpt>
            <trkpt lat="47.135203" lon="-56.3468245"><ele>99.13</ele></trkpt>
            <trkpt lat="47.1352964" lon="-56.3464629"><ele>99.91</ele></trkpt>
            <trkpt lat="47.1357399" lon="-56.3459088"><ele>101.89</ele></trkpt>
            <trkpt lat="47.1359157" lon="-56.3455316"><ele>103.23</ele></trkpt>
            <trkpt lat="47.136044" lon="-56.3453167"><ele>104.27</ele></trkpt>
            <trkpt lat="47.1361322" lon="-56.3451972"><ele>105</ele></trkpt>
            <trkpt lat="47.1361896" lon="-56.3451639"><ele>105.4</ele></trkpt>
            <trkpt lat="47.13624" lon="-56.3451561"><ele>105.75</ele></trkpt>
            <trkpt lat="47.1365201" lon="-56.3451919"><ele>107.84</ele></trkpt>
            <trkpt lat="47.13666" lon="-56.3452106"><ele>108.98</ele></trkpt>
            <trkpt lat="47.1367398" lon="-56.3452057"><ele>109.67</ele></trkpt>
            <trkpt lat="47.1368208" lon="-56.3451741"><ele>110.41</ele></trkpt>
            <trkpt lat="47.1370136" lon="-56.3450866"><ele>112.27</ele></trkpt>
            <trkpt lat="47.1372388" lon="-56.3449862"><ele>114.56</ele></trkpt>
            <trkpt lat="47.13742" lon="-56.3449588"><ele>116.4</ele></trkpt>
            <trkpt lat="47.1375683" lon="-56.3449794"><ele>117.96</ele></trkpt>
            <trkpt lat="47.1377285" lon="-56.3450813"><ele>119.82</ele></trkpt>
            <trkpt lat="47.1378871" lon="-56.3451926"><ele>121.74</ele></trkpt>
            <trkpt lat="47.1380239" lon="-56.3452819"><ele>123.4</ele></trkpt>
            <trkpt lat="47.1381858" lon="-56.3453357"><ele>125.23</ele></trkpt>
            <trkpt lat="47.1382304" lon="-56.3453931"><ele>125.88</ele></trkpt>
            <trkpt lat="47.1383236" lon="-56.3455922"><ele>127.66</ele></trkpt>
            <trkpt lat="47.1385432" lon="-56.3459247"><ele>130.88</ele></trkpt>
            <trkpt lat="47.1386265" lon="-56.3460337"><ele>131.91</ele></trkpt>
            <trkpt lat="47.1386961" lon="-56.3460766"><ele>132.57</ele></trkpt>
            <trkpt lat="47.1387708" lon="-56.3460844"><ele>133.18</ele></trkpt>
            <trkpt lat="47.138904" lon="-56.3460684"><ele>134.15</ele></trkpt>
            <trkpt lat="47.1391124" lon="-56.3460414"><ele>135.37</ele></trkpt>
            <trkpt lat="47.1392801" lon="-56.346025"><ele>136.07</ele></trkpt>
            <trkpt lat="47.1393903" lon="-56.3460388"><ele>136.38</ele></trkpt>
            <trkpt lat="47.1394764" lon="-56.3460535"><ele>136.53</ele></trkpt>
            <trkpt lat="47.1396041" lon="-56.3460755"><ele>136.62</ele></trkpt>
            <trkpt lat="47.1396901" lon="-56.3460951"><ele>136.6</ele></trkpt>
            <trkpt lat="47.1398567" lon="-56.3461699"><ele>136.37</ele></trkpt>
            <trkpt lat="47.1399408" lon="-56.3462034"><ele>136.18</ele></trkpt>
            <trkpt lat="47.14003" lon="-56.3462166"><ele>135.94</ele></trkpt>
            <trkpt lat="47.1403991" lon="-56.346268"><ele>134.66</ele></trkpt>
            <trkpt lat="47.1405179" lon="-56.3463082"><ele>134.2</ele></trkpt>
            <trkpt lat="47.1406548" lon="-56.3463691"><ele>133.66</ele></trkpt>
            <trkpt lat="47.1407928" lon="-56.3464592"><ele>133.1</ele></trkpt>
            <trkpt lat="47.1408875" lon="-56.346553"><ele>132.7</ele></trkpt>
            <trkpt lat="47.140956" lon="-56.3466511"><ele>132.37</ele></trkpt>
            <trkpt lat="47.1410131" lon="-56.3467621"><ele>132.05</ele></trkpt>
            <trkpt lat="47.1410819" lon="-56.3469498"><ele>131.57</ele></trkpt>
            <trkpt lat="47.14113" lon="-56.3471643"><ele>131.05</ele></trkpt>
            <trkpt lat="47.1411565" lon="-56.3474376"><ele>130.38</ele></trkpt>
            <trkpt lat="47.1411694" lon="-56.3476845"><ele>129.7</ele></trkpt>
            <trkpt lat="47.141173" lon="-56.3478666"><ele>129.13</ele></trkpt>
            <trkpt lat="47.1411648" lon="-56.3481484"><ele>128.11</ele></trkpt>
            <trkpt lat="47.141141" lon="-56.348358"><ele>127.21</ele></trkpt>
            <trkpt lat="47.1410969" lon="-56.3485833"><ele>126.09</ele></trkpt>
            <trkpt lat="47.1410553" lon="-56.3487467"><ele>125.16</ele></trkpt>
            <trkpt lat="47.1409935" lon="-56.3489472"><ele>123.88</ele></trkpt>
            <trkpt lat="47.1409422" lon="-56.3491482"><ele>122.56</ele></trkpt>
            <trkpt lat="47.1409122" lon="-56.34933"><ele>121.36</ele></trkpt>
            <trkpt lat="47.1408234" lon="-56.3495624"><ele>119.62</ele></trkpt>
            <trkpt lat="47.1407993" lon="-56.3498411"><ele>117.82</ele></trkpt>
            <trkpt lat="47.1407651" lon="-56.349951"><ele>117.07</ele></trkpt>
            <trkpt lat="47.1407126" lon="-56.35002"><ele>116.46</ele></trkpt>
            <trkpt lat="47.1406412" lon="-56.3500662"><ele>115.82</ele></trkpt>
            <trkpt lat="47.1404819" lon="-56.3501149"><ele>114.59</ele></trkpt>
            <trkpt lat="47.1403743" lon="-56.3501799"><ele>113.84</ele></trkpt>
            <trkpt lat="47.1403116" lon="-56.350282"><ele>113.31</ele></trkpt>
            <trkpt lat="47.1402582" lon="-56.3504878"><ele>112.62</ele></trkpt>
            <trkpt lat="47.1402199" lon="-56.3505597"><ele>112.39</ele></trkpt>
            <trkpt lat="47.1401771" lon="-56.3506054"><ele>112.22</ele></trkpt>
            <trkpt lat="47.1401166" lon="-56.3506425"><ele>112.03</ele></trkpt>
            <trkpt lat="47.14003" lon="-56.3506688"><ele>111.84</ele></trkpt>
            <trkpt lat="47.1399529" lon="-56.3506762"><ele>111.71</ele></trkpt>
            <trkpt lat="47.1398834" lon="-56.3506583"><ele>111.63</ele></trkpt>
            <trkpt lat="47.1397313" lon="-56.3505108"><ele>111.5</ele></trkpt>
            <trkpt lat="47.1396532" lon="-56.3504915"><ele>111.46</ele></trkpt>
            <trkpt lat="47.139405" lon="-56.3505722"><ele>111.31</ele></trkpt>
            <trkpt lat="47.1393025" lon="-56.3506164"><ele>111.18</ele></trkpt>
            <trkpt lat="47.1392351" lon="-56.3506703"><ele>111.04</ele></trkpt>
            <trkpt lat="47.1391718" lon="-56.3507244"><ele>110.86</ele></trkpt>
            <trkpt lat="47.1391072" lon="-56.3507495"><ele>110.66</ele></trkpt>
            <trkpt lat="47.1389835" lon="-56.3507417"><ele>110.15</ele></trkpt>
            <trkpt lat="47.13892" lon="-56.350758"><ele>109.81</ele></trkpt>
            <trkpt lat="47.1388206" lon="-56.3508507"><ele>109.07</ele></trkpt>
            <trkpt lat="47.1387039" lon="-56.3509975"><ele>107.83</ele></trkpt>
            <trkpt lat="47.1386088" lon="-56.3511182"><ele>106.58</ele></trkpt>
            <trkpt lat="47.1385314" lon="-56.3512166"><ele>105.41</ele></trkpt>
            <trkpt lat="47.1384206" lon="-56.3513475"><ele>103.58</ele></trkpt>
            <trkpt lat="47.1383484" lon="-56.3514626"><ele>102.05</ele></trkpt>
            <trkpt lat="47.1383245" lon="-56.3515681"><ele>100.89</ele></trkpt>
            <trkpt lat="47.1383076" lon="-56.3517693"><ele>98.65</ele></trkpt>
            <trkpt lat="47.1382645" lon="-56.3519002"><ele>96.95</ele></trkpt>
            <trkpt lat="47.1381863" lon="-56.352"><ele>95.13</ele></trkpt>
            <trkpt lat="47.137993" lon="-56.3521302"><ele>91.29</ele></trkpt>
            <trkpt lat="47.1379208" lon="-56.3522096"><ele>89.66</ele></trkpt>
            <trkpt lat="47.1377988" lon="-56.3524556"><ele>86.01</ele></trkpt>
            <trkpt lat="47.1376916" lon="-56.3527299"><ele>82.45</ele></trkpt>
            <trkpt lat="47.137617" lon="-56.3529237"><ele>80.16</ele></trkpt>
            <trkpt lat="47.1375814" lon="-56.3530162"><ele>79.15</ele></trkpt>
            <trkpt lat="47.1375351" lon="-56.3531347"><ele>77.95</ele></trkpt>
            <trkpt lat="47.1374898" lon="-56.3532562"><ele>76.83</ele></trkpt>
            <trkpt lat="47.1374645" lon="-56.3533441"><ele>76.13</ele></trkpt>
            <trkpt lat="47.1374385" lon="-56.3534397"><ele>75.44</ele></trkpt>
            <trkpt lat="47.1373926" lon="-56.3536088"><ele>74.36</ele></trkpt>
            <trkpt lat="47.1373437" lon="-56.353789"><ele>73.42</ele></trkpt>
            <trkpt lat="47.1372917" lon="-56.3539396"><ele>72.78</ele></trkpt>
            <trkpt lat="47.1371809" lon="-56.3540745"><ele>72.17</ele></trkpt>
            <trkpt lat="47.137139" lon="-56.3541667"><ele>71.93</ele></trkpt>
            <trkpt lat="47.1370832" lon="-56.3546259"><ele>71.32</ele></trkpt>
            <trkpt lat="47.1370172" lon="-56.3548415"><ele>71.2</ele></trkpt>
            <trkpt lat="47.1369453" lon="-56.354991"><ele>71.17</ele></trkpt>
            <trkpt lat="47.1367584" lon="-56.3552262"><ele>71.21</ele></trkpt>
            <trkpt lat="47.136431" lon="-56.3554915"><ele>71.28</ele></trkpt>
            <trkpt lat="47.1363092" lon="-56.3556098"><ele>71.23</ele></trkpt>
            <trkpt lat="47.1361235" lon="-56.3558224"><ele>70.98</ele></trkpt>
            <trkpt lat="47.1359081" lon="-56.356077"><ele>70.38</ele></trkpt>
            <trkpt lat="47.1357735" lon="-56.3564033"><ele>69.46</ele></trkpt>
            <trkpt lat="47.1357205" lon="-56.3564724"><ele>69.14</ele></trkpt>
            <trkpt lat="47.1355784" lon="-56.3565869"><ele>68.29</ele></trkpt>
            <trkpt lat="47.1354634" lon="-56.3567138"><ele>67.39</ele></trkpt>
            <trkpt lat="47.1354015" lon="-56.3568456"><ele>66.62</ele></trkpt>
            <trkpt lat="47.1353413" lon="-56.357099"><ele>65.19</ele></trkpt>
            <trkpt lat="47.1352813" lon="-56.357385"><ele>63.41</ele></trkpt>
            <trkpt lat="47.1351768" lon="-56.357925"><ele>59.79</ele></trkpt>
            <trkpt lat="47.1351439" lon="-56.3583884"><ele>56.72</ele></trkpt>
            <trkpt lat="47.13515" lon="-56.3587335"><ele>54.51</ele></trkpt>
            <trkpt lat="47.1351288" lon="-56.3588185"><ele>53.95</ele></trkpt>
            <trkpt lat="47.1350356" lon="-56.3590497"><ele>52.39</ele></trkpt>
            <trkpt lat="47.1350361" lon="-56.3591994"><ele>51.59</ele></trkpt>
            <trkpt lat="47.1350821" lon="-56.3596041"><ele>49.67</ele></trkpt>
            <trkpt lat="47.1350921" lon="-56.3597894"><ele>48.96</ele></trkpt>
            <trkpt lat="47.1350305" lon="-56.3601077"><ele>48.02</ele></trkpt>
            <trkpt lat="47.1349164" lon="-56.3604184"><ele>47.47</ele></trkpt>
            <trkpt lat="47.1348099" lon="-56.3606372"><ele>47.41</ele></trkpt>
            <trkpt lat="47.1347143" lon="-56.3607949"><ele>47.61</ele></trkpt>
            <trkpt lat="47.1346302" lon="-56.3608508"><ele>47.84</ele></trkpt>
            <trkpt lat="47.1344584" lon="-56.3609044"><ele>48.53</ele></trkpt>
            <trkpt lat="47.1344064" lon="-56.360968"><ele>48.88</ele></trkpt>
            <trkpt lat="47.1343733" lon="-56.3610673"><ele>49.31</ele></trkpt>
            <trkpt lat="47.1343066" lon="-56.3613972"><ele>50.93</ele></trkpt>
            <trkpt lat="47.1342258" lon="-56.3617858"><ele>53.23</ele></trkpt>
            <trkpt lat="47.134178" lon="-56.3619951"><ele>54.59</ele></trkpt>
            <trkpt lat="47.1340069" lon="-56.3627278"><ele>59.58</ele></trkpt>
            <trkpt lat="47.13393" lon="-56.3629295"><ele>60.98</ele></trkpt>
            <trkpt lat="47.1338533" lon="-56.3630906"><ele>62.1</ele></trkpt>
            <trkpt lat="47.1338063" lon="-56.3631977"><ele>62.76</ele></trkpt>
            <trkpt lat="47.1337907" lon="-56.3632898"><ele>63.23</ele></trkpt>
            <trkpt lat="47.1337944" lon="-56.3635593"><ele>64.42</ele></trkpt>
            <trkpt lat="47.1337518" lon="-56.363751"><ele>65.15</ele></trkpt>
            <trkpt lat="47.1336995" lon="-56.3638391"><ele>65.52</ele></trkpt>
            <trkpt lat="47.1335729" lon="-56.3639618"><ele>66.09</ele></trkpt>
            <trkpt lat="47.133478" lon="-56.3641714"><ele>66.54</ele></trkpt>
            <trkpt lat="47.1334416" lon="-56.364287"><ele>66.7</ele></trkpt>
            <trkpt lat="47.1334021" lon="-56.3645553"><ele>66.89</ele></trkpt>
            <trkpt lat="47.1332985" lon="-56.3647829"><ele>66.92</ele></trkpt>
            <trkpt lat="47.1331851" lon="-56.3649814"><ele>66.82</ele></trkpt>
            <trkpt lat="47.1331125" lon="-56.3650569"><ele>66.73</ele></trkpt>
            <trkpt lat="47.1329545" lon="-56.3651168"><ele>66.52</ele></trkpt>
            <trkpt lat="47.1327705" lon="-56.3651815"><ele>66.22</ele></trkpt>
            <trkpt lat="47.1326696" lon="-56.3652429"><ele>66.03</ele></trkpt>
            <trkpt lat="47.1326036" lon="-56.3653341"><ele>65.86</ele></trkpt>
            <trkpt lat="47.132571" lon="-56.365454"><ele>65.68</ele></trkpt>
            <trkpt lat="47.1325437" lon="-56.3657072"><ele>65.32</ele></trkpt>
            <trkpt lat="47.1324965" lon="-56.3658382"><ele>65.09</ele></trkpt>
            <trkpt lat="47.1324109" lon="-56.365968"><ele>64.8</ele></trkpt>
            <trkpt lat="47.1321" lon="-56.3663492"><ele>63.7</ele></trkpt>
            <trkpt lat="47.131979" lon="-56.3664981"><ele>63.18</ele></trkpt>
            <trkpt lat="47.1318969" lon="-56.3666166"><ele>62.76</ele></trkpt>
            <trkpt lat="47.1318738" lon="-56.3667221"><ele>62.46</ele></trkpt>
            <trkpt lat="47.1318542" lon="-56.3669207"><ele>61.87</ele></trkpt>
            <trkpt lat="47.1317914" lon="-56.3672125"><ele>60.86</ele></trkpt>
            <trkpt lat="47.1317991" lon="-56.3673613"><ele>60.34</ele></trkpt>
            <trkpt lat="47.1318567" lon="-56.3676915"><ele>59.09</ele></trkpt>
            <trkpt lat="47.1318467" lon="-56.3678446"><ele>58.52</ele></trkpt>
            <trkpt lat="47.1317967" lon="-56.3680392"><ele>57.76</ele></trkpt>
            <trkpt lat="47.1317477" lon="-56.3681616"><ele>57.25</ele></trkpt>
            <trkpt lat="47.1316917" lon="-56.3682346"><ele>56.87</ele></trkpt>
            <trkpt lat="47.1315841" lon="-56.368346"><ele>56.25</ele></trkpt>
            <trkpt lat="47.1315275" lon="-56.3684567"><ele>55.84</ele></trkpt>
            <trkpt lat="47.1315054" lon="-56.3685717"><ele>55.52</ele></trkpt>
            <trkpt lat="47.1314875" lon="-56.3688258"><ele>54.93</ele></trkpt>
            <trkpt lat="47.1315591" lon="-56.3691811"><ele>54.32</ele></trkpt>
            <trkpt lat="47.1315165" lon="-56.3694951"><ele>54.05</ele></trkpt>
            <trkpt lat="47.1314829" lon="-56.3696676"><ele>54.02</ele></trkpt>
            <trkpt lat="47.1314109" lon="-56.3698477"><ele>54.09</ele></trkpt>
            <trkpt lat="47.1313699" lon="-56.3702276"><ele>54.53</ele></trkpt>
            <trkpt lat="47.131282" lon="-56.3704979"><ele>55.11</ele></trkpt>
            <trkpt lat="47.1310907" lon="-56.3709657"><ele>56.58</ele></trkpt>
            <trkpt lat="47.1308551" lon="-56.3715359"><ele>58.83</ele></trkpt>
            <trkpt lat="47.1308047" lon="-56.3716962"><ele>59.49</ele></trkpt>
            <trkpt lat="47.1307831" lon="-56.3718491"><ele>60.09</ele></trkpt>
            <trkpt lat="47.1307882" lon="-56.3722878"><ele>61.85</ele></trkpt>
            <trkpt lat="47.130776" lon="-56.372483"><ele>62.65</ele></trkpt>
            <trkpt lat="47.130757" lon="-56.3725951"><ele>63.11</ele></trkpt>
            <trkpt lat="47.1306732" lon="-56.3728849"><ele>64.32</ele></trkpt>
            <trkpt lat="47.1306514" lon="-56.3730731"><ele>65</ele></trkpt>
            <trkpt lat="47.130672" lon="-56.3736802"><ele>66.93</ele></trkpt>
            <trkpt lat="47.130683" lon="-56.3739055"><ele>67.5</ele></trkpt>
            <trkpt lat="47.1307095" lon="-56.3740792"><ele>67.86</ele></trkpt>
            <trkpt lat="47.1307481" lon="-56.3741523"><ele>68.01</ele></trkpt>
            <trkpt lat="47.1308525" lon="-56.374279"><ele>68.25</ele></trkpt>
            <trkpt lat="47.1309099" lon="-56.3744367"><ele>68.38</ele></trkpt>
            <trkpt lat="47.1309647" lon="-56.3745614"><ele>68.43</ele></trkpt>
            <trkpt lat="47.1310451" lon="-56.3746973"><ele>68.41</ele></trkpt>
            <trkpt lat="47.1311586" lon="-56.3748813"><ele>68.29</ele></trkpt>
            <trkpt lat="47.1312074" lon="-56.3751178"><ele>68.07</ele></trkpt>
            <trkpt lat="47.1313615" lon="-56.3753899"><ele>67.63</ele></trkpt>
            <trkpt lat="47.1313982" lon="-56.3754982"><ele>67.46</ele></trkpt>
            <trkpt lat="47.1314283" lon="-56.3756515"><ele>67.23</ele></trkpt>
            <trkpt lat="47.1314305" lon="-56.3758664"><ele>66.89</ele></trkpt>
            <trkpt lat="47.1313991" lon="-56.3760931"><ele>66.52</ele></trkpt>
            <trkpt lat="47.1313893" lon="-56.3762675"><ele>66.23</ele></trkpt>
            <trkpt lat="47.1314093" lon="-56.3765802"><ele>65.71</ele></trkpt>
            <trkpt lat="47.1314634" lon="-56.3769815"><ele>65.03</ele></trkpt>
            <trkpt lat="47.1314392" lon="-56.3771547"><ele>64.74</ele></trkpt>
            <trkpt lat="47.1313923" lon="-56.3773629"><ele>64.38</ele></trkpt>
            <trkpt lat="47.131356" lon="-56.3774762"><ele>64.19</ele></trkpt>
            <trkpt lat="47.1313007" lon="-56.3775932"><ele>63.97</ele></trkpt>
            <trkpt lat="47.1312711" lon="-56.3777336"><ele>63.76</ele></trkpt>
            <trkpt lat="47.1312788" lon="-56.3778636"><ele>63.59</ele></trkpt>
            <trkpt lat="47.1313132" lon="-56.3780968"><ele>63.3</ele></trkpt>
            <trkpt lat="47.131281" lon="-56.3785049"><ele>62.93</ele></trkpt>
            <trkpt lat="47.1312697" lon="-56.3786304"><ele>62.85</ele></trkpt>
            <trkpt lat="47.1312593" lon="-56.3787398"><ele>62.79</ele></trkpt>
            <trkpt lat="47.1312277" lon="-56.3788634"><ele>62.73</ele></trkpt>
            <trkpt lat="47.1309465" lon="-56.3792698"><ele>62.61</ele></trkpt>
            <trkpt lat="47.1308073" lon="-56.3794244"><ele>62.56</ele></trkpt>
            <trkpt lat="47.1307571" lon="-56.3795174"><ele>62.54</ele></trkpt>
            <trkpt lat="47.1306979" lon="-56.3797422"><ele>62.46</ele></trkpt>
            <trkpt lat="47.1306441" lon="-56.3799741"><ele>62.32</ele></trkpt>
            <trkpt lat="47.1306396" lon="-56.3801079"><ele>62.22</ele></trkpt>
            <trkpt lat="47.1306549" lon="-56.3803409"><ele>61.98</ele></trkpt>
            <trkpt lat="47.1306206" lon="-56.3805"><ele>61.76</ele></trkpt>
            <trkpt lat="47.1304755" lon="-56.3807814"><ele>61.16</ele></trkpt>
            <trkpt lat="47.1304138" lon="-56.3809992"><ele>60.65</ele></trkpt>
            <trkpt lat="47.1302653" lon="-56.3813346"><ele>59.64</ele></trkpt>
            <trkpt lat="47.1301099" lon="-56.3816789"><ele>58.43</ele></trkpt>
            <trkpt lat="47.1298103" lon="-56.3823262"><ele>55.84</ele></trkpt>
            <trkpt lat="47.1297072" lon="-56.3825305"><ele>54.95</ele></trkpt>
            <trkpt lat="47.1296702" lon="-56.382642"><ele>54.51</ele></trkpt>
            <trkpt lat="47.1296295" lon="-56.3828578"><ele>53.72</ele></trkpt>
            <trkpt lat="47.1295936" lon="-56.3830519"><ele>53.01</ele></trkpt>
            <trkpt lat="47.1295162" lon="-56.3832775"><ele>52.16</ele></trkpt>
            <trkpt lat="47.1294212" lon="-56.3834477"><ele>51.47</ele></trkpt>
            <trkpt lat="47.129315" lon="-56.3835972"><ele>50.86</ele></trkpt>
            <trkpt lat="47.1292288" lon="-56.3836984"><ele>50.46</ele></trkpt>
            <trkpt lat="47.1291064" lon="-56.3838107"><ele>50.02</ele></trkpt>
            <trkpt lat="47.1289971" lon="-56.3838791"><ele>49.73</ele></trkpt>
            <trkpt lat="47.128905" lon="-56.3839133"><ele>49.56</ele></trkpt>
            <trkpt lat="47.1287393" lon="-56.3839326"><ele>49.37</ele></trkpt>
            <trkpt lat="47.1285584" lon="-56.3839135"><ele>49.33</ele></trkpt>
            <trkpt lat="47.1284312" lon="-56.3838821"><ele>49.38</ele></trkpt>
            <trkpt lat="47.1283427" lon="-56.3838927"><ele>49.46</ele></trkpt>
            <trkpt lat="47.1280856" lon="-56.3841164"><ele>49.87</ele></trkpt>
            <trkpt lat="47.1278878" lon="-56.3843314"><ele>50.3</ele></trkpt>
            <trkpt lat="47.12773" lon="-56.384505"><ele>50.63</ele></trkpt>
            <trkpt lat="47.1275879" lon="-56.3846787"><ele>50.89</ele></trkpt>
            <trkpt lat="47.1275216" lon="-56.3848989"><ele>51.06</ele></trkpt>
            <trkpt lat="47.1274654" lon="-56.3852225"><ele>51.17</ele></trkpt>
            <trkpt lat="47.1274046" lon="-56.3855307"><ele>51.13</ele></trkpt>
            <trkpt lat="47.1271827" lon="-56.3859835"><ele>50.74</ele></trkpt>
            <trkpt lat="47.1269876" lon="-56.3865652"><ele>49.92</ele></trkpt>
            <trkpt lat="47.1268675" lon="-56.3867983"><ele>49.41</ele></trkpt>
            <trkpt lat="47.1267437" lon="-56.3869659"><ele>48.88</ele></trkpt>
            <trkpt lat="47.1265675" lon="-56.3871425"><ele>48.09</ele></trkpt>
            <trkpt lat="47.1264274" lon="-56.3872925"><ele>47.36</ele></trkpt>
            <trkpt lat="47.1263272" lon="-56.387548"><ele>46.42</ele></trkpt>
            <trkpt lat="47.1262786" lon="-56.3876218"><ele>46.07</ele></trkpt>
            <trkpt lat="47.1261487" lon="-56.3877255"><ele>45.3</ele></trkpt>
            <trkpt lat="47.1259244" lon="-56.3880517"><ele>43.52</ele></trkpt>
            <trkpt lat="47.1257243" lon="-56.3882361"><ele>42.12</ele></trkpt>
            <trkpt lat="47.1253761" lon="-56.3888049"><ele>38.95</ele></trkpt>
            <trkpt lat="47.1251946" lon="-56.3891159"><ele>37.25</ele></trkpt>
            <trkpt lat="47.1250951" lon="-56.3891885"><ele>36.58</ele></trkpt>
            <trkpt lat="47.1248229" lon="-56.3893295"><ele>34.85</ele></trkpt>
            <trkpt lat="47.1245582" lon="-56.3895125"><ele>33.1</ele></trkpt>
            <trkpt lat="47.1242947" lon="-56.3895861"><ele>31.49</ele></trkpt>
            <trkpt lat="47.1240972" lon="-56.3896642"><ele>30.25</ele></trkpt>
            <trkpt lat="47.1240442" lon="-56.3897264"><ele>29.83</ele></trkpt>
            <trkpt lat="47.1240054" lon="-56.3898273"><ele>29.35</ele></trkpt>
            <trkpt lat="47.1239679" lon="-56.3902112"><ele>27.72</ele></trkpt>
            <trkpt lat="47.1239445" lon="-56.3902561"><ele>27.48</ele></trkpt>
            <trkpt lat="47.1238911" lon="-56.3902993"><ele>27.1</ele></trkpt>
            <trkpt lat="47.123763" lon="-56.3903579"><ele>26.27</ele></trkpt>
            <trkpt lat="47.1235789" lon="-56.3904389"><ele>25.1</ele></trkpt>
            <trkpt lat="47.1232256" lon="-56.3905586"><ele>22.93</ele></trkpt>
            <trkpt lat="47.1230412" lon="-56.3905699"><ele>21.88</ele></trkpt>
            <trkpt lat="47.1226342" lon="-56.3904792"><ele>19.7</ele></trkpt>
            <trkpt lat="47.1225308" lon="-56.3905096"><ele>19.19</ele></trkpt>
            <trkpt lat="47.1224648" lon="-56.3905988"><ele>18.77</ele></trkpt>
            <trkpt lat="47.1222562" lon="-56.3910048"><ele>17.36</ele></trkpt>
            <trkpt lat="47.1221462" lon="-56.3913074"><ele>16.56</ele></trkpt>
            <trkpt lat="47.1219737" lon="-56.391666"><ele>15.75</ele></trkpt>
            <trkpt lat="47.1218984" lon="-56.3917335"><ele>15.55</ele></trkpt>
            <trkpt lat="47.1216645" lon="-56.3918015"><ele>15.1</ele></trkpt>
            <trkpt lat="47.1214004" lon="-56.3920384"><ele>14.68</ele></trkpt>
            <trkpt lat="47.1212089" lon="-56.392179"><ele>14.46</ele></trkpt>
            <trkpt lat="47.120924" lon="-56.3923166"><ele>14.24</ele></trkpt>
            <trkpt lat="47.1205281" lon="-56.3924601"><ele>14</ele></trkpt>
            <trkpt lat="47.1201201" lon="-56.3925878"><ele>13.81</ele></trkpt>
            <trkpt lat="47.1194034" lon="-56.3926989"><ele>13.53</ele></trkpt>
            <trkpt lat="47.1192297" lon="-56.3927307"><ele>13.48</ele></trkpt>
            <trkpt lat="47.1190498" lon="-56.3927683"><ele>13.45</ele></trkpt>
            <trkpt lat="47.1189627" lon="-56.3928001"><ele>13.44</ele></trkpt>
            <trkpt lat="47.118741" lon="-56.3929372"><ele>13.45</ele></trkpt>
            <trkpt lat="47.1184914" lon="-56.3930616"><ele>13.47</ele></trkpt>
            <trkpt lat="47.1182681" lon="-56.3931679"><ele>13.5</ele></trkpt>
            <trkpt lat="47.1179979" lon="-56.3932421"><ele>13.53</ele></trkpt>
            <trkpt lat="47.1175807" lon="-56.3933719"><ele>13.56</ele></trkpt>
            <trkpt lat="47.1173" lon="-56.393506"><ele>13.55</ele></trkpt>
            <trkpt lat="47.1169501" lon="-56.393676"><ele>13.5</ele></trkpt>
            <trkpt lat="47.1161927" lon="-56.3940586"><ele>13.23</ele></trkpt>
            <trkpt lat="47.1159853" lon="-56.3941623"><ele>13.09</ele></trkpt>
            <trkpt lat="47.1157713" lon="-56.3942746"><ele>12.88</ele></trkpt>
            <trkpt lat="47.1155862" lon="-56.3944282"><ele>12.65</ele></trkpt>
            <trkpt lat="47.1154104" lon="-56.3945916"><ele>12.4</ele></trkpt>
            <trkpt lat="47.1153852" lon="-56.3946738"><ele>12.32</ele></trkpt>
            <trkpt lat="47.1154078" lon="-56.3948964"><ele>12.15</ele></trkpt>
            <trkpt lat="47.1153596" lon="-56.3950536"><ele>12.04</ele></trkpt>
            <trkpt lat="47.1152696" lon="-56.3951821"><ele>11.94</ele></trkpt>
            <trkpt lat="47.1150902" lon="-56.3953913"><ele>11.84</ele></trkpt>
            <trkpt lat="47.1148502" lon="-56.3956614"><ele>11.9</ele></trkpt>
            <trkpt lat="47.11467" lon="-56.3958467"><ele>12.11</ele></trkpt>
            <trkpt lat="47.114435" lon="-56.3960925"><ele>12.62</ele></trkpt>
            <trkpt lat="47.1136293" lon="-56.39695"><ele>15.27</ele></trkpt>
            <trkpt lat="47.1133985" lon="-56.3971782"><ele>16.18</ele></trkpt>
            <trkpt lat="47.1132954" lon="-56.3972555"><ele>16.61</ele></trkpt>
            <trkpt lat="47.1130891" lon="-56.3973382"><ele>17.47</ele></trkpt>
            <trkpt lat="47.1127949" lon="-56.3974025"><ele>18.8</ele></trkpt>
            <trkpt lat="47.1125645" lon="-56.3974409"><ele>19.92</ele></trkpt>
            <trkpt lat="47.1119536" lon="-56.3975427"><ele>23.08</ele></trkpt>
            <trkpt lat="47.1116482" lon="-56.3975936"><ele>24.72</ele></trkpt>
            <trkpt lat="47.1108201" lon="-56.3977091"><ele>29.25</ele></trkpt>
            <trkpt lat="47.110445" lon="-56.397725"><ele>31.2</ele></trkpt>
            <trkpt lat="47.109845" lon="-56.397749"><ele>34.02</ele></trkpt>
            <trkpt lat="47.10962" lon="-56.397758"><ele>34.85</ele></trkpt>
            <trkpt lat="47.10947" lon="-56.397764"><ele>35.27</ele></trkpt>
            <trkpt lat="47.1093203" lon="-56.397769"><ele>35.54</ele></trkpt>
            <trkpt lat="47.1090909" lon="-56.3977618"><ele>35.7</ele></trkpt>
            <trkpt lat="47.1089382" lon="-56.3977564"><ele>35.62</ele></trkpt>
            <trkpt lat="47.1087091" lon="-56.3977482"><ele>35.22</ele></trkpt>
            <trkpt lat="47.1084801" lon="-56.3977396"><ele>34.51</ele></trkpt>
            <trkpt lat="47.108249" lon="-56.397725"><ele>33.51</ele></trkpt>
            <trkpt lat="47.107864" lon="-56.3977"><ele>31.41</ele></trkpt>
            <trkpt lat="47.1070718" lon="-56.3976491"><ele>26.48</ele></trkpt>
            <trkpt lat="47.1068533" lon="-56.3976281"><ele>25.15</ele></trkpt>
            <trkpt lat="47.1067009" lon="-56.3976045"><ele>24.26</ele></trkpt>
            <trkpt lat="47.1064718" lon="-56.3975691"><ele>23.01</ele></trkpt>
            <trkpt lat="47.1061668" lon="-56.3975219"><ele>21.49</ele></trkpt>
            <trkpt lat="47.105353" lon="-56.3973283"><ele>17.87</ele></trkpt>
            <trkpt lat="47.1052234" lon="-56.3972433"><ele>17.3</ele></trkpt>
            <trkpt lat="47.1050244" lon="-56.3970495"><ele>16.42</ele></trkpt>
            <trkpt lat="47.1047753" lon="-56.3966742"><ele>15.27</ele></trkpt>
            <trkpt lat="47.1047389" lon="-56.396574"><ele>15.05</ele></trkpt>
            <trkpt lat="47.1047257" lon="-56.3964615"><ele>14.84</ele></trkpt>
            <trkpt lat="47.1047376" lon="-56.3959868"><ele>14.1</ele></trkpt>
            <trkpt lat="47.1047764" lon="-56.3954709"><ele>13.47</ele></trkpt>
            <trkpt lat="47.1048218" lon="-56.3949345"><ele>13.01</ele></trkpt>
            <trkpt lat="47.1049036" lon="-56.3939627"><ele>12.4</ele></trkpt>
            <trkpt lat="47.1049486" lon="-56.393426"><ele>12.06</ele></trkpt>
            <trkpt lat="47.105065" lon="-56.3919564"><ele>10.97</ele></trkpt>
            <trkpt lat="47.105095" lon="-56.3913331"><ele>10.31</ele></trkpt>
            <trkpt lat="47.1050933" lon="-56.3911161"><ele>10.02</ele></trkpt>
            <trkpt lat="47.1050778" lon="-56.3908895"><ele>9.69</ele></trkpt>
            <trkpt lat="47.1048656" lon="-56.3896345"><ele>7.53</ele></trkpt>
            <trkpt lat="47.1048222" lon="-56.3893178"><ele>7.05</ele></trkpt>
            <trkpt lat="47.1047644" lon="-56.3888953"><ele>6.5</ele></trkpt>
            <trkpt lat="47.104629" lon="-56.3876901"><ele>5.34</ele></trkpt>
            <trkpt lat="47.1044144" lon="-56.3864078"><ele>4.59</ele></trkpt>
            <trkpt lat="47.10428" lon="-56.3856711"><ele>4.45</ele></trkpt>
            <trkpt lat="47.10418" lon="-56.3851489"><ele>4.53</ele></trkpt>
            <trkpt lat="47.1040833" lon="-56.3846233"><ele>4.79</ele></trkpt>
            <trkpt lat="47.1038756" lon="-56.3834678"><ele>5.64</ele></trkpt>
            <trkpt lat="47.1036593" lon="-56.3822665"><ele>6.59</ele></trkpt>
            <trkpt lat="47.1035896" lon="-56.381891"><ele>6.83</ele></trkpt>
            <trkpt lat="47.1035299" lon="-56.3816635"><ele>6.94</ele></trkpt>
            <trkpt lat="47.1035304" lon="-56.3815618"><ele>6.98</ele></trkpt>
            <trkpt lat="47.1035702" lon="-56.38151"><ele>7</ele></trkpt>
            <trkpt lat="47.1036316" lon="-56.3815122"><ele>7.02</ele></trkpt>
            <trkpt lat="47.1039386" lon="-56.3816651"><ele>7.08</ele></trkpt>
            <trkpt lat="47.1047492" lon="-56.3819517"><ele>6.99</ele></trkpt>
            <trkpt lat="47.1052708" lon="-56.3822083"><ele>6.88</ele></trkpt>
            <trkpt lat="47.1057911" lon="-56.3823788"><ele>6.78</ele></trkpt>
            <trkpt lat="47.10665" lon="-56.382555"><ele>6.66</ele></trkpt>
            <trkpt lat="47.1081504" lon="-56.3828209"><ele>6.56</ele></trkpt>
            <trkpt lat="47.1085096" lon="-56.3829086"><ele>6.53</ele></trkpt>
            <trkpt lat="47.1088118" lon="-56.3829536"><ele>6.48</ele></trkpt>
            <trkpt lat="47.1095145" lon="-56.3830544"><ele>6.3</ele></trkpt>
        </trkseg>
    </trk>
</gpx>
