<?xml version="1.0" encoding="UTF-8"?>
<gpx schemaLocation="http://www.topografix.com/GPX/1/1 http://www.topografix.com/GPX/1/1/gpx.xsd" version="1.1" creator="processGPX-js" xmlns="http://www.topografix.com/GPX/1/1" xmlns:xsi="http://www.w3.org/2001/XMLSchema-instance" xsi:schemaLocation="http://www.topografix.com/GPX/1/1 http://www.topografix.com/GPX/1/1/gpx.xsd http://www.garmin.com/xmlschemas/GpxExtensions/v3 http://www.garmin.com/xmlschemas/GpxExtensionsv3.xsd http://www.garmin.com/xmlschemas/TrackPointExtension/v1 http://www.garmin.com/xmlschemas/TrackPointExtensionv1.xsd http://www.garmin.com/xmlschemas/PowerExtension/v1 http://www.garmin.com/xmlschemas/PowerExtensionv1.xsd http://www.topografix.com/GPX/gpx_style/0/2 http://www.topografix.com/GPX/gpx_style/0/2/gpx_style.xsd" xmlns:gpxtpx="http://www.garmin.com/xmlschemas/TrackPointExtension/v1" xmlns:gpxx="http://www.garmin.com/xmlschemas/GpxExtensions/v3" xmlns:gpxpx="http://www.garmin.com/xmlschemas/PowerExtension/v1" xmlns:gpx_style="http://www.topografix.com/GPX/gpx_style/0/2">
  <metadata>
    <name>Volcano OaB</name>
    <author>
      <name>gpx.studio</name>
      <link href="https://gpx.studio"/>
    </author>
    <time>2026-03-02T18:19:02.504Z</time>
  </metadata>
  <trk>
    <name>Volcano OaB</name>
    <desc>name=Volcano OaB
type=cycling
processed=true
processedAt=2026-03-02T18:19:00.289Z</desc>
    <trkseg>
      <trkpt lat="19.401186325444858" lon="-155.2665076109923">
        <ele>1114.786193254461</ele>
      </trkpt>
      <trkpt lat="19.401869533382193" lon="-155.26556987731016">
        <ele>1120.0189536808593</ele>
      </trkpt>
      <trkpt lat="19.402847301027364" lon="-155.26413272932686">
        <ele>1127.935789802177</ele>
      </trkpt>
      <trkpt lat="19.402922680274855" lon="-155.2640073904766">
        <ele>1128.4741092197548</ele>
      </trkpt>
      <trkpt lat="19.403119399368542" lon="-155.2636299910659">
        <ele>1129.8824823051734</ele>
      </trkpt>
      <trkpt lat="19.403810273668423" lon="-155.2621798411058">
        <ele>1132.2166078785658</ele>
      </trkpt>
      <trkpt lat="19.405409231144727" lon="-155.25892263313344">
        <ele>1145.170942271868</ele>
      </trkpt>
      <trkpt lat="19.405471210572614" lon="-155.2587752517566">
        <ele>1145.3119412155495</ele>
      </trkpt>
      <trkpt lat="19.40556832499722" lon="-155.25850540595283">
        <ele>1145.4832885228698</ele>
      </trkpt>
      <trkpt lat="19.40558254893567" lon="-155.25843218033557">
        <ele>1145.52931632119</ele>
      </trkpt>
      <trkpt lat="19.40559479280557" lon="-155.25827750177558">
        <ele>1145.6143684126898</ele>
      </trkpt>
      <trkpt lat="19.405596967413885" lon="-155.25821009528704">
        <ele>1145.6353136064647</ele>
      </trkpt>
      <trkpt lat="19.405591297426433" lon="-155.25812079378932">
        <ele>1145.641522725402</ele>
      </trkpt>
      <trkpt lat="19.405287278943657" lon="-155.25498520686463">
        <ele>1141.0273769259402</ele>
      </trkpt>
      <trkpt lat="19.40519133411991" lon="-155.25426733818122">
        <ele>1139.278245796639</ele>
      </trkpt>
      <trkpt lat="19.405182533124965" lon="-155.2540780303082">
        <ele>1138.8240576202786</ele>
      </trkpt>
      <trkpt lat="19.40519181180404" lon="-155.25394149035884">
        <ele>1138.397095339673</ele>
      </trkpt>
      <trkpt lat="19.405340636246304" lon="-155.25282093483477">
        <ele>1134.168785721844</ele>
      </trkpt>
      <trkpt lat="19.405351862871388" lon="-155.25275092624366">
        <ele>1133.937755210595</ele>
      </trkpt>
      <trkpt lat="19.405370101338296" lon="-155.2526778285741">
        <ele>1133.700021036796</ele>
      </trkpt>
      <trkpt lat="19.405451900229078" lon="-155.25239076512406">
        <ele>1132.9862712406855</ele>
      </trkpt>
      <trkpt lat="19.40560117447562" lon="-155.25205244413405">
        <ele>1133.182499454955</ele>
      </trkpt>
      <trkpt lat="19.40578647632349" lon="-155.25176714121324">
        <ele>1134.6179580564733</ele>
      </trkpt>
      <trkpt lat="19.405840602126766" lon="-155.25170044456664">
        <ele>1135.1332917330674</ele>
      </trkpt>
      <trkpt lat="19.405931558279804" lon="-155.25160937187962">
        <ele>1135.943269095124</ele>
      </trkpt>
      <trkpt lat="19.40614704670268" lon="-155.25140930441793">
        <ele>1137.5710636322337</ele>
      </trkpt>
      <trkpt lat="19.40623148237601" lon="-155.25134323681021">
        <ele>1138.0468330836763</ele>
      </trkpt>
      <trkpt lat="19.406810169666258" lon="-155.25100947469866">
        <ele>1140.646528499726</ele>
      </trkpt>
      <trkpt lat="19.40703856946171" lon="-155.2508686029918">
        <ele>1140.9916788347196</ele>
      </trkpt>
      <trkpt lat="19.407095113718125" lon="-155.25082483297564">
        <ele>1140.9932469030564</ele>
      </trkpt>
      <trkpt lat="19.407258766401814" lon="-155.25068852797432">
        <ele>1140.9216471028953</ele>
      </trkpt>
      <trkpt lat="19.40764824525877" lon="-155.25026944690944">
        <ele>1140.923316190288</ele>
      </trkpt>
      <trkpt lat="19.407830230293815" lon="-155.2500185156221">
        <ele>1140.724581060707</ele>
      </trkpt>
      <trkpt lat="19.407978278774422" lon="-155.24979013234562">
        <ele>1140.2145173434217</ele>
      </trkpt>
      <trkpt lat="19.40808493050128" lon="-155.2495875953638">
        <ele>1139.8032771658106</ele>
      </trkpt>
      <trkpt lat="19.40814993572088" lon="-155.2494520994159">
        <ele>1139.4748090950625</ele>
      </trkpt>
      <trkpt lat="19.408267697941454" lon="-155.24917989231773">
        <ele>1138.6553289937212</ele>
      </trkpt>
      <trkpt lat="19.408290033500478" lon="-155.249103052576">
        <ele>1138.4469961219718</ele>
      </trkpt>
      <trkpt lat="19.408346416418564" lon="-155.24886936685348">
        <ele>1137.9575784938963</ele>
      </trkpt>
      <trkpt lat="19.408420765416732" lon="-155.24850404964891">
        <ele>1137.5401243519025</ele>
      </trkpt>
      <trkpt lat="19.408435533020523" lon="-155.24840958197416">
        <ele>1137.529196054481</ele>
      </trkpt>
      <trkpt lat="19.40843562466548" lon="-155.2483157103137">
        <ele>1137.5894363858233</ele>
      </trkpt>
      <trkpt lat="19.40842569894705" lon="-155.2481908122092">
        <ele>1137.7758789389545</ele>
      </trkpt>
      <trkpt lat="19.408337728111345" lon="-155.247870333997">
        <ele>1138.8408145939275</ele>
      </trkpt>
      <trkpt lat="19.408324844351117" lon="-155.24779597579877">
        <ele>1139.2520551713683</ele>
      </trkpt>
      <trkpt lat="19.408315085359703" lon="-155.24768724707596">
        <ele>1139.9316307184818</ele>
      </trkpt>
      <trkpt lat="19.408320595902307" lon="-155.24760517615">
        <ele>1140.4558691051973</ele>
      </trkpt>
      <trkpt lat="19.40839710801716" lon="-155.24715969048688">
        <ele>1143.095993774701</ele>
      </trkpt>
      <trkpt lat="19.408409114599507" lon="-155.24639670183063">
        <ele>1147.9399653109874</ele>
      </trkpt>
      <trkpt lat="19.408411718241876" lon="-155.24632136942628">
        <ele>1148.2871393205523</ele>
      </trkpt>
      <trkpt lat="19.408422166242122" lon="-155.24623908931537">
        <ele>1148.6312452303575</ele>
      </trkpt>
      <trkpt lat="19.408441986411557" lon="-155.2461201899391">
        <ele>1149.2018433709968</ele>
      </trkpt>
      <trkpt lat="19.408492755950128" lon="-155.24594097229405">
        <ele>1150.494387593774</ele>
      </trkpt>
      <trkpt lat="19.40870272821003" lon="-155.2454869790886">
        <ele>1154.1505131517815</ele>
      </trkpt>
      <trkpt lat="19.408725896946294" lon="-155.24542840433406">
        <ele>1154.58765339177</ele>
      </trkpt>
      <trkpt lat="19.40874156724795" lon="-155.24536964583734">
        <ele>1154.9962280841805</ele>
      </trkpt>
      <trkpt lat="19.40875867551693" lon="-155.2452768750289">
        <ele>1155.6006275021325</ele>
      </trkpt>
      <trkpt lat="19.40879388430019" lon="-155.24495364790397">
        <ele>1157.4342984546868</ele>
      </trkpt>
      <trkpt lat="19.408804306169813" lon="-155.24489110402612">
        <ele>1157.7501458311056</ele>
      </trkpt>
      <trkpt lat="19.40882195434412" lon="-155.2448305172658">
        <ele>1158.0684206537294</ele>
      </trkpt>
      <trkpt lat="19.408948620031072" lon="-155.24447673035297">
        <ele>1160.041717499687</ele>
      </trkpt>
      <trkpt lat="19.408965275983785" lon="-155.2443974051252">
        <ele>1160.5158189751064</ele>
      </trkpt>
      <trkpt lat="19.40896380473568" lon="-155.24428792005224">
        <ele>1161.1981921457775</ele>
      </trkpt>
      <trkpt lat="19.408953401391013" lon="-155.2442020217424">
        <ele>1161.7596917325072</ele>
      </trkpt>
      <trkpt lat="19.408935480856925" lon="-155.2441474359977">
        <ele>1162.1370166990966</ele>
      </trkpt>
      <trkpt lat="19.40883175804138" lon="-155.24390938828458">
        <ele>1163.815168823431</ele>
      </trkpt>
      <trkpt lat="19.408796114968055" lon="-155.2437895449224">
        <ele>1164.5612783584024</ele>
      </trkpt>
      <trkpt lat="19.408785010952517" lon="-155.24370014025715">
        <ele>1165.0406166296093</ele>
      </trkpt>
      <trkpt lat="19.408797159009655" lon="-155.24355618639507">
        <ele>1165.7315251679074</ele>
      </trkpt>
      <trkpt lat="19.408811216407347" lon="-155.24349066798447">
        <ele>1166.0564570491517</ele>
      </trkpt>
      <trkpt lat="19.40886032727792" lon="-155.24334031253656">
        <ele>1166.9265981804438</ele>
      </trkpt>
      <trkpt lat="19.408883921063193" lon="-155.24328209898286">
        <ele>1167.3130078025652</ele>
      </trkpt>
      <trkpt lat="19.40891413952442" lon="-155.24322733295674">
        <ele>1167.7139489495592</ele>
      </trkpt>
      <trkpt lat="19.40911035884971" lon="-155.24292084764915">
        <ele>1169.8829700835533</ele>
      </trkpt>
      <trkpt lat="19.409464520161364" lon="-155.24242427044322">
        <ele>1171.0542679710252</ele>
      </trkpt>
      <trkpt lat="19.409512254239335" lon="-155.24234146064308">
        <ele>1171.2360756315015</ele>
      </trkpt>
      <trkpt lat="19.409556224213194" lon="-155.24224347901307">
        <ele>1171.4422817966242</ele>
      </trkpt>
      <trkpt lat="19.40957110999641" lon="-155.24219108122213">
        <ele>1171.534584634851</ele>
      </trkpt>
      <trkpt lat="19.409590975935057" lon="-155.24204369766292">
        <ele>1171.711147191891</ele>
      </trkpt>
      <trkpt lat="19.409596377592464" lon="-155.24197010146074">
        <ele>1171.7573000232458</ele>
      </trkpt>
      <trkpt lat="19.409589979783647" lon="-155.24185000185946">
        <ele>1171.793229048724</ele>
      </trkpt>
      <trkpt lat="19.409576463801233" lon="-155.241730558102">
        <ele>1171.8209292344866</ele>
      </trkpt>
      <trkpt lat="19.40951761782079" lon="-155.24151834705165">
        <ele>1172.0436946297796</ele>
      </trkpt>
      <trkpt lat="19.40947922055256" lon="-155.24142198099278">
        <ele>1172.3133970476163</ele>
      </trkpt>
      <trkpt lat="19.40941904318555" lon="-155.24129091320683">
        <ele>1172.9003082684724</ele>
      </trkpt>
      <trkpt lat="19.409261751111224" lon="-155.24101266330362">
        <ele>1174.5607499004038</ele>
      </trkpt>
      <trkpt lat="19.40923325762972" lon="-155.24097763602944">
        <ele>1174.7599628204675</ele>
      </trkpt>
      <trkpt lat="19.40921140080966" lon="-155.24095896912712">
        <ele>1174.8825229286997</ele>
      </trkpt>
      <trkpt lat="19.409161646045483" lon="-155.24092875186943">
        <ele>1175.1294357494648</ele>
      </trkpt>
      <trkpt lat="19.40910815143222" lon="-155.24090507236843">
        <ele>1175.391438992877</ele>
      </trkpt>
      <trkpt lat="19.40904625634121" lon="-155.2408880462354">
        <ele>1175.7183409355941</ele>
      </trkpt>
      <trkpt lat="19.408771792911182" lon="-155.24083237590273">
        <ele>1177.7229746681003</ele>
      </trkpt>
      <trkpt lat="19.4087227396965" lon="-155.2408167786077">
        <ele>1178.15640154255</ele>
      </trkpt>
      <trkpt lat="19.40863886932914" lon="-155.24078030217757">
        <ele>1178.929695506566</ele>
      </trkpt>
      <trkpt lat="19.408563824209917" lon="-155.24072977121435">
        <ele>1179.655948065227</ele>
      </trkpt>
      <trkpt lat="19.408379621170504" lon="-155.2405717082418">
        <ele>1181.341227905728</ele>
      </trkpt>
      <trkpt lat="19.408349145316674" lon="-155.24054151293285">
        <ele>1181.6199781750756</ele>
      </trkpt>
      <trkpt lat="19.408315390205587" lon="-155.2404950838938">
        <ele>1181.9893196440885</ele>
      </trkpt>
      <trkpt lat="19.408293225890432" lon="-155.24044539744048">
        <ele>1182.335487787563</ele>
      </trkpt>
      <trkpt lat="19.408284470327953" lon="-155.2404078720077">
        <ele>1182.5775058264478</ele>
      </trkpt>
      <trkpt lat="19.4082801729103" lon="-155.240324987343">
        <ele>1183.0832119872634</ele>
      </trkpt>
      <trkpt lat="19.40828399719526" lon="-155.2402419078553">
        <ele>1183.5514383266423</ele>
      </trkpt>
      <trkpt lat="19.408297667936303" lon="-155.2401848958888">
        <ele>1183.8518279331124</ele>
      </trkpt>
      <trkpt lat="19.40831939392076" lon="-155.24013063300035">
        <ele>1184.1308950585828</ele>
      </trkpt>
      <trkpt lat="19.408372216364565" lon="-155.24002493192705">
        <ele>1184.6835906123192</ele>
      </trkpt>
      <trkpt lat="19.408653057291374" lon="-155.2395696004078">
        <ele>1187.473262742565</ele>
      </trkpt>
      <trkpt lat="19.40871129400763" lon="-155.23949635811567">
        <ele>1187.8445860674108</ele>
      </trkpt>
      <trkpt lat="19.40873325559654" lon="-155.2394769459562">
        <ele>1187.9495179686771</ele>
      </trkpt>
      <trkpt lat="19.408768086492643" lon="-155.23945560192257">
        <ele>1188.089018127239</ele>
      </trkpt>
      <trkpt lat="19.408857580031967" lon="-155.23942752781375">
        <ele>1188.38564513226</ele>
      </trkpt>
      <trkpt lat="19.408907778974264" lon="-155.23942193343754">
        <ele>1188.5351712703796</ele>
      </trkpt>
      <trkpt lat="19.408956608816737" lon="-155.2394238827856">
        <ele>1188.6761367067368</ele>
      </trkpt>
      <trkpt lat="19.409045612186738" lon="-155.2394454336139">
        <ele>1188.9356203769087</ele>
      </trkpt>
      <trkpt lat="19.409464575760374" lon="-155.23958465995756">
        <ele>1190.1621941758872</ele>
      </trkpt>
      <trkpt lat="19.40954082207462" lon="-155.2396044663933">
        <ele>1190.3223418211262</ele>
      </trkpt>
      <trkpt lat="19.409595169119395" lon="-155.2396091182401">
        <ele>1190.4147137003476</ele>
      </trkpt>
      <trkpt lat="19.409683079005646" lon="-155.23960581403875">
        <ele>1190.5360433163967</ele>
      </trkpt>
      <trkpt lat="19.409777810465393" lon="-155.23958690713735">
        <ele>1190.6389853591227</ele>
      </trkpt>
      <trkpt lat="19.410565783787042" lon="-155.23926887632854">
        <ele>1191.1751862966914</ele>
      </trkpt>
      <trkpt lat="19.410709210127692" lon="-155.23919152137117">
        <ele>1191.4065301258654</ele>
      </trkpt>
      <trkpt lat="19.41074620548272" lon="-155.23916489478594">
        <ele>1191.4847428363094</ele>
      </trkpt>
      <trkpt lat="19.410796785495634" lon="-155.2391141470556">
        <ele>1191.611944925042</ele>
      </trkpt>
      <trkpt lat="19.411176253011554" lon="-155.2386709530462">
        <ele>1192.8615598597132</ele>
      </trkpt>
      <trkpt lat="19.41121080021757" lon="-155.23864247178872">
        <ele>1193.0172741124672</ele>
      </trkpt>
      <trkpt lat="19.411263993863543" lon="-155.23861035620183">
        <ele>1193.2494711573631</ele>
      </trkpt>
      <trkpt lat="19.411340179829224" lon="-155.23857387929797">
        <ele>1193.558265945029</ele>
      </trkpt>
      <trkpt lat="19.41140063831073" lon="-155.23855178447081">
        <ele>1193.7579139496097</ele>
      </trkpt>
      <trkpt lat="19.411483389200214" lon="-155.23854058042477">
        <ele>1193.9481908595253</ele>
      </trkpt>
      <trkpt lat="19.412009630149683" lon="-155.23853978028518">
        <ele>1194.2640163030983</ele>
      </trkpt>
      <trkpt lat="19.41207952643608" lon="-155.2385357780875">
        <ele>1194.2216255753372</ele>
      </trkpt>
      <trkpt lat="19.412148152253355" lon="-155.23852233938962">
        <ele>1194.141669898401</ele>
      </trkpt>
      <trkpt lat="19.41247662332519" lon="-155.23843994376446">
        <ele>1193.560717294766</ele>
      </trkpt>
      <trkpt lat="19.41256969493031" lon="-155.2384329475616">
        <ele>1193.4978664372152</ele>
      </trkpt>
      <trkpt lat="19.412657076907657" lon="-155.2384436950065">
        <ele>1193.5209243085078</ele>
      </trkpt>
      <trkpt lat="19.412706915363607" lon="-155.23845813767926">
        <ele>1193.5724879841775</ele>
      </trkpt>
      <trkpt lat="19.412743738999282" lon="-155.23847726830823">
        <ele>1193.633462919908</ele>
      </trkpt>
      <trkpt lat="19.412884205742717" lon="-155.23857375871046">
        <ele>1194.0710548883235</ele>
      </trkpt>
      <trkpt lat="19.412954499835386" lon="-155.23860026720928">
        <ele>1194.3470026005327</ele>
      </trkpt>
      <trkpt lat="19.413050643278567" lon="-155.2386122664018">
        <ele>1194.728026101611</ele>
      </trkpt>
      <trkpt lat="19.413399523079686" lon="-155.23862842486045">
        <ele>1196.0011821834426</ele>
      </trkpt>
      <trkpt lat="19.41344299052409" lon="-155.23863554339056">
        <ele>1196.1687237544043</ele>
      </trkpt>
      <trkpt lat="19.413473199072946" lon="-155.23864641576577">
        <ele>1196.2958320563241</ele>
      </trkpt>
      <trkpt lat="19.413579684038602" lon="-155.23871697445065">
        <ele>1196.842155806955</ele>
      </trkpt>
      <trkpt lat="19.413621668756637" lon="-155.2387524480306">
        <ele>1197.0928607791818</ele>
      </trkpt>
      <trkpt lat="19.41364527495914" lon="-155.23877951269355">
        <ele>1197.2586656514754</ele>
      </trkpt>
      <trkpt lat="19.413683440055184" lon="-155.23884132848576">
        <ele>1197.5964985192572</ele>
      </trkpt>
      <trkpt lat="19.413847989884925" lon="-155.23914481757987">
        <ele>1199.217906317306</ele>
      </trkpt>
      <trkpt lat="19.41388874203971" lon="-155.2392051755811">
        <ele>1199.5207819789844</ele>
      </trkpt>
      <trkpt lat="19.413917966834564" lon="-155.23923944764988">
        <ele>1199.7004678629692</ele>
      </trkpt>
      <trkpt lat="19.413990977038026" lon="-155.2392973098467">
        <ele>1200.062678052131</ele>
      </trkpt>
      <trkpt lat="19.41431558888894" lon="-155.2395010153113">
        <ele>1201.383452255692</ele>
      </trkpt>
      <trkpt lat="19.414362568962055" lon="-155.23954498818958">
        <ele>1201.503974430862</ele>
      </trkpt>
      <trkpt lat="19.414393053264767" lon="-155.23958883889287">
        <ele>1201.5603802779915</ele>
      </trkpt>
      <trkpt lat="19.414434538546697" lon="-155.2396851056432">
        <ele>1201.547059680211</ele>
      </trkpt>
      <trkpt lat="19.414449078707996" lon="-155.23973550197312">
        <ele>1201.4795819442459</ele>
      </trkpt>
      <trkpt lat="19.41445727214477" lon="-155.23978532987124">
        <ele>1201.3800681153514</ele>
      </trkpt>
      <trkpt lat="19.41446060154179" lon="-155.24017310194432">
        <ele>1200.0397658997604</ele>
      </trkpt>
      <trkpt lat="19.414466757945533" lon="-155.2402385500215">
        <ele>1199.776132870482</ele>
      </trkpt>
      <trkpt lat="19.414480994628427" lon="-155.24029112089244">
        <ele>1199.5411993565071</ele>
      </trkpt>
      <trkpt lat="19.41451123598453" lon="-155.24036746700747">
        <ele>1199.1363361547571</ele>
      </trkpt>
      <trkpt lat="19.414530616444534" lon="-155.2404020971718">
        <ele>1198.910216108344</ele>
      </trkpt>
      <trkpt lat="19.414555928772653" lon="-155.24043150255937">
        <ele>1198.6652871560484</ele>
      </trkpt>
      <trkpt lat="19.414608751477196" lon="-155.24047163154154">
        <ele>1198.1917649858933</ele>
      </trkpt>
      <trkpt lat="19.414839931083932" lon="-155.24062408037236">
        <ele>1195.8034831435693</ele>
      </trkpt>
      <trkpt lat="19.414942191530727" lon="-155.24068435744712">
        <ele>1194.8004564424366</ele>
      </trkpt>
      <trkpt lat="19.415008671314585" lon="-155.24070634380706">
        <ele>1194.2402864265011</ele>
      </trkpt>
      <trkpt lat="19.415679052230736" lon="-155.24087299047062">
        <ele>1189.4999114269522</ele>
      </trkpt>
      <trkpt lat="19.415753010107935" lon="-155.24090415315763">
        <ele>1189.1515850971216</ele>
      </trkpt>
      <trkpt lat="19.415816638306755" lon="-155.24093934970637">
        <ele>1188.8503639722787</ele>
      </trkpt>
      <trkpt lat="19.41592502413203" lon="-155.24101327100684">
        <ele>1188.2167268534915</ele>
      </trkpt>
      <trkpt lat="19.41597341806702" lon="-155.24105643094117">
        <ele>1187.8340093826816</ele>
      </trkpt>
      <trkpt lat="19.41602242849972" lon="-155.2411352252904">
        <ele>1187.2309034016305</ele>
      </trkpt>
      <trkpt lat="19.416095250847633" lon="-155.2412915575693">
        <ele>1186.1066372459013</ele>
      </trkpt>
      <trkpt lat="19.4161116893022" lon="-155.24135293230336">
        <ele>1185.7458393854265</ele>
      </trkpt>
      <trkpt lat="19.41621255954848" lon="-155.24186312110942">
        <ele>1183.607883572342</ele>
      </trkpt>
      <trkpt lat="19.416255895108783" lon="-155.24201016819168">
        <ele>1183.270646547249</ele>
      </trkpt>
      <trkpt lat="19.416284795897564" lon="-155.24208767152143">
        <ele>1183.1484211597988</ele>
      </trkpt>
      <trkpt lat="19.41632391458425" lon="-155.24215548213286">
        <ele>1183.0572271879676</ele>
      </trkpt>
      <trkpt lat="19.416440571358486" lon="-155.24232879195873">
        <ele>1182.913783487697</ele>
      </trkpt>
      <trkpt lat="19.416488767343534" lon="-155.24238523125103">
        <ele>1182.9039297531788</ele>
      </trkpt>
      <trkpt lat="19.416598984790358" lon="-155.2424864049265">
        <ele>1182.9527341043922</ele>
      </trkpt>
      <trkpt lat="19.416809740055182" lon="-155.24263467350357">
        <ele>1183.1608696251365</ele>
      </trkpt>
      <trkpt lat="19.416889300446318" lon="-155.2426782973165">
        <ele>1183.2513755757518</ele>
      </trkpt>
      <trkpt lat="19.41716086503488" lon="-155.24277191306246">
        <ele>1183.6328352130095</ele>
      </trkpt>
      <trkpt lat="19.417307471691444" lon="-155.24280677045337">
        <ele>1183.8733039849571</ele>
      </trkpt>
      <trkpt lat="19.417360395278713" lon="-155.24281457730783">
        <ele>1183.9560527706403</ele>
      </trkpt>
      <trkpt lat="19.417412570448803" lon="-155.24281505006087">
        <ele>1184.0336605900268</ele>
      </trkpt>
      <trkpt lat="19.418086402187775" lon="-155.24276478840943">
        <ele>1184.8260912854253</ele>
      </trkpt>
      <trkpt lat="19.418156548105237" lon="-155.24277440728767">
        <ele>1184.8792358871547</ele>
      </trkpt>
      <trkpt lat="19.418270989323286" lon="-155.24280772818054">
        <ele>1184.9424623300672</ele>
      </trkpt>
      <trkpt lat="19.418499726033893" lon="-155.24288680811546">
        <ele>1184.9656339027647</ele>
      </trkpt>
      <trkpt lat="19.418614052229568" lon="-155.24294307193034">
        <ele>1184.8890531915026</ele>
      </trkpt>
      <trkpt lat="19.418848937508695" lon="-155.24308126432342">
        <ele>1184.5594808999708</ele>
      </trkpt>
      <trkpt lat="19.419066193851403" lon="-155.24324410110586">
        <ele>1184.128525431763</ele>
      </trkpt>
      <trkpt lat="19.419137071973438" lon="-155.24330335603878">
        <ele>1183.9370301990036</ele>
      </trkpt>
      <trkpt lat="19.419198300807583" lon="-155.24337368586265">
        <ele>1183.7096715674797</ele>
      </trkpt>
      <trkpt lat="19.419559091035143" lon="-155.24383174940206">
        <ele>1182.0884793713965</ele>
      </trkpt>
      <trkpt lat="19.41994707078909" lon="-155.24446926526159">
        <ele>1181.3757613312414</ele>
      </trkpt>
      <trkpt lat="19.42000220399445" lon="-155.24457370149838">
        <ele>1181.4600251426727</ele>
      </trkpt>
      <trkpt lat="19.420025360145896" lon="-155.24464095943654">
        <ele>1181.5689001560313</ele>
      </trkpt>
      <trkpt lat="19.420032720406013" lon="-155.24468039105864">
        <ele>1181.646285659739</ele>
      </trkpt>
      <trkpt lat="19.42003477875775" lon="-155.2447518967631">
        <ele>1181.8072223512527</ele>
      </trkpt>
      <trkpt lat="19.41997896276508" lon="-155.24524599611988">
        <ele>1183.3215090274714</ele>
      </trkpt>
      <trkpt lat="19.419976231437992" lon="-155.24531927182625">
        <ele>1183.5306479624512</ele>
      </trkpt>
      <trkpt lat="19.419985949903" lon="-155.24537968371837">
        <ele>1183.6886389070532</ele>
      </trkpt>
      <trkpt lat="19.420002551669985" lon="-155.24542712600177">
        <ele>1183.8036341876577</ele>
      </trkpt>
      <trkpt lat="19.42003092697357" lon="-155.24548261779324">
        <ele>1183.9247289763314</ele>
      </trkpt>
      <trkpt lat="19.42006405767392" lon="-155.2455322702757">
        <ele>1184.0173242088852</ele>
      </trkpt>
      <trkpt lat="19.420114812740305" lon="-155.24558210764658">
        <ele>1184.0978822097</ele>
      </trkpt>
      <trkpt lat="19.420147915702106" lon="-155.2456011097755">
        <ele>1184.1270497631874</ele>
      </trkpt>
      <trkpt lat="19.420202402167817" lon="-155.2456214864822">
        <ele>1184.1517540067086</ele>
      </trkpt>
      <trkpt lat="19.420275704063172" lon="-155.24563845327052">
        <ele>1184.14879995716</ele>
      </trkpt>
      <trkpt lat="19.42062500796561" lon="-155.24569557194854">
        <ele>1183.7176759289537</ele>
      </trkpt>
      <trkpt lat="19.420693722113604" lon="-155.24571504305592">
        <ele>1183.53218075489</ele>
      </trkpt>
      <trkpt lat="19.42076286619835" lon="-155.24574251480632">
        <ele>1183.3141660933013</ele>
      </trkpt>
      <trkpt lat="19.420850490905316" lon="-155.24578242482897">
        <ele>1183.034324446648</ele>
      </trkpt>
      <trkpt lat="19.42098735850956" lon="-155.24586035752233">
        <ele>1182.6654186592816</ele>
      </trkpt>
      <trkpt lat="19.421132005172584" lon="-155.24597456687417">
        <ele>1182.3250378957093</ele>
      </trkpt>
      <trkpt lat="19.421256479223096" lon="-155.24610839728956">
        <ele>1182.0418476112388</ele>
      </trkpt>
      <trkpt lat="19.42135996607486" lon="-155.24625347668396">
        <ele>1181.8679052860996</ele>
      </trkpt>
      <trkpt lat="19.421971876058688" lon="-155.24742626315364">
        <ele>1182.0704134470814</ele>
      </trkpt>
      <trkpt lat="19.42202906134352" lon="-155.2475154110822">
        <ele>1182.3441749708043</ele>
      </trkpt>
      <trkpt lat="19.42214231438294" lon="-155.2476306177559">
        <ele>1182.953515404867</ele>
      </trkpt>
      <trkpt lat="19.42219944822323" lon="-155.24767084625486">
        <ele>1183.278627857133</ele>
      </trkpt>
      <trkpt lat="19.422248561220762" lon="-155.24769058220403">
        <ele>1183.5425749159692</ele>
      </trkpt>
      <trkpt lat="19.422502606497286" lon="-155.24776951779717">
        <ele>1184.9071254990115</ele>
      </trkpt>
      <trkpt lat="19.422568693145678" lon="-155.24779420427348">
        <ele>1185.2268365362672</ele>
      </trkpt>
      <trkpt lat="19.422678207590998" lon="-155.2478565950412">
        <ele>1185.7134642491606</ele>
      </trkpt>
      <trkpt lat="19.422827695871046" lon="-155.24795334339453">
        <ele>1186.270790632064</ele>
      </trkpt>
      <trkpt lat="19.422929934134757" lon="-155.24805009849146">
        <ele>1186.62212890789</ele>
      </trkpt>
      <trkpt lat="19.423002329353675" lon="-155.2481291767605">
        <ele>1186.8181708369302</ele>
      </trkpt>
      <trkpt lat="19.423265653388583" lon="-155.24846157161502">
        <ele>1187.1384124657695</ele>
      </trkpt>
      <trkpt lat="19.423303492734238" lon="-155.2485147660906">
        <ele>1187.1275565934086</ele>
      </trkpt>
      <trkpt lat="19.42332146976139" lon="-155.24854845746523">
        <ele>1187.1058306188413</ele>
      </trkpt>
      <trkpt lat="19.42334401184175" lon="-155.24861148232839">
        <ele>1187.0346479224415</ele>
      </trkpt>
      <trkpt lat="19.423358384439364" lon="-155.2486788076836">
        <ele>1186.9120398363234</ele>
      </trkpt>
      <trkpt lat="19.423366597478395" lon="-155.24880378186012">
        <ele>1186.5539524452013</ele>
      </trkpt>
      <trkpt lat="19.423362364749043" lon="-155.24887142361123">
        <ele>1186.2946935790371</ele>
      </trkpt>
      <trkpt lat="19.423094530986486" lon="-155.2502645690261">
        <ele>1181.5161700629355</ele>
      </trkpt>
      <trkpt lat="19.42307774403376" lon="-155.25034044600744">
        <ele>1181.5936609634516</ele>
      </trkpt>
      <trkpt lat="19.423057576028487" lon="-155.25040458587532">
        <ele>1181.753981840072</ele>
      </trkpt>
      <trkpt lat="19.422989040154793" lon="-155.250597163369">
        <ele>1182.6803500609599</ele>
      </trkpt>
      <trkpt lat="19.42283764754287" lon="-155.25088961584086">
        <ele>1184.6676418019347</ele>
      </trkpt>
      <trkpt lat="19.422569056785527" lon="-155.2512498187927">
        <ele>1186.7791083989937</ele>
      </trkpt>
      <trkpt lat="19.42199004029631" lon="-155.25193648326425">
        <ele>1189.4345874089324</ele>
      </trkpt>
      <trkpt lat="19.42154119552346" lon="-155.25235990711712">
        <ele>1190.9109179722163</ele>
      </trkpt>
      <trkpt lat="19.421473630837408" lon="-155.25241263794032">
        <ele>1191.0788927126346</ele>
      </trkpt>
      <trkpt lat="19.421096473218203" lon="-155.25265466711483">
        <ele>1191.609801403567</ele>
      </trkpt>
      <trkpt lat="19.4208395154054" lon="-155.2527643212717">
        <ele>1191.5544269179304</ele>
      </trkpt>
      <trkpt lat="19.420764330197933" lon="-155.25280385374643">
        <ele>1191.4840771674553</ele>
      </trkpt>
      <trkpt lat="19.42031438005116" lon="-155.25309543117564">
        <ele>1190.8190416970835</ele>
      </trkpt>
      <trkpt lat="19.420264537233688" lon="-155.2531352487648">
        <ele>1190.7301857128657</ele>
      </trkpt>
      <trkpt lat="19.420234934140655" lon="-155.25316831004181">
        <ele>1190.6685003649568</ele>
      </trkpt>
      <trkpt lat="19.420154958806584" lon="-155.253281485814">
        <ele>1190.4952536874468</ele>
      </trkpt>
      <trkpt lat="19.420119033989938" lon="-155.25335216089405">
        <ele>1190.425489626502</ele>
      </trkpt>
      <trkpt lat="19.42007392267229" lon="-155.25354077584785">
        <ele>1190.369724655203</ele>
      </trkpt>
      <trkpt lat="19.420054518150845" lon="-155.2536508183846">
        <ele>1190.3959857227753</ele>
      </trkpt>
      <trkpt lat="19.420056049245453" lon="-155.25381851172074">
        <ele>1190.4984165625892</ele>
      </trkpt>
      <trkpt lat="19.42006506313547" lon="-155.253928626785">
        <ele>1190.6069470286936</ele>
      </trkpt>
      <trkpt lat="19.420080565127513" lon="-155.25399006526393">
        <ele>1190.6855163607556</ele>
      </trkpt>
      <trkpt lat="19.420128759748316" lon="-155.2541336456094">
        <ele>1190.9313494147473</ele>
      </trkpt>
      <trkpt lat="19.420145046420842" lon="-155.2541705643709">
        <ele>1191.0134270234714</ele>
      </trkpt>
      <trkpt lat="19.420166831820936" lon="-155.25420273926227">
        <ele>1191.1004446654533</ele>
      </trkpt>
      <trkpt lat="19.420204842523237" lon="-155.2542377571932">
        <ele>1191.2289710090813</ele>
      </trkpt>
      <trkpt lat="19.420353551527274" lon="-155.25434503197022">
        <ele>1191.785231823954</ele>
      </trkpt>
      <trkpt lat="19.42041966135619" lon="-155.25440259523478">
        <ele>1192.0985453700944</ele>
      </trkpt>
      <trkpt lat="19.420923543065108" lon="-155.25493924636592">
        <ele>1195.1305501332395</ele>
      </trkpt>
      <trkpt lat="19.42098515786767" lon="-155.2550137083189">
        <ele>1195.540485431184</ele>
      </trkpt>
      <trkpt lat="19.4210534429526" lon="-155.25514905441395">
        <ele>1196.151385294622</ele>
      </trkpt>
      <trkpt lat="19.421088030962817" lon="-155.2552032170585">
        <ele>1196.3840026752646</ele>
      </trkpt>
      <trkpt lat="19.421271872344846" lon="-155.25538902856357">
        <ele>1197.3871977616004</ele>
      </trkpt>
      <trkpt lat="19.421600634635464" lon="-155.25563774641034">
        <ele>1200.0463226520699</ele>
      </trkpt>
      <trkpt lat="19.42252480590779" lon="-155.25612974301697">
        <ele>1203.9837704197632</ele>
      </trkpt>
      <trkpt lat="19.42259134749733" lon="-155.2561733285358">
        <ele>1204.168350249672</ele>
      </trkpt>
      <trkpt lat="19.42260923591783" lon="-155.25619789939256">
        <ele>1204.219297189231</ele>
      </trkpt>
      <trkpt lat="19.42261806716767" lon="-155.25622290872957">
        <ele>1204.2550374261907</ele>
      </trkpt>
      <trkpt lat="19.422632987710916" lon="-155.25633890865396">
        <ele>1204.3382365984726</ele>
      </trkpt>
      <trkpt lat="19.42264876991119" lon="-155.25639226681656">
        <ele>1204.3518031077751</ele>
      </trkpt>
      <trkpt lat="19.422681214040274" lon="-155.25645949834635">
        <ele>1204.366358679993</ele>
      </trkpt>
      <trkpt lat="19.422757993150572" lon="-155.25659687593168">
        <ele>1204.4557512247104</ele>
      </trkpt>
      <trkpt lat="19.42277498277469" lon="-155.25664120272157">
        <ele>1204.5072330047506</ele>
      </trkpt>
      <trkpt lat="19.422782476740675" lon="-155.25670140384636">
        <ele>1204.5875268485997</ele>
      </trkpt>
      <trkpt lat="19.422765223604213" lon="-155.25680922824023">
        <ele>1204.748337892989</ele>
      </trkpt>
      <trkpt lat="19.422769435788354" lon="-155.25684726047822">
        <ele>1204.8003380446999</ele>
      </trkpt>
      <trkpt lat="19.422783111270682" lon="-155.25687253493663">
        <ele>1204.835562603337</ele>
      </trkpt>
      <trkpt lat="19.422810725769793" lon="-155.25689697401128">
        <ele>1204.8748118085102</ele>
      </trkpt>
      <trkpt lat="19.42288929696454" lon="-155.25693129735828">
        <ele>1204.935070995498</ele>
      </trkpt>
      <trkpt lat="19.422943517402413" lon="-155.2569398935516">
        <ele>1204.955847480716</ele>
      </trkpt>
      <trkpt lat="19.423033575322197" lon="-155.25693071668366">
        <ele>1204.9897651454155</ele>
      </trkpt>
      <trkpt lat="19.423072231149842" lon="-155.25693303741596">
        <ele>1205.01605645646</ele>
      </trkpt>
      <trkpt lat="19.423218800762843" lon="-155.25697662841253">
        <ele>1205.2641449729113</ele>
      </trkpt>
      <trkpt lat="19.42357009594183" lon="-155.25706165358338">
        <ele>1206.4034525403622</ele>
      </trkpt>
      <trkpt lat="19.423659782801288" lon="-155.25707421791427">
        <ele>1206.6436319323193</ele>
      </trkpt>
      <trkpt lat="19.423732197414655" lon="-155.25707387978747">
        <ele>1206.8314085883346</ele>
      </trkpt>
      <trkpt lat="19.42378093067216" lon="-155.25706420632193">
        <ele>1206.964242425456</ele>
      </trkpt>
      <trkpt lat="19.423825023391466" lon="-155.2570424892297">
        <ele>1207.098551998069</ele>
      </trkpt>
      <trkpt lat="19.423863692366886" lon="-155.2570070480088">
        <ele>1207.2412584905544</ele>
      </trkpt>
      <trkpt lat="19.42400798981681" lon="-155.2568424752765">
        <ele>1207.7958140630542</ele>
      </trkpt>
      <trkpt lat="19.42403903626766" lon="-155.25682300721107">
        <ele>1207.880067544081</ele>
      </trkpt>
      <trkpt lat="19.424073813725375" lon="-155.2568209765954">
        <ele>1207.958125940823</ele>
      </trkpt>
      <trkpt lat="19.424158101487112" lon="-155.2568522692418">
        <ele>1208.1417094143483</ele>
      </trkpt>
      <trkpt lat="19.42491114665229" lon="-155.2571890601328">
        <ele>1209.6039088187765</ele>
      </trkpt>
      <trkpt lat="19.425320576688826" lon="-155.2573306778232">
        <ele>1209.91626369378</ele>
      </trkpt>
      <trkpt lat="19.425741914440493" lon="-155.25748749988298">
        <ele>1210.3768342520025</ele>
      </trkpt>
      <trkpt lat="19.4258368813721" lon="-155.2575039755953">
        <ele>1210.493737026505</ele>
      </trkpt>
      <trkpt lat="19.426056089376125" lon="-155.25751545305786">
        <ele>1210.761296651088</ele>
      </trkpt>
      <trkpt lat="19.42610959990174" lon="-155.25750770284975">
        <ele>1210.8214612897498</ele>
      </trkpt>
      <trkpt lat="19.426230290217976" lon="-155.25747146944198">
        <ele>1210.9495709056052</ele>
      </trkpt>
      <trkpt lat="19.426290316681907" lon="-155.25745955278302">
        <ele>1211.0102192962795</ele>
      </trkpt>
      <trkpt lat="19.42637985671012" lon="-155.257453582165">
        <ele>1211.10728415834</ele>
      </trkpt>
      <trkpt lat="19.426473982631556" lon="-155.25746270842663">
        <ele>1211.228880782111</ele>
      </trkpt>
      <trkpt lat="19.426808145851655" lon="-155.2575265010121">
        <ele>1211.7318638582874</ele>
      </trkpt>
      <trkpt lat="19.42687091615992" lon="-155.25755355034119">
        <ele>1211.842120134378</ele>
      </trkpt>
      <trkpt lat="19.427161244463896" lon="-155.2577066379929">
        <ele>1212.421068098413</ele>
      </trkpt>
      <trkpt lat="19.42731567748481" lon="-155.25775550614054">
        <ele>1212.5750581616987</ele>
      </trkpt>
      <trkpt lat="19.427360621214017" lon="-155.25776384211196">
        <ele>1212.591301825969</ele>
      </trkpt>
      <trkpt lat="19.427406848968275" lon="-155.25776591943432">
        <ele>1212.5965095316633</ele>
      </trkpt>
      <trkpt lat="19.428363894213422" lon="-155.25770655818485">
        <ele>1212.2035607252994</ele>
      </trkpt>
      <trkpt lat="19.428415733864966" lon="-155.25770087442532">
        <ele>1212.1383887011234</ele>
      </trkpt>
      <trkpt lat="19.428447819881182" lon="-155.25769046207012">
        <ele>1212.0831856127652</ele>
      </trkpt>
      <trkpt lat="19.42847282219223" lon="-155.25766945094603">
        <ele>1212.0204741201264</ele>
      </trkpt>
      <trkpt lat="19.428491127251533" lon="-155.25763837677005">
        <ele>1211.9423346093818</ele>
      </trkpt>
      <trkpt lat="19.428603546847626" lon="-155.2573520220694">
        <ele>1211.1070661988497</ele>
      </trkpt>
      <trkpt lat="19.428667229849705" lon="-155.25724917841418">
        <ele>1210.8329072938297</ele>
      </trkpt>
      <trkpt lat="19.428742478812204" lon="-155.25714230721294">
        <ele>1210.5775881846212</ele>
      </trkpt>
      <trkpt lat="19.428834867166803" lon="-155.25704785915082">
        <ele>1210.3526565928398</ele>
      </trkpt>
      <trkpt lat="19.428941540586383" lon="-155.2569651962517">
        <ele>1210.231576248788</ele>
      </trkpt>
      <trkpt lat="19.4289897031293" lon="-155.2569415686277">
        <ele>1210.2365925003364</ele>
      </trkpt>
      <trkpt lat="19.429014110771934" lon="-155.25693972901718">
        <ele>1210.2507654197225</ele>
      </trkpt>
      <trkpt lat="19.429037142148218" lon="-155.25694672243327">
        <ele>1210.2718682383581</ele>
      </trkpt>
      <trkpt lat="19.429062653672805" lon="-155.2569685952364">
        <ele>1210.3116338732098</ele>
      </trkpt>
      <trkpt lat="19.429086098354958" lon="-155.2570092782381">
        <ele>1210.3840544230632</ele>
      </trkpt>
      <trkpt lat="19.42922944727744" lon="-155.25737066269085">
        <ele>1211.2070061761333</ele>
      </trkpt>
      <trkpt lat="19.429499423193704" lon="-155.25817637649953">
        <ele>1211.5875287381139</ele>
      </trkpt>
      <trkpt lat="19.42952588321011" lon="-155.25823637604725">
        <ele>1211.5644085473014</ele>
      </trkpt>
      <trkpt lat="19.429564216092462" lon="-155.25829816471625">
        <ele>1211.4951600352956</ele>
      </trkpt>
      <trkpt lat="19.429587314728163" lon="-155.25834709300617">
        <ele>1211.4077353936816</ele>
      </trkpt>
      <trkpt lat="19.429671539292215" lon="-155.25864860508517">
        <ele>1210.4240573742106</ele>
      </trkpt>
      <trkpt lat="19.429781992619414" lon="-155.25891939567646">
        <ele>1209.2035837919068</ele>
      </trkpt>
      <trkpt lat="19.429851763766713" lon="-155.25903829635155">
        <ele>1208.5431758852983</ele>
      </trkpt>
      <trkpt lat="19.42989519657798" lon="-155.25909411559516">
        <ele>1208.1574893445604</ele>
      </trkpt>
      <trkpt lat="19.430347532490146" lon="-155.25964213039438">
        <ele>1203.4236731790288</ele>
      </trkpt>
      <trkpt lat="19.4304478622248" lon="-155.2598213892555">
        <ele>1201.8182207030814</ele>
      </trkpt>
      <trkpt lat="19.430515561657565" lon="-155.25999532333967">
        <ele>1200.7787844854997</ele>
      </trkpt>
      <trkpt lat="19.430533922615044" lon="-155.2600671561661">
        <ele>1200.506377214587</ele>
      </trkpt>
      <trkpt lat="19.430800470262845" lon="-155.2619994359903">
        <ele>1201.9027860944595</ele>
      </trkpt>
      <trkpt lat="19.43113577624259" lon="-155.2639080364798">
        <ele>1205.4521175233858</ele>
      </trkpt>
      <trkpt lat="19.431619845583967" lon="-155.26662009379552">
        <ele>1204.8339298449546</ele>
      </trkpt>
      <trkpt lat="19.431929744289484" lon="-155.26847989493808">
        <ele>1206.0717535731026</ele>
      </trkpt>
      <trkpt lat="19.43204864052018" lon="-155.2692794679184">
        <ele>1207.54165375473</ele>
      </trkpt>
      <trkpt lat="19.432089212531206" lon="-155.26998075847305">
        <ele>1209.8955337431073</ele>
      </trkpt>
      <trkpt lat="19.432089331952355" lon="-155.27085949183902">
        <ele>1214.2710957136476</ele>
      </trkpt>
      <trkpt lat="19.432050391544" lon="-155.27170066000804">
        <ele>1218.6902495832733</ele>
      </trkpt>
      <trkpt lat="19.432019327614338" lon="-155.2732902622315">
        <ele>1221.1179083795787</ele>
      </trkpt>
      <trkpt lat="19.431989914921438" lon="-155.27376103967205">
        <ele>1221.9025366364547</ele>
      </trkpt>
      <trkpt lat="19.431979118633297" lon="-155.27383646586318">
        <ele>1222.0450798836512</ele>
      </trkpt>
      <trkpt lat="19.431957775963316" lon="-155.27387931536583">
        <ele>1222.1294754589114</ele>
      </trkpt>
      <trkpt lat="19.431889788719072" lon="-155.27394346844588">
        <ele>1222.2641355532621</ele>
      </trkpt>
      <trkpt lat="19.43185962244958" lon="-155.27399376601866">
        <ele>1222.3182480527428</ele>
      </trkpt>
      <trkpt lat="19.431413345440944" lon="-155.27504742093052">
        <ele>1222.3906904946111</ele>
      </trkpt>
      <trkpt lat="19.43136681755058" lon="-155.27514802131725">
        <ele>1222.3610759235878</ele>
      </trkpt>
      <trkpt lat="19.431306767330348" lon="-155.27524017727993">
        <ele>1222.2900388672422</ele>
      </trkpt>
      <trkpt lat="19.430676209819282" lon="-155.2761399588775">
        <ele>1221.592725917011</ele>
      </trkpt>
      <trkpt lat="19.430625209088877" lon="-155.27622281555958">
        <ele>1221.6394647065224</ele>
      </trkpt>
      <trkpt lat="19.430599269034385" lon="-155.27629135820143">
        <ele>1221.7062618739853</ele>
      </trkpt>
      <trkpt lat="19.430490606293905" lon="-155.27666139332956">
        <ele>1222.3250997233374</ele>
      </trkpt>
      <trkpt lat="19.43027717577412" lon="-155.27760336894272">
        <ele>1221.876074224823</ele>
      </trkpt>
      <trkpt lat="19.430252178416435" lon="-155.27767680416352">
        <ele>1221.729938228855</ele>
      </trkpt>
      <trkpt lat="19.43012947111366" lon="-155.2779446268473">
        <ele>1221.5437596126067</ele>
      </trkpt>
      <trkpt lat="19.43010490056193" lon="-155.27798603217403">
        <ele>1221.5667394467937</ele>
      </trkpt>
      <trkpt lat="19.430075007758365" lon="-155.2780233256341">
        <ele>1221.6053884217004</ele>
      </trkpt>
      <trkpt lat="19.429772045570814" lon="-155.27833042384975">
        <ele>1222.2536364363018</ele>
      </trkpt>
      <trkpt lat="19.42936081355562" lon="-155.2788613844989">
        <ele>1222.725724960619</ele>
      </trkpt>
      <trkpt lat="19.42887913187991" lon="-155.2796288450189">
        <ele>1224.5103514278267</ele>
      </trkpt>
      <trkpt lat="19.428850323327858" lon="-155.2796602936185">
        <ele>1224.5485743478303</ele>
      </trkpt>
      <trkpt lat="19.42880063091695" lon="-155.27970127613548">
        <ele>1224.5820800756703</ele>
      </trkpt>
      <trkpt lat="19.428210239971992" lon="-155.28013836257722">
        <ele>1224.3646794323167</ele>
      </trkpt>
      <trkpt lat="19.426973535900153" lon="-155.2808992488103">
        <ele>1225.7788461414418</ele>
      </trkpt>
      <trkpt lat="19.425078062456986" lon="-155.28224731964195">
        <ele>1230.4953963051819</ele>
      </trkpt>
      <trkpt lat="19.4249927848861" lon="-155.28231339013803">
        <ele>1230.5315900547503</ele>
      </trkpt>
      <trkpt lat="19.42491943776374" lon="-155.28239380996322">
        <ele>1230.6210166662834</ele>
      </trkpt>
      <trkpt lat="19.422984235726407" lon="-155.28469297203262">
        <ele>1231.5542834811768</ele>
      </trkpt>
      <trkpt lat="19.422930303086925" lon="-155.28477677676142">
        <ele>1231.8153739331572</ele>
      </trkpt>
      <trkpt lat="19.422874224482204" lon="-155.2848918110475">
        <ele>1232.2489894225498</ele>
      </trkpt>
      <trkpt lat="19.422855719829187" lon="-155.2849521190784">
        <ele>1232.5236058590408</ele>
      </trkpt>
      <trkpt lat="19.422778235587842" lon="-155.2852691918443">
        <ele>1234.3185756531252</ele>
      </trkpt>
      <trkpt lat="19.42263606790347" lon="-155.28562163014752">
        <ele>1236.068337628569</ele>
      </trkpt>
      <trkpt lat="19.422595988930084" lon="-155.28570741616173">
        <ele>1236.5183647313715</ele>
      </trkpt>
      <trkpt lat="19.422542689876813" lon="-155.28578462353568">
        <ele>1237.009873780181</ele>
      </trkpt>
      <trkpt lat="19.422367731656067" lon="-155.2860091154665">
        <ele>1238.8880803214574</ele>
      </trkpt>
      <trkpt lat="19.42201005866273" lon="-155.28634152515627">
        <ele>1242.487565936101</ele>
      </trkpt>
    </trkseg>
  </trk>
</gpx>
