<?xml version='1.0' encoding='UTF-8'?>
<gpx version="1.1"
  creator="GPXmagic"
  xmlns="http://www.topografix.com/GPX/1/1"
  xmlns:rgt="http://www.rgtcycling.com/XML/GpxExtensions/v1"
  xmlns:xsi="http://www.w3.org/2001/XMLSchema-instance" xsi:schemaLocation="http://www.topografix.com/GPX/1/1
  http://www.topografix.com/GPX/1/1/gpx.xsd">
  <metadata>
    <name>Smoothed with GPXmagic</name>
    <author>
      <link href="https://www.stepwiserefinement.co.uk">
        <text>GPXmagic v3</text>
        <type>text/html</type>
      </link>
    </author>
  </metadata>
<trk>  <name>Ireland&#32;2026</name>
<trkseg>
<trkpt lat="53.5453622" lon="-9.306391699999999"><ele>31.25</ele></trkpt>
<trkpt lat="53.545448199999996" lon="-9.306740599999998"><ele>31.73</ele></trkpt>
<trkpt lat="53.54547759999999" lon="-9.3070993"><ele>32.13</ele></trkpt>
<trkpt lat="53.5454507" lon="-9.3080317"><ele>32.95</ele></trkpt>
<trkpt lat="53.5454617" lon="-9.308377"><ele>33.18</ele></trkpt>
<trkpt lat="53.54548960000001" lon="-9.3086326"><ele>33.33</ele></trkpt>
<trkpt lat="53.5455886" lon="-9.3092935"><ele>33.66</ele></trkpt>
<trkpt lat="53.5456092" lon="-9.3099672"><ele>33.92</ele></trkpt>
<trkpt lat="53.545516000000006" lon="-9.3110117"><ele>34.55</ele></trkpt>
<trkpt lat="53.5454588" lon="-9.311830799999996"><ele>35.5</ele></trkpt>
<trkpt lat="53.5454261" lon="-9.3121545"><ele>35.99</ele></trkpt>
<trkpt lat="53.545361699999994" lon="-9.3124537"><ele>36.48</ele></trkpt>
<trkpt lat="53.5453137" lon="-9.3125854"><ele>36.71</ele></trkpt>
<trkpt lat="53.545210399999995" lon="-9.3128117"><ele>37.11</ele></trkpt>
<trkpt lat="53.5449974" lon="-9.3132375"><ele>37.74</ele></trkpt>
<trkpt lat="53.5446912" lon="-9.3136405"><ele>38.09</ele></trkpt>
<trkpt lat="53.5442" lon="-9.31423"><ele>37.72</ele></trkpt>
<trkpt lat="53.5436966" lon="-9.314843400000003"><ele>36.36</ele></trkpt>
<trkpt lat="53.5435272" lon="-9.3150751"><ele>35.67</ele></trkpt>
<trkpt lat="53.5434097" lon="-9.3152839"><ele>35.06</ele></trkpt>
<trkpt lat="53.5433313" lon="-9.3155159"><ele>34.44</ele></trkpt>
<trkpt lat="53.5432943" lon="-9.3157087"><ele>33.96</ele></trkpt>
<trkpt lat="53.54327850000001" lon="-9.315896599999999"><ele>33.5</ele></trkpt>
<trkpt lat="53.5432809" lon="-9.3160695"><ele>33.1</ele></trkpt>
<trkpt lat="53.543350399999994" lon="-9.3167499"><ele>31.78</ele></trkpt>
<trkpt lat="53.54346670000001" lon="-9.3175916"><ele>31.35</ele></trkpt>
<trkpt lat="53.5436067" lon="-9.3185937"><ele>32.56</ele></trkpt>
<trkpt lat="53.5437007" lon="-9.3192904"><ele>34.12</ele></trkpt>
<trkpt lat="53.5439399" lon="-9.32046"><ele>37.13</ele></trkpt>
<trkpt lat="53.54403860000001" lon="-9.320961500000001"><ele>38.11</ele></trkpt>
<trkpt lat="53.54417000000001" lon="-9.3216302"><ele>38.93</ele></trkpt>
<trkpt lat="53.5444001" lon="-9.3228099"><ele>39.63</ele></trkpt>
<trkpt lat="53.544639600000004" lon="-9.3239789"><ele>40.04</ele></trkpt>
<trkpt lat="53.5447793" lon="-9.3247374"><ele>39.81</ele></trkpt>
<trkpt lat="53.5449133" lon="-9.325457700000001"><ele>39.06</ele></trkpt>
<trkpt lat="53.5450226" lon="-9.3257828"><ele>38.58</ele></trkpt>
<trkpt lat="53.5451326" lon="-9.3260321"><ele>38.18</ele></trkpt>
<trkpt lat="53.54544020000001" lon="-9.3266821"><ele>37.33</ele></trkpt>
<trkpt lat="53.54577009999999" lon="-9.3274765"><ele>36.94</ele></trkpt>
<trkpt lat="53.5461906" lon="-9.3284316"><ele>36.86</ele></trkpt>
<trkpt lat="53.5465889" lon="-9.329357200000002"><ele>36.86</ele></trkpt>
<trkpt lat="53.5470304" lon="-9.330362600000003"><ele>36.98</ele></trkpt>
<trkpt lat="53.5471874" lon="-9.330787099999998"><ele>37.02</ele></trkpt>
<trkpt lat="53.5472778" lon="-9.3310647"><ele>37.04</ele></trkpt>
<trkpt lat="53.5473497" lon="-9.331409599999999"><ele>37.09</ele></trkpt>
<trkpt lat="53.5475099" lon="-9.332300000000004"><ele>37.4</ele></trkpt>
<trkpt lat="53.5476914" lon="-9.333359799999998"><ele>38.07</ele></trkpt>
<trkpt lat="53.54788" lon="-9.33438"><ele>38.94</ele></trkpt>
<trkpt lat="53.5481" lon="-9.335570200000001"><ele>40.23</ele></trkpt>
<trkpt lat="53.5483193" lon="-9.33677"><ele>41.47</ele></trkpt>
<trkpt lat="53.54845079999999" lon="-9.3379963"><ele>41.56</ele></trkpt>
<trkpt lat="53.5485268" lon="-9.3387011"><ele>40.91</ele></trkpt>
<trkpt lat="53.548520100000005" lon="-9.339226799999999"><ele>40.23</ele></trkpt>
<trkpt lat="53.5484867" lon="-9.3399787"><ele>39.25</ele></trkpt>
<trkpt lat="53.5484534" lon="-9.3407307"><ele>38.71</ele></trkpt>
<trkpt lat="53.5484196" lon="-9.3414813"><ele>39.02</ele></trkpt>
<trkpt lat="53.5483502" lon="-9.3423711"><ele>40.53</ele></trkpt>
<trkpt lat="53.5482943" lon="-9.343435"><ele>42.93</ele></trkpt>
<trkpt lat="53.5482491" lon="-9.3436889"><ele>43.48</ele></trkpt>
<trkpt lat="53.548185999999994" lon="-9.3438557"><ele>43.84</ele></trkpt>
<trkpt lat="53.54811579999999" lon="-9.344000499999998"><ele>44.14</ele></trkpt>
<trkpt lat="53.5479905" lon="-9.3442035"><ele>44.5</ele></trkpt>
<trkpt lat="53.5476912" lon="-9.3446716"><ele>44.77</ele></trkpt>
<trkpt lat="53.5474361" lon="-9.345067500000003"><ele>44.27</ele></trkpt>
<trkpt lat="53.5473458" lon="-9.345244399999999"><ele>43.91</ele></trkpt>
<trkpt lat="53.5472804" lon="-9.3454075"><ele>43.55</ele></trkpt>
<trkpt lat="53.5471567" lon="-9.3460879"><ele>41.97</ele></trkpt>
<trkpt lat="53.54690810000001" lon="-9.3469437"><ele>39.95</ele></trkpt>
<trkpt lat="53.5467393" lon="-9.3475605"><ele>39.07</ele></trkpt>
<trkpt lat="53.5465001" lon="-9.3482873"><ele>38.41</ele></trkpt>
<trkpt lat="53.5462283" lon="-9.3489226"><ele>37.38</ele></trkpt>
<trkpt lat="53.546081" lon="-9.3492658"><ele>36.43</ele></trkpt>
<trkpt lat="53.546028" lon="-9.349461200000002"><ele>35.83</ele></trkpt>
<trkpt lat="53.545961000000005" lon="-9.350345999999998"><ele>32.56</ele></trkpt>
<trkpt lat="53.545958899999995" lon="-9.3513945"><ele>28.24</ele></trkpt>
<trkpt lat="53.54593870000001" lon="-9.3516494"><ele>27.35</ele></trkpt>
<trkpt lat="53.5458832" lon="-9.352025400000002"><ele>26.24</ele></trkpt>
<trkpt lat="53.5456962" lon="-9.3527862"><ele>24.9</ele></trkpt>
<trkpt lat="53.5456431" lon="-9.353079399999999"><ele>24.72</ele></trkpt>
<trkpt lat="53.5456342" lon="-9.353444599999998"><ele>24.69</ele></trkpt>
<trkpt lat="53.5456598" lon="-9.3546355"><ele>24.98</ele></trkpt>
<trkpt lat="53.5456591" lon="-9.355116"><ele>24.94</ele></trkpt>
<trkpt lat="53.545590000000004" lon="-9.355827999999999"><ele>24.56</ele></trkpt>
<trkpt lat="53.5454588" lon="-9.3569928"><ele>23.72</ele></trkpt>
<trkpt lat="53.545327500000006" lon="-9.3581575"><ele>23.33</ele></trkpt>
<trkpt lat="53.5452267" lon="-9.3591367"><ele>23.95</ele></trkpt>
<trkpt lat="53.5451612" lon="-9.3597846"><ele>25.08</ele></trkpt>
<trkpt lat="53.54516099999999" lon="-9.3603887"><ele>26.52</ele></trkpt>
<trkpt lat="53.5452033" lon="-9.360980000000001"><ele>27.99</ele></trkpt>
<trkpt lat="53.5452504" lon="-9.3614752"><ele>28.99</ele></trkpt>
<trkpt lat="53.54530880000001" lon="-9.3621454"><ele>29.73</ele></trkpt>
<trkpt lat="53.545304900000005" lon="-9.3623873"><ele>29.83</ele></trkpt>
<trkpt lat="53.5452501" lon="-9.3633649"><ele>29.75</ele></trkpt>
<trkpt lat="53.5451805" lon="-9.364529899999999"><ele>29.61</ele></trkpt>
<trkpt lat="53.54517030000001" lon="-9.3650358"><ele>29.71</ele></trkpt>
<trkpt lat="53.5451785" lon="-9.3653443"><ele>29.84</ele></trkpt>
<trkpt lat="53.545209799999995" lon="-9.365424700000002"><ele>29.89</ele></trkpt>
<trkpt lat="53.5454743" lon="-9.3657272"><ele>30.3</ele></trkpt>
<trkpt lat="53.5457411" lon="-9.366113700000001"><ele>30.95</ele></trkpt>
<trkpt lat="53.545939" lon="-9.3664983"><ele>31.61</ele></trkpt>
<trkpt lat="53.546359300000006" lon="-9.3673388"><ele>32.82</ele></trkpt>
<trkpt lat="53.5466405" lon="-9.367925099999999"><ele>33.16</ele></trkpt>
<trkpt lat="53.5470842" lon="-9.3688816"><ele>33.17</ele></trkpt>
<trkpt lat="53.54752779999999" lon="-9.3698382"><ele>33.43</ele></trkpt>
<trkpt lat="53.5476772" lon="-9.370192600000001"><ele>33.66</ele></trkpt>
<trkpt lat="53.5477447" lon="-9.370489699999998"><ele>33.83</ele></trkpt>
<trkpt lat="53.54780929999999" lon="-9.3712799"><ele>34.07</ele></trkpt>
<trkpt lat="53.5478428" lon="-9.3715445"><ele>34.04</ele></trkpt>
<trkpt lat="53.54788899999999" lon="-9.371791899999998"><ele>33.93</ele></trkpt>
<trkpt lat="53.5480201" lon="-9.372296800000003"><ele>33.54</ele></trkpt>
<trkpt lat="53.5483625" lon="-9.3734391"><ele>32.54</ele></trkpt>
<trkpt lat="53.5485461" lon="-9.374052200000001"><ele>32.25</ele></trkpt>
<trkpt lat="53.5489498" lon="-9.375489"><ele>31.95</ele></trkpt>
<trkpt lat="53.5492675" lon="-9.3765712"><ele>31.84</ele></trkpt>
<trkpt lat="53.5494194" lon="-9.376903900000004"><ele>31.85</ele></trkpt>
<trkpt lat="53.5499104" lon="-9.3778511"><ele>32.24</ele></trkpt>
<trkpt lat="53.5502314" lon="-9.3785"><ele>32.72</ele></trkpt>
<trkpt lat="53.55058009999999" lon="-9.3791877"><ele>33.08</ele></trkpt>
<trkpt lat="53.55081950000001" lon="-9.3796599"><ele>32.96</ele></trkpt>
<trkpt lat="53.5511401" lon="-9.3803507"><ele>32.01</ele></trkpt>
<trkpt lat="53.5512596" lon="-9.380622399999998"><ele>31.42</ele></trkpt>
<trkpt lat="53.551407" lon="-9.380986499999999"><ele>30.57</ele></trkpt>
<trkpt lat="53.55172" lon="-9.382057499999998"><ele>28.17</ele></trkpt>
<trkpt lat="53.55205569999999" lon="-9.3832044"><ele>26.15</ele></trkpt>
<trkpt lat="53.552279600000006" lon="-9.383968999999999"><ele>25.29</ele></trkpt>
<trkpt lat="53.55247" lon="-9.384670000000002"><ele>24.8</ele></trkpt>
<trkpt lat="53.5528689" lon="-9.386156999999999"><ele>24.32</ele></trkpt>
<trkpt lat="53.5529916" lon="-9.386708"><ele>24.35</ele></trkpt>
<trkpt lat="53.5530796" lon="-9.3871327"><ele>24.5</ele></trkpt>
<trkpt lat="53.5531272" lon="-9.387438099999999"><ele>24.71</ele></trkpt>
<trkpt lat="53.5532096" lon="-9.3882288"><ele>25.61</ele></trkpt>
<trkpt lat="53.5532367" lon="-9.3885637"><ele>26.15</ele></trkpt>
<trkpt lat="53.553300400000005" lon="-9.389260499999999"><ele>27.53</ele></trkpt>
<trkpt lat="53.5534133" lon="-9.39011"><ele>29.45</ele></trkpt>
<trkpt lat="53.55372959999999" lon="-9.3924184"><ele>34.76</ele></trkpt>
<trkpt lat="53.5538211" lon="-9.3933035"><ele>36.92</ele></trkpt>
<trkpt lat="53.5540132" lon="-9.3946137"><ele>39.66</ele></trkpt>
<trkpt lat="53.554103600000005" lon="-9.3950682"><ele>40.18</ele></trkpt>
<trkpt lat="53.554194300000006" lon="-9.395324"><ele>40.31</ele></trkpt>
<trkpt lat="53.554252" lon="-9.395415700000001"><ele>40.32</ele></trkpt>
<trkpt lat="53.5546653" lon="-9.3958684"><ele>39.75</ele></trkpt>
<trkpt lat="53.555042" lon="-9.3964328"><ele>38.35</ele></trkpt>
<trkpt lat="53.5552221" lon="-9.3966842"><ele>37.5</ele></trkpt>
<trkpt lat="53.5553665" lon="-9.3969224"><ele>36.65</ele></trkpt>
<trkpt lat="53.5554339" lon="-9.3969966"><ele>36.28</ele></trkpt>
<trkpt lat="53.5555719" lon="-9.3970125"><ele>35.57</ele></trkpt>
<trkpt lat="53.555868800000006" lon="-9.3970197"><ele>33.75</ele></trkpt>
<trkpt lat="53.5563018" lon="-9.397012"><ele>30.49</ele></trkpt>
<trkpt lat="53.55680509999999" lon="-9.3969794"><ele>26.59</ele></trkpt>
<trkpt lat="53.5570567" lon="-9.3969632"><ele>25.05</ele></trkpt>
<trkpt lat="53.5572105" lon="-9.3969651"><ele>24.36</ele></trkpt>
<trkpt lat="53.5573497" lon="-9.3969907"><ele>23.91</ele></trkpt>
<trkpt lat="53.5574726" lon="-9.3970443"><ele>23.66</ele></trkpt>
<trkpt lat="53.5575899" lon="-9.397125"><ele>23.55</ele></trkpt>
<trkpt lat="53.557920499999994" lon="-9.3974109"><ele>23.79</ele></trkpt>
<trkpt lat="53.5584512" lon="-9.397924099999997"><ele>24.66</ele></trkpt>
<trkpt lat="53.5586248" lon="-9.3980848"><ele>24.8</ele></trkpt>
<trkpt lat="53.5589656" lon="-9.398385499999998"><ele>24.69</ele></trkpt>
<trkpt lat="53.5593498" lon="-9.3987107"><ele>24.2</ele></trkpt>
<trkpt lat="53.5595404" lon="-9.3989114"><ele>23.95</ele></trkpt>
<trkpt lat="53.5597832" lon="-9.3992442"><ele>23.77</ele></trkpt>
<trkpt lat="53.5601255" lon="-9.399778499999998"><ele>24</ele></trkpt>
<trkpt lat="53.5605237" lon="-9.4004"><ele>24.81</ele></trkpt>
<trkpt lat="53.5606287" lon="-9.400630000000001"><ele>25.12</ele></trkpt>
<trkpt lat="53.560709700000004" lon="-9.400854699999998"><ele>25.39</ele></trkpt>
<trkpt lat="53.560745" lon="-9.40106"><ele>25.6</ele></trkpt>
<trkpt lat="53.56074679999999" lon="-9.4013399"><ele>25.85</ele></trkpt>
<trkpt lat="53.5607069" lon="-9.4016809"><ele>26.12</ele></trkpt>
<trkpt lat="53.56062210000001" lon="-9.4021998"><ele>26.41</ele></trkpt>
<trkpt lat="53.5606034" lon="-9.402459"><ele>26.48</ele></trkpt>
<trkpt lat="53.56065770000001" lon="-9.4029695"><ele>26.48</ele></trkpt>
<trkpt lat="53.56068679999999" lon="-9.403093999999996"><ele>26.46</ele></trkpt>
<trkpt lat="53.5607381" lon="-9.4032136"><ele>26.42</ele></trkpt>
<trkpt lat="53.5608446" lon="-9.403379599999997"><ele>26.32</ele></trkpt>
<trkpt lat="53.5613327" lon="-9.4039027"><ele>25.7</ele></trkpt>
<trkpt lat="53.5620396" lon="-9.4046607"><ele>24.74</ele></trkpt>
<trkpt lat="53.5624299" lon="-9.4051966"><ele>24.41</ele></trkpt>
<trkpt lat="53.5627712" lon="-9.4057218"><ele>24.32</ele></trkpt>
<trkpt lat="53.5631138" lon="-9.406256699999998"><ele>24.37</ele></trkpt>
<trkpt lat="53.563528700000006" lon="-9.406988"><ele>24.43</ele></trkpt>
<trkpt lat="53.563982300000006" lon="-9.4078156"><ele>24.25</ele></trkpt>
<trkpt lat="53.56414790000001" lon="-9.4081567"><ele>24.08</ele></trkpt>
<trkpt lat="53.5645775" lon="-9.4091571"><ele>23.25</ele></trkpt>
<trkpt lat="53.564732899999996" lon="-9.409475299999999"><ele>22.9</ele></trkpt>
<trkpt lat="53.565122900000006" lon="-9.4099837"><ele>22.16</ele></trkpt>
<trkpt lat="53.5655107" lon="-9.4104817"><ele>21.19</ele></trkpt>
<trkpt lat="53.5658172" lon="-9.4109151"><ele>19.95</ele></trkpt>
<trkpt lat="53.5659028" lon="-9.4110735"><ele>19.46</ele></trkpt>
<trkpt lat="53.5659938" lon="-9.4113137"><ele>18.77</ele></trkpt>
<trkpt lat="53.5660618" lon="-9.4115599"><ele>18.1</ele></trkpt>
<trkpt lat="53.5661192" lon="-9.4118511"><ele>17.38</ele></trkpt>
<trkpt lat="53.56617670000001" lon="-9.412334"><ele>16.48</ele></trkpt>
<trkpt lat="53.5662095" lon="-9.412706599999998"><ele>16.09</ele></trkpt>
<trkpt lat="53.56623" lon="-9.4134253"><ele>16.1</ele></trkpt>
<trkpt lat="53.56623020000001" lon="-9.413999300000002"><ele>16.77</ele></trkpt>
<trkpt lat="53.5662398" lon="-9.414396700000001"><ele>17.47</ele></trkpt>
<trkpt lat="53.5662392" lon="-9.4148799"><ele>18.47</ele></trkpt>
<trkpt lat="53.56619119999999" lon="-9.415689"><ele>20.28</ele></trkpt>
<trkpt lat="53.5662018" lon="-9.416027"><ele>21.03</ele></trkpt>
<trkpt lat="53.5662573" lon="-9.416621199999998"><ele>22.28</ele></trkpt>
<trkpt lat="53.5662301" lon="-9.417678000000002"><ele>23.78</ele></trkpt>
<trkpt lat="53.566210000000005" lon="-9.418426"><ele>24.08</ele></trkpt>
<trkpt lat="53.566175" lon="-9.419732100000001"><ele>23.48</ele></trkpt>
<trkpt lat="53.56616029999999" lon="-9.420046700000002"><ele>23.18</ele></trkpt>
<trkpt lat="53.5661245" lon="-9.420317499999998"><ele>22.89</ele></trkpt>
<trkpt lat="53.56566359999999" lon="-9.422451300000002"><ele>20.1</ele></trkpt>
<trkpt lat="53.5656378" lon="-9.4227462"><ele>19.85</ele></trkpt>
<trkpt lat="53.56563870000001" lon="-9.423045599999998"><ele>19.68</ele></trkpt>
<trkpt lat="53.56570080000001" lon="-9.4233586"><ele>19.59</ele></trkpt>
<trkpt lat="53.5658041" lon="-9.423667"><ele>19.59</ele></trkpt>
<trkpt lat="53.5660344" lon="-9.4240565"><ele>19.76</ele></trkpt>
<trkpt lat="53.5662494" lon="-9.4243819"><ele>20.01</ele></trkpt>
<trkpt lat="53.5664179" lon="-9.424749100000001"><ele>20.28</ele></trkpt>
<trkpt lat="53.5664853" lon="-9.4250319"><ele>20.46</ele></trkpt>
<trkpt lat="53.5665079" lon="-9.4251625"><ele>20.53</ele></trkpt>
<trkpt lat="53.5665906" lon="-9.4261149"><ele>21.05</ele></trkpt>
<trkpt lat="53.5666829" lon="-9.427077099999998"><ele>21.6</ele></trkpt>
<trkpt lat="53.5667068" lon="-9.4274895"><ele>21.77</ele></trkpt>
<trkpt lat="53.56669010000001" lon="-9.427995999999998"><ele>21.83</ele></trkpt>
<trkpt lat="53.566706700000005" lon="-9.428368400000002"><ele>21.75</ele></trkpt>
<trkpt lat="53.5667911" lon="-9.4287517"><ele>21.55</ele></trkpt>
<trkpt lat="53.5668959" lon="-9.4291454"><ele>21.24</ele></trkpt>
<trkpt lat="53.5670377" lon="-9.4296491"><ele>20.73</ele></trkpt>
<trkpt lat="53.5670722" lon="-9.429841"><ele>20.54</ele></trkpt>
<trkpt lat="53.56706369999999" lon="-9.4300559"><ele>20.35</ele></trkpt>
<trkpt lat="53.5669831" lon="-9.4307911"><ele>19.89</ele></trkpt>
<trkpt lat="53.56698050000001" lon="-9.431024100000002"><ele>19.86</ele></trkpt>
<trkpt lat="53.56707060000001" lon="-9.432263"><ele>20.55</ele></trkpt>
<trkpt lat="53.5671414" lon="-9.432957199999999"><ele>20.97</ele></trkpt>
<trkpt lat="53.567250099999995" lon="-9.433623299999999"><ele>20.92</ele></trkpt>
<trkpt lat="53.5673605" lon="-9.4344571"><ele>20.36</ele></trkpt>
<trkpt lat="53.56744040000001" lon="-9.4348644"><ele>20.06</ele></trkpt>
<trkpt lat="53.567599400000006" lon="-9.435317600000001"><ele>19.76</ele></trkpt>
<trkpt lat="53.56810529999999" lon="-9.4363731"><ele>19.18</ele></trkpt>
<trkpt lat="53.5681566" lon="-9.4365523"><ele>19.1</ele></trkpt>
<trkpt lat="53.568187699999996" lon="-9.4367658"><ele>19</ele></trkpt>
<trkpt lat="53.568249800000004" lon="-9.4376189"><ele>18.73</ele></trkpt>
<trkpt lat="53.56830419999999" lon="-9.437915199999999"><ele>18.69</ele></trkpt>
<trkpt lat="53.5684904" lon="-9.4388046"><ele>18.94</ele></trkpt>
<trkpt lat="53.56858100000001" lon="-9.4395772"><ele>19.85</ele></trkpt>
<trkpt lat="53.56864" lon="-9.440037999999998"><ele>20.93</ele></trkpt>
<trkpt lat="53.5687033" lon="-9.4405033"><ele>22.52</ele></trkpt>
<trkpt lat="53.5687815" lon="-9.4409674"><ele>24.55</ele></trkpt>
<trkpt lat="53.5689073" lon="-9.441596600000002"><ele>27.62</ele></trkpt>
<trkpt lat="53.5690329" lon="-9.4422214"><ele>30.24</ele></trkpt>
<trkpt lat="53.56918199999999" lon="-9.4429712"><ele>31.97</ele></trkpt>
<trkpt lat="53.56929000000001" lon="-9.443524500000004"><ele>32.18</ele></trkpt>
<trkpt lat="53.56933010000001" lon="-9.4438271"><ele>32.02</ele></trkpt>
<trkpt lat="53.5694502" lon="-9.4450359"><ele>31.2</ele></trkpt>
<trkpt lat="53.5694794" lon="-9.445495000000001"><ele>31.16</ele></trkpt>
<trkpt lat="53.56950989999999" lon="-9.4464235"><ele>31.43</ele></trkpt>
<trkpt lat="53.56954019999999" lon="-9.4466806"><ele>31.52</ele></trkpt>
<trkpt lat="53.5695806" lon="-9.4469116"><ele>31.6</ele></trkpt>
<trkpt lat="53.56963390000001" lon="-9.447108999999998"><ele>31.67</ele></trkpt>
<trkpt lat="53.5698769" lon="-9.4476968"><ele>31.83</ele></trkpt>
<trkpt lat="53.56999660000001" lon="-9.448061400000002"><ele>31.86</ele></trkpt>
<trkpt lat="53.5700528" lon="-9.4484141"><ele>31.85</ele></trkpt>
<trkpt lat="53.57007000000001" lon="-9.448733899999999"><ele>31.81</ele></trkpt>
<trkpt lat="53.57005600000001" lon="-9.4497916"><ele>31.63</ele></trkpt>
<trkpt lat="53.5700195" lon="-9.451345800000004"><ele>32.06</ele></trkpt>
<trkpt lat="53.57000659999999" lon="-9.451635499999998"><ele>32.26</ele></trkpt>
<trkpt lat="53.5699833" lon="-9.451964200000003"><ele>32.51</ele></trkpt>
<trkpt lat="53.5698849" lon="-9.4531311"><ele>33.19</ele></trkpt>
<trkpt lat="53.5698612" lon="-9.4534931"><ele>33.24</ele></trkpt>
<trkpt lat="53.56978959999999" lon="-9.4548085"><ele>32.78</ele></trkpt>
<trkpt lat="53.5696673" lon="-9.4560103"><ele>31.78</ele></trkpt>
<trkpt lat="53.5694774" lon="-9.4575256"><ele>29.78</ele></trkpt>
<trkpt lat="53.5694105" lon="-9.4580808"><ele>29.29</ele></trkpt>
<trkpt lat="53.569379999999995" lon="-9.458634599999998"><ele>29.21</ele></trkpt>
<trkpt lat="53.56935000000001" lon="-9.459534899999998"><ele>29.84</ele></trkpt>
<trkpt lat="53.5692995" lon="-9.4602074"><ele>30.76</ele></trkpt>
<trkpt lat="53.5691892" lon="-9.4609544"><ele>32.03</ele></trkpt>
<trkpt lat="53.5689898" lon="-9.4621844"><ele>33.75</ele></trkpt>
<trkpt lat="53.5688508" lon="-9.4631813"><ele>34.86</ele></trkpt>
<trkpt lat="53.5688303" lon="-9.463519"><ele>35.35</ele></trkpt>
<trkpt lat="53.5687993" lon="-9.4643823"><ele>37.05</ele></trkpt>
<trkpt lat="53.56868" lon="-9.465825000000002"><ele>40.99</ele></trkpt>
<trkpt lat="53.568620499999994" lon="-9.466668"><ele>42.4</ele></trkpt>
<trkpt lat="53.5686093" lon="-9.4674827"><ele>41.89</ele></trkpt>
<trkpt lat="53.56855010000001" lon="-9.4681927"><ele>40.23</ele></trkpt>
<trkpt lat="53.568525" lon="-9.4686814"><ele>39.06</ele></trkpt>
<trkpt lat="53.56853" lon="-9.4690501"><ele>38.39</ele></trkpt>
<trkpt lat="53.5685748" lon="-9.469848899999999"><ele>37.84</ele></trkpt>
<trkpt lat="53.568619600000005" lon="-9.4706478"><ele>38.49</ele></trkpt>
<trkpt lat="53.56865" lon="-9.4717744"><ele>41.09</ele></trkpt>
<trkpt lat="53.5686676" lon="-9.4727556"><ele>44.02</ele></trkpt>
<trkpt lat="53.5686649" lon="-9.473029700000001"><ele>44.6</ele></trkpt>
<trkpt lat="53.5686491" lon="-9.4732323"><ele>44.89</ele></trkpt>
<trkpt lat="53.5685972" lon="-9.4735276"><ele>45.07</ele></trkpt>
<trkpt lat="53.56842910000001" lon="-9.4741926"><ele>44.29</ele></trkpt>
<trkpt lat="53.568261" lon="-9.4748576"><ele>42.24</ele></trkpt>
<trkpt lat="53.5681902" lon="-9.475221300000001"><ele>40.88</ele></trkpt>
<trkpt lat="53.5681201" lon="-9.4757328"><ele>38.89</ele></trkpt>
<trkpt lat="53.5679899" lon="-9.4767583"><ele>34.74</ele></trkpt>
<trkpt lat="53.56781050000001" lon="-9.477899000000003"><ele>30.11</ele></trkpt>
<trkpt lat="53.56772449999999" lon="-9.4786024"><ele>27.98</ele></trkpt>
<trkpt lat="53.5676815" lon="-9.4789541"><ele>27.29</ele></trkpt>
<trkpt lat="53.56761040000001" lon="-9.4796428"><ele>26.76</ele></trkpt>
<trkpt lat="53.5675874" lon="-9.4801288"><ele>26.97</ele></trkpt>
<trkpt lat="53.5675705" lon="-9.4806896"><ele>27.73</ele></trkpt>
<trkpt lat="53.5675802" lon="-9.4811161"><ele>28.56</ele></trkpt>
<trkpt lat="53.56761899999999" lon="-9.481953"><ele>30.47</ele></trkpt>
<trkpt lat="53.5676099" lon="-9.482390899999999"><ele>31.39</ele></trkpt>
<trkpt lat="53.5675792" lon="-9.4828027"><ele>32.09</ele></trkpt>
<trkpt lat="53.56750340000001" lon="-9.483306000000004"><ele>32.63</ele></trkpt>
<trkpt lat="53.5674511" lon="-9.483616600000001"><ele>32.8</ele></trkpt>
<trkpt lat="53.56741070000001" lon="-9.4839773"><ele>32.92</ele></trkpt>
<trkpt lat="53.5674024" lon="-9.4845773"><ele>33.14</ele></trkpt>
<trkpt lat="53.5674167" lon="-9.4847856"><ele>33.26</ele></trkpt>
<trkpt lat="53.5674999" lon="-9.485342999999999"><ele>33.72</ele></trkpt>
<trkpt lat="53.5675803" lon="-9.4856546"><ele>33.97</ele></trkpt>
<trkpt lat="53.567708200000006" lon="-9.486060499999999"><ele>34.11</ele></trkpt>
<trkpt lat="53.5677485" lon="-9.4862811"><ele>34.03</ele></trkpt>
<trkpt lat="53.5677663" lon="-9.486583"><ele>33.75</ele></trkpt>
<trkpt lat="53.5677524" lon="-9.4870471"><ele>33.04</ele></trkpt>
<trkpt lat="53.5677571" lon="-9.4872694"><ele>32.63</ele></trkpt>
<trkpt lat="53.56780280000001" lon="-9.4876028"><ele>32.01</ele></trkpt>
<trkpt lat="53.567871" lon="-9.4878802"><ele>31.54</ele></trkpt>
<trkpt lat="53.5679938" lon="-9.488139100000001"><ele>31.12</ele></trkpt>
<trkpt lat="53.5680677" lon="-9.488244699999997"><ele>30.96</ele></trkpt>
<trkpt lat="53.56825250000001" lon="-9.4884491"><ele>30.68</ele></trkpt>
<trkpt lat="53.5684571" lon="-9.4887332"><ele>30.46</ele></trkpt>
<trkpt lat="53.5685197" lon="-9.488847299999998"><ele>30.4</ele></trkpt>
<trkpt lat="53.5686019" lon="-9.4890541"><ele>30.32</ele></trkpt>
<trkpt lat="53.5687589" lon="-9.489536300000001"><ele>30.14</ele></trkpt>
<trkpt lat="53.569154999999995" lon="-9.490132300000003"><ele>29.83</ele></trkpt>
<trkpt lat="53.569532800000005" lon="-9.4908842"><ele>29.4</ele></trkpt>
<trkpt lat="53.5698969" lon="-9.4915552"><ele>29.17</ele></trkpt>
<trkpt lat="53.5702413" lon="-9.4922615"><ele>29.49</ele></trkpt>
<trkpt lat="53.5703989" lon="-9.4925175"><ele>29.79</ele></trkpt>
<trkpt lat="53.5707038" lon="-9.4928934"><ele>30.44</ele></trkpt>
<trkpt lat="53.5712374" lon="-9.4934379"><ele>31.02</ele></trkpt>
<trkpt lat="53.571381200000005" lon="-9.493623"><ele>30.89</ele></trkpt>
<trkpt lat="53.5714762" lon="-9.493798499999999"><ele>30.69</ele></trkpt>
<trkpt lat="53.57170159999999" lon="-9.494302199999998"><ele>29.92</ele></trkpt>
<trkpt lat="53.572127900000005" lon="-9.495135099999999"><ele>29.13</ele></trkpt>
<trkpt lat="53.572447200000006" lon="-9.496086499999999"><ele>29.46</ele></trkpt>
<trkpt lat="53.572506600000004" lon="-9.496307599999998"><ele>29.46</ele></trkpt>
<trkpt lat="53.572527" lon="-9.496499899999998"><ele>29.41</ele></trkpt>
<trkpt lat="53.5724801" lon="-9.496898699999997"><ele>29.16</ele></trkpt>
<trkpt lat="53.5724734" lon="-9.4971462"><ele>28.96</ele></trkpt>
<trkpt lat="53.5724933" lon="-9.4973381"><ele>28.79</ele></trkpt>
<trkpt lat="53.5725638" lon="-9.497606"><ele>28.56</ele></trkpt>
<trkpt lat="53.572780400000006" lon="-9.498219699999998"><ele>28.35</ele></trkpt>
<trkpt lat="53.5731556" lon="-9.4990933"><ele>29.11</ele></trkpt>
<trkpt lat="53.5732024" lon="-9.499348900000001"><ele>29.4</ele></trkpt>
<trkpt lat="53.5732109" lon="-9.4998576"><ele>29.95</ele></trkpt>
<trkpt lat="53.5732336" lon="-9.5000519"><ele>30.15</ele></trkpt>
<trkpt lat="53.5732965" lon="-9.5002834"><ele>30.39</ele></trkpt>
<trkpt lat="53.57365" lon="-9.5012608"><ele>31.23</ele></trkpt>
<trkpt lat="53.5740599" lon="-9.5024999"><ele>32.09</ele></trkpt>
<trkpt lat="53.57446000000001" lon="-9.5037395"><ele>32.93</ele></trkpt>
<trkpt lat="53.574735" lon="-9.5045315"><ele>33.01</ele></trkpt>
<trkpt lat="53.5748893" lon="-9.5050011"><ele>32.75</ele></trkpt>
<trkpt lat="53.57510860000001" lon="-9.5056024"><ele>32.08</ele></trkpt>
<trkpt lat="53.57550220000001" lon="-9.5063428"><ele>30.81</ele></trkpt>
<trkpt lat="53.5757919" lon="-9.5068363"><ele>30.02</ele></trkpt>
<trkpt lat="53.5759634" lon="-9.507049400000003"><ele>29.73</ele></trkpt>
<trkpt lat="53.57631839999999" lon="-9.507478299999999"><ele>29.48</ele></trkpt>
<trkpt lat="53.57684009999999" lon="-9.508130000000001"><ele>30.06</ele></trkpt>
<trkpt lat="53.57736990000001" lon="-9.5087703"><ele>31.41</ele></trkpt>
<trkpt lat="53.57803419999999" lon="-9.509647299999997"><ele>32.94</ele></trkpt>
<trkpt lat="53.578568" lon="-9.5103694"><ele>33.66</ele></trkpt>
<trkpt lat="53.578648400000006" lon="-9.5105061"><ele>33.77</ele></trkpt>
<trkpt lat="53.57868789999999" lon="-9.510620299999998"><ele>33.86</ele></trkpt>
<trkpt lat="53.5787312" lon="-9.5108259"><ele>34.01</ele></trkpt>
<trkpt lat="53.5789143" lon="-9.512029899999998"><ele>35.32</ele></trkpt>
<trkpt lat="53.579202499999994" lon="-9.513972499999998"><ele>38.61</ele></trkpt>
<trkpt lat="53.5792727" lon="-9.514394"><ele>39.47</ele></trkpt>
<trkpt lat="53.57938939999999" lon="-9.514825500000004"><ele>40.47</ele></trkpt>
<trkpt lat="53.5796765" lon="-9.5154271"><ele>42.19</ele></trkpt>
<trkpt lat="53.5798579" lon="-9.515837999999999"><ele>43.33</ele></trkpt>
<trkpt lat="53.5800097" lon="-9.516393900000002"><ele>44.67</ele></trkpt>
<trkpt lat="53.5803603" lon="-9.517413400000004"><ele>47.43</ele></trkpt>
<trkpt lat="53.580746" lon="-9.5184933"><ele>50.49</ele></trkpt>
<trkpt lat="53.5809395" lon="-9.519227299999999"><ele>52.13</ele></trkpt>
<trkpt lat="53.5812297" lon="-9.5203283"><ele>54.18</ele></trkpt>
<trkpt lat="53.581544" lon="-9.521398"><ele>57.07</ele></trkpt>
<trkpt lat="53.5818191" lon="-9.5223099"><ele>60.86</ele></trkpt>
<trkpt lat="53.58188969999999" lon="-9.5226399"><ele>62.22</ele></trkpt>
<trkpt lat="53.5820469" lon="-9.523480799999998"><ele>65.11</ele></trkpt>
<trkpt lat="53.58210669999999" lon="-9.523880300000002"><ele>66.01</ele></trkpt>
<trkpt lat="53.582116000000006" lon="-9.52409"><ele>66.33</ele></trkpt>
<trkpt lat="53.5821123" lon="-9.5245801"><ele>66.8</ele></trkpt>
<trkpt lat="53.5821235" lon="-9.5247963"><ele>66.93</ele></trkpt>
<trkpt lat="53.5821807" lon="-9.525325"><ele>67.27</ele></trkpt>
<trkpt lat="53.58226350000001" lon="-9.5259197"><ele>68.03</ele></trkpt>
<trkpt lat="53.582334" lon="-9.5263176"><ele>68.91</ele></trkpt>
<trkpt lat="53.5824969" lon="-9.5268118"><ele>70.42</ele></trkpt>
<trkpt lat="53.5826041" lon="-9.527322500000002"><ele>71.7</ele></trkpt>
<trkpt lat="53.582678099999995" lon="-9.5275796"><ele>72.1</ele></trkpt>
<trkpt lat="53.5826708" lon="-9.5277809"><ele>72.22</ele></trkpt>
<trkpt lat="53.58263920000001" lon="-9.528206100000002"><ele>72.01</ele></trkpt>
<trkpt lat="53.5825826" lon="-9.528738300000002"><ele>71.01</ele></trkpt>
<trkpt lat="53.5825616" lon="-9.5290214"><ele>70.28</ele></trkpt>
<trkpt lat="53.582569299999996" lon="-9.529678700000002"><ele>68.47</ele></trkpt>
<trkpt lat="53.5825402" lon="-9.530639999999998"><ele>66.06</ele></trkpt>
<trkpt lat="53.5825204" lon="-9.5315973"><ele>63.97</ele></trkpt>
<trkpt lat="53.5825301" lon="-9.5326202"><ele>61.9</ele></trkpt>
<trkpt lat="53.5825466" lon="-9.5334752"><ele>60.39</ele></trkpt>
<trkpt lat="53.5825587" lon="-9.5338443"><ele>59.73</ele></trkpt>
<trkpt lat="53.5825856" lon="-9.5340966"><ele>59.21</ele></trkpt>
<trkpt lat="53.582698300000004" lon="-9.5344685"><ele>58.18</ele></trkpt>
<trkpt lat="53.5827267" lon="-9.534704699999999"><ele>57.45</ele></trkpt>
<trkpt lat="53.5827116" lon="-9.5349047"><ele>56.76</ele></trkpt>
<trkpt lat="53.5826678" lon="-9.5351099"><ele>55.96</ele></trkpt>
<trkpt lat="53.5825359" lon="-9.5355288"><ele>54.17</ele></trkpt>
<trkpt lat="53.582503300000006" lon="-9.5356641"><ele>53.67</ele></trkpt>
<trkpt lat="53.5824842" lon="-9.535850999999997"><ele>53.09</ele></trkpt>
<trkpt lat="53.582491399999995" lon="-9.536004299999998"><ele>52.68</ele></trkpt>
<trkpt lat="53.5825555" lon="-9.5363419"><ele>52.02</ele></trkpt>
<trkpt lat="53.5825931" lon="-9.5364697"><ele>51.85</ele></trkpt>
<trkpt lat="53.5827868" lon="-9.5369937"><ele>51.62</ele></trkpt>
<trkpt lat="53.5829249" lon="-9.5374572"><ele>51.68</ele></trkpt>
<trkpt lat="53.5829999" lon="-9.537763"><ele>51.7</ele></trkpt>
<trkpt lat="53.5832633" lon="-9.539143300000001"><ele>51.14</ele></trkpt>
<trkpt lat="53.583388" lon="-9.5398794"><ele>50.46</ele></trkpt>
<trkpt lat="53.5834197" lon="-9.5403316"><ele>49.93</ele></trkpt>
<trkpt lat="53.5834214" lon="-9.540757199999998"><ele>49.41</ele></trkpt>
<trkpt lat="53.58345" lon="-9.5410646"><ele>49.06</ele></trkpt>
<trkpt lat="53.5836792" lon="-9.542486"><ele>47.81</ele></trkpt>
<trkpt lat="53.583710200000006" lon="-9.542756799999998"><ele>47.57</ele></trkpt>
<trkpt lat="53.5837249" lon="-9.542974899999999"><ele>47.36</ele></trkpt>
<trkpt lat="53.58372450000001" lon="-9.543182"><ele>47.15</ele></trkpt>
<trkpt lat="53.5837068" lon="-9.5434068"><ele>46.9</ele></trkpt>
<trkpt lat="53.5836134" lon="-9.5440493"><ele>46.24</ele></trkpt>
<trkpt lat="53.583580000000005" lon="-9.5443556"><ele>46.03</ele></trkpt>
<trkpt lat="53.58357" lon="-9.544675899999998"><ele>45.93</ele></trkpt>
<trkpt lat="53.5835694" lon="-9.5452028"><ele>45.97</ele></trkpt>
<trkpt lat="53.5835504" lon="-9.5456592"><ele>46.12</ele></trkpt>
<trkpt lat="53.5834992" lon="-9.5461651"><ele>46.24</ele></trkpt>
<trkpt lat="53.5834695" lon="-9.5463174"><ele>46.24</ele></trkpt>
<trkpt lat="53.583338600000005" lon="-9.5468017"><ele>46.11</ele></trkpt>
<trkpt lat="53.5830426" lon="-9.5475447"><ele>45.64</ele></trkpt>
<trkpt lat="53.582967000000004" lon="-9.5477251"><ele>45.56</ele></trkpt>
<trkpt lat="53.5828223" lon="-9.5479635"><ele>45.52</ele></trkpt>
<trkpt lat="53.582751800000004" lon="-9.5481236"><ele>45.55</ele></trkpt>
<trkpt lat="53.5826761" lon="-9.5483602"><ele>45.69</ele></trkpt>
<trkpt lat="53.5826181" lon="-9.5485942"><ele>45.92</ele></trkpt>
<trkpt lat="53.58258120000001" lon="-9.5488457"><ele>46.24</ele></trkpt>
<trkpt lat="53.5825466" lon="-9.549170900000002"><ele>46.75</ele></trkpt>
<trkpt lat="53.5824011" lon="-9.5503259"><ele>48.68</ele></trkpt>
<trkpt lat="53.58232249999999" lon="-9.5509577"><ele>49.14</ele></trkpt>
<trkpt lat="53.5822813" lon="-9.5511805"><ele>49.11</ele></trkpt>
<trkpt lat="53.5822327" lon="-9.551327900000002"><ele>49.02</ele></trkpt>
<trkpt lat="53.5817315" lon="-9.5521645"><ele>47.38</ele></trkpt>
<trkpt lat="53.5816315" lon="-9.5523818"><ele>46.97</ele></trkpt>
<trkpt lat="53.5815725" lon="-9.5526494"><ele>46.58</ele></trkpt>
<trkpt lat="53.5815666" lon="-9.553057100000002"><ele>46.17</ele></trkpt>
<trkpt lat="53.58155390000001" lon="-9.5532059"><ele>46.06</ele></trkpt>
<trkpt lat="53.58141439999999" lon="-9.553782400000001"><ele>45.84</ele></trkpt>
<trkpt lat="53.5813778" lon="-9.5539743"><ele>45.85</ele></trkpt>
<trkpt lat="53.5813685" lon="-9.554099199999998"><ele>45.87</ele></trkpt>
<trkpt lat="53.5813897" lon="-9.554228"><ele>45.89</ele></trkpt>
<trkpt lat="53.5814392" lon="-9.554351200000003"><ele>45.93</ele></trkpt>
<trkpt lat="53.5816114" lon="-9.5546888"><ele>46.02</ele></trkpt>
<trkpt lat="53.5816376" lon="-9.5547799"><ele>46.02</ele></trkpt>
<trkpt lat="53.581649" lon="-9.55491"><ele>46.01</ele></trkpt>
<trkpt lat="53.5816236" lon="-9.555219599999997"><ele>45.91</ele></trkpt>
<trkpt lat="53.5815101" lon="-9.5561357"><ele>45.18</ele></trkpt>
<trkpt lat="53.5815106" lon="-9.5562624"><ele>45.08</ele></trkpt>
<trkpt lat="53.5815576" lon="-9.5565456"><ele>44.85</ele></trkpt>
<trkpt lat="53.5816393" lon="-9.556912800000001"><ele>44.56</ele></trkpt>
<trkpt lat="53.58166980000001" lon="-9.5571506"><ele>44.39</ele></trkpt>
<trkpt lat="53.5816592" lon="-9.5573665"><ele>44.23</ele></trkpt>
<trkpt lat="53.5816034" lon="-9.5577312"><ele>43.92</ele></trkpt>
<trkpt lat="53.5815377" lon="-9.558654"><ele>42.86</ele></trkpt>
<trkpt lat="53.5815644" lon="-9.558889499999998"><ele>42.51</ele></trkpt>
<trkpt lat="53.5816822" lon="-9.5591878"><ele>41.9</ele></trkpt>
<trkpt lat="53.5816768" lon="-9.5594084"><ele>41.46</ele></trkpt>
<trkpt lat="53.5816447" lon="-9.5594879"><ele>41.26</ele></trkpt>
<trkpt lat="53.5815751" lon="-9.5595832"><ele>40.92</ele></trkpt>
<trkpt lat="53.581275600000005" lon="-9.559892300000001"><ele>39.48</ele></trkpt>
<trkpt lat="53.581005" lon="-9.5600767"><ele>38.28</ele></trkpt>
<trkpt lat="53.58064840000001" lon="-9.560362400000002"><ele>36.93</ele></trkpt>
<trkpt lat="53.5803708" lon="-9.560462100000002"><ele>36.23</ele></trkpt>
<trkpt lat="53.5802244" lon="-9.5605746"><ele>35.94</ele></trkpt>
<trkpt lat="53.5801428" lon="-9.5606987"><ele>35.76</ele></trkpt>
<trkpt lat="53.5799141" lon="-9.561149399999998"><ele>35.29</ele></trkpt>
<trkpt lat="53.5798549" lon="-9.5611959"><ele>35.2</ele></trkpt>
<trkpt lat="53.5796769" lon="-9.5612714"><ele>34.94</ele></trkpt>
<trkpt lat="53.5795644" lon="-9.5613933"><ele>34.72</ele></trkpt>
<trkpt lat="53.57899969999999" lon="-9.562692699999998"><ele>32.69</ele></trkpt>
<trkpt lat="53.57893560000001" lon="-9.562882400000001"><ele>32.52</ele></trkpt>
<trkpt lat="53.5788965" lon="-9.5631302"><ele>32.41</ele></trkpt>
<trkpt lat="53.57885079999999" lon="-9.563786"><ele>32.65</ele></trkpt>
<trkpt lat="53.578823799999995" lon="-9.564944999999998"><ele>33.5</ele></trkpt>
<trkpt lat="53.578815" lon="-9.56544"><ele>33.35</ele></trkpt>
<trkpt lat="53.5788025" lon="-9.5662652"><ele>32.42</ele></trkpt>
<trkpt lat="53.5787812" lon="-9.5669433"><ele>31.71</ele></trkpt>
<trkpt lat="53.5788025" lon="-9.5674051"><ele>31.53</ele></trkpt>
<trkpt lat="53.57880300000001" lon="-9.5677176"><ele>31.62</ele></trkpt>
<trkpt lat="53.578781299999996" lon="-9.5682387"><ele>32.24</ele></trkpt>
<trkpt lat="53.57878960000001" lon="-9.5685195"><ele>32.85</ele></trkpt>
<trkpt lat="53.5789009" lon="-9.569307399999998"><ele>35.44</ele></trkpt>
<trkpt lat="53.5790088" lon="-9.5701265"><ele>38.36</ele></trkpt>
<trkpt lat="53.5790392" lon="-9.570886999999999"><ele>39.68</ele></trkpt>
<trkpt lat="53.5790305" lon="-9.5711797"><ele>39.67</ele></trkpt>
<trkpt lat="53.5790456" lon="-9.5717807"><ele>38.75</ele></trkpt>
<trkpt lat="53.579079400000005" lon="-9.5727506"><ele>35.43</ele></trkpt>
<trkpt lat="53.5790629" lon="-9.5733898"><ele>33.22</ele></trkpt>
<trkpt lat="53.579092" lon="-9.573814"><ele>32.14</ele></trkpt>
<trkpt lat="53.5791546" lon="-9.5744802"><ele>31.08</ele></trkpt>
<trkpt lat="53.579122" lon="-9.574960899999997"><ele>30.56</ele></trkpt>
<trkpt lat="53.5791082" lon="-9.576436400000002"><ele>28.96</ele></trkpt>
<trkpt lat="53.5790876" lon="-9.576772700000001"><ele>28.69</ele></trkpt>
<trkpt lat="53.5790755" lon="-9.577080899999999"><ele>28.55</ele></trkpt>
<trkpt lat="53.57907620000001" lon="-9.5773081"><ele>28.53</ele></trkpt>
<trkpt lat="53.5791143" lon="-9.5775345"><ele>28.58</ele></trkpt>
<trkpt lat="53.5792309" lon="-9.5781249"><ele>29.07</ele></trkpt>
<trkpt lat="53.5793914" lon="-9.5789673"><ele>30.86</ele></trkpt>
<trkpt lat="53.5795209" lon="-9.5796476"><ele>33.23</ele></trkpt>
<trkpt lat="53.57955150000001" lon="-9.5798673"><ele>34.1</ele></trkpt>
<trkpt lat="53.5795638" lon="-9.5800701"><ele>34.91</ele></trkpt>
<trkpt lat="53.57958649999999" lon="-9.5802396"><ele>35.6</ele></trkpt>
<trkpt lat="53.579624599999995" lon="-9.5809703"><ele>38.18</ele></trkpt>
<trkpt lat="53.57966" lon="-9.5816684"><ele>39.53</ele></trkpt>
<trkpt lat="53.579732500000006" lon="-9.5825528"><ele>39.26</ele></trkpt>
<trkpt lat="53.57980799999999" lon="-9.5832965"><ele>38.07</ele></trkpt>
<trkpt lat="53.5800471" lon="-9.584121499999998"><ele>37.33</ele></trkpt>
<trkpt lat="53.58026339999999" lon="-9.5850142"><ele>37.94</ele></trkpt>
<trkpt lat="53.5802963" lon="-9.585220100000003"><ele>38.11</ele></trkpt>
<trkpt lat="53.58039900000001" lon="-9.5860998"><ele>38.5</ele></trkpt>
<trkpt lat="53.58042340000001" lon="-9.5862766"><ele>38.48</ele></trkpt>
<trkpt lat="53.5804604" lon="-9.586426700000002"><ele>38.43</ele></trkpt>
<trkpt lat="53.580544" lon="-9.5866506"><ele>38.27</ele></trkpt>
<trkpt lat="53.5807883" lon="-9.5871074"><ele>37.54</ele></trkpt>
<trkpt lat="53.5808665" lon="-9.5874009"><ele>36.97</ele></trkpt>
<trkpt lat="53.5808858" lon="-9.5875858"><ele>36.58</ele></trkpt>
<trkpt lat="53.580886199999995" lon="-9.5878197"><ele>36.05</ele></trkpt>
<trkpt lat="53.58083739999999" lon="-9.5883524"><ele>34.71</ele></trkpt>
<trkpt lat="53.580688800000004" lon="-9.5891212"><ele>32.67</ele></trkpt>
<trkpt lat="53.5805779" lon="-9.5894115"><ele>31.85</ele></trkpt>
<trkpt lat="53.5804426" lon="-9.5896483"><ele>31.13</ele></trkpt>
<trkpt lat="53.580225" lon="-9.58996"><ele>30.21</ele></trkpt>
<trkpt lat="53.5798694" lon="-9.5904613"><ele>29.25</ele></trkpt>
<trkpt lat="53.5795138" lon="-9.5909625"><ele>29.28</ele></trkpt>
<trkpt lat="53.57926880000001" lon="-9.5913013"><ele>30.03</ele></trkpt>
<trkpt lat="53.579037500000005" lon="-9.591607499999999"><ele>31.31</ele></trkpt>
<trkpt lat="53.5787276" lon="-9.592017300000002"><ele>33.68</ele></trkpt>
<trkpt lat="53.57839340000001" lon="-9.5924192"><ele>36.62</ele></trkpt>
<trkpt lat="53.5782475" lon="-9.592558"><ele>37.88</ele></trkpt>
<trkpt lat="53.57793800000001" lon="-9.5926527"><ele>40.2</ele></trkpt>
<trkpt lat="53.577512" lon="-9.5929945"><ele>43.28</ele></trkpt>
<trkpt lat="53.577299" lon="-9.5931654"><ele>44.5</ele></trkpt>
<trkpt lat="53.5770858" lon="-9.5932693"><ele>45.38</ele></trkpt>
<trkpt lat="53.5766954" lon="-9.5934582"><ele>46.32</ele></trkpt>
<trkpt lat="53.576458" lon="-9.593643"><ele>46.52</ele></trkpt>
<trkpt lat="53.5760993" lon="-9.594041"><ele>46.37</ele></trkpt>
<trkpt lat="53.5752092" lon="-9.595030900000001"><ele>45.17</ele></trkpt>
<trkpt lat="53.574487299999994" lon="-9.5958306"><ele>44.44</ele></trkpt>
<trkpt lat="53.5743952" lon="-9.595857"><ele>44.34</ele></trkpt>
<trkpt lat="53.5743112" lon="-9.5958119"><ele>44.25</ele></trkpt>
<trkpt lat="53.5741191" lon="-9.595588299999998"><ele>44.04</ele></trkpt>
<trkpt lat="53.5740517" lon="-9.5954482"><ele>43.98</ele></trkpt>
<trkpt lat="53.5740254" lon="-9.5952206"><ele>43.97</ele></trkpt>
<trkpt lat="53.57394990000001" lon="-9.5943227"><ele>44.6</ele></trkpt>
<trkpt lat="53.5738647" lon="-9.5932862"><ele>46.5</ele></trkpt>
<trkpt lat="53.5738756" lon="-9.593050500000002"><ele>47.06</ele></trkpt>
<trkpt lat="53.5738329" lon="-9.5929075"><ele>47.48</ele></trkpt>
<trkpt lat="53.5737374" lon="-9.592901700000002"><ele>47.93</ele></trkpt>
<trkpt lat="53.5736885" lon="-9.5929989"><ele>48.29</ele></trkpt>
<trkpt lat="53.5736658" lon="-9.5932059"><ele>48.92</ele></trkpt>
<trkpt lat="53.5736629" lon="-9.593508099999998"><ele>49.87</ele></trkpt>
<trkpt lat="53.573642" lon="-9.593913800000001"><ele>51.29</ele></trkpt>
<trkpt lat="53.573603" lon="-9.5941679"><ele>52.3</ele></trkpt>
<trkpt lat="53.573518199999995" lon="-9.594373400000002"><ele>53.33</ele></trkpt>
<trkpt lat="53.5733716" lon="-9.5946908"><ele>55.12</ele></trkpt>
<trkpt lat="53.57330739999999" lon="-9.594874499999998"><ele>56.12</ele></trkpt>
<trkpt lat="53.5732738" lon="-9.5950451"><ele>56.99</ele></trkpt>
<trkpt lat="53.57321710000001" lon="-9.5955292"><ele>59.51</ele></trkpt>
<trkpt lat="53.5731421" lon="-9.595866700000002"><ele>61.45</ele></trkpt>
<trkpt lat="53.572867200000005" lon="-9.5968964"><ele>67.98</ele></trkpt>
<trkpt lat="53.5726619" lon="-9.5974454"><ele>71.86</ele></trkpt>
<trkpt lat="53.572477199999994" lon="-9.5979937"><ele>75.47</ele></trkpt>
<trkpt lat="53.5724301" lon="-9.5982201"><ele>76.77</ele></trkpt>
<trkpt lat="53.5724037" lon="-9.5984849"><ele>78.17</ele></trkpt>
<trkpt lat="53.572393" lon="-9.599092900000002"><ele>81.24</ele></trkpt>
<trkpt lat="53.5724018" lon="-9.599311"><ele>82.36</ele></trkpt>
<trkpt lat="53.5724602" lon="-9.6000211"><ele>86.34</ele></trkpt>
<trkpt lat="53.572475" lon="-9.6004679"><ele>89.21</ele></trkpt>
<trkpt lat="53.5724789" lon="-9.6007774"><ele>91.37</ele></trkpt>
<trkpt lat="53.5723792" lon="-9.601757299999997"><ele>98.91</ele></trkpt>
<trkpt lat="53.57231159999999" lon="-9.602083300000002"><ele>101.51</ele></trkpt>
<trkpt lat="53.5722793" lon="-9.6023138"><ele>103.21</ele></trkpt>
<trkpt lat="53.572261" lon="-9.602564700000002"><ele>104.93</ele></trkpt>
<trkpt lat="53.572211" lon="-9.602920099999999"><ele>107.18</ele></trkpt>
<trkpt lat="53.5721205" lon="-9.6032781"><ele>109.25</ele></trkpt>
<trkpt lat="53.5720699" lon="-9.6035491"><ele>110.52</ele></trkpt>
<trkpt lat="53.5720465" lon="-9.6037569"><ele>111.31</ele></trkpt>
<trkpt lat="53.5720311" lon="-9.604079099999998"><ele>112.28</ele></trkpt>
<trkpt lat="53.572035" lon="-9.6047343"><ele>113.41</ele></trkpt>
<trkpt lat="53.5720282" lon="-9.604917600000002"><ele>113.52</ele></trkpt>
<trkpt lat="53.5720014" lon="-9.6051663"><ele>113.54</ele></trkpt>
<trkpt lat="53.5718867" lon="-9.60595"><ele>112.75</ele></trkpt>
<trkpt lat="53.571692" lon="-9.607342100000002"><ele>110.13</ele></trkpt>
<trkpt lat="53.5716703" lon="-9.6075093"><ele>109.87</ele></trkpt>
<trkpt lat="53.5715586" lon="-9.6085472"><ele>109.01</ele></trkpt>
<trkpt lat="53.5714001" lon="-9.609934000000003"><ele>109.37</ele></trkpt>
<trkpt lat="53.57128809999999" lon="-9.6114894"><ele>110.27</ele></trkpt>
<trkpt lat="53.571137699999994" lon="-9.6125185"><ele>110.89</ele></trkpt>
<trkpt lat="53.5710502" lon="-9.612925399999998"><ele>111.15</ele></trkpt>
<trkpt lat="53.5707494" lon="-9.6139797"><ele>111.8</ele></trkpt>
<trkpt lat="53.5706476" lon="-9.6142719"><ele>112.01</ele></trkpt>
<trkpt lat="53.5702912" lon="-9.614957500000001"><ele>112.72</ele></trkpt>
<trkpt lat="53.5700799" lon="-9.6153352"><ele>113.25</ele></trkpt>
<trkpt lat="53.569784899999995" lon="-9.6158331"><ele>114.03</ele></trkpt>
<trkpt lat="53.5696011" lon="-9.6160926"><ele>114.47</ele></trkpt>
<trkpt lat="53.569404" lon="-9.6163321"><ele>114.9</ele></trkpt>
<trkpt lat="53.5691789" lon="-9.6165647"><ele>115.34</ele></trkpt>
<trkpt lat="53.56885150000001" lon="-9.6168374"><ele>115.89</ele></trkpt>
<trkpt lat="53.56814839999999" lon="-9.617277600000001"><ele>116.71</ele></trkpt>
<trkpt lat="53.56767959999999" lon="-9.617571099999997"><ele>116.92</ele></trkpt>
<trkpt lat="53.5664914" lon="-9.6183972"><ele>116.9</ele></trkpt>
<trkpt lat="53.5656584" lon="-9.6189814"><ele>116.6</ele></trkpt>
<trkpt lat="53.5651456" lon="-9.6193388"><ele>115.67</ele></trkpt>
<trkpt lat="53.5650074" lon="-9.619380799999998"><ele>115.35</ele></trkpt>
<trkpt lat="53.5649033" lon="-9.6193758"><ele>115.1</ele></trkpt>
<trkpt lat="53.5641399" lon="-9.6191519"><ele>113.02</ele></trkpt>
<trkpt lat="53.56365120000001" lon="-9.6191308"><ele>111.63</ele></trkpt>
<trkpt lat="53.5629063" lon="-9.6191912"><ele>109.6</ele></trkpt>
<trkpt lat="53.562449599999994" lon="-9.6192338"><ele>108.68</ele></trkpt>
<trkpt lat="53.56195879999999" lon="-9.6192814"><ele>108.01</ele></trkpt>
<trkpt lat="53.56150850000001" lon="-9.6194049"><ele>107.3</ele></trkpt>
<trkpt lat="53.5610872" lon="-9.6195201"><ele>106.03</ele></trkpt>
<trkpt lat="53.5607179" lon="-9.6195846"><ele>104.21</ele></trkpt>
<trkpt lat="53.56034019999999" lon="-9.6195384"><ele>101.77</ele></trkpt>
<trkpt lat="53.560168999999995" lon="-9.619573699999998"><ele>100.51</ele></trkpt>
<trkpt lat="53.55986730000001" lon="-9.6196492"><ele>98.23</ele></trkpt>
<trkpt lat="53.5596766" lon="-9.6196633"><ele>96.85</ele></trkpt>
<trkpt lat="53.559482" lon="-9.619666"><ele>95.55</ele></trkpt>
<trkpt lat="53.5589941" lon="-9.619648000000002"><ele>93.1</ele></trkpt>
<trkpt lat="53.55860979999999" lon="-9.619638799999999"><ele>91.96</ele></trkpt>
<trkpt lat="53.558035" lon="-9.6195415"><ele>90.46</ele></trkpt>
<trkpt lat="53.5577756" lon="-9.6195622"><ele>89.34</ele></trkpt>
<trkpt lat="53.5571869" lon="-9.619767399999999"><ele>85.35</ele></trkpt>
<trkpt lat="53.5570948" lon="-9.6198051"><ele>84.63</ele></trkpt>
<trkpt lat="53.55691490000001" lon="-9.619913"><ele>83.21</ele></trkpt>
<trkpt lat="53.55687379999999" lon="-9.6199773"><ele>82.81</ele></trkpt>
<trkpt lat="53.5568036" lon="-9.620157899999999"><ele>81.95</ele></trkpt>
<trkpt lat="53.5567447" lon="-9.6202137"><ele>81.53</ele></trkpt>
<trkpt lat="53.5562926" lon="-9.620428799999997"><ele>79.22</ele></trkpt>
<trkpt lat="53.5557803" lon="-9.6206712"><ele>77.49</ele></trkpt>
<trkpt lat="53.5553413" lon="-9.620979299999998"><ele>75.86</ele></trkpt>
<trkpt lat="53.5545286" lon="-9.621555700000002"><ele>72.02</ele></trkpt>
<trkpt lat="53.5543399" lon="-9.62169"><ele>71.26</ele></trkpt>
<trkpt lat="53.5537657" lon="-9.6220843"><ele>69.55</ele></trkpt>
<trkpt lat="53.5533872" lon="-9.622351399999998"><ele>68.15</ele></trkpt>
<trkpt lat="53.5530092" lon="-9.6226195"><ele>65.92</ele></trkpt>
<trkpt lat="53.552671700000005" lon="-9.622803499999998"><ele>63.51</ele></trkpt>
<trkpt lat="53.552206" lon="-9.622941499999998"><ele>60.66</ele></trkpt>
<trkpt lat="53.55213599999999" lon="-9.6229777"><ele>60.33</ele></trkpt>
<trkpt lat="53.552065600000006" lon="-9.6230478"><ele>59.99</ele></trkpt>
<trkpt lat="53.55191760000001" lon="-9.6233066"><ele>59.29</ele></trkpt>
<trkpt lat="53.5517119" lon="-9.623745399999997"><ele>58.38</ele></trkpt>
<trkpt lat="53.5516174" lon="-9.6239134"><ele>57.9</ele></trkpt>
<trkpt lat="53.5513763" lon="-9.6242663"><ele>56.22</ele></trkpt>
<trkpt lat="53.5512135" lon="-9.624504100000003"><ele>54.56</ele></trkpt>
<trkpt lat="53.5509729" lon="-9.624855699999998"><ele>51.37</ele></trkpt>
<trkpt lat="53.55083309999999" lon="-9.6250501"><ele>49.26</ele></trkpt>
<trkpt lat="53.5506855" lon="-9.6251824"><ele>47.19</ele></trkpt>
<trkpt lat="53.55061" lon="-9.6252039"><ele>46.24</ele></trkpt>
<trkpt lat="53.550250500000004" lon="-9.6252118"><ele>41.85</ele></trkpt>
<trkpt lat="53.5499629" lon="-9.625312899999999"><ele>38.67</ele></trkpt>
<trkpt lat="53.5494858" lon="-9.6254828"><ele>34.54</ele></trkpt>
<trkpt lat="53.5490143" lon="-9.6256471"><ele>31.74</ele></trkpt>
<trkpt lat="53.5485405" lon="-9.6258175"><ele>29.79</ele></trkpt>
<trkpt lat="53.5481586" lon="-9.6259553"><ele>28.57</ele></trkpt>
<trkpt lat="53.547756" lon="-9.6260956"><ele>27.54</ele></trkpt>
<trkpt lat="53.5476184" lon="-9.6261203"><ele>27.27</ele></trkpt>
<trkpt lat="53.5475797" lon="-9.626079600000002"><ele>27.19</ele></trkpt>
<trkpt lat="53.547522799999996" lon="-9.625945400000003"><ele>27.03</ele></trkpt>
<trkpt lat="53.5473731" lon="-9.6255526"><ele>26.72</ele></trkpt>
<trkpt lat="53.5469169" lon="-9.6242993"><ele>26.48</ele></trkpt>
<trkpt lat="53.546846499999994" lon="-9.6241133"><ele>26.52</ele></trkpt>
<trkpt lat="53.5467806" lon="-9.623985500000002"><ele>26.57</ele></trkpt>
<trkpt lat="53.54645000000001" lon="-9.623548"><ele>27</ele></trkpt>
<trkpt lat="53.54620980000001" lon="-9.6232601"><ele>27.58</ele></trkpt>
<trkpt lat="53.5457993" lon="-9.6227902"><ele>28.99</ele></trkpt>
<trkpt lat="53.54554859999999" lon="-9.6225402"><ele>29.8</ele></trkpt>
<trkpt lat="53.5453931" lon="-9.6224112"><ele>30.2</ele></trkpt>
<trkpt lat="53.5450322" lon="-9.622031700000003"><ele>30.94</ele></trkpt>
<trkpt lat="53.5448316" lon="-9.621773899999999"><ele>31.3</ele></trkpt>
<trkpt lat="53.5446485" lon="-9.621407000000001"><ele>31.73</ele></trkpt>
<trkpt lat="53.5445666" lon="-9.6213105"><ele>31.91</ele></trkpt>
<trkpt lat="53.544458299999995" lon="-9.6212167"><ele>32.15</ele></trkpt>
<trkpt lat="53.5442503" lon="-9.6210697"><ele>32.68</ele></trkpt>
<trkpt lat="53.5441418" lon="-9.6209269"><ele>33.05</ele></trkpt>
<trkpt lat="53.5440441" lon="-9.6207246"><ele>33.53</ele></trkpt>
<trkpt lat="53.5437189" lon="-9.6200101"><ele>35.46</ele></trkpt>
<trkpt lat="53.543580500000004" lon="-9.6197731"><ele>36.22</ele></trkpt>
<trkpt lat="53.5432449" lon="-9.6193654"><ele>37.8</ele></trkpt>
<trkpt lat="53.54305500000001" lon="-9.6191966"><ele>38.61</ele></trkpt>
<trkpt lat="53.542699" lon="-9.6187668"><ele>40.23</ele></trkpt>
<trkpt lat="53.5423417" lon="-9.618203400000002"><ele>41.95</ele></trkpt>
<trkpt lat="53.5419073" lon="-9.6176012"><ele>43.31</ele></trkpt>
<trkpt lat="53.5415602" lon="-9.617121"><ele>43.58</ele></trkpt>
<trkpt lat="53.5413878" lon="-9.6168997"><ele>43.44</ele></trkpt>
<trkpt lat="53.5412139" lon="-9.616763399999998"><ele>43.2</ele></trkpt>
<trkpt lat="53.54108519999999" lon="-9.6167191"><ele>42.99</ele></trkpt>
<trkpt lat="53.5408018" lon="-9.616649400000002"><ele>42.47</ele></trkpt>
<trkpt lat="53.5405991" lon="-9.6165687"><ele>42.1</ele></trkpt>
<trkpt lat="53.540212200000006" lon="-9.6163701"><ele>41.49</ele></trkpt>
<trkpt lat="53.5400006" lon="-9.6162097"><ele>41.18</ele></trkpt>
<trkpt lat="53.5397998" lon="-9.6160095"><ele>40.86</ele></trkpt>
<trkpt lat="53.53961000000001" lon="-9.6157988"><ele>40.5</ele></trkpt>
<trkpt lat="53.539188" lon="-9.6151779"><ele>39.53</ele></trkpt>
<trkpt lat="53.5387899" lon="-9.6146519"><ele>38.79</ele></trkpt>
<trkpt lat="53.5386082" lon="-9.6144802"><ele>38.52</ele></trkpt>
<trkpt lat="53.538163" lon="-9.6141709"><ele>37.77</ele></trkpt>
<trkpt lat="53.53796719999999" lon="-9.6139855"><ele>37.26</ele></trkpt>
<trkpt lat="53.5377421" lon="-9.6137351"><ele>36.41</ele></trkpt>
<trkpt lat="53.53766" lon="-9.613672599999997"><ele>36.05</ele></trkpt>
<trkpt lat="53.537561499999995" lon="-9.613626699999998"><ele>35.6</ele></trkpt>
<trkpt lat="53.5374529" lon="-9.613605599999998"><ele>35.04</ele></trkpt>
<trkpt lat="53.5372689" lon="-9.613635100000002"><ele>33.95</ele></trkpt>
<trkpt lat="53.5365375" lon="-9.6142579"><ele>27.84</ele></trkpt>
<trkpt lat="53.536419699999996" lon="-9.614339799999998"><ele>26.89</ele></trkpt>
<trkpt lat="53.53625890000001" lon="-9.6143604"><ele>25.75</ele></trkpt>
<trkpt lat="53.5357811" lon="-9.614205200000002"><ele>22.96</ele></trkpt>
<trkpt lat="53.535444700000006" lon="-9.6140428"><ele>21.71</ele></trkpt>
<trkpt lat="53.5353354" lon="-9.6139641"><ele>21.45</ele></trkpt>
<trkpt lat="53.535258299999995" lon="-9.6138705"><ele>21.3</ele></trkpt>
<trkpt lat="53.535169" lon="-9.613712100000003"><ele>21.19</ele></trkpt>
<trkpt lat="53.534873899999994" lon="-9.613107100000002"><ele>21.44</ele></trkpt>
<trkpt lat="53.5346227" lon="-9.6125505"><ele>22.3</ele></trkpt>
<trkpt lat="53.53427" lon="-9.611782"><ele>23.98</ele></trkpt>
<trkpt lat="53.534029999999994" lon="-9.611274000000002"><ele>25.09</ele></trkpt>
<trkpt lat="53.5337683" lon="-9.6106839"><ele>26.2</ele></trkpt>
<trkpt lat="53.5336698" lon="-9.6102881"><ele>26.78</ele></trkpt>
<trkpt lat="53.5334825" lon="-9.608925"><ele>28.4</ele></trkpt>
<trkpt lat="53.533302600000006" lon="-9.6075969"><ele>28.97</ele></trkpt>
<trkpt lat="53.5331386" lon="-9.6066469"><ele>28.95</ele></trkpt>
<trkpt lat="53.53295990000001" lon="-9.6058987"><ele>29.09</ele></trkpt>
<trkpt lat="53.53272" lon="-9.604835"><ele>29.39</ele></trkpt>
<trkpt lat="53.5325406" lon="-9.6040519"><ele>29.15</ele></trkpt>
<trkpt lat="53.532181900000005" lon="-9.6024856"><ele>28.03</ele></trkpt>
<trkpt lat="53.5320025" lon="-9.601702499999998"><ele>27.83</ele></trkpt>
<trkpt lat="53.5317986" lon="-9.6008436"><ele>27.54</ele></trkpt>
<trkpt lat="53.531630199999995" lon="-9.6001004"><ele>27.19</ele></trkpt>
<trkpt lat="53.531433699999994" lon="-9.5992072"><ele>27.09</ele></trkpt>
<trkpt lat="53.5311812" lon="-9.5981443"><ele>26.8</ele></trkpt>
<trkpt lat="53.531067500000006" lon="-9.597615099999999"><ele>26.28</ele></trkpt>
<trkpt lat="53.5307585" lon="-9.5962818"><ele>24.3</ele></trkpt>
<trkpt lat="53.5307177" lon="-9.5961429"><ele>24.07</ele></trkpt>
<trkpt lat="53.53065749999999" lon="-9.596001399999999"><ele>23.83</ele></trkpt>
<trkpt lat="53.53032820000001" lon="-9.5954893"><ele>23.02</ele></trkpt>
<trkpt lat="53.530119799999994" lon="-9.5949694"><ele>22.86</ele></trkpt>
<trkpt lat="53.52992390000001" lon="-9.594421199999998"><ele>23.26</ele></trkpt>
<trkpt lat="53.529859699999996" lon="-9.5941978"><ele>23.53</ele></trkpt>
<trkpt lat="53.5297802" lon="-9.5937997"><ele>24.09</ele></trkpt>
<trkpt lat="53.5297502" lon="-9.593596400000001"><ele>24.41</ele></trkpt>
<trkpt lat="53.5297312" lon="-9.5932141"><ele>25.02</ele></trkpt>
<trkpt lat="53.52974249999999" lon="-9.5928801"><ele>25.6</ele></trkpt>
<trkpt lat="53.5297747" lon="-9.5926601"><ele>26.02</ele></trkpt>
<trkpt lat="53.5298754" lon="-9.5923341"><ele>26.75</ele></trkpt>
<trkpt lat="53.5300507" lon="-9.5918605"><ele>27.99</ele></trkpt>
<trkpt lat="53.5302959" lon="-9.5913286"><ele>29.65</ele></trkpt>
<trkpt lat="53.5303796" lon="-9.5910416"><ele>30.46</ele></trkpt>
<trkpt lat="53.530480100000005" lon="-9.5904977"><ele>31.73</ele></trkpt>
<trkpt lat="53.5305815" lon="-9.5897221"><ele>32.74</ele></trkpt>
<trkpt lat="53.5306066" lon="-9.5894675"><ele>32.78</ele></trkpt>
<trkpt lat="53.5306224" lon="-9.5891441"><ele>32.62</ele></trkpt>
<trkpt lat="53.5305702" lon="-9.5888408"><ele>32.24</ele></trkpt>
<trkpt lat="53.5304698" lon="-9.5886638"><ele>31.84</ele></trkpt>
<trkpt lat="53.53034310000001" lon="-9.5885279"><ele>31.36</ele></trkpt>
<trkpt lat="53.5300123" lon="-9.588339900000001"><ele>30.25</ele></trkpt>
<trkpt lat="53.529543" lon="-9.5880505"><ele>29.06</ele></trkpt>
<trkpt lat="53.5290118" lon="-9.5875374"><ele>27.9</ele></trkpt>
<trkpt lat="53.5285625" lon="-9.5870558"><ele>26.38</ele></trkpt>
<trkpt lat="53.5282445" lon="-9.586539199999999"><ele>24.57</ele></trkpt>
<trkpt lat="53.5276175" lon="-9.5855"><ele>20.05</ele></trkpt>
<trkpt lat="53.5271487" lon="-9.5847125"><ele>17.23</ele></trkpt>
<trkpt lat="53.52683499999999" lon="-9.584185"><ele>16.16</ele></trkpt>
<trkpt lat="53.5265888" lon="-9.5837631"><ele>15.8</ele></trkpt>
<trkpt lat="53.526283600000006" lon="-9.5832613"><ele>15.91</ele></trkpt>
<trkpt lat="53.5255997" lon="-9.5821488"><ele>17.39</ele></trkpt>
<trkpt lat="53.525309199999995" lon="-9.5815763"><ele>18.08</ele></trkpt>
<trkpt lat="53.5251524" lon="-9.5811423"><ele>18.32</ele></trkpt>
<trkpt lat="53.52488000000001" lon="-9.5802514"><ele>18.14</ele></trkpt>
<trkpt lat="53.524782" lon="-9.579966599999997"><ele>17.88</ele></trkpt>
<trkpt lat="53.5246383" lon="-9.579616999999999"><ele>17.37</ele></trkpt>
<trkpt lat="53.524230700000004" lon="-9.578782500000004"><ele>15.4</ele></trkpt>
<trkpt lat="53.523897" lon="-9.5782249"><ele>13.98</ele></trkpt>
<trkpt lat="53.52357140000001" lon="-9.577673"><ele>13.16</ele></trkpt>
<trkpt lat="53.5230309" lon="-9.5768196"><ele>12.69</ele></trkpt>
<trkpt lat="53.5228399" lon="-9.5763748"><ele>12.64</ele></trkpt>
<trkpt lat="53.5226334" lon="-9.5758052"><ele>12.8</ele></trkpt>
<trkpt lat="53.52245" lon="-9.5752998"><ele>13.33</ele></trkpt>
<trkpt lat="53.52238890000001" lon="-9.575063300000002"><ele>13.73</ele></trkpt>
<trkpt lat="53.5223605" lon="-9.574896"><ele>14.06</ele></trkpt>
<trkpt lat="53.5223316" lon="-9.5746008"><ele>14.75</ele></trkpt>
<trkpt lat="53.52233600000001" lon="-9.5740993"><ele>16.2</ele></trkpt>
<trkpt lat="53.5223598" lon="-9.5733441"><ele>18.72</ele></trkpt>
<trkpt lat="53.522350499999995" lon="-9.572998999999998"><ele>19.83</ele></trkpt>
<trkpt lat="53.5223126" lon="-9.572711699999997"><ele>20.67</ele></trkpt>
<trkpt lat="53.5222433" lon="-9.572417399999999"><ele>21.41</ele></trkpt>
<trkpt lat="53.522196" lon="-9.572272499999999"><ele>21.72</ele></trkpt>
<trkpt lat="53.5220849" lon="-9.5720142"><ele>22.13</ele></trkpt>
<trkpt lat="53.5219235" lon="-9.571753500000002"><ele>22.36</ele></trkpt>
<trkpt lat="53.5217699" lon="-9.5715807"><ele>22.38</ele></trkpt>
<trkpt lat="53.5212213" lon="-9.5710649"><ele>22.38</ele></trkpt>
<trkpt lat="53.5211005" lon="-9.570900299999998"><ele>22.56</ele></trkpt>
<trkpt lat="53.5210032" lon="-9.5707376"><ele>22.82</ele></trkpt>
<trkpt lat="53.5209243" lon="-9.570468399999998"><ele>23.29</ele></trkpt>
<trkpt lat="53.5208461" lon="-9.5699119"><ele>24.44</ele></trkpt>
<trkpt lat="53.52080589999999" lon="-9.5697526"><ele>24.8</ele></trkpt>
<trkpt lat="53.52071350000001" lon="-9.5695113"><ele>25.37</ele></trkpt>
<trkpt lat="53.5205078" lon="-9.5690774"><ele>26.21</ele></trkpt>
<trkpt lat="53.52042370000001" lon="-9.5688585"><ele>26.45</ele></trkpt>
<trkpt lat="53.52028990000001" lon="-9.568337599999998"><ele>26.5</ele></trkpt>
<trkpt lat="53.5201669" lon="-9.5677411"><ele>25.75</ele></trkpt>
<trkpt lat="53.5201075" lon="-9.5675211"><ele>25.23</ele></trkpt>
<trkpt lat="53.5200563" lon="-9.5673805"><ele>24.8</ele></trkpt>
<trkpt lat="53.519969999999994" lon="-9.567203999999998"><ele>24.13</ele></trkpt>
<trkpt lat="53.5198548" lon="-9.5670175"><ele>23.24</ele></trkpt>
<trkpt lat="53.51952210000001" lon="-9.5665004"><ele>20.63</ele></trkpt>
<trkpt lat="53.519189399999995" lon="-9.5659834"><ele>18.39</ele></trkpt>
<trkpt lat="53.5190288" lon="-9.5657428"><ele>17.54</ele></trkpt>
<trkpt lat="53.5189003" lon="-9.5656104"><ele>17.02</ele></trkpt>
<trkpt lat="53.5187576" lon="-9.565508799999998"><ele>16.57</ele></trkpt>
<trkpt lat="53.5183507" lon="-9.565275499999998"><ele>15.69</ele></trkpt>
<trkpt lat="53.5182192" lon="-9.5651574"><ele>15.53</ele></trkpt>
<trkpt lat="53.518135599999994" lon="-9.5650412"><ele>15.47</ele></trkpt>
<trkpt lat="53.5177596" lon="-9.564267599999999"><ele>15.71</ele></trkpt>
<trkpt lat="53.5176141" lon="-9.5639192"><ele>15.93</ele></trkpt>
<trkpt lat="53.51754470000001" lon="-9.563720300000002"><ele>16.02</ele></trkpt>
<trkpt lat="53.5174573" lon="-9.563339400000002"><ele>16.08</ele></trkpt>
<trkpt lat="53.51732440000001" lon="-9.5628138"><ele>15.85</ele></trkpt>
<trkpt lat="53.51724349999999" lon="-9.5625994"><ele>15.61</ele></trkpt>
<trkpt lat="53.5171315" lon="-9.5623986"><ele>15.25</ele></trkpt>
<trkpt lat="53.5169655" lon="-9.5621793"><ele>14.67</ele></trkpt>
<trkpt lat="53.5168116" lon="-9.5620231"><ele>14.11</ele></trkpt>
<trkpt lat="53.51632909999999" lon="-9.5616669"><ele>12.53</ele></trkpt>
<trkpt lat="53.5161018" lon="-9.5615243"><ele>11.98</ele></trkpt>
<trkpt lat="53.51597" lon="-9.5613809"><ele>11.74</ele></trkpt>
<trkpt lat="53.515831199999994" lon="-9.561165000000003"><ele>11.56</ele></trkpt>
<trkpt lat="53.515412100000006" lon="-9.5603566"><ele>11.82</ele></trkpt>
<trkpt lat="53.5152874" lon="-9.5600024"><ele>12.21</ele></trkpt>
<trkpt lat="53.5151209" lon="-9.5593881"><ele>13.12</ele></trkpt>
<trkpt lat="53.51499" lon="-9.5586003"><ele>14.54</ele></trkpt>
<trkpt lat="53.5147993" lon="-9.557491200000001"><ele>16.04</ele></trkpt>
<trkpt lat="53.51470820000001" lon="-9.557168200000001"><ele>16.14</ele></trkpt>
<trkpt lat="53.5144937" lon="-9.5566334"><ele>15.8</ele></trkpt>
<trkpt lat="53.5141402" lon="-9.5557504"><ele>14.75</ele></trkpt>
<trkpt lat="53.5140303" lon="-9.555463199999998"><ele>14.55</ele></trkpt>
<trkpt lat="53.513553900000005" lon="-9.554156199999998"><ele>14.45</ele></trkpt>
<trkpt lat="53.5133157" lon="-9.5535027"><ele>14.26</ele></trkpt>
<trkpt lat="53.5130651" lon="-9.552900200000002"><ele>13.88</ele></trkpt>
<trkpt lat="53.5129351" lon="-9.5526153"><ele>13.67</ele></trkpt>
<trkpt lat="53.51235" lon="-9.5514"><ele>12.99</ele></trkpt>
<trkpt lat="53.512026" lon="-9.5507272"><ele>12.94</ele></trkpt>
<trkpt lat="53.51161220000001" lon="-9.5498777"><ele>13.47</ele></trkpt>
<trkpt lat="53.5114928" lon="-9.549538"><ele>13.87</ele></trkpt>
<trkpt lat="53.5114018" lon="-9.5490998"><ele>14.46</ele></trkpt>
<trkpt lat="53.5112586" lon="-9.5478688"><ele>15.84</ele></trkpt>
<trkpt lat="53.5111714" lon="-9.5472114"><ele>15.77</ele></trkpt>
<trkpt lat="53.511123" lon="-9.5468904"><ele>15.44</ele></trkpt>
<trkpt lat="53.51108949999999" lon="-9.5467423"><ele>15.23</ele></trkpt>
<trkpt lat="53.511008700000005" lon="-9.5464739"><ele>14.75</ele></trkpt>
<trkpt lat="53.51074270000001" lon="-9.545827300000001"><ele>13.45</ele></trkpt>
<trkpt lat="53.5106879" lon="-9.545634699999999"><ele>13.19</ele></trkpt>
<trkpt lat="53.51064550000001" lon="-9.545434400000001"><ele>13.01</ele></trkpt>
<trkpt lat="53.51060180000001" lon="-9.545078300000002"><ele>12.86</ele></trkpt>
<trkpt lat="53.51059320000001" lon="-9.5448311"><ele>12.88</ele></trkpt>
<trkpt lat="53.51065710000001" lon="-9.5438898"><ele>13.72</ele></trkpt>
<trkpt lat="53.5106396" lon="-9.5432886"><ele>14.65</ele></trkpt>
<trkpt lat="53.5105802" lon="-9.542377799999999"><ele>16.31</ele></trkpt>
<trkpt lat="53.5105396" lon="-9.541365199999998"><ele>17.83</ele></trkpt>
<trkpt lat="53.510489" lon="-9.5409777"><ele>18.16</ele></trkpt>
<trkpt lat="53.510276" lon="-9.53996"><ele>18.2</ele></trkpt>
<trkpt lat="53.510139800000005" lon="-9.5392769"><ele>17.91</ele></trkpt>
<trkpt lat="53.5099601" lon="-9.538181099999997"><ele>17.56</ele></trkpt>
<trkpt lat="53.5097972" lon="-9.537228599999999"><ele>17.3</ele></trkpt>
<trkpt lat="53.5095906" lon="-9.535974599999998"><ele>17.07</ele></trkpt>
<trkpt lat="53.509369899999996" lon="-9.53473"><ele>17.65</ele></trkpt>
<trkpt lat="53.50913649999999" lon="-9.5334738"><ele>18.87</ele></trkpt>
<trkpt lat="53.509047" lon="-9.5330507"><ele>19.19</ele></trkpt>
<trkpt lat="53.508968599999996" lon="-9.532810099999999"><ele>19.33</ele></trkpt>
<trkpt lat="53.5088644" lon="-9.5325527"><ele>19.44</ele></trkpt>
<trkpt lat="53.50868680000001" lon="-9.5322529"><ele>19.54</ele></trkpt>
<trkpt lat="53.5082496" lon="-9.531717"><ele>19.61</ele></trkpt>
<trkpt lat="53.50758810000001" lon="-9.5308797"><ele>19.61</ele></trkpt>
<trkpt lat="53.50741990000001" lon="-9.5306849"><ele>19.65</ele></trkpt>
<trkpt lat="53.507152899999994" lon="-9.5304316"><ele>19.87</ele></trkpt>
<trkpt lat="53.5069589" lon="-9.5301983"><ele>20.26</ele></trkpt>
<trkpt lat="53.50679289999999" lon="-9.529983100000003"><ele>20.81</ele></trkpt>
<trkpt lat="53.5065835" lon="-9.5295864"><ele>22.12</ele></trkpt>
<trkpt lat="53.50650520000001" lon="-9.529384899999998"><ele>22.92</ele></trkpt>
<trkpt lat="53.506371699999995" lon="-9.5288652"><ele>25.25</ele></trkpt>
<trkpt lat="53.5062107" lon="-9.5281041"><ele>29.24</ele></trkpt>
<trkpt lat="53.50605" lon="-9.527404"><ele>33.08</ele></trkpt>
<trkpt lat="53.50581940000001" lon="-9.5263489"><ele>38.14</ele></trkpt>
<trkpt lat="53.50561340000001" lon="-9.525562"><ele>41.13</ele></trkpt>
<trkpt lat="53.5055288" lon="-9.525284"><ele>42.04</ele></trkpt>
<trkpt lat="53.50541870000001" lon="-9.5248912"><ele>43.21</ele></trkpt>
<trkpt lat="53.5053525" lon="-9.524515599999999"><ele>44.2</ele></trkpt>
<trkpt lat="53.5050901" lon="-9.5231693"><ele>47.42</ele></trkpt>
<trkpt lat="53.5049767" lon="-9.5225167"><ele>48.45</ele></trkpt>
<trkpt lat="53.5048917" lon="-9.522026700000001"><ele>48.85</ele></trkpt>
<trkpt lat="53.5047512" lon="-9.5212162"><ele>48.94</ele></trkpt>
<trkpt lat="53.50468999999999" lon="-9.520807099999999"><ele>48.85</ele></trkpt>
<trkpt lat="53.5045184" lon="-9.518887499999998"><ele>48.53</ele></trkpt>
<trkpt lat="53.5044708" lon="-9.518617400000002"><ele>48.38</ele></trkpt>
<trkpt lat="53.50433160000001" lon="-9.5180449"><ele>47.7</ele></trkpt>
<trkpt lat="53.50414020000001" lon="-9.517261399999999"><ele>45.83</ele></trkpt>
<trkpt lat="53.5040002" lon="-9.516755499999999"><ele>43.98</ele></trkpt>
<trkpt lat="53.50390019999999" lon="-9.5164556"><ele>42.65</ele></trkpt>
<trkpt lat="53.5037899" lon="-9.516183000000002"><ele>41.33</ele></trkpt>
<trkpt lat="53.5034902" lon="-9.5154979"><ele>38.12</ele></trkpt>
<trkpt lat="53.5033297" lon="-9.5150993"><ele>36.67</ele></trkpt>
<trkpt lat="53.5032304" lon="-9.5148213"><ele>35.88</ele></trkpt>
<trkpt lat="53.50307649999999" lon="-9.51434"><ele>34.83</ele></trkpt>
<trkpt lat="53.5029999" lon="-9.514141"><ele>34.46</ele></trkpt>
<trkpt lat="53.5028481" lon="-9.5138644"><ele>33.92</ele></trkpt>
<trkpt lat="53.5024188" lon="-9.5132074"><ele>32.6</ele></trkpt>
<trkpt lat="53.5022803" lon="-9.5129685"><ele>32.14</ele></trkpt>
<trkpt lat="53.5020269" lon="-9.512410499999998"><ele>31.12</ele></trkpt>
<trkpt lat="53.50177990000001" lon="-9.5118923"><ele>30.21</ele></trkpt>
<trkpt lat="53.50138810000001" lon="-9.511132399999997"><ele>29.43</ele></trkpt>
<trkpt lat="53.5012789" lon="-9.510862000000001"><ele>29.41</ele></trkpt>
<trkpt lat="53.5011706" lon="-9.5105507"><ele>29.51</ele></trkpt>
<trkpt lat="53.5010771" lon="-9.510140700000001"><ele>29.76</ele></trkpt>
<trkpt lat="53.500999" lon="-9.509871"><ele>29.97</ele></trkpt>
<trkpt lat="53.500741" lon="-9.509203199999998"><ele>30.62</ele></trkpt>
<trkpt lat="53.500467" lon="-9.5085211"><ele>31.45</ele></trkpt>
<trkpt lat="53.4998599" lon="-9.5070081"><ele>33.74</ele></trkpt>
<trkpt lat="53.49956" lon="-9.5061241"><ele>34.28</ele></trkpt>
<trkpt lat="53.4993608" lon="-9.5055394"><ele>34.37</ele></trkpt>
<trkpt lat="53.4991807" lon="-9.504860400000002"><ele>34.66</ele></trkpt>
<trkpt lat="53.4990267" lon="-9.5039933"><ele>35.58</ele></trkpt>
<trkpt lat="53.4987756" lon="-9.5024711"><ele>38.05</ele></trkpt>
<trkpt lat="53.49859969999999" lon="-9.5014016"><ele>39.33</ele></trkpt>
<trkpt lat="53.49846540000001" lon="-9.500796399999999"><ele>39.6</ele></trkpt>
<trkpt lat="53.4982009" lon="-9.5000108"><ele>39.71</ele></trkpt>
<trkpt lat="53.49794659999999" lon="-9.4990962"><ele>40.11</ele></trkpt>
<trkpt lat="53.49785930000001" lon="-9.4987482"><ele>40.34</ele></trkpt>
<trkpt lat="53.4977682" lon="-9.498428299999999"><ele>40.53</ele></trkpt>
<trkpt lat="53.4976102" lon="-9.498031299999997"><ele>40.74</ele></trkpt>
<trkpt lat="53.4972999" lon="-9.497323"><ele>41.09</ele></trkpt>
<trkpt lat="53.4971561" lon="-9.497001599999999"><ele>41.4</ele></trkpt>
<trkpt lat="53.49701019999999" lon="-9.4966538"><ele>41.97</ele></trkpt>
<trkpt lat="53.4969191" lon="-9.4963618"><ele>42.66</ele></trkpt>
<trkpt lat="53.4968406" lon="-9.4959706"><ele>43.88</ele></trkpt>
<trkpt lat="53.496812299999995" lon="-9.4957269"><ele>44.81</ele></trkpt>
<trkpt lat="53.496798600000005" lon="-9.495464799999999"><ele>45.92</ele></trkpt>
<trkpt lat="53.4968008" lon="-9.495219000000002"><ele>47.05</ele></trkpt>
<trkpt lat="53.49689910000001" lon="-9.4941283"><ele>52.28</ele></trkpt>
<trkpt lat="53.496899" lon="-9.4939565"><ele>53.01</ele></trkpt>
<trkpt lat="53.4968793" lon="-9.4936635"><ele>54.15</ele></trkpt>
<trkpt lat="53.4968333" lon="-9.4933367"><ele>55.29</ele></trkpt>
<trkpt lat="53.4966498" lon="-9.4920969"><ele>58.85</ele></trkpt>
<trkpt lat="53.4965673" lon="-9.4913487"><ele>61.17</ele></trkpt>
<trkpt lat="53.496553999999996" lon="-9.491129"><ele>61.92</ele></trkpt>
<trkpt lat="53.4965823" lon="-9.490854"><ele>62.9</ele></trkpt>
<trkpt lat="53.4966318" lon="-9.4907027"><ele>63.51</ele></trkpt>
<trkpt lat="53.49672580000001" lon="-9.4904869"><ele>64.44</ele></trkpt>
<trkpt lat="53.4967782" lon="-9.4902398"><ele>65.32</ele></trkpt>
<trkpt lat="53.4967857" lon="-9.490079100000003"><ele>65.84</ele></trkpt>
<trkpt lat="53.4967764" lon="-9.4899668"><ele>66.19</ele></trkpt>
<trkpt lat="53.4966552" lon="-9.4890686"><ele>69.21</ele></trkpt>
<trkpt lat="53.4966379" lon="-9.4888693"><ele>70.02</ele></trkpt>
<trkpt lat="53.4966632" lon="-9.488690199999999"><ele>70.85</ele></trkpt>
<trkpt lat="53.496734100000005" lon="-9.4885737"><ele>71.68</ele></trkpt>
<trkpt lat="53.4968436" lon="-9.4885481"><ele>72.7</ele></trkpt>
<trkpt lat="53.496940699999996" lon="-9.4885883"><ele>73.69</ele></trkpt>
<trkpt lat="53.497292" lon="-9.488877500000001"><ele>78.01</ele></trkpt>
<trkpt lat="53.49742320000001" lon="-9.488888700000002"><ele>79.47</ele></trkpt>
<trkpt lat="53.4975256" lon="-9.4888117"><ele>80.66</ele></trkpt>
<trkpt lat="53.4975863" lon="-9.4887178"><ele>81.48</ele></trkpt>
<trkpt lat="53.4977059" lon="-9.4884013"><ele>83.32</ele></trkpt>
<trkpt lat="53.497749" lon="-9.4882556"><ele>83.91</ele></trkpt>
<trkpt lat="53.4978023" lon="-9.4878967"><ele>84.68</ele></trkpt>
<trkpt lat="53.4978259" lon="-9.487520000000004"><ele>84.7</ele></trkpt>
<trkpt lat="53.4978309" lon="-9.487155999999999"><ele>84.06</ele></trkpt>
<trkpt lat="53.4978062" lon="-9.4868314"><ele>83.04</ele></trkpt>
<trkpt lat="53.4977577" lon="-9.486598199999998"><ele>82.05</ele></trkpt>
<trkpt lat="53.4975577" lon="-9.485730899999998"><ele>77.89</ele></trkpt>
<trkpt lat="53.4974082" lon="-9.4850928"><ele>75.2</ele></trkpt>
<trkpt lat="53.4973599" lon="-9.484870400000002"><ele>74.36</ele></trkpt>
<trkpt lat="53.49730689999999" lon="-9.4845496"><ele>73.18</ele></trkpt>
<trkpt lat="53.49730449999999" lon="-9.4844454"><ele>72.81</ele></trkpt>
<trkpt lat="53.497346199999996" lon="-9.4842835"><ele>72.16</ele></trkpt>
<trkpt lat="53.4974042" lon="-9.4841873"><ele>71.64</ele></trkpt>
<trkpt lat="53.4979355" lon="-9.4838564"><ele>67.64</ele></trkpt>
<trkpt lat="53.498047" lon="-9.4837743"><ele>66.74</ele></trkpt>
<trkpt lat="53.498099999999994" lon="-9.4836784"><ele>66.17</ele></trkpt>
<trkpt lat="53.4981603" lon="-9.4834555"><ele>65.14</ele></trkpt>
<trkpt lat="53.4981676" lon="-9.4832515"><ele>64.3</ele></trkpt>
<trkpt lat="53.4981135" lon="-9.483010599999998"><ele>63.32</ele></trkpt>
<trkpt lat="53.497883900000005" lon="-9.4823189"><ele>60.54</ele></trkpt>
<trkpt lat="53.4978339" lon="-9.4821263"><ele>59.8</ele></trkpt>
<trkpt lat="53.4977973" lon="-9.4819385"><ele>59.06</ele></trkpt>
<trkpt lat="53.4978014" lon="-9.4817743"><ele>58.42</ele></trkpt>
<trkpt lat="53.4978562" lon="-9.4814943"><ele>57.17</ele></trkpt>
<trkpt lat="53.4982212" lon="-9.4801763"><ele>49.8</ele></trkpt>
<trkpt lat="53.49835" lon="-9.479735"><ele>47.45</ele></trkpt>
<trkpt lat="53.4985217" lon="-9.47914"><ele>44.87</ele></trkpt>
<trkpt lat="53.4987286" lon="-9.4783931"><ele>42.49</ele></trkpt>
<trkpt lat="53.49897959999999" lon="-9.4771699"><ele>39.59</ele></trkpt>
<trkpt lat="53.4990904" lon="-9.476451999999998"><ele>38.15</ele></trkpt>
<trkpt lat="53.4991394" lon="-9.4758649"><ele>37.17</ele></trkpt>
<trkpt lat="53.4992399" lon="-9.4730353"><ele>33.3</ele></trkpt>
<trkpt lat="53.49928369999999" lon="-9.472411399999999"><ele>32.51</ele></trkpt>
<trkpt lat="53.4994174" lon="-9.4717428"><ele>31.74</ele></trkpt>
<trkpt lat="53.4997613" lon="-9.4705079"><ele>30.73</ele></trkpt>
<trkpt lat="53.49990849999999" lon="-9.470084900000002"><ele>30.64</ele></trkpt>
<trkpt lat="53.5001483" lon="-9.469495600000002"><ele>30.86</ele></trkpt>
<trkpt lat="53.50030160000001" lon="-9.4692074"><ele>31.1</ele></trkpt>
<trkpt lat="53.5005811" lon="-9.4687223"><ele>31.61</ele></trkpt>
<trkpt lat="53.501148199999996" lon="-9.4677833"><ele>32.21</ele></trkpt>
<trkpt lat="53.5018219" lon="-9.4667284"><ele>31.7</ele></trkpt>
<trkpt lat="53.50232660000001" lon="-9.466083999999999"><ele>31.25</ele></trkpt>
<trkpt lat="53.5024753" lon="-9.465947099999996"><ele>31.15</ele></trkpt>
<trkpt lat="53.5029916" lon="-9.4655297"><ele>30.49</ele></trkpt>
<trkpt lat="53.5031201" lon="-9.4653849"><ele>30.15</ele></trkpt>
<trkpt lat="53.5032221" lon="-9.4652478"><ele>29.79</ele></trkpt>
<trkpt lat="53.5037035" lon="-9.4644557"><ele>27.46</ele></trkpt>
<trkpt lat="53.5039913" lon="-9.464185"><ele>26.44</ele></trkpt>
<trkpt lat="53.504609" lon="-9.463845"><ele>25.28</ele></trkpt>
<trkpt lat="53.5049211" lon="-9.463565399999998"><ele>25</ele></trkpt>
<trkpt lat="53.50512770000001" lon="-9.4633614"><ele>24.88</ele></trkpt>
<trkpt lat="53.5055999" lon="-9.4626907"><ele>24.28</ele></trkpt>
<trkpt lat="53.505994" lon="-9.4621568"><ele>22.7</ele></trkpt>
<trkpt lat="53.5061911" lon="-9.4618899"><ele>21.38</ele></trkpt>
<trkpt lat="53.5064519" lon="-9.4616056"><ele>19.33</ele></trkpt>
<trkpt lat="53.5066203" lon="-9.461453"><ele>17.93</ele></trkpt>
<trkpt lat="53.506881799999995" lon="-9.461284300000003"><ele>15.92</ele></trkpt>
<trkpt lat="53.507381800000005" lon="-9.4611545"><ele>12.97</ele></trkpt>
<trkpt lat="53.5078911" lon="-9.461026600000002"><ele>11.07</ele></trkpt>
<trkpt lat="53.5084095" lon="-9.4609004"><ele>9.85</ele></trkpt>
<trkpt lat="53.508958799999995" lon="-9.460790200000002"><ele>9.12</ele></trkpt>
<trkpt lat="53.50908239999999" lon="-9.460747999999999"><ele>9.05</ele></trkpt>
<trkpt lat="53.5093887" lon="-9.4605105"><ele>9.08</ele></trkpt>
<trkpt lat="53.5096018" lon="-9.4602675"><ele>9.28</ele></trkpt>
<trkpt lat="53.5097714" lon="-9.460045400000002"><ele>9.54</ele></trkpt>
<trkpt lat="53.5099001" lon="-9.4598181"><ele>9.81</ele></trkpt>
<trkpt lat="53.5100684" lon="-9.4594718"><ele>10.22</ele></trkpt>
<trkpt lat="53.5102393" lon="-9.459061199999999"><ele>10.66</ele></trkpt>
<trkpt lat="53.5106426" lon="-9.4580322"><ele>11.43</ele></trkpt>
<trkpt lat="53.5108323" lon="-9.4575562"><ele>11.63</ele></trkpt>
<trkpt lat="53.51125" lon="-9.4566592"><ele>11.98</ele></trkpt>
<trkpt lat="53.5118085" lon="-9.4553823"><ele>12.25</ele></trkpt>
<trkpt lat="53.512313999999996" lon="-9.4540741"><ele>11.81</ele></trkpt>
<trkpt lat="53.5128701" lon="-9.452657700000001"><ele>11.19</ele></trkpt>
<trkpt lat="53.5131598" lon="-9.4517308"><ele>11.05</ele></trkpt>
<trkpt lat="53.5134616" lon="-9.450786900000002"><ele>10.98</ele></trkpt>
<trkpt lat="53.5137542" lon="-9.4500216"><ele>10.87</ele></trkpt>
<trkpt lat="53.51402829999999" lon="-9.4494228"><ele>10.66</ele></trkpt>
<trkpt lat="53.514107" lon="-9.4492812"><ele>10.59</ele></trkpt>
<trkpt lat="53.5145377" lon="-9.4488239"><ele>10.23</ele></trkpt>
<trkpt lat="53.51487159999999" lon="-9.448592699999999"><ele>10.05</ele></trkpt>
<trkpt lat="53.51495129999999" lon="-9.4484868"><ele>10.02</ele></trkpt>
<trkpt lat="53.5149993" lon="-9.4483519"><ele>10.01</ele></trkpt>
<trkpt lat="53.515027999999994" lon="-9.4479269"><ele>10.02</ele></trkpt>
<trkpt lat="53.5150564" lon="-9.447765"><ele>10.05</ele></trkpt>
<trkpt lat="53.51534929999999" lon="-9.446701000000001"><ele>10.59</ele></trkpt>
<trkpt lat="53.515502" lon="-9.446068"><ele>11.23</ele></trkpt>
<trkpt lat="53.5157202" lon="-9.445112100000001"><ele>12.65</ele></trkpt>
<trkpt lat="53.5159533" lon="-9.4443184"><ele>13.89</ele></trkpt>
<trkpt lat="53.51618" lon="-9.4435333"><ele>14.39</ele></trkpt>
<trkpt lat="53.5163575" lon="-9.4429125"><ele>14.09</ele></trkpt>
<trkpt lat="53.51662009999999" lon="-9.4419901"><ele>13.16</ele></trkpt>
<trkpt lat="53.51697990000001" lon="-9.4407701"><ele>12.52</ele></trkpt>
<trkpt lat="53.5172863" lon="-9.4397025"><ele>13.04</ele></trkpt>
<trkpt lat="53.51778" lon="-9.438025"><ele>14.55</ele></trkpt>
<trkpt lat="53.5179176" lon="-9.4375446"><ele>14.89</ele></trkpt>
<trkpt lat="53.5180608" lon="-9.4370141"><ele>15.14</ele></trkpt>
<trkpt lat="53.5181435" lon="-9.4365746"><ele>15.23</ele></trkpt>
<trkpt lat="53.51816319999999" lon="-9.436199100000001"><ele>15.2</ele></trkpt>
<trkpt lat="53.5181259" lon="-9.4358318"><ele>15.09</ele></trkpt>
<trkpt lat="53.5180575" lon="-9.435499300000002"><ele>14.92</ele></trkpt>
<trkpt lat="53.517916799999995" lon="-9.4349755"><ele>14.52</ele></trkpt>
<trkpt lat="53.5177865" lon="-9.434638999999999"><ele>14.2</ele></trkpt>
<trkpt lat="53.5177098" lon="-9.4344685"><ele>14.02</ele></trkpt>
<trkpt lat="53.5173707" lon="-9.433861700000001"><ele>13.38</ele></trkpt>
<trkpt lat="53.5168222" lon="-9.4329232"><ele>12.71</ele></trkpt>
<trkpt lat="53.516670100000006" lon="-9.432629"><ele>12.59</ele></trkpt>
<trkpt lat="53.516538700000005" lon="-9.432315499999998"><ele>12.49</ele></trkpt>
<trkpt lat="53.5163409" lon="-9.4317715"><ele>12.33</ele></trkpt>
<trkpt lat="53.5161028" lon="-9.4310485"><ele>12.11</ele></trkpt>
<trkpt lat="53.5155781" lon="-9.4297385"><ele>11.77</ele></trkpt>
<trkpt lat="53.5151902" lon="-9.4290099"><ele>11.71</ele></trkpt>
<trkpt lat="53.5148139" lon="-9.4282771"><ele>11.86</ele></trkpt>
<trkpt lat="53.5146638" lon="-9.42787"><ele>12.07</ele></trkpt>
<trkpt lat="53.5146066" lon="-9.4276379"><ele>12.22</ele></trkpt>
<trkpt lat="53.5145698" lon="-9.427434299999998"><ele>12.37</ele></trkpt>
<trkpt lat="53.5145462" lon="-9.4272365"><ele>12.53</ele></trkpt>
<trkpt lat="53.5145309" lon="-9.426857299999998"><ele>12.88</ele></trkpt>
<trkpt lat="53.51463240000001" lon="-9.425608199999997"><ele>14.09</ele></trkpt>
<trkpt lat="53.5147097" lon="-9.4248123"><ele>14.83</ele></trkpt>
<trkpt lat="53.5148399" lon="-9.423485900000001"><ele>16.36</ele></trkpt>
<trkpt lat="53.5148787" lon="-9.4231899"><ele>16.72</ele></trkpt>
<trkpt lat="53.51494" lon="-9.4228468"><ele>17.11</ele></trkpt>
<trkpt lat="53.5151141" lon="-9.422047799999998"><ele>17.82</ele></trkpt>
<trkpt lat="53.51543" lon="-9.42075"><ele>18.33</ele></trkpt>
<trkpt lat="53.51571" lon="-9.41961"><ele>17.85</ele></trkpt>
<trkpt lat="53.5158866" lon="-9.418906300000002"><ele>17.01</ele></trkpt>
<trkpt lat="53.5162399" lon="-9.417498699999998"><ele>15.1</ele></trkpt>
<trkpt lat="53.5163108" lon="-9.4171688"><ele>14.86</ele></trkpt>
<trkpt lat="53.5164295" lon="-9.416708899999998"><ele>14.74</ele></trkpt>
<trkpt lat="53.5165219" lon="-9.4162504"><ele>14.85</ele></trkpt>
<trkpt lat="53.51660259999999" lon="-9.4157884"><ele>15.06</ele></trkpt>
<trkpt lat="53.5166388" lon="-9.415335599999999"><ele>15.22</ele></trkpt>
<trkpt lat="53.51664040000001" lon="-9.4150463"><ele>15.24</ele></trkpt>
<trkpt lat="53.5165962" lon="-9.4147309"><ele>15.14</ele></trkpt>
<trkpt lat="53.5165468" lon="-9.4145545"><ele>15.01</ele></trkpt>
<trkpt lat="53.5164496" lon="-9.4143124"><ele>14.69</ele></trkpt>
<trkpt lat="53.516334" lon="-9.4140594"><ele>14.17</ele></trkpt>
<trkpt lat="53.5157094" lon="-9.4128239"><ele>10.21</ele></trkpt>
<trkpt lat="53.515483700000004" lon="-9.4123771"><ele>9.02</ele></trkpt>
<trkpt lat="53.5153985" lon="-9.412143900000002"><ele>8.61</ele></trkpt>
<trkpt lat="53.5152928" lon="-9.4116643"><ele>8.06</ele></trkpt>
<trkpt lat="53.5152698" lon="-9.4114101"><ele>7.84</ele></trkpt>
<trkpt lat="53.515249499999996" lon="-9.410752700000002"><ele>7.38</ele></trkpt>
<trkpt lat="53.5152196" lon="-9.410400699999999"><ele>7.16</ele></trkpt>
<trkpt lat="53.5150994" lon="-9.4095103"><ele>6.7</ele></trkpt>
<trkpt lat="53.5149601" lon="-9.4088216"><ele>6.45</ele></trkpt>
<trkpt lat="53.5147993" lon="-9.408113"><ele>6.32</ele></trkpt>
<trkpt lat="53.5147498" lon="-9.407809"><ele>6.34</ele></trkpt>
<trkpt lat="53.51472100000001" lon="-9.4075764"><ele>6.39</ele></trkpt>
<trkpt lat="53.514713" lon="-9.4073983"><ele>6.45</ele></trkpt>
<trkpt lat="53.5147404" lon="-9.407070099999999"><ele>6.61</ele></trkpt>
<trkpt lat="53.5147728" lon="-9.4068917"><ele>6.73</ele></trkpt>
<trkpt lat="53.5148543" lon="-9.4066328"><ele>6.96</ele></trkpt>
<trkpt lat="53.5150466" lon="-9.4062732"><ele>7.52</ele></trkpt>
<trkpt lat="53.515656" lon="-9.405522900000001"><ele>10.14</ele></trkpt>
<trkpt lat="53.516067" lon="-9.4050243"><ele>12.16</ele></trkpt>
<trkpt lat="53.516455199999996" lon="-9.4045509"><ele>13.15</ele></trkpt>
<trkpt lat="53.516581200000005" lon="-9.4043632"><ele>13.16</ele></trkpt>
<trkpt lat="53.5167127" lon="-9.404145399999999"><ele>12.98</ele></trkpt>
<trkpt lat="53.51677690000001" lon="-9.403979200000004"><ele>12.78</ele></trkpt>
<trkpt lat="53.51683059999999" lon="-9.4037955"><ele>12.53</ele></trkpt>
<trkpt lat="53.51693579999999" lon="-9.4033315"><ele>11.86</ele></trkpt>
<trkpt lat="53.5171215" lon="-9.402351"><ele>11.11</ele></trkpt>
<trkpt lat="53.5172998" lon="-9.4018504"><ele>11.14</ele></trkpt>
<trkpt lat="53.5173691" lon="-9.4015768"><ele>11.15</ele></trkpt>
<trkpt lat="53.517386800000004" lon="-9.4014185"><ele>11.12</ele></trkpt>
<trkpt lat="53.5173898" lon="-9.401201999999998"><ele>11.03</ele></trkpt>
<trkpt lat="53.5173514" lon="-9.3999844"><ele>9.82</ele></trkpt>
<trkpt lat="53.5173642" lon="-9.3998231"><ele>9.67</ele></trkpt>
<trkpt lat="53.5174159" lon="-9.399642699999998"><ele>9.53</ele></trkpt>
<trkpt lat="53.5176367" lon="-9.3991624"><ele>9.4</ele></trkpt>
<trkpt lat="53.5178221" lon="-9.398667"><ele>9.61</ele></trkpt>
<trkpt lat="53.5179396" lon="-9.3982119"><ele>9.88</ele></trkpt>
<trkpt lat="53.5180938" lon="-9.397654"><ele>10.14</ele></trkpt>
<trkpt lat="53.5184285" lon="-9.396982"><ele>10.14</ele></trkpt>
<trkpt lat="53.518570499999996" lon="-9.396626600000001"><ele>9.95</ele></trkpt>
<trkpt lat="53.518711700000004" lon="-9.3960989"><ele>9.58</ele></trkpt>
<trkpt lat="53.5187576" lon="-9.3958735"><ele>9.42</ele></trkpt>
<trkpt lat="53.5188611" lon="-9.395474900000002"><ele>9.21</ele></trkpt>
<trkpt lat="53.5189725" lon="-9.394999900000002"><ele>9.19</ele></trkpt>
<trkpt lat="53.5191304" lon="-9.3943505"><ele>9.72</ele></trkpt>
<trkpt lat="53.5193703" lon="-9.393569100000002"><ele>11.41</ele></trkpt>
<trkpt lat="53.51956190000001" lon="-9.3929544"><ele>13.54</ele></trkpt>
<trkpt lat="53.5197512" lon="-9.3923436"><ele>16.28</ele></trkpt>
<trkpt lat="53.51987" lon="-9.392067599999999"><ele>17.82</ele></trkpt>
<trkpt lat="53.5199333" lon="-9.3919449"><ele>18.57</ele></trkpt>
<trkpt lat="53.5200062" lon="-9.391843699999999"><ele>19.32</ele></trkpt>
<trkpt lat="53.5204202" lon="-9.391319699999999"><ele>23.16</ele></trkpt>
<trkpt lat="53.520798799999994" lon="-9.3908341"><ele>25.58</ele></trkpt>
<trkpt lat="53.52087809999999" lon="-9.3907017"><ele>25.91</ele></trkpt>
<trkpt lat="53.5209527" lon="-9.390542700000001"><ele>26.17</ele></trkpt>
<trkpt lat="53.521013399999994" lon="-9.3902295"><ele>26.4</ele></trkpt>
<trkpt lat="53.521014599999994" lon="-9.389882200000002"><ele>26.43</ele></trkpt>
<trkpt lat="53.52104159999999" lon="-9.3891761"><ele>25.95</ele></trkpt>
<trkpt lat="53.5210686" lon="-9.38847"><ele>24.92</ele></trkpt>
<trkpt lat="53.521102000000006" lon="-9.3877838"><ele>23.9</ele></trkpt>
<trkpt lat="53.5211559" lon="-9.386987699999999"><ele>23.52</ele></trkpt>
<trkpt lat="53.5212098" lon="-9.3861915"><ele>24.37</ele></trkpt>
<trkpt lat="53.521229500000004" lon="-9.3858199"><ele>25.07</ele></trkpt>
<trkpt lat="53.52123340000001" lon="-9.384927399999999"><ele>26.83</ele></trkpt>
<trkpt lat="53.5212442" lon="-9.3847008"><ele>27.22</ele></trkpt>
<trkpt lat="53.5213809" lon="-9.383923899999997"><ele>28.16</ele></trkpt>
<trkpt lat="53.52148400000001" lon="-9.383313799999998"><ele>28.3</ele></trkpt>
<trkpt lat="53.521532" lon="-9.3829998"><ele>28.15</ele></trkpt>
<trkpt lat="53.52162069999999" lon="-9.3823597"><ele>27.51</ele></trkpt>
<trkpt lat="53.5217314" lon="-9.381755"><ele>26.63</ele></trkpt>
<trkpt lat="53.5218263" lon="-9.38111"><ele>25.76</ele></trkpt>
<trkpt lat="53.5218509" lon="-9.380621100000003"><ele>25.39</ele></trkpt>
<trkpt lat="53.5218967" lon="-9.3801"><ele>25.43</ele></trkpt>
<trkpt lat="53.52192" lon="-9.379668999999996"><ele>25.78</ele></trkpt>
<trkpt lat="53.521895099999995" lon="-9.3789096"><ele>26.8</ele></trkpt>
<trkpt lat="53.521931699999996" lon="-9.3783496"><ele>27.58</ele></trkpt>
<trkpt lat="53.522004800000005" lon="-9.3778962"><ele>28.03</ele></trkpt>
<trkpt lat="53.522039899999996" lon="-9.3776119"><ele>28.16</ele></trkpt>
<trkpt lat="53.522058599999994" lon="-9.377216699999998"><ele>28.18</ele></trkpt>
<trkpt lat="53.521991699999994" lon="-9.3760037"><ele>27.71</ele></trkpt>
<trkpt lat="53.522009" lon="-9.3754841"><ele>27.78</ele></trkpt>
<trkpt lat="53.5220514" lon="-9.375097000000002"><ele>28.08</ele></trkpt>
<trkpt lat="53.5221337" lon="-9.3747015"><ele>28.58</ele></trkpt>
<trkpt lat="53.5222183" lon="-9.3744069"><ele>29.04</ele></trkpt>
<trkpt lat="53.522362" lon="-9.3740467"><ele>29.6</ele></trkpt>
<trkpt lat="53.5226398" lon="-9.3734889"><ele>30.02</ele></trkpt>
<trkpt lat="53.5228796" lon="-9.372899700000001"><ele>29.55</ele></trkpt>
<trkpt lat="53.5232012" lon="-9.371978499999997"><ele>28.29</ele></trkpt>
<trkpt lat="53.5235433" lon="-9.3711513"><ele>27.86</ele></trkpt>
<trkpt lat="53.5236563" lon="-9.3708213"><ele>27.9</ele></trkpt>
<trkpt lat="53.5237204" lon="-9.370607599999998"><ele>27.94</ele></trkpt>
<trkpt lat="53.5238097" lon="-9.3702299"><ele>28.02</ele></trkpt>
<trkpt lat="53.52388079999999" lon="-9.3698318"><ele>28.11</ele></trkpt>
<trkpt lat="53.5240796" lon="-9.3683555"><ele>28.64</ele></trkpt>
<trkpt lat="53.524200099999995" lon="-9.3676723"><ele>29.05</ele></trkpt>
<trkpt lat="53.5243477" lon="-9.367099"><ele>29.52</ele></trkpt>
<trkpt lat="53.52441950000001" lon="-9.3669125"><ele>29.73</ele></trkpt>
<trkpt lat="53.5245126" lon="-9.366781999999999"><ele>29.93</ele></trkpt>
<trkpt lat="53.5247146" lon="-9.3665869"><ele>30.38</ele></trkpt>
<trkpt lat="53.52507020000001" lon="-9.3663178"><ele>31.2</ele></trkpt>
<trkpt lat="53.52525769999999" lon="-9.366184899999999"><ele>31.65</ele></trkpt>
<trkpt lat="53.52573039999999" lon="-9.3658831"><ele>33.07</ele></trkpt>
<trkpt lat="53.52602000000001" lon="-9.365736400000003"><ele>34.4</ele></trkpt>
<trkpt lat="53.5266093" lon="-9.3654768"><ele>38.38</ele></trkpt>
<trkpt lat="53.52675769999999" lon="-9.365374000000001"><ele>39.52</ele></trkpt>
<trkpt lat="53.52684479999999" lon="-9.3652619"><ele>40.25</ele></trkpt>
<trkpt lat="53.52690599999999" lon="-9.365118800000001"><ele>40.88</ele></trkpt>
<trkpt lat="53.5269478" lon="-9.3649664"><ele>41.42</ele></trkpt>
<trkpt lat="53.526987500000004" lon="-9.364696"><ele>42.15</ele></trkpt>
<trkpt lat="53.5269956" lon="-9.3645517"><ele>42.44</ele></trkpt>
<trkpt lat="53.5269784" lon="-9.364189400000003"><ele>42.94</ele></trkpt>
<trkpt lat="53.52695" lon="-9.363485"><ele>43.21</ele></trkpt>
<trkpt lat="53.52693080000001" lon="-9.362680300000001"><ele>43.14</ele></trkpt>
<trkpt lat="53.526938799999996" lon="-9.362355900000003"><ele>43.25</ele></trkpt>
<trkpt lat="53.5269588" lon="-9.361889100000003"><ele>43.76</ele></trkpt>
<trkpt lat="53.5269838" lon="-9.361743500000001"><ele>44.03</ele></trkpt>
<trkpt lat="53.5270335" lon="-9.361583999999999"><ele>44.43</ele></trkpt>
<trkpt lat="53.527154900000006" lon="-9.3613931"><ele>45.16</ele></trkpt>
<trkpt lat="53.5273094" lon="-9.361241299999998"><ele>46.08</ele></trkpt>
<trkpt lat="53.5275946" lon="-9.3610154"><ele>47.76</ele></trkpt>
<trkpt lat="53.5279249" lon="-9.360769400000002"><ele>49.31</ele></trkpt>
<trkpt lat="53.5281675" lon="-9.3605835"><ele>50.01</ele></trkpt>
<trkpt lat="53.52825769999999" lon="-9.360465799999998"><ele>50.18</ele></trkpt>
<trkpt lat="53.5283379" lon="-9.360286500000003"><ele>50.29</ele></trkpt>
<trkpt lat="53.52842979999999" lon="-9.3598903"><ele>50.34</ele></trkpt>
<trkpt lat="53.5285167" lon="-9.359055"><ele>50.3</ele></trkpt>
<trkpt lat="53.528603" lon="-9.3582321"><ele>50.71</ele></trkpt>
<trkpt lat="53.528687000000005" lon="-9.3578948"><ele>51.15</ele></trkpt>
<trkpt lat="53.52877350000001" lon="-9.3576979"><ele>51.55</ele></trkpt>
<trkpt lat="53.5288586" lon="-9.357568800000001"><ele>51.9</ele></trkpt>
<trkpt lat="53.528968799999994" lon="-9.3574571"><ele>52.34</ele></trkpt>
<trkpt lat="53.52905950000001" lon="-9.3573971"><ele>52.69</ele></trkpt>
<trkpt lat="53.5291922" lon="-9.3573599"><ele>53.18</ele></trkpt>
<trkpt lat="53.529638500000004" lon="-9.3572959"><ele>54.6</ele></trkpt>
<trkpt lat="53.5298975" lon="-9.357243099999998"><ele>55.15</ele></trkpt>
<trkpt lat="53.5300316" lon="-9.3571965"><ele>55.33</ele></trkpt>
<trkpt lat="53.530083" lon="-9.3571113"><ele>55.41</ele></trkpt>
<trkpt lat="53.5304895" lon="-9.3559512"><ele>55.6</ele></trkpt>
<trkpt lat="53.5308241" lon="-9.354990400000002"><ele>55.27</ele></trkpt>
<trkpt lat="53.5309775" lon="-9.354545"><ele>54.78</ele></trkpt>
<trkpt lat="53.53119890000001" lon="-9.3538789"><ele>53.61</ele></trkpt>
<trkpt lat="53.5316417" lon="-9.3525467"><ele>50.84</ele></trkpt>
<trkpt lat="53.53198040000001" lon="-9.351515"><ele>49.47</ele></trkpt>
<trkpt lat="53.532115899999994" lon="-9.3509495"><ele>49.38</ele></trkpt>
<trkpt lat="53.532212" lon="-9.350117100000002"><ele>50.13</ele></trkpt>
<trkpt lat="53.532347" lon="-9.348876"><ele>52.27</ele></trkpt>
<trkpt lat="53.5324078" lon="-9.348288799999999"><ele>52.74</ele></trkpt>
<trkpt lat="53.5324166" lon="-9.3480166"><ele>52.61</ele></trkpt>
<trkpt lat="53.5324131" lon="-9.3478098"><ele>52.35</ele></trkpt>
<trkpt lat="53.5323539" lon="-9.347143799999998"><ele>50.61</ele></trkpt>
<trkpt lat="53.5322942" lon="-9.346472400000001"><ele>47.97</ele></trkpt>
<trkpt lat="53.5322199" lon="-9.3456808"><ele>44.71</ele></trkpt>
<trkpt lat="53.5321083" lon="-9.3444933"><ele>40.87</ele></trkpt>
<trkpt lat="53.532030000000006" lon="-9.343759999999998"><ele>39.32</ele></trkpt>
<trkpt lat="53.53195" lon="-9.343025999999998"><ele>38.35</ele></trkpt>
<trkpt lat="53.531804" lon="-9.341738"><ele>37.51</ele></trkpt>
<trkpt lat="53.531696" lon="-9.3408176"><ele>37.46</ele></trkpt>
<trkpt lat="53.53152" lon="-9.339310000000001"><ele>38.5</ele></trkpt>
<trkpt lat="53.5313295" lon="-9.3377185"><ele>40.29</ele></trkpt>
<trkpt lat="53.531281" lon="-9.337027499999998"><ele>40.71</ele></trkpt>
<trkpt lat="53.531239899999996" lon="-9.33597"><ele>39.99</ele></trkpt>
<trkpt lat="53.5311899" lon="-9.3349185"><ele>38.05</ele></trkpt>
<trkpt lat="53.5311107" lon="-9.333418"><ele>35.17</ele></trkpt>
<trkpt lat="53.53111049999999" lon="-9.3329621"><ele>34.46</ele></trkpt>
<trkpt lat="53.531161399999995" lon="-9.3317973"><ele>33.11</ele></trkpt>
<trkpt lat="53.5312986" lon="-9.3298343"><ele>31.97</ele></trkpt>
<trkpt lat="53.531389999999995" lon="-9.32835"><ele>31.98</ele></trkpt>
<trkpt lat="53.53146" lon="-9.3271947"><ele>32.52</ele></trkpt>
<trkpt lat="53.5314966" lon="-9.3266838"><ele>32.78</ele></trkpt>
<trkpt lat="53.5316297" lon="-9.3249464"><ele>33.55</ele></trkpt>
<trkpt lat="53.5317644" lon="-9.323761999999999"><ele>34.17</ele></trkpt>
<trkpt lat="53.5320879" lon="-9.3225976"><ele>34.87</ele></trkpt>
<trkpt lat="53.53232189999999" lon="-9.3218469"><ele>35.46</ele></trkpt>
<trkpt lat="53.5324993" lon="-9.3214221"><ele>35.86</ele></trkpt>
<trkpt lat="53.5330301" lon="-9.32024"><ele>36.95</ele></trkpt>
<trkpt lat="53.53350259999999" lon="-9.319215899999998"><ele>37.25</ele></trkpt>
<trkpt lat="53.5338181" lon="-9.3185012"><ele>37.14</ele></trkpt>
<trkpt lat="53.5340875" lon="-9.317875000000003"><ele>37.56</ele></trkpt>
<trkpt lat="53.5345815" lon="-9.316735300000003"><ele>39.56</ele></trkpt>
<trkpt lat="53.534872" lon="-9.3161039"><ele>40.3</ele></trkpt>
<trkpt lat="53.5352186" lon="-9.3153525"><ele>40.15</ele></trkpt>
<trkpt lat="53.535339" lon="-9.3150712"><ele>39.76</ele></trkpt>
<trkpt lat="53.5356799" lon="-9.3141099"><ele>37.36</ele></trkpt>
<trkpt lat="53.5360107" lon="-9.313137599999997"><ele>34.37</ele></trkpt>
<trkpt lat="53.53638910000001" lon="-9.311991400000002"><ele>31.65</ele></trkpt>
<trkpt lat="53.5366414" lon="-9.3112272"><ele>30.31</ele></trkpt>
<trkpt lat="53.537029" lon="-9.3100627"><ele>29.04</ele></trkpt>
<trkpt lat="53.5373887" lon="-9.3089402"><ele>28.8</ele></trkpt>
<trkpt lat="53.5376984" lon="-9.308021600000002"><ele>28.89</ele></trkpt>
<trkpt lat="53.53779839999999" lon="-9.3077116"><ele>28.87</ele></trkpt>
<trkpt lat="53.538330499999994" lon="-9.3059778"><ele>28.29</ele></trkpt>
<trkpt lat="53.53858999999999" lon="-9.30509"><ele>28.46</ele></trkpt>
<trkpt lat="53.5390507" lon="-9.3035097"><ele>29.89</ele></trkpt>
<trkpt lat="53.5392483" lon="-9.3030048"><ele>30.28</ele></trkpt>
<trkpt lat="53.539322" lon="-9.3027521"><ele>30.37</ele></trkpt>
<trkpt lat="53.53935659999999" lon="-9.3025799"><ele>30.39</ele></trkpt>
<trkpt lat="53.5393783" lon="-9.302357099999996"><ele>30.37</ele></trkpt>
<trkpt lat="53.5394002" lon="-9.3015627"><ele>29.95</ele></trkpt>
<trkpt lat="53.5394207" lon="-9.300776500000001"><ele>29.06</ele></trkpt>
<trkpt lat="53.5394469" lon="-9.3005079"><ele>28.68</ele></trkpt>
<trkpt lat="53.539474" lon="-9.3003758"><ele>28.47</ele></trkpt>
<trkpt lat="53.5395566" lon="-9.3001275"><ele>28.06</ele></trkpt>
<trkpt lat="53.5396901" lon="-9.299893"><ele>27.63</ele></trkpt>
<trkpt lat="53.539985" lon="-9.299581900000002"><ele>27.05</ele></trkpt>
<trkpt lat="53.5401062" lon="-9.2994128"><ele>26.92</ele></trkpt>
<trkpt lat="53.5405131" lon="-9.298638199999996"><ele>26.97</ele></trkpt>
<trkpt lat="53.5407096" lon="-9.298210399999999"><ele>27.07</ele></trkpt>
<trkpt lat="53.5409679" lon="-9.2975655"><ele>26.84</ele></trkpt>
<trkpt lat="53.5410699" lon="-9.2973603"><ele>26.61</ele></trkpt>
<trkpt lat="53.5411674" lon="-9.297188300000002"><ele>26.33</ele></trkpt>
<trkpt lat="53.54130380000001" lon="-9.2970187"><ele>25.91</ele></trkpt>
<trkpt lat="53.541840900000004" lon="-9.296458900000003"><ele>23.8</ele></trkpt>
<trkpt lat="53.5422777" lon="-9.2959976"><ele>21.84</ele></trkpt>
<trkpt lat="53.54239909999999" lon="-9.2958495"><ele>21.31</ele></trkpt>
<trkpt lat="53.5424769" lon="-9.2957032"><ele>20.93</ele></trkpt>
<trkpt lat="53.5425256" lon="-9.2955667"><ele>20.66</ele></trkpt>
<trkpt lat="53.54266940000001" lon="-9.2948189"><ele>19.93</ele></trkpt>
<trkpt lat="53.5426941" lon="-9.294750299999999"><ele>19.93</ele></trkpt>
<trkpt lat="53.542782" lon="-9.2947003"><ele>19.97</ele></trkpt>
<trkpt lat="53.5428263" lon="-9.294729700000001"><ele>20.01</ele></trkpt>
<trkpt lat="53.5428904" lon="-9.294890000000004"><ele>20.17</ele></trkpt>
<trkpt lat="53.5431155" lon="-9.2954487"><ele>21.18</ele></trkpt>
<trkpt lat="53.5434775" lon="-9.296352700000002"><ele>23.14</ele></trkpt>
<trkpt lat="53.5437105" lon="-9.2969214"><ele>24.06</ele></trkpt>
<trkpt lat="53.5438607" lon="-9.2974546"><ele>24.65</ele></trkpt>
<trkpt lat="53.5440298" lon="-9.2983224"><ele>25.31</ele></trkpt>
<trkpt lat="53.5440987" lon="-9.298810899999998"><ele>25.58</ele></trkpt>
<trkpt lat="53.544148299999996" lon="-9.2992214"><ele>25.75</ele></trkpt>
<trkpt lat="53.5442414" lon="-9.3000455"><ele>25.96</ele></trkpt>
<trkpt lat="53.5445199" lon="-9.3017297"><ele>26.27</ele></trkpt>
<trkpt lat="53.544796000000005" lon="-9.303222"><ele>27.14</ele></trkpt>
<trkpt lat="53.5450299" lon="-9.3043627"><ele>28.25</ele></trkpt>
<trkpt lat="53.54512900000001" lon="-9.3049754"><ele>29.06</ele></trkpt>
<trkpt lat="53.5452522" lon="-9.3058786"><ele>30.45</ele></trkpt>
<trkpt lat="53.5453622" lon="-9.306391699999999"><ele>31.25</ele></trkpt>
</trkseg>
</trk></gpx>
