<?xml version='1.0' encoding='UTF-8'?>
<gpx version="1.1"
  creator="GPXmagic"
  xmlns="http://www.topografix.com/GPX/1/1"
  xmlns:rgt="http://www.rgtcycling.com/XML/GpxExtensions/v1"
  xmlns:xsi="http://www.w3.org/2001/XMLSchema-instance" xsi:schemaLocation="http://www.topografix.com/GPX/1/1
  http://www.topografix.com/GPX/1/1/gpx.xsd">
  <metadata>
    <name>Smoothed with GPXmagic</name>
    <author>
      <link href="https://www.stepwiserefinement.co.uk">
        <text>GPXmagic v3</text>
        <type>text/html</type>
      </link>
    </author>
  </metadata>
<trk>  <name>Japan&#32;2026</name>
<trkseg>
<trkpt lat="37.0544487" lon="138.9959969"><ele>348.52</ele></trkpt>
<trkpt lat="37.0546478" lon="138.99621950000002"><ele>349.94</ele></trkpt>
<trkpt lat="37.0547978" lon="138.9964224"><ele>351.12</ele></trkpt>
<trkpt lat="37.054869" lon="138.996554"><ele>351.8</ele></trkpt>
<trkpt lat="37.05510889999999" lon="138.9970208"><ele>354.29</ele></trkpt>
<trkpt lat="37.0551484" lon="138.9971259"><ele>354.84</ele></trkpt>
<trkpt lat="37.05516269999999" lon="138.9972295"><ele>355.36</ele></trkpt>
<trkpt lat="37.0551486" lon="138.9973038"><ele>355.74</ele></trkpt>
<trkpt lat="37.05511229999999" lon="138.9973638"><ele>356.13</ele></trkpt>
<trkpt lat="37.0550507" lon="138.99741530000003"><ele>356.62</ele></trkpt>
<trkpt lat="37.0549996" lon="138.99742989999996"><ele>356.98</ele></trkpt>
<trkpt lat="37.0549227" lon="138.9974069"><ele>357.53</ele></trkpt>
<trkpt lat="37.0548451" lon="138.9973392"><ele>358.21</ele></trkpt>
<trkpt lat="37.0547812" lon="138.9972648"><ele>358.85</ele></trkpt>
<trkpt lat="37.0544405" lon="138.9968513"><ele>362.67</ele></trkpt>
<trkpt lat="37.0542225" lon="138.9965741"><ele>365.41</ele></trkpt>
<trkpt lat="37.05414480000001" lon="138.996486"><ele>366.38</ele></trkpt>
<trkpt lat="37.0535003" lon="138.9958605"><ele>374.08</ele></trkpt>
<trkpt lat="37.0531107" lon="138.9954885"><ele>378.42</ele></trkpt>
<trkpt lat="37.05291600000001" lon="138.9953025"><ele>380.36</ele></trkpt>
<trkpt lat="37.052818" lon="138.9952018"><ele>381.29</ele></trkpt>
<trkpt lat="37.0527373" lon="138.99508730000002"><ele>382.12</ele></trkpt>
<trkpt lat="37.0526665" lon="138.9949351"><ele>382.99</ele></trkpt>
<trkpt lat="37.0525184" lon="138.9945847"><ele>384.63</ele></trkpt>
<trkpt lat="37.0524541" lon="138.9944505"><ele>385.16</ele></trkpt>
<trkpt lat="37.0523784" lon="138.99434299999996"><ele>385.59</ele></trkpt>
<trkpt lat="37.0521524" lon="138.9941063"><ele>386.49</ele></trkpt>
<trkpt lat="37.05206119999999" lon="138.99396910000002"><ele>386.84</ele></trkpt>
<trkpt lat="37.0520139" lon="138.9938573"><ele>387.06</ele></trkpt>
<trkpt lat="37.0519308" lon="138.9935514"><ele>387.6</ele></trkpt>
<trkpt lat="37.051857999999996" lon="138.99332859999998"><ele>388.01</ele></trkpt>
<trkpt lat="37.0518067" lon="138.993223"><ele>388.24</ele></trkpt>
<trkpt lat="37.0517454" lon="138.9931349"><ele>388.47</ele></trkpt>
<trkpt lat="37.0516289" lon="138.9930066"><ele>388.92</ele></trkpt>
<trkpt lat="37.0515573" lon="138.9929397"><ele>389.21</ele></trkpt>
<trkpt lat="37.0514204" lon="138.992839"><ele>389.79</ele></trkpt>
<trkpt lat="37.0512798" lon="138.9927623"><ele>390.45</ele></trkpt>
<trkpt lat="37.0512139" lon="138.99273460000003"><ele>390.78</ele></trkpt>
<trkpt lat="37.0511389" lon="138.992716"><ele>391.16</ele></trkpt>
<trkpt lat="37.0510252" lon="138.9927276"><ele>391.78</ele></trkpt>
<trkpt lat="37.0508532" lon="138.9927555"><ele>392.83</ele></trkpt>
<trkpt lat="37.0507854" lon="138.9927534"><ele>393.27</ele></trkpt>
<trkpt lat="37.0507104" lon="138.9927294"><ele>393.79</ele></trkpt>
<trkpt lat="37.0506472" lon="138.9926845"><ele>394.3</ele></trkpt>
<trkpt lat="37.0506032" lon="138.9926363"><ele>394.72</ele></trkpt>
<trkpt lat="37.0503734" lon="138.9922631"><ele>397.55</ele></trkpt>
<trkpt lat="37.050338" lon="138.9922126"><ele>397.96</ele></trkpt>
<trkpt lat="37.0502881" lon="138.9921701"><ele>398.43</ele></trkpt>
<trkpt lat="37.05023020000001" lon="138.992158"><ele>398.88</ele></trkpt>
<trkpt lat="37.0501816" lon="138.9921735"><ele>399.26</ele></trkpt>
<trkpt lat="37.050134099999994" lon="138.9922147"><ele>399.7</ele></trkpt>
<trkpt lat="37.0501077" lon="138.9922618"><ele>400.04</ele></trkpt>
<trkpt lat="37.0501002" lon="138.9923181"><ele>400.38</ele></trkpt>
<trkpt lat="37.0501173" lon="138.9924192"><ele>400.99</ele></trkpt>
<trkpt lat="37.0502051" lon="138.9928034"><ele>403.19</ele></trkpt>
<trkpt lat="37.0502324" lon="138.992899"><ele>403.71</ele></trkpt>
<trkpt lat="37.0502798" lon="138.9929878"><ele>404.24</ele></trkpt>
<trkpt lat="37.050383000000004" lon="138.9930934"><ele>405.02</ele></trkpt>
<trkpt lat="37.0504482" lon="138.9931279"><ele>405.41</ele></trkpt>
<trkpt lat="37.0505185" lon="138.99314939999996"><ele>405.8</ele></trkpt>
<trkpt lat="37.0507113" lon="138.9931868"><ele>406.8</ele></trkpt>
<trkpt lat="37.0508996" lon="138.99318009999996"><ele>407.74</ele></trkpt>
<trkpt lat="37.050994" lon="138.99317269999997"><ele>408.21</ele></trkpt>
<trkpt lat="37.0510826" lon="138.993195"><ele>408.66</ele></trkpt>
<trkpt lat="37.0511272" lon="138.9932253"><ele>408.92</ele></trkpt>
<trkpt lat="37.0511695" lon="138.9932728"><ele>409.22</ele></trkpt>
<trkpt lat="37.0512164" lon="138.9933556"><ele>409.65</ele></trkpt>
<trkpt lat="37.05125790000001" lon="138.9934701"><ele>410.21</ele></trkpt>
<trkpt lat="37.0513499" lon="138.9938029"><ele>411.94</ele></trkpt>
<trkpt lat="37.0513825" lon="138.9939021"><ele>412.52</ele></trkpt>
<trkpt lat="37.0514507" lon="138.9940577"><ele>413.53</ele></trkpt>
<trkpt lat="37.0516476" lon="138.99441630000004"><ele>416.31</ele></trkpt>
<trkpt lat="37.0516757" lon="138.9944824"><ele>416.82</ele></trkpt>
<trkpt lat="37.0517038" lon="138.9945821"><ele>417.56</ele></trkpt>
<trkpt lat="37.0517503" lon="138.9948318"><ele>419.4</ele></trkpt>
<trkpt lat="37.0517974" lon="138.9950562"><ele>421.1</ele></trkpt>
<trkpt lat="37.0518788" lon="138.9952557"><ele>422.74</ele></trkpt>
<trkpt lat="37.05207010000001" lon="138.9956675"><ele>426.11</ele></trkpt>
<trkpt lat="37.0521156" lon="138.995751"><ele>426.79</ele></trkpt>
<trkpt lat="37.0522198" lon="138.9959097"><ele>428.13</ele></trkpt>
<trkpt lat="37.0523291" lon="138.99605000000003"><ele>429.34</ele></trkpt>
<trkpt lat="37.05263" lon="138.996417"><ele>432.36</ele></trkpt>
<trkpt lat="37.0528733" lon="138.9967267"><ele>434.73</ele></trkpt>
<trkpt lat="37.0529638" lon="138.99685359999998"><ele>435.67</ele></trkpt>
<trkpt lat="37.0530428" lon="138.996986"><ele>436.6</ele></trkpt>
<trkpt lat="37.0531038" lon="138.99712060000002"><ele>437.51</ele></trkpt>
<trkpt lat="37.0531403" lon="138.9972777"><ele>438.5</ele></trkpt>
<trkpt lat="37.0531471" lon="138.9975049"><ele>439.96</ele></trkpt>
<trkpt lat="37.0531309" lon="138.9977085"><ele>441.34</ele></trkpt>
<trkpt lat="37.05306840000001" lon="138.9979281"><ele>443</ele></trkpt>
<trkpt lat="37.0529801" lon="138.99807789999997"><ele>444.39</ele></trkpt>
<trkpt lat="37.0526794" lon="138.9984716"><ele>448.62</ele></trkpt>
<trkpt lat="37.0521977" lon="138.99914589999997"><ele>455.55</ele></trkpt>
<trkpt lat="37.0520643" lon="138.9993537"><ele>457.36</ele></trkpt>
<trkpt lat="37.052024599999996" lon="138.9994317"><ele>457.94</ele></trkpt>
<trkpt lat="37.0518772" lon="138.999802"><ele>460.21</ele></trkpt>
<trkpt lat="37.051757599999995" lon="139.0001047"><ele>461.62</ele></trkpt>
<trkpt lat="37.0517169" lon="139.0001982"><ele>461.97</ele></trkpt>
<trkpt lat="37.05167" lon="139.0002799"><ele>462.26</ele></trkpt>
<trkpt lat="37.0515692" lon="139.0004395"><ele>462.71</ele></trkpt>
<trkpt lat="37.051391699999996" lon="139.00070119999998"><ele>463.05</ele></trkpt>
<trkpt lat="37.0513407" lon="139.0008107"><ele>463.05</ele></trkpt>
<trkpt lat="37.0513112" lon="139.00091989999999"><ele>462.99</ele></trkpt>
<trkpt lat="37.0513045" lon="139.0010036"><ele>462.91</ele></trkpt>
<trkpt lat="37.0513329" lon="139.0013737"><ele>462.21</ele></trkpt>
<trkpt lat="37.051343" lon="139.0014628"><ele>461.97</ele></trkpt>
<trkpt lat="37.0513765" lon="139.0016022"><ele>461.52</ele></trkpt>
<trkpt lat="37.0514414" lon="139.0017627"><ele>460.89</ele></trkpt>
<trkpt lat="37.0514716" lon="139.0018516"><ele>460.52</ele></trkpt>
<trkpt lat="37.0515099" lon="139.0020309"><ele>459.76</ele></trkpt>
<trkpt lat="37.0515232" lon="139.00211590000004"><ele>459.38</ele></trkpt>
<trkpt lat="37.0515238" lon="139.0022051"><ele>458.98</ele></trkpt>
<trkpt lat="37.0515092" lon="139.0022945"><ele>458.57</ele></trkpt>
<trkpt lat="37.0514836" lon="139.0023895"><ele>458.1</ele></trkpt>
<trkpt lat="37.0514147" lon="139.0026041"><ele>457.02</ele></trkpt>
<trkpt lat="37.0513812" lon="139.0027355"><ele>456.37</ele></trkpt>
<trkpt lat="37.0513709" lon="139.0028362"><ele>455.9</ele></trkpt>
<trkpt lat="37.0513692" lon="139.0030632"><ele>454.85</ele></trkpt>
<trkpt lat="37.05135800000001" lon="139.0031711"><ele>454.37</ele></trkpt>
<trkpt lat="37.0513194" lon="139.0033097"><ele>453.73</ele></trkpt>
<trkpt lat="37.0512461" lon="139.0034665"><ele>452.97</ele></trkpt>
<trkpt lat="37.0510978" lon="139.0037158"><ele>451.77</ele></trkpt>
<trkpt lat="37.0510347" lon="139.0038029"><ele>451.35</ele></trkpt>
<trkpt lat="37.0509403" lon="139.0039017"><ele>450.83</ele></trkpt>
<trkpt lat="37.0508096" lon="139.0040542"><ele>450.15</ele></trkpt>
<trkpt lat="37.050763999999994" lon="139.0041243"><ele>449.9</ele></trkpt>
<trkpt lat="37.050697" lon="139.0042499"><ele>449.51</ele></trkpt>
<trkpt lat="37.0506107" lon="139.0044702"><ele>448.96</ele></trkpt>
<trkpt lat="37.0503966" lon="139.00509239999997"><ele>447.8</ele></trkpt>
<trkpt lat="37.0501507" lon="139.005828"><ele>446.82</ele></trkpt>
<trkpt lat="37.05003140000001" lon="139.0061934"><ele>446.44</ele></trkpt>
<trkpt lat="37.0499938" lon="139.0063214"><ele>446.34</ele></trkpt>
<trkpt lat="37.0499751" lon="139.0064404"><ele>446.28</ele></trkpt>
<trkpt lat="37.0499317" lon="139.0068584"><ele>446.31</ele></trkpt>
<trkpt lat="37.049924" lon="139.0074"><ele>447.11</ele></trkpt>
<trkpt lat="37.0499202" lon="139.00776"><ele>448.28</ele></trkpt>
<trkpt lat="37.04992" lon="139.00803"><ele>449.5</ele></trkpt>
<trkpt lat="37.04992" lon="139.00875"><ele>453.53</ele></trkpt>
<trkpt lat="37.04992" lon="139.0092"><ele>455.88</ele></trkpt>
<trkpt lat="37.04992" lon="139.0097471"><ele>457.91</ele></trkpt>
<trkpt lat="37.0499424" lon="139.0100429"><ele>458.55</ele></trkpt>
<trkpt lat="37.0500622" lon="139.0106167"><ele>458.95</ele></trkpt>
<trkpt lat="37.0501066" lon="139.0109386"><ele>458.75</ele></trkpt>
<trkpt lat="37.0501955" lon="139.0115822"><ele>457.78</ele></trkpt>
<trkpt lat="37.0502844" lon="139.0122258"><ele>456.15</ele></trkpt>
<trkpt lat="37.0503733" lon="139.0128694"><ele>454.07</ele></trkpt>
<trkpt lat="37.0504116" lon="139.0129999"><ele>453.62</ele></trkpt>
<trkpt lat="37.0504449" lon="139.0130795"><ele>453.34</ele></trkpt>
<trkpt lat="37.0505103" lon="139.0131824"><ele>452.94</ele></trkpt>
<trkpt lat="37.0505517" lon="139.0132209"><ele>452.76</ele></trkpt>
<trkpt lat="37.0506003" lon="139.01324680000002"><ele>452.58</ele></trkpt>
<trkpt lat="37.0508204" lon="139.0132945"><ele>451.96</ele></trkpt>
<trkpt lat="37.0508971" lon="139.0133314"><ele>451.81</ele></trkpt>
<trkpt lat="37.0509451" lon="139.0133644"><ele>451.73</ele></trkpt>
<trkpt lat="37.0510151" lon="139.013434"><ele>451.66</ele></trkpt>
<trkpt lat="37.0510637" lon="139.013497"><ele>451.64</ele></trkpt>
<trkpt lat="37.051119" lon="139.013594"><ele>451.69</ele></trkpt>
<trkpt lat="37.0511482" lon="139.01366990000002"><ele>451.77</ele></trkpt>
<trkpt lat="37.0511867" lon="139.0138091"><ele>452.01</ele></trkpt>
<trkpt lat="37.05119659999999" lon="139.013882"><ele>452.18</ele></trkpt>
<trkpt lat="37.05119779999999" lon="139.0139855"><ele>452.47</ele></trkpt>
<trkpt lat="37.0511892" lon="139.0143845"><ele>454.06</ele></trkpt>
<trkpt lat="37.051178500000006" lon="139.0148613"><ele>456.63</ele></trkpt>
<trkpt lat="37.0511347" lon="139.0151994"><ele>458.59</ele></trkpt>
<trkpt lat="37.0510895" lon="139.015414"><ele>459.77</ele></trkpt>
<trkpt lat="37.0510813" lon="139.0154949"><ele>460.17</ele></trkpt>
<trkpt lat="37.051078800000006" lon="139.0157155"><ele>461.14</ele></trkpt>
<trkpt lat="37.0510643" lon="139.01583480000002"><ele>461.59</ele></trkpt>
<trkpt lat="37.0510321" lon="139.0159456"><ele>461.96</ele></trkpt>
<trkpt lat="37.0508938" lon="139.016183"><ele>462.62</ele></trkpt>
<trkpt lat="37.0508592" lon="139.016278"><ele>462.75</ele></trkpt>
<trkpt lat="37.0508525" lon="139.0163694"><ele>462.83</ele></trkpt>
<trkpt lat="37.0508628" lon="139.0164397"><ele>462.86</ele></trkpt>
<trkpt lat="37.0508947" lon="139.0165256"><ele>462.87</ele></trkpt>
<trkpt lat="37.0509579" lon="139.0166177"><ele>462.83</ele></trkpt>
<trkpt lat="37.0510864" lon="139.016778"><ele>462.59</ele></trkpt>
<trkpt lat="37.051127300000005" lon="139.0168516"><ele>462.46</ele></trkpt>
<trkpt lat="37.0511663" lon="139.0169904"><ele>462.18</ele></trkpt>
<trkpt lat="37.0511713" lon="139.0170735"><ele>461.99</ele></trkpt>
<trkpt lat="37.0511339" lon="139.01732989999996"><ele>461.33</ele></trkpt>
<trkpt lat="37.0511323" lon="139.0175623"><ele>460.62</ele></trkpt>
<trkpt lat="37.05115760000001" lon="139.0177432"><ele>460</ele></trkpt>
<trkpt lat="37.051211300000006" lon="139.01791470000003"><ele>459.32</ele></trkpt>
<trkpt lat="37.0513307" lon="139.018127"><ele>458.27</ele></trkpt>
<trkpt lat="37.05150820000001" lon="139.0183306"><ele>456.94</ele></trkpt>
<trkpt lat="37.0516108" lon="139.0183996"><ele>456.26</ele></trkpt>
<trkpt lat="37.0517021" lon="139.0184467"><ele>455.66</ele></trkpt>
<trkpt lat="37.0517965" lon="139.0184732"><ele>455.06</ele></trkpt>
<trkpt lat="37.0519501" lon="139.01848800000002"><ele>454.09</ele></trkpt>
<trkpt lat="37.0522181" lon="139.01848300000003"><ele>452.39</ele></trkpt>
<trkpt lat="37.0523412" lon="139.0185018"><ele>451.63</ele></trkpt>
<trkpt lat="37.0524333" lon="139.0185304"><ele>451.06</ele></trkpt>
<trkpt lat="37.0524788" lon="139.0185537"><ele>450.78</ele></trkpt>
<trkpt lat="37.0525628" lon="139.0186222"><ele>450.21</ele></trkpt>
<trkpt lat="37.0526733" lon="139.01874759999998"><ele>449.42</ele></trkpt>
<trkpt lat="37.0528433" lon="139.0190156"><ele>448.14</ele></trkpt>
<trkpt lat="37.0530588" lon="139.019358"><ele>446.77</ele></trkpt>
<trkpt lat="37.0534074" lon="139.0199069"><ele>444.91</ele></trkpt>
<trkpt lat="37.0534878" lon="139.0200116"><ele>444.54</ele></trkpt>
<trkpt lat="37.0536002" lon="139.0200945"><ele>444.14</ele></trkpt>
<trkpt lat="37.0536961" lon="139.0201378"><ele>443.83</ele></trkpt>
<trkpt lat="37.05412890000001" lon="139.0202496"><ele>442.73</ele></trkpt>
<trkpt lat="37.054574" lon="139.0203623"><ele>442.48</ele></trkpt>
<trkpt lat="37.0546994" lon="139.0204221"><ele>442.67</ele></trkpt>
<trkpt lat="37.0547664" lon="139.0204738"><ele>442.86</ele></trkpt>
<trkpt lat="37.0548228" lon="139.02054060000003"><ele>443.09</ele></trkpt>
<trkpt lat="37.0548656" lon="139.0206078"><ele>443.34</ele></trkpt>
<trkpt lat="37.0549007" lon="139.02069"><ele>443.66</ele></trkpt>
<trkpt lat="37.0549355" lon="139.0208371"><ele>444.29</ele></trkpt>
<trkpt lat="37.0549326" lon="139.0209965"><ele>445.07</ele></trkpt>
<trkpt lat="37.0549018" lon="139.0211899"><ele>446.19</ele></trkpt>
<trkpt lat="37.0548378" lon="139.021542"><ele>448.55</ele></trkpt>
<trkpt lat="37.0547215" lon="139.022188"><ele>453.15</ele></trkpt>
<trkpt lat="37.0547008" lon="139.0223887"><ele>454.44</ele></trkpt>
<trkpt lat="37.054695" lon="139.0224998"><ele>455.11</ele></trkpt>
<trkpt lat="37.054692" lon="139.0230112"><ele>457.75</ele></trkpt>
<trkpt lat="37.0546906" lon="139.0232669"><ele>458.8</ele></trkpt>
<trkpt lat="37.0547336" lon="139.0236254"><ele>459.98</ele></trkpt>
<trkpt lat="37.0547709" lon="139.0238259"><ele>460.49</ele></trkpt>
<trkpt lat="37.054909599999995" lon="139.0244015"><ele>461.51</ele></trkpt>
<trkpt lat="37.0550483" lon="139.0249772"><ele>461.9</ele></trkpt>
<trkpt lat="37.055187" lon="139.0255529"><ele>461.57</ele></trkpt>
<trkpt lat="37.055325700000004" lon="139.02612859999996"><ele>460.28</ele></trkpt>
<trkpt lat="37.0554388" lon="139.0265933"><ele>458.46</ele></trkpt>
<trkpt lat="37.0554768" lon="139.0267255"><ele>457.8</ele></trkpt>
<trkpt lat="37.055515" lon="139.0268254"><ele>457.24</ele></trkpt>
<trkpt lat="37.0555868" lon="139.0269392"><ele>456.47</ele></trkpt>
<trkpt lat="37.0556962" lon="139.0270657"><ele>455.44</ele></trkpt>
<trkpt lat="37.056086799999996" lon="139.0274998"><ele>452.04</ele></trkpt>
<trkpt lat="37.0561474" lon="139.0275725"><ele>451.59</ele></trkpt>
<trkpt lat="37.0562078" lon="139.027673"><ele>451.12</ele></trkpt>
<trkpt lat="37.0562358" lon="139.0277514"><ele>450.84</ele></trkpt>
<trkpt lat="37.0562473" lon="139.0278391"><ele>450.6</ele></trkpt>
<trkpt lat="37.056233" lon="139.0279881"><ele>450.27</ele></trkpt>
<trkpt lat="37.0561583" lon="139.0283781"><ele>449.91</ele></trkpt>
<trkpt lat="37.0561112" lon="139.0286301"><ele>449.98</ele></trkpt>
<trkpt lat="37.0560913" lon="139.02880030000003"><ele>450.14</ele></trkpt>
<trkpt lat="37.0560807" lon="139.029062"><ele>450.49</ele></trkpt>
<trkpt lat="37.05608660000001" lon="139.02933550000003"><ele>450.87</ele></trkpt>
<trkpt lat="37.0561096" lon="139.02954129999998"><ele>451.11</ele></trkpt>
<trkpt lat="37.0561613" lon="139.0297877"><ele>451.27</ele></trkpt>
<trkpt lat="37.05622159999999" lon="139.0299802"><ele>451.28</ele></trkpt>
<trkpt lat="37.0562905" lon="139.0301493"><ele>451.16</ele></trkpt>
<trkpt lat="37.05640509999999" lon="139.0303929"><ele>450.83</ele></trkpt>
<trkpt lat="37.056615" lon="139.0308397"><ele>449.92</ele></trkpt>
<trkpt lat="37.0566752" lon="139.03100269999996"><ele>449.58</ele></trkpt>
<trkpt lat="37.05668670000001" lon="139.0310884"><ele>449.42</ele></trkpt>
<trkpt lat="37.0566766" lon="139.0312213"><ele>449.18</ele></trkpt>
<trkpt lat="37.056638099999994" lon="139.03138769999998"><ele>448.9</ele></trkpt>
<trkpt lat="37.056543" lon="139.0317506"><ele>448.43</ele></trkpt>
<trkpt lat="37.056502699999996" lon="139.0320422"><ele>448.2</ele></trkpt>
<trkpt lat="37.0565006" lon="139.0323101"><ele>448.1</ele></trkpt>
<trkpt lat="37.0565063" lon="139.0324075"><ele>448.08</ele></trkpt>
<trkpt lat="37.0565313" lon="139.032638"><ele>448.08</ele></trkpt>
<trkpt lat="37.05666" lon="139.0332149"><ele>448.26</ele></trkpt>
<trkpt lat="37.05678060000001" lon="139.0335989"><ele>448.5</ele></trkpt>
<trkpt lat="37.05695000000001" lon="139.03398"><ele>448.89</ele></trkpt>
<trkpt lat="37.0571404" lon="139.034319"><ele>449.49</ele></trkpt>
<trkpt lat="37.05746490000001" lon="139.03480160000004"><ele>450.92</ele></trkpt>
<trkpt lat="37.0576271" lon="139.03504289999998"><ele>451.89</ele></trkpt>
<trkpt lat="37.0577887" lon="139.0352777"><ele>452.97</ele></trkpt>
<trkpt lat="37.05786719999999" lon="139.0353284"><ele>453.39</ele></trkpt>
<trkpt lat="37.0582018" lon="139.035345"><ele>455.04</ele></trkpt>
<trkpt lat="37.0582347" lon="139.0353283"><ele>455.21</ele></trkpt>
<trkpt lat="37.0582552" lon="139.0352924"><ele>455.38</ele></trkpt>
<trkpt lat="37.0582845" lon="139.0349393"><ele>456.69</ele></trkpt>
<trkpt lat="37.0583081" lon="139.03467940000002"><ele>457.51</ele></trkpt>
<trkpt lat="37.0583067" lon="139.03459760000004"><ele>457.73</ele></trkpt>
<trkpt lat="37.0582899" lon="139.0344983"><ele>457.98</ele></trkpt>
<trkpt lat="37.058226" lon="139.0343192"><ele>458.37</ele></trkpt>
<trkpt lat="37.0581556" lon="139.0341515"><ele>458.64</ele></trkpt>
<trkpt lat="37.0581358" lon="139.034089"><ele>458.7</ele></trkpt>
<trkpt lat="37.0581117" lon="139.03397010000003"><ele>458.79</ele></trkpt>
<trkpt lat="37.0581059" lon="139.03388439999998"><ele>458.82</ele></trkpt>
<trkpt lat="37.0581178" lon="139.03378589999997"><ele>458.84</ele></trkpt>
<trkpt lat="37.058160799999996" lon="139.03358550000002"><ele>458.8</ele></trkpt>
<trkpt lat="37.0581746" lon="139.0334589"><ele>458.73</ele></trkpt>
<trkpt lat="37.05817999999999" lon="139.033266"><ele>458.59</ele></trkpt>
<trkpt lat="37.0581869" lon="139.0329646"><ele>458.34</ele></trkpt>
<trkpt lat="37.0582066" lon="139.0328844"><ele>458.27</ele></trkpt>
<trkpt lat="37.0582507" lon="139.0328106"><ele>458.19</ele></trkpt>
<trkpt lat="37.0583037" lon="139.0327517"><ele>458.13</ele></trkpt>
<trkpt lat="37.058376800000005" lon="139.0326971"><ele>458.06</ele></trkpt>
<trkpt lat="37.05871069999999" lon="139.0325015"><ele>457.91</ele></trkpt>
<trkpt lat="37.0587714" lon="139.0324753"><ele>457.91</ele></trkpt>
<trkpt lat="37.0588501" lon="139.0324631"><ele>457.93</ele></trkpt>
<trkpt lat="37.0590272" lon="139.03246609999997"><ele>457.99</ele></trkpt>
<trkpt lat="37.0591102" lon="139.0324191"><ele>458.04</ele></trkpt>
<trkpt lat="37.0591865" lon="139.0321958"><ele>458.17</ele></trkpt>
<trkpt lat="37.059283" lon="139.03181759999998"><ele>458.38</ele></trkpt>
<trkpt lat="37.0592643" lon="139.0317429"><ele>458.42</ele></trkpt>
<trkpt lat="37.0591963" lon="139.0316981"><ele>458.46</ele></trkpt>
<trkpt lat="37.0591007" lon="139.0316499"><ele>458.5</ele></trkpt>
<trkpt lat="37.0588885" lon="139.0315742"><ele>458.56</ele></trkpt>
<trkpt lat="37.0587997" lon="139.03155619999998"><ele>458.58</ele></trkpt>
<trkpt lat="37.0587165" lon="139.0315558"><ele>458.59</ele></trkpt>
<trkpt lat="37.05851199999999" lon="139.0315806"><ele>458.62</ele></trkpt>
<trkpt lat="37.058429000000004" lon="139.0315752"><ele>458.64</ele></trkpt>
<trkpt lat="37.0583515" lon="139.0315483"><ele>458.67</ele></trkpt>
<trkpt lat="37.0582717" lon="139.0314955"><ele>458.72</ele></trkpt>
<trkpt lat="37.0582172" lon="139.0314397"><ele>458.77</ele></trkpt>
<trkpt lat="37.0580356" lon="139.0312056"><ele>459.1</ele></trkpt>
<trkpt lat="37.0579744" lon="139.03114020000004"><ele>459.26</ele></trkpt>
<trkpt lat="37.0578805" lon="139.0310543"><ele>459.53</ele></trkpt>
<trkpt lat="37.0576767" lon="139.0309066"><ele>460.29</ele></trkpt>
<trkpt lat="37.0576137" lon="139.03085450000003"><ele>460.58</ele></trkpt>
<trkpt lat="37.0575638" lon="139.0307892"><ele>460.89</ele></trkpt>
<trkpt lat="37.057408" lon="139.0305164"><ele>462.21</ele></trkpt>
<trkpt lat="37.0573785" lon="139.0304455"><ele>462.56</ele></trkpt>
<trkpt lat="37.0573644" lon="139.0303792"><ele>462.87</ele></trkpt>
<trkpt lat="37.0573613" lon="139.0302979"><ele>463.24</ele></trkpt>
<trkpt lat="37.0573683" lon="139.03023659999997"><ele>463.52</ele></trkpt>
<trkpt lat="37.057408" lon="139.0300906"><ele>464.23</ele></trkpt>
<trkpt lat="37.0574538" lon="139.029948"><ele>464.93</ele></trkpt>
<trkpt lat="37.0574784" lon="139.0298432"><ele>465.4</ele></trkpt>
<trkpt lat="37.0574928" lon="139.029693"><ele>466.02</ele></trkpt>
<trkpt lat="37.0574984" lon="139.0294987"><ele>466.73</ele></trkpt>
<trkpt lat="37.0574847" lon="139.0293056"><ele>467.31</ele></trkpt>
<trkpt lat="37.0574414" lon="139.0290144"><ele>467.95</ele></trkpt>
<trkpt lat="37.0573981" lon="139.0287231"><ele>468.26</ele></trkpt>
<trkpt lat="37.057349800000004" lon="139.02837119999998"><ele>468.12</ele></trkpt>
<trkpt lat="37.0573427" lon="139.0282272"><ele>467.89</ele></trkpt>
<trkpt lat="37.0573431" lon="139.0281174"><ele>467.66</ele></trkpt>
<trkpt lat="37.057363699999996" lon="139.0280068"><ele>467.36</ele></trkpt>
<trkpt lat="37.0574014" lon="139.02786670000003"><ele>466.91</ele></trkpt>
<trkpt lat="37.0574288" lon="139.0277203"><ele>466.37</ele></trkpt>
<trkpt lat="37.057467700000004" lon="139.0273486"><ele>464.82</ele></trkpt>
<trkpt lat="37.057466500000004" lon="139.02718240000002"><ele>464.08</ele></trkpt>
<trkpt lat="37.0574462" lon="139.0270805"><ele>463.62</ele></trkpt>
<trkpt lat="37.0574156" lon="139.02701449999998"><ele>463.29</ele></trkpt>
<trkpt lat="37.0573796" lon="139.02696560000004"><ele>463</ele></trkpt>
<trkpt lat="37.057052799999994" lon="139.02659160000002"><ele>460.99</ele></trkpt>
<trkpt lat="37.0569786" lon="139.0264884"><ele>460.65</ele></trkpt>
<trkpt lat="37.0569527" lon="139.0264224"><ele>460.5</ele></trkpt>
<trkpt lat="37.056937" lon="139.0263387"><ele>460.35</ele></trkpt>
<trkpt lat="37.05693649999999" lon="139.02626599999996"><ele>460.26</ele></trkpt>
<trkpt lat="37.056948999999996" lon="139.02619140000002"><ele>460.19</ele></trkpt>
<trkpt lat="37.0569904" lon="139.0261023"><ele>460.13</ele></trkpt>
<trkpt lat="37.0571832" lon="139.0258423"><ele>460.32</ele></trkpt>
<trkpt lat="37.0572285" lon="139.0257788"><ele>460.45</ele></trkpt>
<trkpt lat="37.0573095" lon="139.025636"><ele>460.79</ele></trkpt>
<trkpt lat="37.057334899999994" lon="139.02557980000003"><ele>460.94</ele></trkpt>
<trkpt lat="37.05755" lon="139.0250304"><ele>462.78</ele></trkpt>
<trkpt lat="37.0575868" lon="139.0249285"><ele>463.15</ele></trkpt>
<trkpt lat="37.0576373" lon="139.0246877"><ele>463.91</ele></trkpt>
<trkpt lat="37.0576497" lon="139.02446599999996"><ele>464.5</ele></trkpt>
<trkpt lat="37.0576473" lon="139.02434"><ele>464.78</ele></trkpt>
<trkpt lat="37.0576282" lon="139.02419039999998"><ele>465.04</ele></trkpt>
<trkpt lat="37.0575282" lon="139.0238551"><ele>465.34</ele></trkpt>
<trkpt lat="37.0573887" lon="139.0235525"><ele>465.2</ele></trkpt>
<trkpt lat="37.0572911" lon="139.0233431"><ele>464.87</ele></trkpt>
<trkpt lat="37.0570819" lon="139.0229086"><ele>463.79</ele></trkpt>
<trkpt lat="37.0570453" lon="139.0227985"><ele>463.5</ele></trkpt>
<trkpt lat="37.0570279" lon="139.0226733"><ele>463.2</ele></trkpt>
<trkpt lat="37.0569996" lon="139.0223796"><ele>462.57</ele></trkpt>
<trkpt lat="37.0569773" lon="139.0221019"><ele>462.11</ele></trkpt>
<trkpt lat="37.0569391" lon="139.0215673"><ele>461.81</ele></trkpt>
<trkpt lat="37.0569207" lon="139.0212983"><ele>461.99</ele></trkpt>
<trkpt lat="37.056912" lon="139.0209712"><ele>462.49</ele></trkpt>
<trkpt lat="37.0568885" lon="139.0206028"><ele>463.27</ele></trkpt>
<trkpt lat="37.0568485" lon="139.0203961"><ele>463.75</ele></trkpt>
<trkpt lat="37.0567311" lon="139.019909"><ele>464.66</ele></trkpt>
<trkpt lat="37.0566407" lon="139.0195353"><ele>464.97</ele></trkpt>
<trkpt lat="37.0566229" lon="139.0194528"><ele>464.97</ele></trkpt>
<trkpt lat="37.0566134" lon="139.01934140000003"><ele>464.93</ele></trkpt>
<trkpt lat="37.056624" lon="139.01927380000004"><ele>464.89</ele></trkpt>
<trkpt lat="37.0566766" lon="139.0191264"><ele>464.72</ele></trkpt>
<trkpt lat="37.0567057" lon="139.0190091"><ele>464.52</ele></trkpt>
<trkpt lat="37.0567031" lon="139.0188815"><ele>464.27</ele></trkpt>
<trkpt lat="37.056675" lon="139.0187864"><ele>464.03</ele></trkpt>
<trkpt lat="37.0566233" lon="139.0187003"><ele>463.74</ele></trkpt>
<trkpt lat="37.05653" lon="139.018581"><ele>463.23</ele></trkpt>
<trkpt lat="37.0564739" lon="139.0185279"><ele>462.94</ele></trkpt>
<trkpt lat="37.056424" lon="139.01849739999997"><ele>462.7</ele></trkpt>
<trkpt lat="37.0563533" lon="139.018475"><ele>462.37</ele></trkpt>
<trkpt lat="37.0563047" lon="139.0184731"><ele>462.14</ele></trkpt>
<trkpt lat="37.0561802" lon="139.018496"><ele>461.52</ele></trkpt>
<trkpt lat="37.0560893" lon="139.0184957"><ele>461.06</ele></trkpt>
<trkpt lat="37.0560125" lon="139.01846449999996"><ele>460.64</ele></trkpt>
<trkpt lat="37.0559262" lon="139.0183739"><ele>460.03</ele></trkpt>
<trkpt lat="37.0558826" lon="139.0182993"><ele>459.64</ele></trkpt>
<trkpt lat="37.0557053" lon="139.0179116"><ele>457.68</ele></trkpt>
<trkpt lat="37.05560899999999" lon="139.0177044"><ele>456.62</ele></trkpt>
<trkpt lat="37.0555427" lon="139.017604"><ele>456.04</ele></trkpt>
<trkpt lat="37.0554982" lon="139.017565"><ele>455.73</ele></trkpt>
<trkpt lat="37.0554183" lon="139.01753389999996"><ele>455.27</ele></trkpt>
<trkpt lat="37.0553209" lon="139.0175396"><ele>454.72</ele></trkpt>
<trkpt lat="37.05525620000001" lon="139.0175731"><ele>454.33</ele></trkpt>
<trkpt lat="37.0551154" lon="139.017711"><ele>453.33</ele></trkpt>
<trkpt lat="37.0550387" lon="139.017771"><ele>452.83</ele></trkpt>
<trkpt lat="37.054983" lon="139.0177923"><ele>452.51</ele></trkpt>
<trkpt lat="37.054928999999994" lon="139.0177942"><ele>452.21</ele></trkpt>
<trkpt lat="37.0548411" lon="139.0177661"><ele>451.7</ele></trkpt>
<trkpt lat="37.054789" lon="139.0177284"><ele>451.37</ele></trkpt>
<trkpt lat="37.0547492" lon="139.0176838"><ele>451.08</ele></trkpt>
<trkpt lat="37.0546933" lon="139.0175694"><ele>450.49</ele></trkpt>
<trkpt lat="37.0546201" lon="139.0172305"><ele>448.99</ele></trkpt>
<trkpt lat="37.054596" lon="139.0171309"><ele>448.56</ele></trkpt>
<trkpt lat="37.0545688" lon="139.0170619"><ele>448.24</ele></trkpt>
<trkpt lat="37.0544854" lon="139.0169243"><ele>447.54</ele></trkpt>
<trkpt lat="37.0543595" lon="139.0168003"><ele>446.76</ele></trkpt>
<trkpt lat="37.0540542" lon="139.0165356"><ele>445.1</ele></trkpt>
<trkpt lat="37.053931999999996" lon="139.0164327"><ele>444.53</ele></trkpt>
<trkpt lat="37.0536985" lon="139.016242"><ele>443.64</ele></trkpt>
<trkpt lat="37.0534196" lon="139.0160108"><ele>442.96</ele></trkpt>
<trkpt lat="37.053354" lon="139.01592650000003"><ele>442.87</ele></trkpt>
<trkpt lat="37.0533161" lon="139.0158196"><ele>442.83</ele></trkpt>
<trkpt lat="37.0533064" lon="139.0157306"><ele>442.84</ele></trkpt>
<trkpt lat="37.0533156" lon="139.01565170000003"><ele>442.87</ele></trkpt>
<trkpt lat="37.05333809999999" lon="139.0155718"><ele>442.93</ele></trkpt>
<trkpt lat="37.0534282" lon="139.0153101"><ele>443.31</ele></trkpt>
<trkpt lat="37.0534439" lon="139.0152295"><ele>443.48</ele></trkpt>
<trkpt lat="37.0534416" lon="139.0151078"><ele>443.78</ele></trkpt>
<trkpt lat="37.053405" lon="139.014955"><ele>444.26</ele></trkpt>
<trkpt lat="37.05336520000001" lon="139.0147598"><ele>445.01</ele></trkpt>
<trkpt lat="37.05336700000001" lon="139.0146851"><ele>445.33</ele></trkpt>
<trkpt lat="37.0533852" lon="139.0145821"><ele>445.81</ele></trkpt>
<trkpt lat="37.0534294" lon="139.0144648"><ele>446.46</ele></trkpt>
<trkpt lat="37.0535811" lon="139.0141155"><ele>448.78</ele></trkpt>
<trkpt lat="37.05363220000001" lon="139.01403299999998"><ele>449.46</ele></trkpt>
<trkpt lat="37.053678" lon="139.0139857"><ele>449.97</ele></trkpt>
<trkpt lat="37.05376759999999" lon="139.0139343"><ele>450.83</ele></trkpt>
<trkpt lat="37.0539727" lon="139.01388449999996"><ele>452.74</ele></trkpt>
<trkpt lat="37.0541148" lon="139.0138115"><ele>454.21</ele></trkpt>
<trkpt lat="37.0543675" lon="139.0136758"><ele>456.87</ele></trkpt>
<trkpt lat="37.05459290000001" lon="139.0135578"><ele>459.2</ele></trkpt>
<trkpt lat="37.054944500000005" lon="139.0133742"><ele>462.51</ele></trkpt>
<trkpt lat="37.0550435" lon="139.0133086"><ele>463.35</ele></trkpt>
<trkpt lat="37.05514240000001" lon="139.0131734"><ele>464.33</ele></trkpt>
<trkpt lat="37.0551694" lon="139.0130706"><ele>464.83</ele></trkpt>
<trkpt lat="37.055164" lon="139.0129506"><ele>465.31</ele></trkpt>
<trkpt lat="37.0551443" lon="139.0128691"><ele>465.61</ele></trkpt>
<trkpt lat="37.0551057" lon="139.01279439999996"><ele>465.87</ele></trkpt>
<trkpt lat="37.0550561" lon="139.012741"><ele>466.07</ele></trkpt>
<trkpt lat="37.0549464" lon="139.0126785"><ele>466.33</ele></trkpt>
<trkpt lat="37.054625" lon="139.0125345"><ele>466.34</ele></trkpt>
<trkpt lat="37.05454520000001" lon="139.0124838"><ele>466.18</ele></trkpt>
<trkpt lat="37.0544759" lon="139.0124193"><ele>465.95</ele></trkpt>
<trkpt lat="37.0544226" lon="139.0123376"><ele>465.66</ele></trkpt>
<trkpt lat="37.0543806" lon="139.0122399"><ele>465.31</ele></trkpt>
<trkpt lat="37.0543486" lon="139.0121388"><ele>464.9</ele></trkpt>
<trkpt lat="37.0542889" lon="139.01188549999998"><ele>463.73</ele></trkpt>
<trkpt lat="37.0541698" lon="139.0113797"><ele>460.95</ele></trkpt>
<trkpt lat="37.0540268" lon="139.0107921"><ele>457.69</ele></trkpt>
<trkpt lat="37.0539829" lon="139.0106114"><ele>456.83</ele></trkpt>
<trkpt lat="37.05396120000001" lon="139.01049969999997"><ele>456.36</ele></trkpt>
<trkpt lat="37.0539568" lon="139.0103999"><ele>456</ele></trkpt>
<trkpt lat="37.0539706" lon="139.01031580000003"><ele>455.71</ele></trkpt>
<trkpt lat="37.0539924" lon="139.0102569"><ele>455.51</ele></trkpt>
<trkpt lat="37.0540651" lon="139.0101394"><ele>455.11</ele></trkpt>
<trkpt lat="37.054328100000006" lon="139.0098007"><ele>454.33</ele></trkpt>
<trkpt lat="37.05447950000001" lon="139.0095758"><ele>454.09</ele></trkpt>
<trkpt lat="37.0547713" lon="139.0091847"><ele>453.8</ele></trkpt>
<trkpt lat="37.0548016" lon="139.0090947"><ele>453.74</ele></trkpt>
<trkpt lat="37.05481149999999" lon="139.00897"><ele>453.65</ele></trkpt>
<trkpt lat="37.0547995" lon="139.0089023"><ele>453.59</ele></trkpt>
<trkpt lat="37.0547778" lon="139.0088483"><ele>453.54</ele></trkpt>
<trkpt lat="37.0547073" lon="139.0087543"><ele>453.42</ele></trkpt>
<trkpt lat="37.0546047" lon="139.0086895"><ele>453.27</ele></trkpt>
<trkpt lat="37.0543554" lon="139.0085707"><ele>452.87</ele></trkpt>
<trkpt lat="37.0542735" lon="139.00851309999996"><ele>452.73</ele></trkpt>
<trkpt lat="37.0542325" lon="139.0084585"><ele>452.64</ele></trkpt>
<trkpt lat="37.0541849" lon="139.0083451"><ele>452.48</ele></trkpt>
<trkpt lat="37.0541727" lon="139.008266"><ele>452.39</ele></trkpt>
<trkpt lat="37.05417700000001" lon="139.00818520000004"><ele>452.3</ele></trkpt>
<trkpt lat="37.0542031" lon="139.0080757"><ele>452.18</ele></trkpt>
<trkpt lat="37.0543485" lon="139.0076597"><ele>451.72</ele></trkpt>
<trkpt lat="37.0543961" lon="139.00749969999998"><ele>451.54</ele></trkpt>
<trkpt lat="37.0544092" lon="139.0074068"><ele>451.43</ele></trkpt>
<trkpt lat="37.0544373" lon="139.00713539999998"><ele>451.04</ele></trkpt>
<trkpt lat="37.0544552" lon="139.0070348"><ele>450.85</ele></trkpt>
<trkpt lat="37.0544993" lon="139.0069261"><ele>450.6</ele></trkpt>
<trkpt lat="37.0546101" lon="139.00674400000003"><ele>450</ele></trkpt>
<trkpt lat="37.0546659" lon="139.00662610000003"><ele>449.56</ele></trkpt>
<trkpt lat="37.0546905" lon="139.0065102"><ele>449.12</ele></trkpt>
<trkpt lat="37.0547558" lon="139.00629670000004"><ele>448.14</ele></trkpt>
<trkpt lat="37.0548018" lon="139.0062103"><ele>447.64</ele></trkpt>
<trkpt lat="37.0549578" lon="139.0059594"><ele>445.95</ele></trkpt>
<trkpt lat="37.0550101" lon="139.00584010000003"><ele>445.16</ele></trkpt>
<trkpt lat="37.0550335" lon="139.00574840000002"><ele>444.6</ele></trkpt>
<trkpt lat="37.055041599999996" lon="139.005617"><ele>443.83</ele></trkpt>
<trkpt lat="37.0550498" lon="139.0049891"><ele>440.58</ele></trkpt>
<trkpt lat="37.0550567" lon="139.0049006"><ele>440.23</ele></trkpt>
<trkpt lat="37.055095200000004" lon="139.0047958"><ele>439.83</ele></trkpt>
<trkpt lat="37.0551468" lon="139.0047278"><ele>439.56</ele></trkpt>
<trkpt lat="37.0552057" lon="139.0046832"><ele>439.35</ele></trkpt>
<trkpt lat="37.0554378" lon="139.0045557"><ele>438.9</ele></trkpt>
<trkpt lat="37.0555199" lon="139.00448179999998"><ele>438.85</ele></trkpt>
<trkpt lat="37.0555699" lon="139.0043902"><ele>438.86</ele></trkpt>
<trkpt lat="37.0555912" lon="139.0043079"><ele>438.9</ele></trkpt>
<trkpt lat="37.0555922" lon="139.0042436"><ele>438.95</ele></trkpt>
<trkpt lat="37.055546" lon="139.0039147"><ele>439.33</ele></trkpt>
<trkpt lat="37.055547" lon="139.0038153"><ele>439.47</ele></trkpt>
<trkpt lat="37.0556139" lon="139.0033457"><ele>440.07</ele></trkpt>
<trkpt lat="37.0556812" lon="139.00288980000002"><ele>440.21</ele></trkpt>
<trkpt lat="37.0557874" lon="139.00239030000003"><ele>439.51</ele></trkpt>
<trkpt lat="37.0558405" lon="139.002155"><ele>438.81</ele></trkpt>
<trkpt lat="37.05587479999999" lon="139.0020546"><ele>438.42</ele></trkpt>
<trkpt lat="37.055969" lon="139.00190239999998"><ele>437.63</ele></trkpt>
<trkpt lat="37.05602269999999" lon="139.0018491"><ele>437.23</ele></trkpt>
<trkpt lat="37.0561184" lon="139.0017867"><ele>436.55</ele></trkpt>
<trkpt lat="37.0563055" lon="139.0017057"><ele>435.16</ele></trkpt>
<trkpt lat="37.0567994" lon="139.0014517"><ele>430.66</ele></trkpt>
<trkpt lat="37.0574029" lon="139.00120149999998"><ele>424.5</ele></trkpt>
<trkpt lat="37.0575065" lon="139.0011344"><ele>423.34</ele></trkpt>
<trkpt lat="37.057747799999994" lon="139.000948"><ele>420.53</ele></trkpt>
<trkpt lat="37.0578008" lon="139.000912"><ele>419.94</ele></trkpt>
<trkpt lat="37.0579099" lon="139.0008758"><ele>418.84</ele></trkpt>
<trkpt lat="37.05798" lon="139.0008848"><ele>418.16</ele></trkpt>
<trkpt lat="37.0580783" lon="139.0009394"><ele>417.14</ele></trkpt>
<trkpt lat="37.0583703" lon="139.00123559999997"><ele>413.7</ele></trkpt>
<trkpt lat="37.0585007" lon="139.0013142"><ele>412.42</ele></trkpt>
<trkpt lat="37.0585502" lon="139.0013244"><ele>411.99</ele></trkpt>
<trkpt lat="37.0586119" lon="139.0013111"><ele>411.45</ele></trkpt>
<trkpt lat="37.0586531" lon="139.0012793"><ele>411.04</ele></trkpt>
<trkpt lat="37.0586813" lon="139.0012375"><ele>410.67</ele></trkpt>
<trkpt lat="37.058707" lon="139.00112969999998"><ele>409.93</ele></trkpt>
<trkpt lat="37.0586958" lon="139.0010606"><ele>409.47</ele></trkpt>
<trkpt lat="37.0586528" lon="139.0009946"><ele>408.92</ele></trkpt>
<trkpt lat="37.0585682" lon="139.0009158"><ele>408.09</ele></trkpt>
<trkpt lat="37.0582886" lon="139.0007095"><ele>405.63</ele></trkpt>
<trkpt lat="37.0581599" lon="139.0006213"><ele>404.57</ele></trkpt>
<trkpt lat="37.058086" lon="139.0005806"><ele>404</ele></trkpt>
<trkpt lat="37.058" lon="139.0005513"><ele>403.37</ele></trkpt>
<trkpt lat="37.0579208" lon="139.0005447"><ele>402.83</ele></trkpt>
<trkpt lat="37.057749400000006" lon="139.0005825"><ele>401.66</ele></trkpt>
<trkpt lat="37.0574008" lon="139.0006797"><ele>399.33</ele></trkpt>
<trkpt lat="37.0569883" lon="139.0007912"><ele>396.58</ele></trkpt>
<trkpt lat="37.05681690000001" lon="139.0008126"><ele>395.42</ele></trkpt>
<trkpt lat="37.0567468" lon="139.0007878"><ele>394.91</ele></trkpt>
<trkpt lat="37.0567046" lon="139.0007206"><ele>394.43</ele></trkpt>
<trkpt lat="37.0566982" lon="139.0006558"><ele>394.05</ele></trkpt>
<trkpt lat="37.0567308" lon="139.0005683"><ele>393.49</ele></trkpt>
<trkpt lat="37.05678120000001" lon="139.00052589999999"><ele>393.03</ele></trkpt>
<trkpt lat="37.05682019999999" lon="139.0005092"><ele>392.72</ele></trkpt>
<trkpt lat="37.0569794" lon="139.0004613"><ele>391.42</ele></trkpt>
<trkpt lat="37.0574223" lon="139.0003574"><ele>387.38</ele></trkpt>
<trkpt lat="37.0575109" lon="139.0003271"><ele>386.45</ele></trkpt>
<trkpt lat="37.0576064" lon="139.00028309999996"><ele>385.38</ele></trkpt>
<trkpt lat="37.0577401" lon="139.0001943"><ele>383.71</ele></trkpt>
<trkpt lat="37.0581087" lon="138.9998246"><ele>377.89</ele></trkpt>
<trkpt lat="37.0584122" lon="138.9994635"><ele>372.15</ele></trkpt>
<trkpt lat="37.0584574" lon="138.9993803"><ele>371.01</ele></trkpt>
<trkpt lat="37.05848079999999" lon="138.9992899"><ele>369.92</ele></trkpt>
<trkpt lat="37.058474" lon="138.99914969999998"><ele>368.3</ele></trkpt>
<trkpt lat="37.058426" lon="138.99903180000004"><ele>366.76</ele></trkpt>
<trkpt lat="37.0583445" lon="138.9989522"><ele>365.26</ele></trkpt>
<trkpt lat="37.0582495" lon="138.9989145"><ele>363.81</ele></trkpt>
<trkpt lat="37.058201" lon="138.9989145"><ele>363.1</ele></trkpt>
<trkpt lat="37.0581206" lon="138.9989345"><ele>361.92</ele></trkpt>
<trkpt lat="37.05802" lon="138.99898419999997"><ele>360.36</ele></trkpt>
<trkpt lat="37.0577017" lon="138.9991566"><ele>355.43</ele></trkpt>
<trkpt lat="37.0572185" lon="138.9994178"><ele>348.16</ele></trkpt>
<trkpt lat="37.057159" lon="138.9994436"><ele>347.31</ele></trkpt>
<trkpt lat="37.0571096" lon="138.9994512"><ele>346.64</ele></trkpt>
<trkpt lat="37.05703200000001" lon="138.9994263"><ele>345.57</ele></trkpt>
<trkpt lat="37.05698230000001" lon="138.9993775"><ele>344.73</ele></trkpt>
<trkpt lat="37.0569464" lon="138.9993063"><ele>343.84</ele></trkpt>
<trkpt lat="37.0569361" lon="138.9992396"><ele>343.13</ele></trkpt>
<trkpt lat="37.0569535" lon="138.9991424"><ele>342.1</ele></trkpt>
<trkpt lat="37.0569782" lon="138.9990892"><ele>341.47</ele></trkpt>
<trkpt lat="37.0571476" lon="138.99883739999999"><ele>338.19</ele></trkpt>
<trkpt lat="37.0571768" lon="138.99877759999998"><ele>337.52</ele></trkpt>
<trkpt lat="37.057201500000005" lon="138.9986902"><ele>336.65</ele></trkpt>
<trkpt lat="37.0572094" lon="138.9985932"><ele>335.75</ele></trkpt>
<trkpt lat="37.0572035" lon="138.9984915"><ele>334.83</ele></trkpt>
<trkpt lat="37.0571885" lon="138.9984301"><ele>334.26</ele></trkpt>
<trkpt lat="37.0569826" lon="138.9979113"><ele>329.63</ele></trkpt>
<trkpt lat="37.056932" lon="138.99773"><ele>328.31</ele></trkpt>
<trkpt lat="37.0568613" lon="138.9974585"><ele>326.61</ele></trkpt>
<trkpt lat="37.0567905" lon="138.9970235"><ele>324.55</ele></trkpt>
<trkpt lat="37.05674900000001" lon="138.99676189999997"><ele>323.66</ele></trkpt>
<trkpt lat="37.0567305" lon="138.9963939"><ele>322.87</ele></trkpt>
<trkpt lat="37.0567531" lon="138.9959393"><ele>322.65</ele></trkpt>
<trkpt lat="37.0567873" lon="138.9956819"><ele>322.91</ele></trkpt>
<trkpt lat="37.0568464" lon="138.9952139"><ele>324.03</ele></trkpt>
<trkpt lat="37.05689850000001" lon="138.9948014"><ele>325.59</ele></trkpt>
<trkpt lat="37.0569499" lon="138.9943702"><ele>327.54</ele></trkpt>
<trkpt lat="37.0569768" lon="138.9941125"><ele>328.7</ele></trkpt>
<trkpt lat="37.0569754" lon="138.99403510000002"><ele>329.03</ele></trkpt>
<trkpt lat="37.0569602" lon="138.9939139"><ele>329.52</ele></trkpt>
<trkpt lat="37.0569287" lon="138.9937835"><ele>330.01</ele></trkpt>
<trkpt lat="37.056900600000006" lon="138.9937029"><ele>330.3</ele></trkpt>
<trkpt lat="37.0568564" lon="138.9936067"><ele>330.61</ele></trkpt>
<trkpt lat="37.0567779" lon="138.99348219999996"><ele>330.95</ele></trkpt>
<trkpt lat="37.0566909" lon="138.9933822"><ele>331.17</ele></trkpt>
<trkpt lat="37.0564536" lon="138.9931582"><ele>331.21</ele></trkpt>
<trkpt lat="37.0561582" lon="138.9928809"><ele>330.36</ele></trkpt>
<trkpt lat="37.055983" lon="138.9927158"><ele>329.48</ele></trkpt>
<trkpt lat="37.0554" lon="138.99214940000002"><ele>325.57</ele></trkpt>
<trkpt lat="37.0552276" lon="138.9919651"><ele>324.38</ele></trkpt>
<trkpt lat="37.0550266" lon="138.9917259"><ele>323.12</ele></trkpt>
<trkpt lat="37.0549173" lon="138.991658"><ele>322.65</ele></trkpt>
<trkpt lat="37.0548549" lon="138.9916886"><ele>322.42</ele></trkpt>
<trkpt lat="37.0548062" lon="138.991868"><ele>321.98</ele></trkpt>
<trkpt lat="37.0546609" lon="138.9922845"><ele>321.34</ele></trkpt>
<trkpt lat="37.0545716" lon="138.9925374"><ele>321.2</ele></trkpt>
<trkpt lat="37.0543932" lon="138.99304310000002"><ele>321.41</ele></trkpt>
<trkpt lat="37.054247499999995" lon="138.9934533"><ele>322.01</ele></trkpt>
<trkpt lat="37.0541893" lon="138.9936375"><ele>322.39</ele></trkpt>
<trkpt lat="37.0541685" lon="138.9938048"><ele>322.77</ele></trkpt>
<trkpt lat="37.0541787" lon="138.9939152"><ele>323.04</ele></trkpt>
<trkpt lat="37.054226" lon="138.9940623"><ele>323.45</ele></trkpt>
<trkpt lat="37.0543389" lon="138.9942157"><ele>324.05</ele></trkpt>
<trkpt lat="37.0545686" lon="138.99439139999998"><ele>325.1</ele></trkpt>
<trkpt lat="37.0547407" lon="138.9945197"><ele>325.95</ele></trkpt>
<trkpt lat="37.05504" lon="138.99472559999998"><ele>327.53</ele></trkpt>
<trkpt lat="37.05553870000001" lon="138.99506379999997"><ele>330.56</ele></trkpt>
<trkpt lat="37.0556462" lon="138.9951797"><ele>331.41</ele></trkpt>
<trkpt lat="37.055690000000006" lon="138.995284"><ele>332</ele></trkpt>
<trkpt lat="37.055704" lon="138.9954366"><ele>332.78</ele></trkpt>
<trkpt lat="37.0556873" lon="138.9957748"><ele>334.61</ele></trkpt>
<trkpt lat="37.0556592" lon="138.99592779999998"><ele>335.48</ele></trkpt>
<trkpt lat="37.0556373" lon="138.99601"><ele>335.97</ele></trkpt>
<trkpt lat="37.0555582" lon="138.9961761"><ele>337.08</ele></trkpt>
<trkpt lat="37.0554875" lon="138.9962467"><ele>337.73</ele></trkpt>
<trkpt lat="37.0554306" lon="138.9962763"><ele>338.17</ele></trkpt>
<trkpt lat="37.0553602" lon="138.9962885"><ele>338.68</ele></trkpt>
<trkpt lat="37.0552944" lon="138.9962773"><ele>339.15</ele></trkpt>
<trkpt lat="37.0552422" lon="138.9962537"><ele>339.55</ele></trkpt>
<trkpt lat="37.0551773" lon="138.9962055"><ele>340.08</ele></trkpt>
<trkpt lat="37.054745000000004" lon="138.9958319"><ele>343.64</ele></trkpt>
<trkpt lat="37.0545293" lon="138.99564720000004"><ele>345.27</ele></trkpt>
<trkpt lat="37.0544388" lon="138.9955998"><ele>345.86</ele></trkpt>
<trkpt lat="37.054359" lon="138.9956157"><ele>346.34</ele></trkpt>
<trkpt lat="37.0543021" lon="138.9956876"><ele>346.8</ele></trkpt>
<trkpt lat="37.0542957" lon="138.99578560000003"><ele>347.25</ele></trkpt>
<trkpt lat="37.05434650000001" lon="138.9958942"><ele>347.81</ele></trkpt>
<trkpt lat="37.0544487" lon="138.9959969"><ele>348.52</ele></trkpt>
</trkseg>
</trk></gpx>
