<?xml version="1.0" encoding="UTF-8"?>
<gpx version="1.1" creator="BikeTerra" xmlns="http://www.topografix.com/GPX/1/1" xmlns:biketerra="https://biketerra.com/xmlns/gpx/1">
    <metadata>
        <name>Trinidad &amp; Tobago 2026</name>
        <extensions>
            <biketerra:version>2.0.0</biketerra:version>
            <biketerra:isLoop>true</biketerra:isLoop>
            <biketerra:defaultSurface>asphalt</biketerra:defaultSurface>
        </extensions>
    </metadata>
    <trk>
        <name>Trinidad &amp; Tobago 2026</name>
        <trkseg>
            <trkpt lat="10.229745" lon="-61.532882"><ele>10</ele></trkpt>
            <trkpt lat="10.230043" lon="-61.532013"><ele>9.56</ele></trkpt>
            <trkpt lat="10.23022" lon="-61.53152"><ele>9.21</ele></trkpt>
            <trkpt lat="10.23038" lon="-61.531067"><ele>8.9</ele></trkpt>
            <trkpt lat="10.23055" lon="-61.530585"><ele>8.76</ele></trkpt>
            <trkpt lat="10.23064" lon="-61.53033"><ele>8.81</ele></trkpt>
            <trkpt lat="10.23082" lon="-61.52982"><ele>9.22</ele></trkpt>
            <trkpt lat="10.23089" lon="-61.529626"><ele>9.49</ele></trkpt>
            <trkpt lat="10.231099" lon="-61.529046"><ele>10.64</ele></trkpt>
            <trkpt lat="10.231162" lon="-61.528877"><ele>11.04</ele></trkpt>
            <trkpt lat="10.2313021" lon="-61.5285954"><ele>11.78</ele></trkpt>
            <trkpt lat="10.231369" lon="-61.528478"><ele>12.04</ele></trkpt>
            <trkpt lat="10.231491" lon="-61.528373"><ele>12.34</ele></trkpt>
            <trkpt lat="10.231546" lon="-61.528284"><ele>12.51</ele></trkpt>
            <trkpt lat="10.231556" lon="-61.528207"><ele>12.61</ele></trkpt>
            <trkpt lat="10.231539" lon="-61.52813"><ele>12.7</ele></trkpt>
            <trkpt lat="10.231498" lon="-61.52806"><ele>12.77</ele></trkpt>
            <trkpt lat="10.23143" lon="-61.528012"><ele>12.81</ele></trkpt>
            <trkpt lat="10.231334" lon="-61.527992"><ele>12.83</ele></trkpt>
            <trkpt lat="10.231254" lon="-61.528005"><ele>12.81</ele></trkpt>
            <trkpt lat="10.231191" lon="-61.528045"><ele>12.78</ele></trkpt>
            <trkpt lat="10.231143" lon="-61.528106"><ele>12.71</ele></trkpt>
            <trkpt lat="10.23112" lon="-61.528187"><ele>12.61</ele></trkpt>
            <trkpt lat="10.231128" lon="-61.528277"><ele>12.47</ele></trkpt>
            <trkpt lat="10.2311409" lon="-61.5284103"><ele>12.22</ele></trkpt>
            <trkpt lat="10.2311092" lon="-61.5288529"><ele>11.04</ele></trkpt>
            <trkpt lat="10.2310748" lon="-61.5290406"><ele>10.64</ele></trkpt>
            <trkpt lat="10.23089" lon="-61.529626"><ele>9.49</ele></trkpt>
            <trkpt lat="10.23082" lon="-61.52982"><ele>9.22</ele></trkpt>
            <trkpt lat="10.23064" lon="-61.53033"><ele>8.81</ele></trkpt>
            <trkpt lat="10.23055" lon="-61.530585"><ele>8.76</ele></trkpt>
            <trkpt lat="10.23038" lon="-61.531067"><ele>8.9</ele></trkpt>
            <trkpt lat="10.23022" lon="-61.53152"><ele>9.21</ele></trkpt>
            <trkpt lat="10.230043" lon="-61.532013"><ele>9.56</ele></trkpt>
            <trkpt lat="10.229745" lon="-61.532882"><ele>10</ele></trkpt>
            <trkpt lat="10.2295564" lon="-61.5333349"><ele>10.49</ele></trkpt>
            <trkpt lat="10.2293156" lon="-61.5339464"><ele>11.17</ele></trkpt>
            <trkpt lat="10.22889" lon="-61.53502"><ele>12.6</ele></trkpt>
            <trkpt lat="10.228612" lon="-61.53578"><ele>12.86</ele></trkpt>
            <trkpt lat="10.228391" lon="-61.536418"><ele>12.8</ele></trkpt>
            <trkpt lat="10.228234" lon="-61.536864"><ele>13.1</ele></trkpt>
            <trkpt lat="10.22814" lon="-61.53713"><ele>13.53</ele></trkpt>
            <trkpt lat="10.227959" lon="-61.537642"><ele>14.76</ele></trkpt>
            <trkpt lat="10.22781" lon="-61.538019"><ele>15.87</ele></trkpt>
            <trkpt lat="10.22764" lon="-61.53842"><ele>17.08</ele></trkpt>
            <trkpt lat="10.227449" lon="-61.538809"><ele>18.18</ele></trkpt>
            <trkpt lat="10.227183" lon="-61.53918"><ele>19.12</ele></trkpt>
            <trkpt lat="10.226949" lon="-61.53948"><ele>19.63</ele></trkpt>
            <trkpt lat="10.226827" lon="-61.539617"><ele>19.74</ele></trkpt>
            <trkpt lat="10.226578" lon="-61.539891"><ele>19.68</ele></trkpt>
            <trkpt lat="10.22628" lon="-61.540159"><ele>19.2</ele></trkpt>
            <trkpt lat="10.22593" lon="-61.540429"><ele>18.27</ele></trkpt>
            <trkpt lat="10.225346" lon="-61.540822"><ele>16.55</ele></trkpt>
            <trkpt lat="10.225121" lon="-61.540972"><ele>15.98</ele></trkpt>
            <trkpt lat="10.224649" lon="-61.541281"><ele>15.07</ele></trkpt>
            <trkpt lat="10.22411" lon="-61.54162"><ele>14.06</ele></trkpt>
            <trkpt lat="10.223959" lon="-61.541717"><ele>13.68</ele></trkpt>
            <trkpt lat="10.223503" lon="-61.542007"><ele>12.25</ele></trkpt>
            <trkpt lat="10.2229" lon="-61.542366"><ele>10.29</ele></trkpt>
            <trkpt lat="10.222497" lon="-61.542605"><ele>9.2</ele></trkpt>
            <trkpt lat="10.222105" lon="-61.542836"><ele>8.26</ele></trkpt>
            <trkpt lat="10.221713" lon="-61.543067"><ele>7.43</ele></trkpt>
            <trkpt lat="10.221248" lon="-61.543352"><ele>6.73</ele></trkpt>
            <trkpt lat="10.220937" lon="-61.543539"><ele>6.65</ele></trkpt>
            <trkpt lat="10.220627" lon="-61.543724"><ele>6.99</ele></trkpt>
            <trkpt lat="10.220471" lon="-61.543816"><ele>7.35</ele></trkpt>
            <trkpt lat="10.220156" lon="-61.544001"><ele>8.45</ele></trkpt>
            <trkpt lat="10.219919" lon="-61.54414"><ele>9.59</ele></trkpt>
            <trkpt lat="10.219765" lon="-61.544233"><ele>10.47</ele></trkpt>
            <trkpt lat="10.219225" lon="-61.544554"><ele>13.83</ele></trkpt>
            <trkpt lat="10.219" lon="-61.544686"><ele>15.16</ele></trkpt>
            <trkpt lat="10.21855" lon="-61.54495"><ele>17.42</ele></trkpt>
            <trkpt lat="10.217987" lon="-61.54528"><ele>19.72</ele></trkpt>
            <trkpt lat="10.217625" lon="-61.545493"><ele>21.07</ele></trkpt>
            <trkpt lat="10.217275" lon="-61.545698"><ele>22.15</ele></trkpt>
            <trkpt lat="10.21705" lon="-61.54583"><ele>22.64</ele></trkpt>
            <trkpt lat="10.2167" lon="-61.546035"><ele>23</ele></trkpt>
            <trkpt lat="10.2163" lon="-61.54627"><ele>22.92</ele></trkpt>
            <trkpt lat="10.21585" lon="-61.546534"><ele>22.47</ele></trkpt>
            <trkpt lat="10.215125" lon="-61.546959"><ele>21.39</ele></trkpt>
            <trkpt lat="10.214799" lon="-61.547151"><ele>20.97</ele></trkpt>
            <trkpt lat="10.214455" lon="-61.547355"><ele>20.73</ele></trkpt>
            <trkpt lat="10.214061" lon="-61.54759"><ele>20.68</ele></trkpt>
            <trkpt lat="10.213412" lon="-61.548031"><ele>20.67</ele></trkpt>
            <trkpt lat="10.212772" lon="-61.548464"><ele>20.55</ele></trkpt>
            <trkpt lat="10.212559" lon="-61.548609"><ele>20.56</ele></trkpt>
            <trkpt lat="10.211991" lon="-61.549001"><ele>20.72</ele></trkpt>
            <trkpt lat="10.211776" lon="-61.549146"><ele>20.8</ele></trkpt>
            <trkpt lat="10.211271" lon="-61.549483"><ele>21.04</ele></trkpt>
            <trkpt lat="10.210961" lon="-61.549692"><ele>21.35</ele></trkpt>
            <trkpt lat="10.21061" lon="-61.549957"><ele>21.99</ele></trkpt>
            <trkpt lat="10.21047" lon="-61.550061"><ele>22.33</ele></trkpt>
            <trkpt lat="10.21012" lon="-61.550319"><ele>23.22</ele></trkpt>
            <trkpt lat="10.209766" lon="-61.550574"><ele>23.84</ele></trkpt>
            <trkpt lat="10.209411" lon="-61.550829"><ele>23.82</ele></trkpt>
            <trkpt lat="10.2092" lon="-61.55098"><ele>23.44</ele></trkpt>
            <trkpt lat="10.20871" lon="-61.55133"><ele>22.07</ele></trkpt>
            <trkpt lat="10.20836" lon="-61.55158"><ele>21.53</ele></trkpt>
            <trkpt lat="10.20808" lon="-61.55178"><ele>21.73</ele></trkpt>
            <trkpt lat="10.207695" lon="-61.552055"><ele>22.9</ele></trkpt>
            <trkpt lat="10.20717" lon="-61.55243"><ele>25.07</ele></trkpt>
            <trkpt lat="10.206843" lon="-61.552663"><ele>25.97</ele></trkpt>
            <trkpt lat="10.20654" lon="-61.55288"><ele>26.13</ele></trkpt>
            <trkpt lat="10.206327" lon="-61.55303"><ele>25.78</ele></trkpt>
            <trkpt lat="10.20615" lon="-61.553155"><ele>25.23</ele></trkpt>
            <trkpt lat="10.20583" lon="-61.55338"><ele>23.73</ele></trkpt>
            <trkpt lat="10.2052" lon="-61.553839"><ele>19.83</ele></trkpt>
            <trkpt lat="10.20499" lon="-61.55399"><ele>18.62</ele></trkpt>
            <trkpt lat="10.204617" lon="-61.554257"><ele>16.9</ele></trkpt>
            <trkpt lat="10.20443" lon="-61.55439"><ele>16.27</ele></trkpt>
            <trkpt lat="10.20401" lon="-61.55469"><ele>15.2</ele></trkpt>
            <trkpt lat="10.203416" lon="-61.555115"><ele>14.18</ele></trkpt>
            <trkpt lat="10.203031" lon="-61.555389"><ele>13.8</ele></trkpt>
            <trkpt lat="10.202496" lon="-61.555767"><ele>13.54</ele></trkpt>
            <trkpt lat="10.202156" lon="-61.556007"><ele>13.29</ele></trkpt>
            <trkpt lat="10.201864" lon="-61.556213"><ele>12.93</ele></trkpt>
            <trkpt lat="10.201425" lon="-61.556522"><ele>12.32</ele></trkpt>
            <trkpt lat="10.201125" lon="-61.556728"><ele>12.11</ele></trkpt>
            <trkpt lat="10.200973" lon="-61.55683"><ele>12.12</ele></trkpt>
            <trkpt lat="10.200589" lon="-61.557079"><ele>12.5</ele></trkpt>
            <trkpt lat="10.20017" lon="-61.55728"><ele>13.27</ele></trkpt>
            <trkpt lat="10.199749" lon="-61.557479"><ele>14.17</ele></trkpt>
            <trkpt lat="10.199496" lon="-61.557563"><ele>14.66</ele></trkpt>
            <trkpt lat="10.198988" lon="-61.55773"><ele>15.44</ele></trkpt>
            <trkpt lat="10.198322" lon="-61.557898"><ele>16.19</ele></trkpt>
            <trkpt lat="10.198038" lon="-61.55797"><ele>16.58</ele></trkpt>
            <trkpt lat="10.197784" lon="-61.558024"><ele>17.05</ele></trkpt>
            <trkpt lat="10.197275" lon="-61.558132"><ele>18.39</ele></trkpt>
            <trkpt lat="10.197022" lon="-61.558188"><ele>19.21</ele></trkpt>
            <trkpt lat="10.196518" lon="-61.558302"><ele>20.81</ele></trkpt>
            <trkpt lat="10.196353" lon="-61.558339"><ele>21.2</ele></trkpt>
            <trkpt lat="10.196059" lon="-61.558401"><ele>21.52</ele></trkpt>
            <trkpt lat="10.195811" lon="-61.55847"><ele>21.63</ele></trkpt>
            <trkpt lat="10.195562" lon="-61.558539"><ele>21.89</ele></trkpt>
            <trkpt lat="10.195314" lon="-61.558608"><ele>22.24</ele></trkpt>
            <trkpt lat="10.194817" lon="-61.558746"><ele>22.87</ele></trkpt>
            <trkpt lat="10.1944047" lon="-61.5588588"><ele>22.74</ele></trkpt>
            <trkpt lat="10.193419" lon="-61.559156"><ele>18.67</ele></trkpt>
            <trkpt lat="10.193141" lon="-61.559178"><ele>17.49</ele></trkpt>
            <trkpt lat="10.192897" lon="-61.559144"><ele>16.51</ele></trkpt>
            <trkpt lat="10.192804" lon="-61.559105"><ele>16.18</ele></trkpt>
            <trkpt lat="10.192717" lon="-61.55905"><ele>15.88</ele></trkpt>
            <trkpt lat="10.192606" lon="-61.558952"><ele>15.59</ele></trkpt>
            <trkpt lat="10.192531" lon="-61.558871"><ele>15.44</ele></trkpt>
            <trkpt lat="10.192455" lon="-61.558779"><ele>15.34</ele></trkpt>
            <trkpt lat="10.192373" lon="-61.558659"><ele>15.3</ele></trkpt>
            <trkpt lat="10.192319" lon="-61.558555"><ele>15.33</ele></trkpt>
            <trkpt lat="10.192285" lon="-61.558446"><ele>15.43</ele></trkpt>
            <trkpt lat="10.192273" lon="-61.55837"><ele>15.53</ele></trkpt>
            <trkpt lat="10.192274" lon="-61.558255"><ele>15.72</ele></trkpt>
            <trkpt lat="10.192327" lon="-61.558036"><ele>16.23</ele></trkpt>
            <trkpt lat="10.192383" lon="-61.557927"><ele>16.57</ele></trkpt>
            <trkpt lat="10.192436" lon="-61.557854"><ele>16.84</ele></trkpt>
            <trkpt lat="10.192575" lon="-61.557718"><ele>17.44</ele></trkpt>
            <trkpt lat="10.192685" lon="-61.557638"><ele>17.85</ele></trkpt>
            <trkpt lat="10.192852" lon="-61.557554"><ele>18.37</ele></trkpt>
            <trkpt lat="10.192981" lon="-61.557514"><ele>18.68</ele></trkpt>
            <trkpt lat="10.19307" lon="-61.557503"><ele>18.85</ele></trkpt>
            <trkpt lat="10.193202" lon="-61.557519"><ele>19.03</ele></trkpt>
            <trkpt lat="10.19333" lon="-61.557563"><ele>19.13</ele></trkpt>
            <trkpt lat="10.193495" lon="-61.557649"><ele>19.07</ele></trkpt>
            <trkpt lat="10.193683" lon="-61.557815"><ele>18.65</ele></trkpt>
            <trkpt lat="10.19385" lon="-61.557972"><ele>17.9</ele></trkpt>
            <trkpt lat="10.19396" lon="-61.55811"><ele>17.19</ele></trkpt>
            <trkpt lat="10.1944793" lon="-61.5588319"><ele>14.24</ele></trkpt>
            <trkpt lat="10.194719" lon="-61.559258"><ele>13.89</ele></trkpt>
            <trkpt lat="10.19508" lon="-61.559913"><ele>13.69</ele></trkpt>
            <trkpt lat="10.195358" lon="-61.560429"><ele>13.41</ele></trkpt>
            <trkpt lat="10.195535" lon="-61.56088"><ele>12.51</ele></trkpt>
            <trkpt lat="10.19567" lon="-61.56124"><ele>11.73</ele></trkpt>
            <trkpt lat="10.19577" lon="-61.561511"><ele>11.39</ele></trkpt>
            <trkpt lat="10.195851" lon="-61.56178"><ele>11.4</ele></trkpt>
            <trkpt lat="10.19596" lon="-61.562139"><ele>11.95</ele></trkpt>
            <trkpt lat="10.196129" lon="-61.562779"><ele>13.69</ele></trkpt>
            <trkpt lat="10.19621" lon="-61.563174"><ele>14.58</ele></trkpt>
            <trkpt lat="10.19624" lon="-61.563415"><ele>14.95</ele></trkpt>
            <trkpt lat="10.196309" lon="-61.564011"><ele>15.72</ele></trkpt>
            <trkpt lat="10.196327" lon="-61.564407"><ele>16.61</ele></trkpt>
            <trkpt lat="10.196336" lon="-61.564605"><ele>17.28</ele></trkpt>
            <trkpt lat="10.196354" lon="-61.565006"><ele>19.02</ele></trkpt>
            <trkpt lat="10.196375" lon="-61.565465"><ele>21.26</ele></trkpt>
            <trkpt lat="10.19639" lon="-61.56572"><ele>22.39</ele></trkpt>
            <trkpt lat="10.196405" lon="-61.565976"><ele>23.32</ele></trkpt>
            <trkpt lat="10.196422" lon="-61.566252"><ele>23.99</ele></trkpt>
            <trkpt lat="10.19644" lon="-61.56654"><ele>24.3</ele></trkpt>
            <trkpt lat="10.19648" lon="-61.567021"><ele>24.12</ele></trkpt>
            <trkpt lat="10.196526" lon="-61.567819"><ele>23.09</ele></trkpt>
            <trkpt lat="10.196564" lon="-61.568351"><ele>22.3</ele></trkpt>
            <trkpt lat="10.196575" lon="-61.568534"><ele>21.98</ele></trkpt>
            <trkpt lat="10.1966" lon="-61.569003"><ele>20.8</ele></trkpt>
            <trkpt lat="10.19662" lon="-61.569378"><ele>19.25</ele></trkpt>
            <trkpt lat="10.19664" lon="-61.569753"><ele>17.11</ele></trkpt>
            <trkpt lat="10.19667" lon="-61.570315"><ele>13.54</ele></trkpt>
            <trkpt lat="10.19669" lon="-61.57069"><ele>11.53</ele></trkpt>
            <trkpt lat="10.196705" lon="-61.570971"><ele>10.43</ele></trkpt>
            <trkpt lat="10.196715" lon="-61.571159"><ele>9.92</ele></trkpt>
            <trkpt lat="10.196735" lon="-61.571534"><ele>9.32</ele></trkpt>
            <trkpt lat="10.19677" lon="-61.572191"><ele>9.05</ele></trkpt>
            <trkpt lat="10.196826" lon="-61.573493"><ele>8.82</ele></trkpt>
            <trkpt lat="10.196841" lon="-61.573767"><ele>8.77</ele></trkpt>
            <trkpt lat="10.19688" lon="-61.57442"><ele>8.75</ele></trkpt>
            <trkpt lat="10.19692" lon="-61.57527"><ele>9.12</ele></trkpt>
            <trkpt lat="10.196946" lon="-61.575711"><ele>9.41</ele></trkpt>
            <trkpt lat="10.19697" lon="-61.57612"><ele>9.52</ele></trkpt>
            <trkpt lat="10.196987" lon="-61.5764"><ele>9.41</ele></trkpt>
            <trkpt lat="10.197025" lon="-61.577133"><ele>8.83</ele></trkpt>
            <trkpt lat="10.197051" lon="-61.577621"><ele>8.75</ele></trkpt>
            <trkpt lat="10.19706" lon="-61.57781"><ele>8.84</ele></trkpt>
            <trkpt lat="10.19711" lon="-61.57865"><ele>9.59</ele></trkpt>
            <trkpt lat="10.197125" lon="-61.578902"><ele>9.73</ele></trkpt>
            <trkpt lat="10.197154" lon="-61.579406"><ele>9.81</ele></trkpt>
            <trkpt lat="10.197197" lon="-61.580215"><ele>9.82</ele></trkpt>
            <trkpt lat="10.197225" lon="-61.58074"><ele>10.21</ele></trkpt>
            <trkpt lat="10.197239" lon="-61.581003"><ele>10.58</ele></trkpt>
            <trkpt lat="10.197256" lon="-61.581285"><ele>11.09</ele></trkpt>
            <trkpt lat="10.1973" lon="-61.58204"><ele>12.71</ele></trkpt>
            <trkpt lat="10.197342" lon="-61.582837"><ele>14.39</ele></trkpt>
            <trkpt lat="10.19737" lon="-61.583369"><ele>15.79</ele></trkpt>
            <trkpt lat="10.197394" lon="-61.583816"><ele>17.36</ele></trkpt>
            <trkpt lat="10.197434" lon="-61.584676"><ele>21.08</ele></trkpt>
            <trkpt lat="10.197453" lon="-61.585077"><ele>22.57</ele></trkpt>
            <trkpt lat="10.197475" lon="-61.585536"><ele>23.64</ele></trkpt>
            <trkpt lat="10.197487" lon="-61.585737"><ele>23.88</ele></trkpt>
            <trkpt lat="10.19751" lon="-61.586138"><ele>23.93</ele></trkpt>
            <trkpt lat="10.197525" lon="-61.586403"><ele>23.72</ele></trkpt>
            <trkpt lat="10.19756" lon="-61.587051"><ele>22.79</ele></trkpt>
            <trkpt lat="10.197579" lon="-61.587324"><ele>22.43</ele></trkpt>
            <trkpt lat="10.19761" lon="-61.587779"><ele>22.26</ele></trkpt>
            <trkpt lat="10.197621" lon="-61.587971"><ele>22.47</ele></trkpt>
            <trkpt lat="10.197639" lon="-61.588259"><ele>23.17</ele></trkpt>
            <trkpt lat="10.197656" lon="-61.588546"><ele>24.33</ele></trkpt>
            <trkpt lat="10.197669" lon="-61.588766"><ele>25.46</ele></trkpt>
            <trkpt lat="10.197695" lon="-61.589208"><ele>27.95</ele></trkpt>
            <trkpt lat="10.19771" lon="-61.589472"><ele>29.35</ele></trkpt>
            <trkpt lat="10.197725" lon="-61.589736"><ele>30.53</ele></trkpt>
            <trkpt lat="10.19774" lon="-61.59"><ele>31.34</ele></trkpt>
            <trkpt lat="10.19776" lon="-61.59044"><ele>31.86</ele></trkpt>
            <trkpt lat="10.197785" lon="-61.590969"><ele>31.84</ele></trkpt>
            <trkpt lat="10.1978" lon="-61.591236"><ele>31.89</ele></trkpt>
            <trkpt lat="10.197825" lon="-61.591681"><ele>32.46</ele></trkpt>
            <trkpt lat="10.19784" lon="-61.591946"><ele>33.17</ele></trkpt>
            <trkpt lat="10.19787" lon="-61.592474"><ele>35.03</ele></trkpt>
            <trkpt lat="10.197884" lon="-61.592738"><ele>35.91</ele></trkpt>
            <trkpt lat="10.197903" lon="-61.593149"><ele>36.83</ele></trkpt>
            <trkpt lat="10.19792" lon="-61.59353"><ele>37</ele></trkpt>
            <trkpt lat="10.197935" lon="-61.593794"><ele>36.74</ele></trkpt>
            <trkpt lat="10.197962" lon="-61.594266"><ele>35.78</ele></trkpt>
            <trkpt lat="10.197988" lon="-61.594739"><ele>34.49</ele></trkpt>
            <trkpt lat="10.198015" lon="-61.595211"><ele>32.88</ele></trkpt>
            <trkpt lat="10.198026" lon="-61.595446"><ele>31.87</ele></trkpt>
            <trkpt lat="10.198048" lon="-61.595916"><ele>29.31</ele></trkpt>
            <trkpt lat="10.198065" lon="-61.596268"><ele>27.01</ele></trkpt>
            <trkpt lat="10.198088" lon="-61.596679"><ele>24.37</ele></trkpt>
            <trkpt lat="10.19811" lon="-61.59706"><ele>22.64</ele></trkpt>
            <trkpt lat="10.19812" lon="-61.597236"><ele>22.26</ele></trkpt>
            <trkpt lat="10.198132" lon="-61.597456"><ele>22.24</ele></trkpt>
            <trkpt lat="10.198145" lon="-61.597676"><ele>22.73</ele></trkpt>
            <trkpt lat="10.19816" lon="-61.597939"><ele>24.03</ele></trkpt>
            <trkpt lat="10.198169" lon="-61.598129"><ele>25.43</ele></trkpt>
            <trkpt lat="10.198178" lon="-61.598318"><ele>27.12</ele></trkpt>
            <trkpt lat="10.198196" lon="-61.598696"><ele>30.97</ele></trkpt>
            <trkpt lat="10.198217" lon="-61.599073"><ele>34.71</ele></trkpt>
            <trkpt lat="10.198228" lon="-61.599262"><ele>36.29</ele></trkpt>
            <trkpt lat="10.198239" lon="-61.599451"><ele>37.6</ele></trkpt>
            <trkpt lat="10.19825" lon="-61.59964"><ele>38.59</ele></trkpt>
            <trkpt lat="10.198267" lon="-61.599923"><ele>39.48</ele></trkpt>
            <trkpt lat="10.198289" lon="-61.600301"><ele>39.77</ele></trkpt>
            <trkpt lat="10.198313" lon="-61.60071"><ele>39.34</ele></trkpt>
            <trkpt lat="10.198339" lon="-61.601151"><ele>38.46</ele></trkpt>
            <trkpt lat="10.198374" lon="-61.601741"><ele>36.82</ele></trkpt>
            <trkpt lat="10.198401" lon="-61.6022"><ele>35.24</ele></trkpt>
            <trkpt lat="10.19847" lon="-61.602669"><ele>33.73</ele></trkpt>
            <trkpt lat="10.198504" lon="-61.602904"><ele>33.23</ele></trkpt>
            <trkpt lat="10.198531" lon="-61.603079"><ele>33.05</ele></trkpt>
            <trkpt lat="10.1986" lon="-61.603345"><ele>33.19</ele></trkpt>
            <trkpt lat="10.19867" lon="-61.603609"><ele>33.83</ele></trkpt>
            <trkpt lat="10.198717" lon="-61.60379"><ele>34.53</ele></trkpt>
            <trkpt lat="10.198787" lon="-61.60406"><ele>35.96</ele></trkpt>
            <trkpt lat="10.198863" lon="-61.604316"><ele>37.65</ele></trkpt>
            <trkpt lat="10.198939" lon="-61.604571"><ele>39.53</ele></trkpt>
            <trkpt lat="10.199091" lon="-61.605082"><ele>43.68</ele></trkpt>
            <trkpt lat="10.19921" lon="-61.6054"><ele>46.58</ele></trkpt>
            <trkpt lat="10.1993" lon="-61.60564"><ele>48.93</ele></trkpt>
            <trkpt lat="10.19942" lon="-61.605961"><ele>52.34</ele></trkpt>
            <trkpt lat="10.199478" lon="-61.606133"><ele>54.28</ele></trkpt>
            <trkpt lat="10.199553" lon="-61.606378"><ele>57.17</ele></trkpt>
            <trkpt lat="10.199702" lon="-61.606868"><ele>63.27</ele></trkpt>
            <trkpt lat="10.199729" lon="-61.606961"><ele>64.45</ele></trkpt>
            <trkpt lat="10.19982" lon="-61.6075"><ele>70.87</ele></trkpt>
            <trkpt lat="10.199866" lon="-61.607769"><ele>73.75</ele></trkpt>
            <trkpt lat="10.199931" lon="-61.608124"><ele>76.88</ele></trkpt>
            <trkpt lat="10.19998" lon="-61.60839"><ele>78.5</ele></trkpt>
            <trkpt lat="10.20001" lon="-61.60857"><ele>79.18</ele></trkpt>
            <trkpt lat="10.20004" lon="-61.60875"><ele>79.54</ele></trkpt>
            <trkpt lat="10.200099" lon="-61.609111"><ele>79.41</ele></trkpt>
            <trkpt lat="10.200117" lon="-61.609334"><ele>78.93</ele></trkpt>
            <trkpt lat="10.200151" lon="-61.609779"><ele>77.56</ele></trkpt>
            <trkpt lat="10.200179" lon="-61.610199"><ele>76.36</ele></trkpt>
            <trkpt lat="10.200154" lon="-61.610599"><ele>75.67</ele></trkpt>
            <trkpt lat="10.200123" lon="-61.611056"><ele>75.25</ele></trkpt>
            <trkpt lat="10.200092" lon="-61.611455"><ele>74.79</ele></trkpt>
            <trkpt lat="10.200077" lon="-61.611654"><ele>74.4</ele></trkpt>
            <trkpt lat="10.200059" lon="-61.611913"><ele>73.67</ele></trkpt>
            <trkpt lat="10.200045" lon="-61.61213"><ele>72.85</ele></trkpt>
            <trkpt lat="10.20002" lon="-61.61252"><ele>70.84</ele></trkpt>
            <trkpt lat="10.199995" lon="-61.612834"><ele>68.78</ele></trkpt>
            <trkpt lat="10.199958" lon="-61.61329"><ele>65.43</ele></trkpt>
            <trkpt lat="10.199853" lon="-61.613726"><ele>62.33</ele></trkpt>
            <trkpt lat="10.19979" lon="-61.613987"><ele>60.8</ele></trkpt>
            <trkpt lat="10.19971" lon="-61.614336"><ele>59.34</ele></trkpt>
            <trkpt lat="10.19967" lon="-61.614509"><ele>58.88</ele></trkpt>
            <trkpt lat="10.19958" lon="-61.614844"><ele>58.35</ele></trkpt>
            <trkpt lat="10.199381" lon="-61.615577"><ele>57.62</ele></trkpt>
            <trkpt lat="10.19931" lon="-61.61584"><ele>57.12</ele></trkpt>
            <trkpt lat="10.199235" lon="-61.616106"><ele>56.33</ele></trkpt>
            <trkpt lat="10.199135" lon="-61.616461"><ele>54.77</ele></trkpt>
            <trkpt lat="10.199084" lon="-61.616631"><ele>53.82</ele></trkpt>
            <trkpt lat="10.19893" lon="-61.617119"><ele>50.52</ele></trkpt>
            <trkpt lat="10.198765" lon="-61.617607"><ele>46.85</ele></trkpt>
            <trkpt lat="10.1986" lon="-61.618095"><ele>43.43</ele></trkpt>
            <trkpt lat="10.198435" lon="-61.618585"><ele>40.5</ele></trkpt>
            <trkpt lat="10.19827" lon="-61.619078"><ele>37.98</ele></trkpt>
            <trkpt lat="10.198167" lon="-61.619343"><ele>36.71</ele></trkpt>
            <trkpt lat="10.19806" lon="-61.619538"><ele>35.75</ele></trkpt>
            <trkpt lat="10.197973" lon="-61.619681"><ele>35.02</ele></trkpt>
            <trkpt lat="10.197873" lon="-61.619824"><ele>34.27</ele></trkpt>
            <trkpt lat="10.197639" lon="-61.620119"><ele>32.65</ele></trkpt>
            <trkpt lat="10.197497" lon="-61.620251"><ele>31.87</ele></trkpt>
            <trkpt lat="10.197166" lon="-61.620486"><ele>30.51</ele></trkpt>
            <trkpt lat="10.196927" lon="-61.620623"><ele>29.98</ele></trkpt>
            <trkpt lat="10.196596" lon="-61.620784"><ele>30</ele></trkpt>
            <trkpt lat="10.196428" lon="-61.620872"><ele>30.35</ele></trkpt>
            <trkpt lat="10.196206" lon="-61.620999"><ele>31.14</ele></trkpt>
            <trkpt lat="10.19609" lon="-61.621097"><ele>31.76</ele></trkpt>
            <trkpt lat="10.195987" lon="-61.621223"><ele>32.53</ele></trkpt>
            <trkpt lat="10.195913" lon="-61.621376"><ele>33.39</ele></trkpt>
            <trkpt lat="10.195854" lon="-61.62159"><ele>34.58</ele></trkpt>
            <trkpt lat="10.195854" lon="-61.621765"><ele>35.47</ele></trkpt>
            <trkpt lat="10.195887" lon="-61.621896"><ele>36.11</ele></trkpt>
            <trkpt lat="10.195973" lon="-61.622098"><ele>36.99</ele></trkpt>
            <trkpt lat="10.196058" lon="-61.62222"><ele>37.45</ele></trkpt>
            <trkpt lat="10.196207" lon="-61.622371"><ele>37.84</ele></trkpt>
            <trkpt lat="10.196338" lon="-61.622453"><ele>37.93</ele></trkpt>
            <trkpt lat="10.196462" lon="-61.622515"><ele>37.85</ele></trkpt>
            <trkpt lat="10.196564" lon="-61.622556"><ele>37.7</ele></trkpt>
            <trkpt lat="10.196775" lon="-61.622634"><ele>37.16</ele></trkpt>
            <trkpt lat="10.197407" lon="-61.622869"><ele>34.91</ele></trkpt>
            <trkpt lat="10.197617" lon="-61.622948"><ele>34.33</ele></trkpt>
            <trkpt lat="10.197929" lon="-61.623059"><ele>33.9</ele></trkpt>
            <trkpt lat="10.198187" lon="-61.623133"><ele>33.93</ele></trkpt>
            <trkpt lat="10.198823" lon="-61.623321"><ele>34.57</ele></trkpt>
            <trkpt lat="10.199202" lon="-61.623434"><ele>34.45</ele></trkpt>
            <trkpt lat="10.199409" lon="-61.623493"><ele>34.04</ele></trkpt>
            <trkpt lat="10.199615" lon="-61.623552"><ele>33.36</ele></trkpt>
            <trkpt lat="10.199866" lon="-61.623618"><ele>32.24</ele></trkpt>
            <trkpt lat="10.200211" lon="-61.62369"><ele>30.41</ele></trkpt>
            <trkpt lat="10.200458" lon="-61.623731"><ele>29.11</ele></trkpt>
            <trkpt lat="10.200705" lon="-61.623773"><ele>28.03</ele></trkpt>
            <trkpt lat="10.200952" lon="-61.623814"><ele>27.38</ele></trkpt>
            <trkpt lat="10.201118" lon="-61.623841"><ele>27.26</ele></trkpt>
            <trkpt lat="10.201365" lon="-61.623883"><ele>27.52</ele></trkpt>
            <trkpt lat="10.201622" lon="-61.623926"><ele>28.25</ele></trkpt>
            <trkpt lat="10.20199" lon="-61.62399"><ele>29.93</ele></trkpt>
            <trkpt lat="10.202544" lon="-61.624073"><ele>33</ele></trkpt>
            <trkpt lat="10.202755" lon="-61.624105"><ele>34.04</ele></trkpt>
            <trkpt lat="10.20305" lon="-61.62415"><ele>35.15</ele></trkpt>
            <trkpt lat="10.203219" lon="-61.624179"><ele>35.55</ele></trkpt>
            <trkpt lat="10.203471" lon="-61.624221"><ele>35.79</ele></trkpt>
            <trkpt lat="10.20364" lon="-61.624251"><ele>35.7</ele></trkpt>
            <trkpt lat="10.2038" lon="-61.624287"><ele>35.43</ele></trkpt>
            <trkpt lat="10.20412" lon="-61.624361"><ele>34.34</ele></trkpt>
            <trkpt lat="10.20434" lon="-61.624418"><ele>33.3</ele></trkpt>
            <trkpt lat="10.204779" lon="-61.62453"><ele>30.88</ele></trkpt>
            <trkpt lat="10.205312" lon="-61.624702"><ele>27.93</ele></trkpt>
            <trkpt lat="10.205657" lon="-61.624816"><ele>26.19</ele></trkpt>
            <trkpt lat="10.206242" lon="-61.625012"><ele>23.16</ele></trkpt>
            <trkpt lat="10.206444" lon="-61.625108"><ele>21.93</ele></trkpt>
            <trkpt lat="10.206705" lon="-61.625286"><ele>20.02</ele></trkpt>
            <trkpt lat="10.206864" lon="-61.625434"><ele>18.64</ele></trkpt>
            <trkpt lat="10.207015" lon="-61.625586"><ele>17.28</ele></trkpt>
            <trkpt lat="10.207203" lon="-61.625779"><ele>15.66</ele></trkpt>
            <trkpt lat="10.207468" lon="-61.626053"><ele>13.73</ele></trkpt>
            <trkpt lat="10.207594" lon="-61.626185"><ele>13.01</ele></trkpt>
            <trkpt lat="10.207659" lon="-61.626278"><ele>12.64</ele></trkpt>
            <trkpt lat="10.207697" lon="-61.626399"><ele>12.3</ele></trkpt>
            <trkpt lat="10.2077" lon="-61.62654"><ele>12.03</ele></trkpt>
            <trkpt lat="10.207733" lon="-61.626618"><ele>11.91</ele></trkpt>
            <trkpt lat="10.207776" lon="-61.62666"><ele>11.85</ele></trkpt>
            <trkpt lat="10.207835" lon="-61.626683"><ele>11.81</ele></trkpt>
            <trkpt lat="10.207904" lon="-61.626685"><ele>11.79</ele></trkpt>
            <trkpt lat="10.207969" lon="-61.626658"><ele>11.8</ele></trkpt>
            <trkpt lat="10.208022" lon="-61.626601"><ele>11.85</ele></trkpt>
            <trkpt lat="10.208042" lon="-61.62654"><ele>11.91</ele></trkpt>
            <trkpt lat="10.20804" lon="-61.626481"><ele>11.98</ele></trkpt>
            <trkpt lat="10.208015" lon="-61.626423"><ele>12.09</ele></trkpt>
            <trkpt lat="10.207955" lon="-61.626363"><ele>12.26</ele></trkpt>
            <trkpt lat="10.207836" lon="-61.626289"><ele>12.64</ele></trkpt>
            <trkpt lat="10.207699" lon="-61.6261983"><ele>13.2</ele></trkpt>
            <trkpt lat="10.2074824" lon="-61.6260159"><ele>13.73</ele></trkpt>
            <trkpt lat="10.207203" lon="-61.625779"><ele>15.66</ele></trkpt>
            <trkpt lat="10.207015" lon="-61.625586"><ele>17.28</ele></trkpt>
            <trkpt lat="10.206864" lon="-61.625434"><ele>18.64</ele></trkpt>
            <trkpt lat="10.206705" lon="-61.625286"><ele>20.02</ele></trkpt>
            <trkpt lat="10.206444" lon="-61.625108"><ele>21.93</ele></trkpt>
            <trkpt lat="10.206242" lon="-61.625012"><ele>23.16</ele></trkpt>
            <trkpt lat="10.205657" lon="-61.624816"><ele>26.19</ele></trkpt>
            <trkpt lat="10.205312" lon="-61.624702"><ele>27.93</ele></trkpt>
            <trkpt lat="10.204779" lon="-61.62453"><ele>30.88</ele></trkpt>
            <trkpt lat="10.20434" lon="-61.624418"><ele>33.3</ele></trkpt>
            <trkpt lat="10.20412" lon="-61.624361"><ele>34.34</ele></trkpt>
            <trkpt lat="10.2038" lon="-61.624287"><ele>35.43</ele></trkpt>
            <trkpt lat="10.20364" lon="-61.624251"><ele>35.7</ele></trkpt>
            <trkpt lat="10.203471" lon="-61.624221"><ele>35.79</ele></trkpt>
            <trkpt lat="10.203219" lon="-61.624179"><ele>35.55</ele></trkpt>
            <trkpt lat="10.20305" lon="-61.62415"><ele>35.15</ele></trkpt>
            <trkpt lat="10.202755" lon="-61.624105"><ele>34.04</ele></trkpt>
            <trkpt lat="10.202544" lon="-61.624073"><ele>33</ele></trkpt>
            <trkpt lat="10.20199" lon="-61.62399"><ele>29.93</ele></trkpt>
            <trkpt lat="10.201622" lon="-61.623926"><ele>28.25</ele></trkpt>
            <trkpt lat="10.201365" lon="-61.623883"><ele>27.52</ele></trkpt>
            <trkpt lat="10.201118" lon="-61.623841"><ele>27.26</ele></trkpt>
            <trkpt lat="10.200952" lon="-61.623814"><ele>27.38</ele></trkpt>
            <trkpt lat="10.200705" lon="-61.623773"><ele>28.03</ele></trkpt>
            <trkpt lat="10.200458" lon="-61.623731"><ele>29.11</ele></trkpt>
            <trkpt lat="10.200211" lon="-61.62369"><ele>30.41</ele></trkpt>
            <trkpt lat="10.199866" lon="-61.623618"><ele>32.24</ele></trkpt>
            <trkpt lat="10.199615" lon="-61.623552"><ele>33.36</ele></trkpt>
            <trkpt lat="10.199409" lon="-61.623493"><ele>34.04</ele></trkpt>
            <trkpt lat="10.1992045" lon="-61.6233847"><ele>34.45</ele></trkpt>
            <trkpt lat="10.1989825" lon="-61.6231916"><ele>34.57</ele></trkpt>
            <trkpt lat="10.198429" lon="-61.622567"><ele>27.72</ele></trkpt>
            <trkpt lat="10.198296" lon="-61.622386"><ele>27.17</ele></trkpt>
            <trkpt lat="10.198182" lon="-61.62219"><ele>26.71</ele></trkpt>
            <trkpt lat="10.198094" lon="-61.621974"><ele>26.39</ele></trkpt>
            <trkpt lat="10.198032" lon="-61.621751"><ele>26.24</ele></trkpt>
            <trkpt lat="10.197972" lon="-61.621339"><ele>26.5</ele></trkpt>
            <trkpt lat="10.197971" lon="-61.621024"><ele>27.18</ele></trkpt>
            <trkpt lat="10.198011" lon="-61.620728"><ele>28.18</ele></trkpt>
            <trkpt lat="10.1981101" lon="-61.619745"><ele>35.02</ele></trkpt>
            <trkpt lat="10.1981223" lon="-61.6195397"><ele>35.75</ele></trkpt>
            <trkpt lat="10.198167" lon="-61.619343"><ele>36.71</ele></trkpt>
            <trkpt lat="10.19827" lon="-61.619078"><ele>37.98</ele></trkpt>
            <trkpt lat="10.198435" lon="-61.618585"><ele>40.5</ele></trkpt>
            <trkpt lat="10.1986" lon="-61.618095"><ele>43.43</ele></trkpt>
            <trkpt lat="10.198765" lon="-61.617607"><ele>46.85</ele></trkpt>
            <trkpt lat="10.19893" lon="-61.617119"><ele>50.52</ele></trkpt>
            <trkpt lat="10.199084" lon="-61.616631"><ele>53.82</ele></trkpt>
            <trkpt lat="10.199135" lon="-61.616461"><ele>54.77</ele></trkpt>
            <trkpt lat="10.199235" lon="-61.616106"><ele>56.33</ele></trkpt>
            <trkpt lat="10.19931" lon="-61.61584"><ele>57.12</ele></trkpt>
            <trkpt lat="10.199381" lon="-61.615577"><ele>57.62</ele></trkpt>
            <trkpt lat="10.19958" lon="-61.614844"><ele>58.35</ele></trkpt>
            <trkpt lat="10.19967" lon="-61.614509"><ele>58.88</ele></trkpt>
            <trkpt lat="10.19971" lon="-61.614336"><ele>59.34</ele></trkpt>
            <trkpt lat="10.19979" lon="-61.613987"><ele>60.8</ele></trkpt>
            <trkpt lat="10.199853" lon="-61.613726"><ele>62.33</ele></trkpt>
            <trkpt lat="10.199958" lon="-61.61329"><ele>65.43</ele></trkpt>
            <trkpt lat="10.199995" lon="-61.612834"><ele>68.78</ele></trkpt>
            <trkpt lat="10.20002" lon="-61.61252"><ele>70.84</ele></trkpt>
            <trkpt lat="10.200045" lon="-61.61213"><ele>72.85</ele></trkpt>
            <trkpt lat="10.200059" lon="-61.611913"><ele>73.67</ele></trkpt>
            <trkpt lat="10.200077" lon="-61.611654"><ele>74.4</ele></trkpt>
            <trkpt lat="10.200092" lon="-61.611455"><ele>74.79</ele></trkpt>
            <trkpt lat="10.200123" lon="-61.611056"><ele>75.25</ele></trkpt>
            <trkpt lat="10.200154" lon="-61.610599"><ele>75.67</ele></trkpt>
            <trkpt lat="10.200179" lon="-61.610199"><ele>76.36</ele></trkpt>
            <trkpt lat="10.200151" lon="-61.609779"><ele>77.56</ele></trkpt>
            <trkpt lat="10.200117" lon="-61.609334"><ele>78.93</ele></trkpt>
            <trkpt lat="10.200099" lon="-61.609111"><ele>79.41</ele></trkpt>
            <trkpt lat="10.20004" lon="-61.60875"><ele>79.54</ele></trkpt>
            <trkpt lat="10.20001" lon="-61.60857"><ele>79.18</ele></trkpt>
            <trkpt lat="10.19998" lon="-61.60839"><ele>78.5</ele></trkpt>
            <trkpt lat="10.199931" lon="-61.608124"><ele>76.88</ele></trkpt>
            <trkpt lat="10.199866" lon="-61.607769"><ele>73.75</ele></trkpt>
            <trkpt lat="10.19982" lon="-61.6075"><ele>70.87</ele></trkpt>
            <trkpt lat="10.199729" lon="-61.606961"><ele>64.45</ele></trkpt>
            <trkpt lat="10.199702" lon="-61.606868"><ele>63.27</ele></trkpt>
            <trkpt lat="10.199553" lon="-61.606378"><ele>57.17</ele></trkpt>
            <trkpt lat="10.199478" lon="-61.606133"><ele>54.28</ele></trkpt>
            <trkpt lat="10.19942" lon="-61.605961"><ele>52.34</ele></trkpt>
            <trkpt lat="10.1993" lon="-61.60564"><ele>48.93</ele></trkpt>
            <trkpt lat="10.19921" lon="-61.6054"><ele>46.58</ele></trkpt>
            <trkpt lat="10.199091" lon="-61.605082"><ele>43.68</ele></trkpt>
            <trkpt lat="10.198939" lon="-61.604571"><ele>39.53</ele></trkpt>
            <trkpt lat="10.198863" lon="-61.604316"><ele>37.65</ele></trkpt>
            <trkpt lat="10.198787" lon="-61.60406"><ele>35.96</ele></trkpt>
            <trkpt lat="10.198717" lon="-61.60379"><ele>34.53</ele></trkpt>
            <trkpt lat="10.19867" lon="-61.603609"><ele>33.83</ele></trkpt>
            <trkpt lat="10.1986" lon="-61.603345"><ele>33.19</ele></trkpt>
            <trkpt lat="10.198531" lon="-61.603079"><ele>33.05</ele></trkpt>
            <trkpt lat="10.198504" lon="-61.602904"><ele>33.23</ele></trkpt>
            <trkpt lat="10.19847" lon="-61.602669"><ele>33.73</ele></trkpt>
            <trkpt lat="10.198401" lon="-61.6022"><ele>35.24</ele></trkpt>
            <trkpt lat="10.198374" lon="-61.601741"><ele>36.82</ele></trkpt>
            <trkpt lat="10.198339" lon="-61.601151"><ele>38.46</ele></trkpt>
            <trkpt lat="10.198313" lon="-61.60071"><ele>39.34</ele></trkpt>
            <trkpt lat="10.198289" lon="-61.600301"><ele>39.77</ele></trkpt>
            <trkpt lat="10.198267" lon="-61.599923"><ele>39.48</ele></trkpt>
            <trkpt lat="10.19825" lon="-61.59964"><ele>38.59</ele></trkpt>
            <trkpt lat="10.198239" lon="-61.599451"><ele>37.6</ele></trkpt>
            <trkpt lat="10.198228" lon="-61.599262"><ele>36.29</ele></trkpt>
            <trkpt lat="10.198217" lon="-61.599073"><ele>34.71</ele></trkpt>
            <trkpt lat="10.198196" lon="-61.598696"><ele>30.97</ele></trkpt>
            <trkpt lat="10.198178" lon="-61.598318"><ele>27.12</ele></trkpt>
            <trkpt lat="10.198169" lon="-61.598129"><ele>25.43</ele></trkpt>
            <trkpt lat="10.19816" lon="-61.597939"><ele>24.03</ele></trkpt>
            <trkpt lat="10.198145" lon="-61.597676"><ele>22.73</ele></trkpt>
            <trkpt lat="10.198132" lon="-61.597456"><ele>22.24</ele></trkpt>
            <trkpt lat="10.19812" lon="-61.597236"><ele>22.26</ele></trkpt>
            <trkpt lat="10.19811" lon="-61.59706"><ele>22.64</ele></trkpt>
            <trkpt lat="10.198088" lon="-61.596679"><ele>24.37</ele></trkpt>
            <trkpt lat="10.198065" lon="-61.596268"><ele>27.01</ele></trkpt>
            <trkpt lat="10.198048" lon="-61.595916"><ele>29.31</ele></trkpt>
            <trkpt lat="10.198026" lon="-61.595446"><ele>31.87</ele></trkpt>
            <trkpt lat="10.198015" lon="-61.595211"><ele>32.88</ele></trkpt>
            <trkpt lat="10.197988" lon="-61.594739"><ele>34.49</ele></trkpt>
            <trkpt lat="10.197962" lon="-61.594266"><ele>35.78</ele></trkpt>
            <trkpt lat="10.197935" lon="-61.593794"><ele>36.74</ele></trkpt>
            <trkpt lat="10.19792" lon="-61.59353"><ele>37</ele></trkpt>
            <trkpt lat="10.197903" lon="-61.593149"><ele>36.83</ele></trkpt>
            <trkpt lat="10.197884" lon="-61.592738"><ele>35.91</ele></trkpt>
            <trkpt lat="10.19787" lon="-61.592474"><ele>35.03</ele></trkpt>
            <trkpt lat="10.19784" lon="-61.591946"><ele>33.17</ele></trkpt>
            <trkpt lat="10.197825" lon="-61.591681"><ele>32.46</ele></trkpt>
            <trkpt lat="10.1978" lon="-61.591236"><ele>31.89</ele></trkpt>
            <trkpt lat="10.197785" lon="-61.590969"><ele>31.84</ele></trkpt>
            <trkpt lat="10.19776" lon="-61.59044"><ele>31.86</ele></trkpt>
            <trkpt lat="10.19774" lon="-61.59"><ele>31.34</ele></trkpt>
            <trkpt lat="10.197725" lon="-61.589736"><ele>30.53</ele></trkpt>
            <trkpt lat="10.19771" lon="-61.589472"><ele>29.35</ele></trkpt>
            <trkpt lat="10.197695" lon="-61.589208"><ele>27.95</ele></trkpt>
            <trkpt lat="10.197669" lon="-61.588766"><ele>25.46</ele></trkpt>
            <trkpt lat="10.197656" lon="-61.588546"><ele>24.33</ele></trkpt>
            <trkpt lat="10.197639" lon="-61.588259"><ele>23.17</ele></trkpt>
            <trkpt lat="10.197621" lon="-61.587971"><ele>22.47</ele></trkpt>
            <trkpt lat="10.19761" lon="-61.587779"><ele>22.26</ele></trkpt>
            <trkpt lat="10.197579" lon="-61.587324"><ele>22.43</ele></trkpt>
            <trkpt lat="10.19756" lon="-61.587051"><ele>22.79</ele></trkpt>
            <trkpt lat="10.197525" lon="-61.586403"><ele>23.72</ele></trkpt>
            <trkpt lat="10.19751" lon="-61.586138"><ele>23.93</ele></trkpt>
            <trkpt lat="10.197487" lon="-61.585737"><ele>23.88</ele></trkpt>
            <trkpt lat="10.197475" lon="-61.585536"><ele>23.64</ele></trkpt>
            <trkpt lat="10.197453" lon="-61.585077"><ele>22.57</ele></trkpt>
            <trkpt lat="10.197434" lon="-61.584676"><ele>21.08</ele></trkpt>
            <trkpt lat="10.197394" lon="-61.583816"><ele>17.36</ele></trkpt>
            <trkpt lat="10.19737" lon="-61.583369"><ele>15.79</ele></trkpt>
            <trkpt lat="10.197342" lon="-61.582837"><ele>14.39</ele></trkpt>
            <trkpt lat="10.1973" lon="-61.58204"><ele>12.71</ele></trkpt>
            <trkpt lat="10.197256" lon="-61.581285"><ele>11.09</ele></trkpt>
            <trkpt lat="10.197239" lon="-61.581003"><ele>10.58</ele></trkpt>
            <trkpt lat="10.197225" lon="-61.58074"><ele>10.21</ele></trkpt>
            <trkpt lat="10.197197" lon="-61.580215"><ele>9.82</ele></trkpt>
            <trkpt lat="10.197154" lon="-61.579406"><ele>9.81</ele></trkpt>
            <trkpt lat="10.197125" lon="-61.578902"><ele>9.73</ele></trkpt>
            <trkpt lat="10.19711" lon="-61.57865"><ele>9.59</ele></trkpt>
            <trkpt lat="10.19706" lon="-61.57781"><ele>8.84</ele></trkpt>
            <trkpt lat="10.197051" lon="-61.577621"><ele>8.75</ele></trkpt>
            <trkpt lat="10.197025" lon="-61.577133"><ele>8.83</ele></trkpt>
            <trkpt lat="10.196987" lon="-61.5764"><ele>9.41</ele></trkpt>
            <trkpt lat="10.19697" lon="-61.57612"><ele>9.52</ele></trkpt>
            <trkpt lat="10.196946" lon="-61.575711"><ele>9.41</ele></trkpt>
            <trkpt lat="10.19692" lon="-61.57527"><ele>9.12</ele></trkpt>
            <trkpt lat="10.19688" lon="-61.57442"><ele>8.75</ele></trkpt>
            <trkpt lat="10.196841" lon="-61.573767"><ele>8.77</ele></trkpt>
            <trkpt lat="10.196826" lon="-61.573493"><ele>8.82</ele></trkpt>
            <trkpt lat="10.19677" lon="-61.572191"><ele>9.05</ele></trkpt>
            <trkpt lat="10.196735" lon="-61.571534"><ele>9.32</ele></trkpt>
            <trkpt lat="10.196715" lon="-61.571159"><ele>9.92</ele></trkpt>
            <trkpt lat="10.196705" lon="-61.570971"><ele>10.43</ele></trkpt>
            <trkpt lat="10.19669" lon="-61.57069"><ele>11.53</ele></trkpt>
            <trkpt lat="10.19667" lon="-61.570315"><ele>13.54</ele></trkpt>
            <trkpt lat="10.19664" lon="-61.569753"><ele>17.11</ele></trkpt>
            <trkpt lat="10.19662" lon="-61.569378"><ele>19.25</ele></trkpt>
            <trkpt lat="10.1966" lon="-61.569003"><ele>20.8</ele></trkpt>
            <trkpt lat="10.196575" lon="-61.568534"><ele>21.98</ele></trkpt>
            <trkpt lat="10.196564" lon="-61.568351"><ele>22.3</ele></trkpt>
            <trkpt lat="10.196526" lon="-61.567819"><ele>23.09</ele></trkpt>
            <trkpt lat="10.19648" lon="-61.567021"><ele>24.12</ele></trkpt>
            <trkpt lat="10.19644" lon="-61.56654"><ele>24.3</ele></trkpt>
            <trkpt lat="10.196422" lon="-61.566252"><ele>23.99</ele></trkpt>
            <trkpt lat="10.196405" lon="-61.565976"><ele>23.32</ele></trkpt>
            <trkpt lat="10.19639" lon="-61.56572"><ele>22.39</ele></trkpt>
            <trkpt lat="10.196375" lon="-61.565465"><ele>21.26</ele></trkpt>
            <trkpt lat="10.196354" lon="-61.565006"><ele>19.02</ele></trkpt>
            <trkpt lat="10.196336" lon="-61.564605"><ele>17.28</ele></trkpt>
            <trkpt lat="10.196327" lon="-61.564407"><ele>16.61</ele></trkpt>
            <trkpt lat="10.196309" lon="-61.564011"><ele>15.72</ele></trkpt>
            <trkpt lat="10.19624" lon="-61.563415"><ele>14.95</ele></trkpt>
            <trkpt lat="10.19621" lon="-61.563174"><ele>14.58</ele></trkpt>
            <trkpt lat="10.196129" lon="-61.562779"><ele>13.69</ele></trkpt>
            <trkpt lat="10.19596" lon="-61.562139"><ele>11.95</ele></trkpt>
            <trkpt lat="10.195851" lon="-61.56178"><ele>11.4</ele></trkpt>
            <trkpt lat="10.19577" lon="-61.561511"><ele>11.39</ele></trkpt>
            <trkpt lat="10.1957297" lon="-61.5612459"><ele>11.73</ele></trkpt>
            <trkpt lat="10.1957191" lon="-61.5608865"><ele>12.51</ele></trkpt>
            <trkpt lat="10.195746" lon="-61.560479"><ele>12.32</ele></trkpt>
            <trkpt lat="10.195731" lon="-61.560271"><ele>12.67</ele></trkpt>
            <trkpt lat="10.195748" lon="-61.560053"><ele>13.03</ele></trkpt>
            <trkpt lat="10.195792" lon="-61.559837"><ele>13.39</ele></trkpt>
            <trkpt lat="10.195911" lon="-61.5595"><ele>13.99</ele></trkpt>
            <trkpt lat="10.195989" lon="-61.559337"><ele>14.28</ele></trkpt>
            <trkpt lat="10.19608" lon="-61.559181"><ele>14.56</ele></trkpt>
            <trkpt lat="10.196211" lon="-61.559002"><ele>14.84</ele></trkpt>
            <trkpt lat="10.19633" lon="-61.558872"><ele>15.01</ele></trkpt>
            <trkpt lat="10.1964295" lon="-61.5587568"><ele>15.1</ele></trkpt>
            <trkpt lat="10.1967334" lon="-61.5584725"><ele>20.81</ele></trkpt>
            <trkpt lat="10.1970425" lon="-61.5582365"><ele>19.21</ele></trkpt>
            <trkpt lat="10.197275" lon="-61.558132"><ele>18.39</ele></trkpt>
            <trkpt lat="10.197784" lon="-61.558024"><ele>17.05</ele></trkpt>
            <trkpt lat="10.198038" lon="-61.55797"><ele>16.58</ele></trkpt>
            <trkpt lat="10.198322" lon="-61.557898"><ele>16.19</ele></trkpt>
            <trkpt lat="10.198988" lon="-61.55773"><ele>15.44</ele></trkpt>
            <trkpt lat="10.199496" lon="-61.557563"><ele>14.66</ele></trkpt>
            <trkpt lat="10.199749" lon="-61.557479"><ele>14.17</ele></trkpt>
            <trkpt lat="10.20017" lon="-61.55728"><ele>13.27</ele></trkpt>
            <trkpt lat="10.200589" lon="-61.557079"><ele>12.5</ele></trkpt>
            <trkpt lat="10.200973" lon="-61.55683"><ele>12.12</ele></trkpt>
            <trkpt lat="10.201125" lon="-61.556728"><ele>12.11</ele></trkpt>
            <trkpt lat="10.201425" lon="-61.556522"><ele>12.32</ele></trkpt>
            <trkpt lat="10.201864" lon="-61.556213"><ele>12.93</ele></trkpt>
            <trkpt lat="10.202156" lon="-61.556007"><ele>13.29</ele></trkpt>
            <trkpt lat="10.202496" lon="-61.555767"><ele>13.54</ele></trkpt>
            <trkpt lat="10.203031" lon="-61.555389"><ele>13.8</ele></trkpt>
            <trkpt lat="10.203416" lon="-61.555115"><ele>14.18</ele></trkpt>
            <trkpt lat="10.20401" lon="-61.55469"><ele>15.2</ele></trkpt>
            <trkpt lat="10.20443" lon="-61.55439"><ele>16.27</ele></trkpt>
            <trkpt lat="10.204617" lon="-61.554257"><ele>16.9</ele></trkpt>
            <trkpt lat="10.20499" lon="-61.55399"><ele>18.62</ele></trkpt>
            <trkpt lat="10.2052" lon="-61.553839"><ele>19.83</ele></trkpt>
            <trkpt lat="10.20583" lon="-61.55338"><ele>23.73</ele></trkpt>
            <trkpt lat="10.20615" lon="-61.553155"><ele>25.23</ele></trkpt>
            <trkpt lat="10.206327" lon="-61.55303"><ele>25.78</ele></trkpt>
            <trkpt lat="10.20654" lon="-61.55288"><ele>26.13</ele></trkpt>
            <trkpt lat="10.206843" lon="-61.552663"><ele>25.97</ele></trkpt>
            <trkpt lat="10.20717" lon="-61.55243"><ele>25.07</ele></trkpt>
            <trkpt lat="10.207695" lon="-61.552055"><ele>22.9</ele></trkpt>
            <trkpt lat="10.20808" lon="-61.55178"><ele>21.73</ele></trkpt>
            <trkpt lat="10.20836" lon="-61.55158"><ele>21.53</ele></trkpt>
            <trkpt lat="10.20871" lon="-61.55133"><ele>22.07</ele></trkpt>
            <trkpt lat="10.2092" lon="-61.55098"><ele>23.44</ele></trkpt>
            <trkpt lat="10.209411" lon="-61.550829"><ele>23.82</ele></trkpt>
            <trkpt lat="10.209766" lon="-61.550574"><ele>23.84</ele></trkpt>
            <trkpt lat="10.21012" lon="-61.550319"><ele>23.22</ele></trkpt>
            <trkpt lat="10.21047" lon="-61.550061"><ele>22.33</ele></trkpt>
            <trkpt lat="10.21061" lon="-61.549957"><ele>21.99</ele></trkpt>
            <trkpt lat="10.210961" lon="-61.549692"><ele>21.35</ele></trkpt>
            <trkpt lat="10.211271" lon="-61.549483"><ele>21.04</ele></trkpt>
            <trkpt lat="10.211776" lon="-61.549146"><ele>20.8</ele></trkpt>
            <trkpt lat="10.211991" lon="-61.549001"><ele>20.72</ele></trkpt>
            <trkpt lat="10.212559" lon="-61.548609"><ele>20.56</ele></trkpt>
            <trkpt lat="10.212772" lon="-61.548464"><ele>20.55</ele></trkpt>
            <trkpt lat="10.213412" lon="-61.548031"><ele>20.67</ele></trkpt>
            <trkpt lat="10.214061" lon="-61.54759"><ele>20.68</ele></trkpt>
            <trkpt lat="10.214455" lon="-61.547355"><ele>20.73</ele></trkpt>
            <trkpt lat="10.214799" lon="-61.547151"><ele>20.97</ele></trkpt>
            <trkpt lat="10.215125" lon="-61.546959"><ele>21.39</ele></trkpt>
            <trkpt lat="10.21585" lon="-61.546534"><ele>22.47</ele></trkpt>
            <trkpt lat="10.2163" lon="-61.54627"><ele>22.92</ele></trkpt>
            <trkpt lat="10.2167" lon="-61.546035"><ele>23</ele></trkpt>
            <trkpt lat="10.21705" lon="-61.54583"><ele>22.64</ele></trkpt>
            <trkpt lat="10.217275" lon="-61.545698"><ele>22.15</ele></trkpt>
            <trkpt lat="10.217625" lon="-61.545493"><ele>21.07</ele></trkpt>
            <trkpt lat="10.217987" lon="-61.54528"><ele>19.72</ele></trkpt>
            <trkpt lat="10.21855" lon="-61.54495"><ele>17.42</ele></trkpt>
            <trkpt lat="10.219" lon="-61.544686"><ele>15.16</ele></trkpt>
            <trkpt lat="10.219225" lon="-61.544554"><ele>13.83</ele></trkpt>
            <trkpt lat="10.219765" lon="-61.544233"><ele>10.47</ele></trkpt>
            <trkpt lat="10.219919" lon="-61.54414"><ele>9.59</ele></trkpt>
            <trkpt lat="10.220156" lon="-61.544001"><ele>8.45</ele></trkpt>
            <trkpt lat="10.220471" lon="-61.543816"><ele>7.35</ele></trkpt>
            <trkpt lat="10.220627" lon="-61.543724"><ele>6.99</ele></trkpt>
            <trkpt lat="10.220937" lon="-61.543539"><ele>6.65</ele></trkpt>
            <trkpt lat="10.221248" lon="-61.543352"><ele>6.73</ele></trkpt>
            <trkpt lat="10.221713" lon="-61.543067"><ele>7.43</ele></trkpt>
            <trkpt lat="10.222105" lon="-61.542836"><ele>8.26</ele></trkpt>
            <trkpt lat="10.222497" lon="-61.542605"><ele>9.2</ele></trkpt>
            <trkpt lat="10.2229" lon="-61.542366"><ele>10.29</ele></trkpt>
            <trkpt lat="10.223503" lon="-61.542007"><ele>12.25</ele></trkpt>
            <trkpt lat="10.223959" lon="-61.541717"><ele>13.68</ele></trkpt>
            <trkpt lat="10.22411" lon="-61.54162"><ele>14.06</ele></trkpt>
            <trkpt lat="10.224649" lon="-61.541281"><ele>15.07</ele></trkpt>
            <trkpt lat="10.225121" lon="-61.540972"><ele>15.98</ele></trkpt>
            <trkpt lat="10.225346" lon="-61.540822"><ele>16.55</ele></trkpt>
            <trkpt lat="10.22593" lon="-61.540429"><ele>18.27</ele></trkpt>
            <trkpt lat="10.22628" lon="-61.540159"><ele>19.2</ele></trkpt>
            <trkpt lat="10.226578" lon="-61.539891"><ele>19.68</ele></trkpt>
            <trkpt lat="10.226827" lon="-61.539617"><ele>19.74</ele></trkpt>
            <trkpt lat="10.226949" lon="-61.53948"><ele>19.63</ele></trkpt>
            <trkpt lat="10.227183" lon="-61.53918"><ele>19.12</ele></trkpt>
            <trkpt lat="10.227449" lon="-61.538809"><ele>18.18</ele></trkpt>
            <trkpt lat="10.22764" lon="-61.53842"><ele>17.08</ele></trkpt>
            <trkpt lat="10.22781" lon="-61.538019"><ele>15.87</ele></trkpt>
            <trkpt lat="10.227959" lon="-61.537642"><ele>14.76</ele></trkpt>
            <trkpt lat="10.22814" lon="-61.53713"><ele>13.53</ele></trkpt>
            <trkpt lat="10.228234" lon="-61.536864"><ele>13.1</ele></trkpt>
            <trkpt lat="10.228391" lon="-61.536418"><ele>12.8</ele></trkpt>
            <trkpt lat="10.228612" lon="-61.53578"><ele>12.86</ele></trkpt>
            <trkpt lat="10.22889" lon="-61.53502"><ele>12.6</ele></trkpt>
            <trkpt lat="10.2293156" lon="-61.5339464"><ele>11.17</ele></trkpt>
            <trkpt lat="10.2295558" lon="-61.5333349"><ele>10.49</ele></trkpt>
            <trkpt lat="10.229745" lon="-61.532882"><ele>10</ele></trkpt>
        </trkseg>
    </trk>
</gpx>
