<?xml version='1.0' encoding='UTF-8'?>
<gpx version="1.1"
  creator="GPXmagic"
  xmlns="http://www.topografix.com/GPX/1/1"
  xmlns:rgt="http://www.rgtcycling.com/XML/GpxExtensions/v1"
  xmlns:xsi="http://www.w3.org/2001/XMLSchema-instance" xsi:schemaLocation="http://www.topografix.com/GPX/1/1
  http://www.topografix.com/GPX/1/1/gpx.xsd">
  <metadata>
    <name>Smoothed with GPXmagic</name>
    <author>
      <link href="https://www.stepwiserefinement.co.uk">
        <text>GPXmagic v3</text>
        <type>text/html</type>
      </link>
    </author>
  </metadata>
<trk>  <name>Athens&#32;Twilight&#32;Criterium&#32;Course</name>
<trkseg>
<trkpt lat="33.95936999999999" lon="-83.37586"><ele>232.04000000000002</ele></trkpt>
<trkpt lat="33.95944835625255" lon="-83.37550461104834"><ele>231.7506327160494</ele></trkpt>
<trkpt lat="33.959510580235616" lon="-83.37522238994391"><ele>231.5032716049383</ele></trkpt>
<trkpt lat="33.95955321497104" lon="-83.37502901598587"><ele>231.29578703703706</ele></trkpt>
<trkpt lat="33.959585478788895" lon="-83.37488267880771"><ele>231.08493912894377</ele></trkpt>
<trkpt lat="33.959616590066005" lon="-83.37474156785234"><ele>230.83607424554185</ele></trkpt>
<trkpt lat="33.95965000575358" lon="-83.37459000411901"><ele>230.54801183127572</ele></trkpt>
<trkpt lat="33.959683421344515" lon="-83.37443844026764"><ele>230.24805727023318</ele></trkpt>
<trkpt lat="33.95971453229184" lon="-83.37429732899083"><ele>229.95861196844993</ele></trkpt>
<trkpt lat="33.95974333854157" lon="-83.37416667031296"><ele>229.67729166666663</ele></trkpt>
<trkpt lat="33.95977205740281" lon="-83.3740360601333"><ele>229.38018347050752</ele></trkpt>
<trkpt lat="33.959802296092235" lon="-83.37389543439672"><ele>229.04738082990397</ele></trkpt>
<trkpt lat="33.95983170129559" lon="-83.37374610480505"><ele>228.68869855967077</ele></trkpt>
<trkpt lat="33.959852651709234" lon="-83.37360148760806"><ele>228.34481910150893</ele></trkpt>
<trkpt lat="33.959854039518184" lon="-83.37347694242193"><ele>228.0625291495199</ele></trkpt>
<trkpt lat="33.959824097827926" lon="-83.37337902799175"><ele>227.86812500000002</ele></trkpt>
<trkpt lat="33.959754813941885" lon="-83.37330316932407"><ele>227.7585939643347</ele></trkpt>
<trkpt lat="33.95964675450611" lon="-83.37324089879733"><ele>227.71332218792867</ele></trkpt>
<trkpt lat="33.959513175639444" lon="-83.37318825811596"><ele>227.70809670781892</ele></trkpt>
<trkpt lat="33.95937649215919" lon="-83.37314967202609"><ele>227.72515860768172</ele></trkpt>
<trkpt lat="33.9592578386297" lon="-83.37313536082854"><ele>227.75593964334703</ele></trkpt>
<trkpt lat="33.959167014486624" lon="-83.37315701428079"><ele>227.80104166666666</ele></trkpt>
<trkpt lat="33.95910103367293" lon="-83.37322224751476"><ele>227.86532235939643</ele></trkpt>
<trkpt lat="33.95905111533226" lon="-83.37332996281715"><ele>227.95102280521263</ele></trkpt>
<trkpt lat="33.95900981339724" lon="-83.37346715857292"><ele>228.05254115226336</ele></trkpt>
<trkpt lat="33.95897386154213" lon="-83.37361369609062"><ele>228.15838391632374</ele></trkpt>
<trkpt lat="33.95894219965971" lon="-83.37375328902884"><ele>228.25884087791496</ele></trkpt>
<trkpt lat="33.958913338472605" lon="-83.37388333709208"><ele>228.353125</ele></trkpt>
<trkpt lat="33.95888453221811" lon="-83.37401348137543"><ele>228.44861111111112</ele></trkpt>
<trkpt lat="33.95885342126809" lon="-83.37415403710233"><ele>228.55270833333336</ele></trkpt>
<trkpt lat="33.9588200056759" lon="-83.37430500424954"><ele>228.66500000000002</ele></trkpt>
<trkpt lat="33.958786589988385" lon="-83.37445597127669"><ele>228.77729166666668</ele></trkpt>
<trkpt lat="33.958755478713044" lon="-83.374596526675"><ele>228.8813888888889</ele></trkpt>
<trkpt lat="33.95872667179709" lon="-83.37472667046532"><ele>228.976875</ele></trkpt>
<trkpt lat="33.95869786566018" lon="-83.37485680658837"><ele>229.07108882030178</ele></trkpt>
<trkpt lat="33.958666763770985" lon="-83.37499728595051"><ele>229.17084276406038</ele></trkpt>
<trkpt lat="33.95863339322034" lon="-83.3751479040759"><ele>229.27345164609056</ele></trkpt>
<trkpt lat="33.95860011971098" lon="-83.37529778755801"><ele>229.36491683813446</ele></trkpt>
<trkpt lat="33.95856934896268" lon="-83.37543576012672"><ele>229.42664437585736</ele></trkpt>
<trkpt lat="33.958541216112266" lon="-83.37556079953337"><ele>229.44354166666668</ele></trkpt>
<trkpt lat="33.95851353567476" lon="-83.37568241613403"><ele>229.4096116255144</ele></trkpt>
<trkpt lat="33.95848402807296" lon="-83.37581083206356"><ele>229.32897633744858</ele></trkpt>
<trkpt lat="33.95845255817271" lon="-83.37594706957871"><ele>229.21517746913582</ele></trkpt>
<trkpt lat="33.958421185323246" lon="-83.37608257247047"><ele>229.08466306584367</ele></trkpt>
<trkpt lat="33.95839200889474" lon="-83.37620848165955"><ele>228.94698816872432</ele></trkpt>
<trkpt lat="33.95836500180956" lon="-83.37632500161776"><ele>228.79708333333335</ele></trkpt>
<trkpt lat="33.95833822183296" lon="-83.37644075078188"><ele>228.6214884451723</ele></trkpt>
<trkpt lat="33.95831021545995" lon="-83.37656370817476"><ele>228.4135563814003</ele></trkpt>
<trkpt lat="33.95828282650476" lon="-83.37669167315582"><ele>228.18882663559253</ele></trkpt>
<trkpt lat="33.95826156903076" lon="-83.37681385626243"><ele>227.98102898155147</ele></trkpt>
<trkpt lat="33.95825415212773" lon="-83.37691852227574"><ele>227.82818912544442</ele></trkpt>
<trkpt lat="33.958268207290295" lon="-83.37700151618824"><ele>227.75632653061226</ele></trkpt>
<trkpt lat="33.958310517642644" lon="-83.37706639195923"><ele>227.77826530612248</ele></trkpt>
<trkpt lat="33.958385248420186" lon="-83.37712053702985"><ele>227.89497300507506</ele></trkpt>
<trkpt lat="33.95849074049681" lon="-83.3771698141893"><ele>228.0950545297484</ele></trkpt>
<trkpt lat="33.9586160463373" lon="-83.37721536780005"><ele>228.35074020084227</ele></trkpt>
<trkpt lat="33.95874313278689" lon="-83.37725303985775"><ele>228.6247030558255</ele></trkpt>
<trkpt lat="33.95885470096263" lon="-83.37727542211444"><ele>228.88715311521435</ele></trkpt>
<trkpt lat="33.95894178586314" lon="-83.37727488331362"><ele>229.13067055393586</ele></trkpt>
<trkpt lat="33.95900540845437" lon="-83.3772454229797"><ele>229.37137026239068</ele></trkpt>
<trkpt lat="33.959052250551544" lon="-83.3771832891034"><ele>229.63587651021606</ele></trkpt>
<trkpt lat="33.95908964733621" lon="-83.37708959194407"><ele>229.94128092418626</ele></trkpt>
<trkpt lat="33.9591224400491" lon="-83.37697252713214"><ele>230.28024020984054</ele></trkpt>
<trkpt lat="33.95915236531511" lon="-83.37684679573795"><ele>230.61880706427192</ele></trkpt>
<trkpt lat="33.95917966293965" lon="-83.37672495395661"><ele>230.91890948001776</ele></trkpt>
<trkpt lat="33.95920500179656" lon="-83.37661000147254"><ele>231.16041666666666</ele></trkpt>
<trkpt lat="33.95923221876267" lon="-83.37648628744007"><ele>231.35991255144035</ele></trkpt>
<trkpt lat="33.95926707438305" lon="-83.37632785105633"><ele>231.5554115226338</ele></trkpt>
<trkpt lat="33.959313925646555" lon="-83.37611488765944"><ele>231.78207818930045</ele></trkpt>
<trkpt lat="33.95936999999999" lon="-83.37586"><ele>232.04000000000002</ele></trkpt>
</trkseg>
</trk></gpx>
