<?xml version="1.0" encoding="UTF-8"?>
<gpx version="1.1" creator="BikeTerra" xmlns="http://www.topografix.com/GPX/1/1" xmlns:biketerra="https://biketerra.com/xmlns/gpx/1">
    <metadata>
        <name>Chebeague Island Maine</name>
        <extensions>
            <biketerra:version>2.0.0</biketerra:version>
            <biketerra:isLoop>true</biketerra:isLoop>
            <biketerra:defaultSurface>asphalt</biketerra:defaultSurface>
        </extensions>
    </metadata>
    <trk>
        <name>Chebeague Island Maine</name>
        <trkseg>
            <trkpt lat="43.7330568" lon="-70.1250531"><ele>41.53</ele></trkpt>
            <trkpt lat="43.7325796" lon="-70.1255212"><ele>41.67</ele></trkpt>
            <trkpt lat="43.7309585" lon="-70.1271417"><ele>38.68</ele></trkpt>
            <trkpt lat="43.730098" lon="-70.128074"><ele>38.85</ele></trkpt>
            <trkpt lat="43.7292185" lon="-70.1290266"><ele>38.51</ele></trkpt>
            <trkpt lat="43.7289342" lon="-70.1292534"><ele>37.76</ele></trkpt>
            <trkpt lat="43.7286047" lon="-70.1295676"><ele>36.33</ele></trkpt>
            <trkpt lat="43.7284857" lon="-70.1296641"><ele>35.88</ele></trkpt>
            <trkpt lat="43.7280414" lon="-70.1299618"><ele>33.74</ele></trkpt>
            <trkpt lat="43.7274208" lon="-70.1304499"><ele>31.19</ele></trkpt>
            <trkpt lat="43.7271595" lon="-70.1306567"><ele>30.29</ele></trkpt>
            <trkpt lat="43.7260993" lon="-70.1315001"><ele>27.87</ele></trkpt>
            <trkpt lat="43.7254689" lon="-70.1319802"><ele>26.71</ele></trkpt>
            <trkpt lat="43.7248013" lon="-70.1324687"><ele>25.48</ele></trkpt>
            <trkpt lat="43.7240099" lon="-70.1330502"><ele>24.87</ele></trkpt>
            <trkpt lat="43.7234221" lon="-70.1334642"><ele>24.6</ele></trkpt>
            <trkpt lat="43.7225494" lon="-70.13404"><ele>23.81</ele></trkpt>
            <trkpt lat="43.7221394" lon="-70.1342982"><ele>23.08</ele></trkpt>
            <trkpt lat="43.721884" lon="-70.1344166"><ele>22.96</ele></trkpt>
            <trkpt lat="43.7217562" lon="-70.1344431"><ele>23.08</ele></trkpt>
            <trkpt lat="43.7214554" lon="-70.1344086"><ele>23.46</ele></trkpt>
            <trkpt lat="43.7212155" lon="-70.134293"><ele>24.04</ele></trkpt>
            <trkpt lat="43.7210948" lon="-70.1341809"><ele>24.44</ele></trkpt>
            <trkpt lat="43.7207942" lon="-70.1337211"><ele>25.21</ele></trkpt>
            <trkpt lat="43.7206781" lon="-70.1335816"><ele>25.33</ele></trkpt>
            <trkpt lat="43.72056" lon="-70.1334733"><ele>25.36</ele></trkpt>
            <trkpt lat="43.720042" lon="-70.1330391"><ele>25</ele></trkpt>
            <trkpt lat="43.7199358" lon="-70.1329248"><ele>24.75</ele></trkpt>
            <trkpt lat="43.7198032" lon="-70.1326657"><ele>24.41</ele></trkpt>
            <trkpt lat="43.7197777" lon="-70.1325161"><ele>24.29</ele></trkpt>
            <trkpt lat="43.7197794" lon="-70.1323815"><ele>24.19</ele></trkpt>
            <trkpt lat="43.7198531" lon="-70.131971"><ele>24.01</ele></trkpt>
            <trkpt lat="43.7200055" lon="-70.1314282"><ele>23.96</ele></trkpt>
            <trkpt lat="43.7201795" lon="-70.1308419"><ele>23.92</ele></trkpt>
            <trkpt lat="43.7204316" lon="-70.1301453"><ele>24.01</ele></trkpt>
            <trkpt lat="43.7207001" lon="-70.1295021"><ele>23.74</ele></trkpt>
            <trkpt lat="43.721259" lon="-70.1281332"><ele>21.17</ele></trkpt>
            <trkpt lat="43.7216363" lon="-70.1272064"><ele>20.39</ele></trkpt>
            <trkpt lat="43.7220063" lon="-70.1263132"><ele>20.14</ele></trkpt>
            <trkpt lat="43.72244" lon="-70.125245"><ele>19.94</ele></trkpt>
            <trkpt lat="43.7228026" lon="-70.1243783"><ele>19.88</ele></trkpt>
            <trkpt lat="43.7229276" lon="-70.1241149"><ele>19.96</ele></trkpt>
            <trkpt lat="43.7229281" lon="-70.1240652"><ele>19.86</ele></trkpt>
            <trkpt lat="43.7229071" lon="-70.1240231"><ele>19.65</ele></trkpt>
            <trkpt lat="43.72281" lon="-70.1239259"><ele>19.07</ele></trkpt>
            <trkpt lat="43.7226204" lon="-70.1237851"><ele>18.11</ele></trkpt>
            <trkpt lat="43.7223024" lon="-70.1233939"><ele>16.57</ele></trkpt>
            <trkpt lat="43.7220655" lon="-70.1231134"><ele>15.93</ele></trkpt>
            <trkpt lat="43.7212266" lon="-70.1220871"><ele>13.35</ele></trkpt>
            <trkpt lat="43.7211296" lon="-70.121965"><ele>13.03</ele></trkpt>
            <trkpt lat="43.7211127" lon="-70.1219102"><ele>13.01</ele></trkpt>
            <trkpt lat="43.721151" lon="-70.1217837"><ele>13.09</ele></trkpt>
            <trkpt lat="43.7217102" lon="-70.1205614"><ele>12.87</ele></trkpt>
            <trkpt lat="43.7218712" lon="-70.1202999"><ele>12.59</ele></trkpt>
            <trkpt lat="43.7224068" lon="-70.1195429"><ele>10.74</ele></trkpt>
            <trkpt lat="43.722477" lon="-70.1193488"><ele>10.33</ele></trkpt>
            <trkpt lat="43.7225774" lon="-70.118675"><ele>9.11</ele></trkpt>
            <trkpt lat="43.7226648" lon="-70.118475"><ele>8.7</ele></trkpt>
            <trkpt lat="43.7227921" lon="-70.1182935"><ele>8.47</ele></trkpt>
            <trkpt lat="43.7229799" lon="-70.1181218"><ele>8.39</ele></trkpt>
            <trkpt lat="43.7232017" lon="-70.1179587"><ele>8.41</ele></trkpt>
            <trkpt lat="43.7234004" lon="-70.1179256"><ele>8.61</ele></trkpt>
            <trkpt lat="43.7236344" lon="-70.1179455"><ele>9.05</ele></trkpt>
            <trkpt lat="43.7238324" lon="-70.1180022"><ele>9.59</ele></trkpt>
            <trkpt lat="43.724087" lon="-70.1181236"><ele>10.33</ele></trkpt>
            <trkpt lat="43.7242584" lon="-70.1182389"><ele>11.15</ele></trkpt>
            <trkpt lat="43.724482" lon="-70.1184045"><ele>12.23</ele></trkpt>
            <trkpt lat="43.7246699" lon="-70.1184793"><ele>12.75</ele></trkpt>
            <trkpt lat="43.7248493" lon="-70.1184879"><ele>13.26</ele></trkpt>
            <trkpt lat="43.7250388" lon="-70.1183963"><ele>13.51</ele></trkpt>
            <trkpt lat="43.7252357" lon="-70.1181841"><ele>13.28</ele></trkpt>
            <trkpt lat="43.7253134" lon="-70.1180091"><ele>13.32</ele></trkpt>
            <trkpt lat="43.7253905" lon="-70.1178037"><ele>13.15</ele></trkpt>
            <trkpt lat="43.7256003" lon="-70.1172008"><ele>12.37</ele></trkpt>
            <trkpt lat="43.7260977" lon="-70.1158171"><ele>11.11</ele></trkpt>
            <trkpt lat="43.7266091" lon="-70.1145535"><ele>10.7</ele></trkpt>
            <trkpt lat="43.7268129" lon="-70.1141359"><ele>10.58</ele></trkpt>
            <trkpt lat="43.7268632" lon="-70.1140726"><ele>10.59</ele></trkpt>
            <trkpt lat="43.7271896" lon="-70.1139517"><ele>10.48</ele></trkpt>
            <trkpt lat="43.7277592" lon="-70.1138077"><ele>10.88</ele></trkpt>
            <trkpt lat="43.7281336" lon="-70.1136365"><ele>11.14</ele></trkpt>
            <trkpt lat="43.7284022" lon="-70.1134711"><ele>11.43</ele></trkpt>
            <trkpt lat="43.7286708" lon="-70.1133057"><ele>11.73</ele></trkpt>
            <trkpt lat="43.7289394" lon="-70.1131404"><ele>12.04</ele></trkpt>
            <trkpt lat="43.729208" lon="-70.112975"><ele>12.35</ele></trkpt>
            <trkpt lat="43.7294766" lon="-70.1128096"><ele>12.67</ele></trkpt>
            <trkpt lat="43.7297407" lon="-70.1126495"><ele>13.02</ele></trkpt>
            <trkpt lat="43.7301987" lon="-70.1123692"><ele>13.59</ele></trkpt>
            <trkpt lat="43.7305709" lon="-70.1121523"><ele>14.01</ele></trkpt>
            <trkpt lat="43.7306904" lon="-70.1120959"><ele>14.32</ele></trkpt>
            <trkpt lat="43.7307561" lon="-70.1120968"><ele>14.6</ele></trkpt>
            <trkpt lat="43.7308291" lon="-70.1121427"><ele>15.01</ele></trkpt>
            <trkpt lat="43.7310126" lon="-70.1123255"><ele>16.47</ele></trkpt>
            <trkpt lat="43.7311199" lon="-70.1123692"><ele>17.27</ele></trkpt>
            <trkpt lat="43.7312401" lon="-70.1123687"><ele>17.89</ele></trkpt>
            <trkpt lat="43.7313348" lon="-70.1123243"><ele>18.07</ele></trkpt>
            <trkpt lat="43.7314997" lon="-70.112195"><ele>18.08</ele></trkpt>
            <trkpt lat="43.7319647" lon="-70.1119121"><ele>18.43</ele></trkpt>
            <trkpt lat="43.7323009" lon="-70.1116613"><ele>18.59</ele></trkpt>
            <trkpt lat="43.732751" lon="-70.1113843"><ele>18.85</ele></trkpt>
            <trkpt lat="43.7333925" lon="-70.1110714"><ele>18.99</ele></trkpt>
            <trkpt lat="43.7336479" lon="-70.1107631"><ele>18.25</ele></trkpt>
            <trkpt lat="43.7337904" lon="-70.1106196"><ele>18.03</ele></trkpt>
            <trkpt lat="43.7339302" lon="-70.110481"><ele>17.82</ele></trkpt>
            <trkpt lat="43.734079" lon="-70.1103509"><ele>17.67</ele></trkpt>
            <trkpt lat="43.734254" lon="-70.110212"><ele>17.48</ele></trkpt>
            <trkpt lat="43.7344336" lon="-70.1100765"><ele>17.31</ele></trkpt>
            <trkpt lat="43.7348404" lon="-70.1098036"><ele>16.66</ele></trkpt>
            <trkpt lat="43.7353796" lon="-70.109481"><ele>17.25</ele></trkpt>
            <trkpt lat="43.7355476" lon="-70.1093976"><ele>17.56</ele></trkpt>
            <trkpt lat="43.7357192" lon="-70.1093307"><ele>17.93</ele></trkpt>
            <trkpt lat="43.7362358" lon="-70.1091433"><ele>19.2</ele></trkpt>
            <trkpt lat="43.7366417" lon="-70.1089992"><ele>20.23</ele></trkpt>
            <trkpt lat="43.7371568" lon="-70.1087866"><ele>21.05</ele></trkpt>
            <trkpt lat="43.7376113" lon="-70.1085877"><ele>21.63</ele></trkpt>
            <trkpt lat="43.7381789" lon="-70.1082595"><ele>21.44</ele></trkpt>
            <trkpt lat="43.7388919" lon="-70.1078014"><ele>21.15</ele></trkpt>
            <trkpt lat="43.7391113" lon="-70.1077019"><ele>21.04</ele></trkpt>
            <trkpt lat="43.7394959" lon="-70.1076368"><ele>20.8</ele></trkpt>
            <trkpt lat="43.7407125" lon="-70.1075737"><ele>20.57</ele></trkpt>
            <trkpt lat="43.7410506" lon="-70.107513"><ele>20.59</ele></trkpt>
            <trkpt lat="43.7416087" lon="-70.1074926"><ele>20.54</ele></trkpt>
            <trkpt lat="43.74182" lon="-70.10752"><ele>20.22</ele></trkpt>
            <trkpt lat="43.7420993" lon="-70.1075654"><ele>18.75</ele></trkpt>
            <trkpt lat="43.7426304" lon="-70.1076534"><ele>16.27</ele></trkpt>
            <trkpt lat="43.7427852" lon="-70.1076408"><ele>15.9</ele></trkpt>
            <trkpt lat="43.7429527" lon="-70.107587"><ele>15.4</ele></trkpt>
            <trkpt lat="43.7434239" lon="-70.1073251"><ele>14.49</ele></trkpt>
            <trkpt lat="43.7440443" lon="-70.1068028"><ele>13.73</ele></trkpt>
            <trkpt lat="43.7442983" lon="-70.1064986"><ele>13.56</ele></trkpt>
            <trkpt lat="43.744977" lon="-70.105523"><ele>13.2</ele></trkpt>
            <trkpt lat="43.7451023" lon="-70.1053819"><ele>13.15</ele></trkpt>
            <trkpt lat="43.745451" lon="-70.1051125"><ele>13</ele></trkpt>
            <trkpt lat="43.7458373" lon="-70.1049084"><ele>12.35</ele></trkpt>
            <trkpt lat="43.7460035" lon="-70.104867"><ele>11.99</ele></trkpt>
            <trkpt lat="43.7465126" lon="-70.104889"><ele>11.23</ele></trkpt>
            <trkpt lat="43.7468669" lon="-70.1049017"><ele>10.93</ele></trkpt>
            <trkpt lat="43.7470362" lon="-70.1049275"><ele>10.65</ele></trkpt>
            <trkpt lat="43.7470827" lon="-70.105008"><ele>10.5</ele></trkpt>
            <trkpt lat="43.7471067" lon="-70.1052011"><ele>10.35</ele></trkpt>
            <trkpt lat="43.7470275" lon="-70.1056271"><ele>10.04</ele></trkpt>
            <trkpt lat="43.7469932" lon="-70.1058607"><ele>9.98</ele></trkpt>
            <trkpt lat="43.746959" lon="-70.1060943"><ele>9.9</ele></trkpt>
            <trkpt lat="43.7469248" lon="-70.1063278"><ele>9.83</ele></trkpt>
            <trkpt lat="43.7468905" lon="-70.1065614"><ele>9.77</ele></trkpt>
            <trkpt lat="43.7468563" lon="-70.106795"><ele>9.7</ele></trkpt>
            <trkpt lat="43.7468221" lon="-70.1070286"><ele>9.65</ele></trkpt>
            <trkpt lat="43.7467878" lon="-70.1072622"><ele>9.6</ele></trkpt>
            <trkpt lat="43.7467536" lon="-70.1074957"><ele>9.57</ele></trkpt>
            <trkpt lat="43.7467194" lon="-70.1077293"><ele>9.55</ele></trkpt>
            <trkpt lat="43.7465833" lon="-70.10862"><ele>9.6</ele></trkpt>
            <trkpt lat="43.7465312" lon="-70.1089429"><ele>9.36</ele></trkpt>
            <trkpt lat="43.7464894" lon="-70.1092612"><ele>9.75</ele></trkpt>
            <trkpt lat="43.7464613" lon="-70.1095105"><ele>10.28</ele></trkpt>
            <trkpt lat="43.7464432" lon="-70.1097312"><ele>10.86</ele></trkpt>
            <trkpt lat="43.74644" lon="-70.1099534"><ele>11.57</ele></trkpt>
            <trkpt lat="43.74644" lon="-70.110114"><ele>12.03</ele></trkpt>
            <trkpt lat="43.7464418" lon="-70.1102896"><ele>12.24</ele></trkpt>
            <trkpt lat="43.7464478" lon="-70.1104686"><ele>12.37</ele></trkpt>
            <trkpt lat="43.7464677" lon="-70.1110324"><ele>12.61</ele></trkpt>
            <trkpt lat="43.746447" lon="-70.1113583"><ele>12.61</ele></trkpt>
            <trkpt lat="43.7463895" lon="-70.1116502"><ele>12.39</ele></trkpt>
            <trkpt lat="43.746331" lon="-70.1119079"><ele>12.46</ele></trkpt>
            <trkpt lat="43.7461978" lon="-70.1122585"><ele>12.78</ele></trkpt>
            <trkpt lat="43.7460136" lon="-70.1125969"><ele>13.66</ele></trkpt>
            <trkpt lat="43.7458705" lon="-70.1128576"><ele>14.84</ele></trkpt>
            <trkpt lat="43.7452431" lon="-70.1138904"><ele>20.26</ele></trkpt>
            <trkpt lat="43.7448157" lon="-70.1146528"><ele>24.36</ele></trkpt>
            <trkpt lat="43.7445632" lon="-70.1151436"><ele>26.14</ele></trkpt>
            <trkpt lat="43.7439967" lon="-70.1162066"><ele>30.68</ele></trkpt>
            <trkpt lat="43.74386" lon="-70.1164767"><ele>31.9</ele></trkpt>
            <trkpt lat="43.7436797" lon="-70.1168285"><ele>33.96</ele></trkpt>
            <trkpt lat="43.7432867" lon="-70.1176004"><ele>38.38</ele></trkpt>
            <trkpt lat="43.7430002" lon="-70.1181669"><ele>40.53</ele></trkpt>
            <trkpt lat="43.742776" lon="-70.1184903"><ele>41.88</ele></trkpt>
            <trkpt lat="43.7424953" lon="-70.1187546"><ele>43.33</ele></trkpt>
            <trkpt lat="43.7422641" lon="-70.1189399"><ele>43.09</ele></trkpt>
            <trkpt lat="43.7421372" lon="-70.1190406"><ele>42.48</ele></trkpt>
            <trkpt lat="43.7419216" lon="-70.1192047"><ele>41.37</ele></trkpt>
            <trkpt lat="43.7418038" lon="-70.119295"><ele>40.91</ele></trkpt>
            <trkpt lat="43.7414474" lon="-70.1195575"><ele>40.35</ele></trkpt>
            <trkpt lat="43.7408505" lon="-70.11991"><ele>40.92</ele></trkpt>
            <trkpt lat="43.7396104" lon="-70.1206593"><ele>43.16</ele></trkpt>
            <trkpt lat="43.7390432" lon="-70.1209839"><ele>43.16</ele></trkpt>
            <trkpt lat="43.7381551" lon="-70.1214949"><ele>43.4</ele></trkpt>
            <trkpt lat="43.7376785" lon="-70.1217759"><ele>43.7</ele></trkpt>
            <trkpt lat="43.7375626" lon="-70.1218566"><ele>43.8</ele></trkpt>
            <trkpt lat="43.7369325" lon="-70.1223675"><ele>44.38</ele></trkpt>
            <trkpt lat="43.7362234" lon="-70.1229382"><ele>44.22</ele></trkpt>
            <trkpt lat="43.7357412" lon="-70.1232776"><ele>43.48</ele></trkpt>
            <trkpt lat="43.7352312" lon="-70.1235574"><ele>42.66</ele></trkpt>
            <trkpt lat="43.7350173" lon="-70.123653"><ele>42.43</ele></trkpt>
            <trkpt lat="43.7345469" lon="-70.1239087"><ele>41.76</ele></trkpt>
            <trkpt lat="43.7338512" lon="-70.1242994"><ele>41.4</ele></trkpt>
            <trkpt lat="43.7336928" lon="-70.1244104"><ele>41.43</ele></trkpt>
            <trkpt lat="43.7330568" lon="-70.1250531"><ele>41.53</ele></trkpt>
        </trkseg>
    </trk>
</gpx>
