<?xml version='1.0' encoding='UTF-8'?>
<gpx version="1.1"
  creator="GPXmagic"
  xmlns="http://www.topografix.com/GPX/1/1"
  xmlns:rgt="http://www.rgtcycling.com/XML/GpxExtensions/v1"
  xmlns:xsi="http://www.w3.org/2001/XMLSchema-instance" xsi:schemaLocation="http://www.topografix.com/GPX/1/1
  http://www.topografix.com/GPX/1/1/gpx.xsd">
  <metadata>
    <name>Smoothed with GPXmagic</name>
    <author>
      <link href="https://www.stepwiserefinement.co.uk">
        <text>GPXmagic v3</text>
        <type>text/html</type>
      </link>
    </author>
  </metadata>
<trk>  <name>Puerto&#32;Vallarta</name>
<trkseg>
<trkpt lat="20.624034999999996" lon="-105.2304039"><ele>6.2</ele></trkpt>
<trkpt lat="20.62313" lon="-105.23056600000001"><ele>10.06</ele></trkpt>
<trkpt lat="20.6227621" lon="-105.2306161"><ele>10.4</ele></trkpt>
<trkpt lat="20.6224466" lon="-105.2306478"><ele>9.81</ele></trkpt>
<trkpt lat="20.6218261" lon="-105.230728"><ele>7.83</ele></trkpt>
<trkpt lat="20.6216339" lon="-105.23075200000001"><ele>7.33</ele></trkpt>
<trkpt lat="20.6214371" lon="-105.2307857"><ele>7.04</ele></trkpt>
<trkpt lat="20.620905699999998" lon="-105.2308886"><ele>7.14</ele></trkpt>
<trkpt lat="20.6205772" lon="-105.2309499"><ele>7.56</ele></trkpt>
<trkpt lat="20.619820100000002" lon="-105.23107020000002"><ele>8.59</ele></trkpt>
<trkpt lat="20.619065699999997" lon="-105.23119860000001"><ele>8.06</ele></trkpt>
<trkpt lat="20.6188108" lon="-105.23124309999999"><ele>8.46</ele></trkpt>
<trkpt lat="20.6181003" lon="-105.2313701"><ele>11.15</ele></trkpt>
<trkpt lat="20.6172705" lon="-105.23152970000001"><ele>11.94</ele></trkpt>
<trkpt lat="20.6165508" lon="-105.23165689999999"><ele>12.48</ele></trkpt>
<trkpt lat="20.61642" lon="-105.23168070000001"><ele>12.43</ele></trkpt>
<trkpt lat="20.6155917" lon="-105.2318651"><ele>11.17</ele></trkpt>
<trkpt lat="20.6154223" lon="-105.2319605"><ele>10.88</ele></trkpt>
<trkpt lat="20.6149289" lon="-105.2323076"><ele>10.23</ele></trkpt>
<trkpt lat="20.6148768" lon="-105.2322917"><ele>10.21</ele></trkpt>
<trkpt lat="20.6144741" lon="-105.2317896"><ele>10.54</ele></trkpt>
<trkpt lat="20.614412400000003" lon="-105.2317736"><ele>10.6</ele></trkpt>
<trkpt lat="20.614009" lon="-105.2320702"><ele>11.31</ele></trkpt>
<trkpt lat="20.61353" lon="-105.2324075"><ele>12.83</ele></trkpt>
<trkpt lat="20.6133702" lon="-105.23252030000002"><ele>13.11</ele></trkpt>
<trkpt lat="20.613265" lon="-105.23259750000001"><ele>13.13</ele></trkpt>
<trkpt lat="20.6128935" lon="-105.23287269999999"><ele>12.66</ele></trkpt>
<trkpt lat="20.6124991" lon="-105.2331697"><ele>12.14</ele></trkpt>
<trkpt lat="20.611964999999998" lon="-105.2335323"><ele>11.67</ele></trkpt>
<trkpt lat="20.6115605" lon="-105.2338"><ele>11.61</ele></trkpt>
<trkpt lat="20.6107388" lon="-105.23434889999999"><ele>10.76</ele></trkpt>
<trkpt lat="20.6101717" lon="-105.2347225"><ele>10.35</ele></trkpt>
<trkpt lat="20.6099888" lon="-105.2348879"><ele>9.99</ele></trkpt>
<trkpt lat="20.609758300000003" lon="-105.235053"><ele>9.29</ele></trkpt>
<trkpt lat="20.6091765" lon="-105.2354568"><ele>7.03</ele></trkpt>
<trkpt lat="20.60896" lon="-105.235605"><ele>6.72</ele></trkpt>
<trkpt lat="20.6087895" lon="-105.2357211"><ele>7.07</ele></trkpt>
<trkpt lat="20.6084295" lon="-105.235979"><ele>8.94</ele></trkpt>
<trkpt lat="20.6080102" lon="-105.23625080000001"><ele>10.41</ele></trkpt>
<trkpt lat="20.6075108" lon="-105.2366144"><ele>9.31</ele></trkpt>
<trkpt lat="20.6073984" lon="-105.2366977"><ele>8.86</ele></trkpt>
<trkpt lat="20.6071882" lon="-105.2368459"><ele>8.06</ele></trkpt>
<trkpt lat="20.6069689" lon="-105.2369336"><ele>7.73</ele></trkpt>
<trkpt lat="20.6068203" lon="-105.23694880000001"><ele>7.81</ele></trkpt>
<trkpt lat="20.6067209" lon="-105.23692799999999"><ele>7.99</ele></trkpt>
<trkpt lat="20.6065257" lon="-105.2367798"><ele>8.65</ele></trkpt>
<trkpt lat="20.6063387" lon="-105.2366368"><ele>9.36</ele></trkpt>
<trkpt lat="20.606240300000003" lon="-105.23660100000001"><ele>9.63</ele></trkpt>
<trkpt lat="20.606009399999998" lon="-105.23655230000001"><ele>10.04</ele></trkpt>
<trkpt lat="20.6049821" lon="-105.23635599999999"><ele>10.12</ele></trkpt>
<trkpt lat="20.603670799999996" lon="-105.23608980000002"><ele>10.14</ele></trkpt>
<trkpt lat="20.603011" lon="-105.2359504"><ele>10.19</ele></trkpt>
<trkpt lat="20.6028107" lon="-105.2359105"><ele>10.13</ele></trkpt>
<trkpt lat="20.6024056" lon="-105.2358207"><ele>10.01</ele></trkpt>
<trkpt lat="20.6023821" lon="-105.2357958"><ele>10.02</ele></trkpt>
<trkpt lat="20.6023741" lon="-105.2357561"><ele>10.02</ele></trkpt>
<trkpt lat="20.6025503" lon="-105.2347905"><ele>10.66</ele></trkpt>
<trkpt lat="20.6027013" lon="-105.23404749999999"><ele>10.98</ele></trkpt>
<trkpt lat="20.6027563" lon="-105.2337772"><ele>11.58</ele></trkpt>
<trkpt lat="20.6027953" lon="-105.2335673"><ele>12.52</ele></trkpt>
<trkpt lat="20.602922" lon="-105.232854"><ele>17.08</ele></trkpt>
<trkpt lat="20.6029604" lon="-105.2326399"><ele>18</ele></trkpt>
<trkpt lat="20.603002" lon="-105.232436"><ele>18.44</ele></trkpt>
<trkpt lat="20.6031695" lon="-105.2316205"><ele>18.67</ele></trkpt>
<trkpt lat="20.6032831" lon="-105.2309769"><ele>19.18</ele></trkpt>
<trkpt lat="20.6033033" lon="-105.23086069999998"><ele>19.31</ele></trkpt>
<trkpt lat="20.6033304" lon="-105.2307748"><ele>19.42</ele></trkpt>
<trkpt lat="20.6034111" lon="-105.23056360000001"><ele>19.75</ele></trkpt>
<trkpt lat="20.6034487" lon="-105.2304932"><ele>19.9</ele></trkpt>
<trkpt lat="20.6034929" lon="-105.23043"><ele>20.07</ele></trkpt>
<trkpt lat="20.6035695" lon="-105.230344"><ele>20.37</ele></trkpt>
<trkpt lat="20.6036521" lon="-105.2302602"><ele>20.79</ele></trkpt>
<trkpt lat="20.6038088" lon="-105.2301086"><ele>21.94</ele></trkpt>
<trkpt lat="20.6038575" lon="-105.2300388"><ele>22.54</ele></trkpt>
<trkpt lat="20.6038767" lon="-105.22997910000001"><ele>23.04</ele></trkpt>
<trkpt lat="20.603887799999995" lon="-105.2298795"><ele>23.9</ele></trkpt>
<trkpt lat="20.6038839" lon="-105.22966099999998"><ele>25.98</ele></trkpt>
<trkpt lat="20.6037489" lon="-105.2292786"><ele>29.28</ele></trkpt>
<trkpt lat="20.6036017" lon="-105.2289296"><ele>30.15</ele></trkpt>
<trkpt lat="20.6035267" lon="-105.2288357"><ele>30.08</ele></trkpt>
<trkpt lat="20.6034197" lon="-105.2288011"><ele>29.99</ele></trkpt>
<trkpt lat="20.6032785" lon="-105.228812"><ele>29.98</ele></trkpt>
<trkpt lat="20.6031287" lon="-105.2288558"><ele>30.6</ele></trkpt>
<trkpt lat="20.6030176" lon="-105.22892089999999"><ele>31.7</ele></trkpt>
<trkpt lat="20.6027648" lon="-105.2290718"><ele>34.55</ele></trkpt>
<trkpt lat="20.6026431" lon="-105.22911639999998"><ele>35.95</ele></trkpt>
<trkpt lat="20.602477" lon="-105.2291512"><ele>37.9</ele></trkpt>
<trkpt lat="20.6022987" lon="-105.22916649999999"><ele>39.97</ele></trkpt>
<trkpt lat="20.6021497" lon="-105.2291494"><ele>41.66</ele></trkpt>
<trkpt lat="20.6020803" lon="-105.2291341"><ele>42.29</ele></trkpt>
<trkpt lat="20.6020102" lon="-105.2291096"><ele>42.66</ele></trkpt>
<trkpt lat="20.6019467" lon="-105.22907249999999"><ele>42.84</ele></trkpt>
<trkpt lat="20.6019016" lon="-105.22904029999998"><ele>42.87</ele></trkpt>
<trkpt lat="20.6018125" lon="-105.2289664"><ele>42.64</ele></trkpt>
<trkpt lat="20.6017296" lon="-105.2288666"><ele>42</ele></trkpt>
<trkpt lat="20.601655700000002" lon="-105.2287666"><ele>41.1</ele></trkpt>
<trkpt lat="20.6015202" lon="-105.2285311"><ele>38.59</ele></trkpt>
<trkpt lat="20.6014485" lon="-105.2284011"><ele>37.03</ele></trkpt>
<trkpt lat="20.6013833" lon="-105.2282855"><ele>35.61</ele></trkpt>
<trkpt lat="20.6012497" lon="-105.2280389"><ele>32.76</ele></trkpt>
<trkpt lat="20.6011898" lon="-105.2279246"><ele>31.69</ele></trkpt>
<trkpt lat="20.6011341" lon="-105.22781679999999"><ele>30.89</ele></trkpt>
<trkpt lat="20.601007100000004" lon="-105.2275439"><ele>29.64</ele></trkpt>
<trkpt lat="20.600958300000002" lon="-105.2274382"><ele>29.38</ele></trkpt>
<trkpt lat="20.6009184" lon="-105.2273438"><ele>29.24</ele></trkpt>
<trkpt lat="20.6008211" lon="-105.22708970000001"><ele>29.15</ele></trkpt>
<trkpt lat="20.6008106" lon="-105.2269931"><ele>29.17</ele></trkpt>
<trkpt lat="20.6008128" lon="-105.2267621"><ele>29.24</ele></trkpt>
<trkpt lat="20.6008304" lon="-105.2266595"><ele>29.23</ele></trkpt>
<trkpt lat="20.600865900000002" lon="-105.2265352"><ele>29.15</ele></trkpt>
<trkpt lat="20.6009525" lon="-105.2263627"><ele>28.85</ele></trkpt>
<trkpt lat="20.6010421" lon="-105.2262281"><ele>28.48</ele></trkpt>
<trkpt lat="20.601171" lon="-105.2261122"><ele>28.04</ele></trkpt>
<trkpt lat="20.6013004" lon="-105.2260436"><ele>27.68</ele></trkpt>
<trkpt lat="20.601629900000002" lon="-105.22598389999999"><ele>26.87</ele></trkpt>
<trkpt lat="20.60186" lon="-105.2259954"><ele>26.18</ele></trkpt>
<trkpt lat="20.6020514" lon="-105.2260305"><ele>25.39</ele></trkpt>
<trkpt lat="20.6021814" lon="-105.2260586"><ele>24.74</ele></trkpt>
<trkpt lat="20.6025121" lon="-105.2261322"><ele>23.21</ele></trkpt>
<trkpt lat="20.602906599999997" lon="-105.22625"><ele>23.01</ele></trkpt>
<trkpt lat="20.603137" lon="-105.22632999999999"><ele>24.65</ele></trkpt>
<trkpt lat="20.6032572" lon="-105.22636330000002"><ele>25.89</ele></trkpt>
<trkpt lat="20.603322999999996" lon="-105.2263766"><ele>26.57</ele></trkpt>
<trkpt lat="20.6034512" lon="-105.22639709999999"><ele>27.93</ele></trkpt>
<trkpt lat="20.6037587" lon="-105.22643280000001"><ele>31.24</ele></trkpt>
<trkpt lat="20.6038841" lon="-105.226444"><ele>32.51</ele></trkpt>
<trkpt lat="20.604204" lon="-105.226464"><ele>35.43</ele></trkpt>
<trkpt lat="20.6043958" lon="-105.226476"><ele>36.91</ele></trkpt>
<trkpt lat="20.6045209" lon="-105.22648810000001"><ele>37.53</ele></trkpt>
<trkpt lat="20.6046433" lon="-105.2265043"><ele>37.88</ele></trkpt>
<trkpt lat="20.6051402" lon="-105.22656589999998"><ele>38.1</ele></trkpt>
<trkpt lat="20.6052837" lon="-105.2265534"><ele>38.14</ele></trkpt>
<trkpt lat="20.6054386" lon="-105.2265175"><ele>38.25</ele></trkpt>
<trkpt lat="20.605641" lon="-105.226418"><ele>38.54</ele></trkpt>
<trkpt lat="20.606050000000003" lon="-105.2261388"><ele>39.74</ele></trkpt>
<trkpt lat="20.6062615" lon="-105.2259735"><ele>41.14</ele></trkpt>
<trkpt lat="20.60667" lon="-105.2256594"><ele>44.73</ele></trkpt>
<trkpt lat="20.6071801" lon="-105.2252499"><ele>48.26</ele></trkpt>
<trkpt lat="20.6073319" lon="-105.225118"><ele>49.58</ele></trkpt>
<trkpt lat="20.607435" lon="-105.225015"><ele>50.71</ele></trkpt>
<trkpt lat="20.6075395" lon="-105.2249105"><ele>52.01</ele></trkpt>
<trkpt lat="20.607652199999997" lon="-105.2247743"><ele>53.77</ele></trkpt>
<trkpt lat="20.6077693" lon="-105.2245668"><ele>56.34</ele></trkpt>
<trkpt lat="20.607842" lon="-105.22438999999999"><ele>58.47</ele></trkpt>
<trkpt lat="20.6079364" lon="-105.2241507"><ele>61.21</ele></trkpt>
<trkpt lat="20.6079841" lon="-105.22403449999999"><ele>62.43</ele></trkpt>
<trkpt lat="20.6080185" lon="-105.2239551"><ele>63.21</ele></trkpt>
<trkpt lat="20.608066700000002" lon="-105.2238451"><ele>64.19</ele></trkpt>
<trkpt lat="20.6081114" lon="-105.2237659"><ele>64.86</ele></trkpt>
<trkpt lat="20.608189499999998" lon="-105.2236663"><ele>65.7</ele></trkpt>
<trkpt lat="20.6083369" lon="-105.22350649999998"><ele>66.95</ele></trkpt>
<trkpt lat="20.6084355" lon="-105.22341570000002"><ele>67.64</ele></trkpt>
<trkpt lat="20.6086754" lon="-105.22326159999999"><ele>69</ele></trkpt>
<trkpt lat="20.60896" lon="-105.223105"><ele>70.51</ele></trkpt>
<trkpt lat="20.60913" lon="-105.2230204"><ele>71.35</ele></trkpt>
<trkpt lat="20.6093489" lon="-105.2229209"><ele>72.57</ele></trkpt>
<trkpt lat="20.6094498" lon="-105.2228933"><ele>73.24</ele></trkpt>
<trkpt lat="20.609557" lon="-105.22289359999999"><ele>74.03</ele></trkpt>
<trkpt lat="20.6096566" lon="-105.22291019999999"><ele>74.84</ele></trkpt>
<trkpt lat="20.609748900000003" lon="-105.2229331"><ele>75.64</ele></trkpt>
<trkpt lat="20.6099089" lon="-105.22299950000001"><ele>77.09</ele></trkpt>
<trkpt lat="20.6100758" lon="-105.2230754"><ele>78.53</ele></trkpt>
<trkpt lat="20.6101764" lon="-105.22314089999999"><ele>79.39</ele></trkpt>
<trkpt lat="20.6104967" lon="-105.2233546"><ele>81.85</ele></trkpt>
<trkpt lat="20.6105999" lon="-105.22343230000001"><ele>82.56</ele></trkpt>
<trkpt lat="20.61105" lon="-105.2238131"><ele>84.99</ele></trkpt>
<trkpt lat="20.611199200000005" lon="-105.2239399"><ele>85.35</ele></trkpt>
<trkpt lat="20.6114122" lon="-105.22413019999999"><ele>85.32</ele></trkpt>
<trkpt lat="20.6115123" lon="-105.2242398"><ele>85.15</ele></trkpt>
<trkpt lat="20.6117708" lon="-105.22446239999998"><ele>84.55</ele></trkpt>
<trkpt lat="20.612092" lon="-105.224669"><ele>83.76</ele></trkpt>
<trkpt lat="20.612312900000003" lon="-105.2247763"><ele>83.2</ele></trkpt>
<trkpt lat="20.6126343" lon="-105.22488060000002"><ele>82.39</ele></trkpt>
<trkpt lat="20.6126984" lon="-105.2248995"><ele>82.22</ele></trkpt>
<trkpt lat="20.612769800000002" lon="-105.2249199"><ele>82.04</ele></trkpt>
<trkpt lat="20.6128746" lon="-105.2249485"><ele>81.77</ele></trkpt>
<trkpt lat="20.612977199999996" lon="-105.2249743"><ele>81.52</ele></trkpt>
<trkpt lat="20.6130456" lon="-105.2249902"><ele>81.34</ele></trkpt>
<trkpt lat="20.613427" lon="-105.224999"><ele>80.42</ele></trkpt>
<trkpt lat="20.613571" lon="-105.2249885"><ele>80.07</ele></trkpt>
<trkpt lat="20.6136297" lon="-105.22498"><ele>79.92</ele></trkpt>
<trkpt lat="20.613690699999996" lon="-105.2249699"><ele>79.77</ele></trkpt>
<trkpt lat="20.6137482" lon="-105.22495949999998"><ele>79.63</ele></trkpt>
<trkpt lat="20.613824099999995" lon="-105.2249431"><ele>79.44</ele></trkpt>
<trkpt lat="20.6138965" lon="-105.2249267"><ele>79.26</ele></trkpt>
<trkpt lat="20.6139698" lon="-105.2249093"><ele>79.08</ele></trkpt>
<trkpt lat="20.6144919" lon="-105.22477000000002"><ele>77.77</ele></trkpt>
<trkpt lat="20.615139800000005" lon="-105.22456939999998"><ele>76.05</ele></trkpt>
<trkpt lat="20.6156015" lon="-105.2244109"><ele>74.33</ele></trkpt>
<trkpt lat="20.6159244" lon="-105.2243308"><ele>72.15</ele></trkpt>
<trkpt lat="20.616337" lon="-105.2242532"><ele>67.69</ele></trkpt>
<trkpt lat="20.6164762" lon="-105.2242179"><ele>65.81</ele></trkpt>
<trkpt lat="20.6166122" lon="-105.2241859"><ele>63.88</ele></trkpt>
<trkpt lat="20.6166796" lon="-105.22416940000001"><ele>62.92</ele></trkpt>
<trkpt lat="20.616750100000004" lon="-105.22415"><ele>61.92</ele></trkpt>
<trkpt lat="20.6168899" lon="-105.22411000000001"><ele>60.02</ele></trkpt>
<trkpt lat="20.6171904" lon="-105.22400480000002"><ele>56.22</ele></trkpt>
<trkpt lat="20.61737" lon="-105.2239325"><ele>54.04</ele></trkpt>
<trkpt lat="20.61767" lon="-105.2238137"><ele>50.63</ele></trkpt>
<trkpt lat="20.617846" lon="-105.22373"><ele>48.88</ele></trkpt>
<trkpt lat="20.61802" lon="-105.22364"><ele>47.4</ele></trkpt>
<trkpt lat="20.61863" lon="-105.2233167"><ele>42.67</ele></trkpt>
<trkpt lat="20.6189902" lon="-105.2231316"><ele>38.09</ele></trkpt>
<trkpt lat="20.6191848" lon="-105.2230551"><ele>35.39</ele></trkpt>
<trkpt lat="20.619374" lon="-105.222998"><ele>32.96</ele></trkpt>
<trkpt lat="20.6196867" lon="-105.22291330000002"><ele>29.58</ele></trkpt>
<trkpt lat="20.6198766" lon="-105.2228583"><ele>27.93</ele></trkpt>
<trkpt lat="20.620068" lon="-105.2228"><ele>26.64</ele></trkpt>
<trkpt lat="20.6207034" lon="-105.2226078"><ele>23.79</ele></trkpt>
<trkpt lat="20.620971600000004" lon="-105.22252789999999"><ele>23.07</ele></trkpt>
<trkpt lat="20.6217702" lon="-105.2222511"><ele>21.78</ele></trkpt>
<trkpt lat="20.6222854" lon="-105.2221167"><ele>20.96</ele></trkpt>
<trkpt lat="20.622475" lon="-105.22207"><ele>20.81</ele></trkpt>
<trkpt lat="20.6228502" lon="-105.2219826"><ele>20.68</ele></trkpt>
<trkpt lat="20.6232499" lon="-105.2219622"><ele>19.83</ele></trkpt>
<trkpt lat="20.6235226" lon="-105.22199000000002"><ele>18.38</ele></trkpt>
<trkpt lat="20.6238688" lon="-105.22207380000002"><ele>15.93</ele></trkpt>
<trkpt lat="20.624099000000005" lon="-105.2221846"><ele>14.48</ele></trkpt>
<trkpt lat="20.6242582" lon="-105.2222714"><ele>13.64</ele></trkpt>
<trkpt lat="20.6245193" lon="-105.2224515"><ele>12.2</ele></trkpt>
<trkpt lat="20.624764399999997" lon="-105.22266110000001"><ele>10.6</ele></trkpt>
<trkpt lat="20.624912" lon="-105.2227885"><ele>9.8</ele></trkpt>
<trkpt lat="20.6250229" lon="-105.2228917"><ele>9.4</ele></trkpt>
<trkpt lat="20.625129999999995" lon="-105.2229866"><ele>9.2</ele></trkpt>
<trkpt lat="20.625742699999996" lon="-105.22352910000001"><ele>9.34</ele></trkpt>
<trkpt lat="20.625840900000004" lon="-105.2236163"><ele>9.36</ele></trkpt>
<trkpt lat="20.6259373" lon="-105.22369979999999"><ele>9.29</ele></trkpt>
<trkpt lat="20.6265087" lon="-105.2242128"><ele>7.38</ele></trkpt>
<trkpt lat="20.6270698" lon="-105.2246958"><ele>5.79</ele></trkpt>
<trkpt lat="20.627365" lon="-105.224955"><ele>5.15</ele></trkpt>
<trkpt lat="20.627512" lon="-105.2250753"><ele>4.89</ele></trkpt>
<trkpt lat="20.6282" lon="-105.22568249999999"><ele>3.78</ele></trkpt>
<trkpt lat="20.6283488" lon="-105.22580969999999"><ele>3.6</ele></trkpt>
<trkpt lat="20.6287671" lon="-105.22618959999998"><ele>3.25</ele></trkpt>
<trkpt lat="20.629200000000004" lon="-105.22656670000002"><ele>2.96</ele></trkpt>
<trkpt lat="20.62995" lon="-105.2272166"><ele>2.14</ele></trkpt>
<trkpt lat="20.6304351" lon="-105.22765"><ele>1.78</ele></trkpt>
<trkpt lat="20.6311353" lon="-105.2282428"><ele>2.71</ele></trkpt>
<trkpt lat="20.6313048" lon="-105.2284141"><ele>3.12</ele></trkpt>
<trkpt lat="20.6313693" lon="-105.22860509999998"><ele>3.43</ele></trkpt>
<trkpt lat="20.6313971" lon="-105.2288095"><ele>3.59</ele></trkpt>
<trkpt lat="20.6313622" lon="-105.22904279999999"><ele>3.53</ele></trkpt>
<trkpt lat="20.6313306" lon="-105.2290866"><ele>3.48</ele></trkpt>
<trkpt lat="20.630934999999997" lon="-105.22915050000002"><ele>3.09</ele></trkpt>
<trkpt lat="20.6299425" lon="-105.22933699999999"><ele>3.22</ele></trkpt>
<trkpt lat="20.6297268" lon="-105.2293736"><ele>3.26</ele></trkpt>
<trkpt lat="20.6291524" lon="-105.229468"><ele>3.34</ele></trkpt>
<trkpt lat="20.6285651" lon="-105.2295739"><ele>3.54</ele></trkpt>
<trkpt lat="20.6282522" lon="-105.2296364"><ele>3.55</ele></trkpt>
<trkpt lat="20.628121700000005" lon="-105.2296609"><ele>3.53</ele></trkpt>
<trkpt lat="20.627650900000003" lon="-105.2297471"><ele>3.44</ele></trkpt>
<trkpt lat="20.6270553" lon="-105.2298588"><ele>3.64</ele></trkpt>
<trkpt lat="20.6267309" lon="-105.2299115"><ele>3.73</ele></trkpt>
<trkpt lat="20.6263875" lon="-105.22997390000002"><ele>3.74</ele></trkpt>
<trkpt lat="20.6260522" lon="-105.2300349"><ele>3.75</ele></trkpt>
<trkpt lat="20.6258405" lon="-105.2300691"><ele>3.8</ele></trkpt>
<trkpt lat="20.625028000000004" lon="-105.2302149"><ele>4.22</ele></trkpt>
<trkpt lat="20.6248351" lon="-105.2302505"><ele>4.37</ele></trkpt>
<trkpt lat="20.6244601" lon="-105.2303189"><ele>4.93</ele></trkpt>
<trkpt lat="20.624034999999996" lon="-105.2304039"><ele>6.2</ele></trkpt>
</trkseg>
</trk></gpx>
