<?xml version='1.0' encoding='UTF-8'?>
<gpx version="1.1"
  creator="GPXmagic"
  xmlns="http://www.topografix.com/GPX/1/1"
  xmlns:rgt="http://www.rgtcycling.com/XML/GpxExtensions/v1"
  xmlns:xsi="http://www.w3.org/2001/XMLSchema-instance" xsi:schemaLocation="http://www.topografix.com/GPX/1/1
  http://www.topografix.com/GPX/1/1/gpx.xsd">
  <metadata>
    <name>Smoothed with GPXmagic</name>
    <author>
      <link href="https://www.stepwiserefinement.co.uk">
        <text>GPXmagic v3</text>
        <type>text/html</type>
      </link>
    </author>
  </metadata>
<trk>  <name>Saitama&#32;Criterium&#32;Course</name>
<trkseg>
<trkpt lat="35.894745" lon="139.638166"><ele>15.8</ele></trkpt>
<trkpt lat="35.895025133462916" lon="139.63897794193235"><ele>15.250102580714826</ele></trkpt>
<trkpt lat="35.89516250583092" lon="139.63937626569214"><ele>15.039650145772596</ele></trkpt>
<trkpt lat="35.89527159593998" lon="139.63969265032333"><ele>14.973372206025267</ele></trkpt>
<trkpt lat="35.8953662469196" lon="139.63996506984407"><ele>14.941693945145987</ele></trkpt>
<trkpt lat="35.895382437863134" lon="139.64001549984798"><ele>14.936358284754435</ele></trkpt>
<trkpt lat="35.89539215595625" lon="139.64005134593415"><ele>14.932547115655083</ele></trkpt>
<trkpt lat="35.89540692773635" lon="139.64012482961988"><ele>14.924589142210028</ele></trkpt>
<trkpt lat="35.895431051629075" lon="139.6402737662869"><ele>14.905970244777581</ele></trkpt>
<trkpt lat="35.895446733725336" lon="139.64034809897404"><ele>14.892729577686593</ele></trkpt>
<trkpt lat="35.89545930772984" lon="139.64038809192064"><ele>14.883269781866849</ele></trkpt>
<trkpt lat="35.89548247642831" lon="139.64042881170823"><ele>14.872084825534861</ele></trkpt>
<trkpt lat="35.89551666056964" lon="139.64045518208178"><ele>14.860899869202871</ele></trkpt>
<trkpt lat="35.89555646451002" lon="139.6404630407146"><ele>14.849714912870883</ele></trkpt>
<trkpt lat="35.89559560557349" lon="139.64045114716913"><ele>14.838529956538896</ele></trkpt>
<trkpt lat="35.89562790571293" lon="139.64042137870433"><ele>14.827345000206908</ele></trkpt>
<trkpt lat="35.89564826665645" lon="139.64037843398316"><ele>14.81616004387492</ele></trkpt>
<trkpt lat="35.89565347462149" lon="139.64032909143793"><ele>14.80497508754293</ele></trkpt>
<trkpt lat="35.89564270757994" lon="139.64028113935044"><ele>14.793790131210942</ele></trkpt>
<trkpt lat="35.895615183685194" lon="139.6402192593215"><ele>14.799931204961904</ele></trkpt>
<trkpt lat="35.895563047202785" lon="139.6401255136319"><ele>14.845985929741074</ele></trkpt>
<trkpt lat="35.89552961106514" lon="139.6400625357335"><ele>14.879687994559967</ele></trkpt>
<trkpt lat="35.895514291275425" lon="139.64002983359086"><ele>14.896838016414396</ele></trkpt>
<trkpt lat="35.895488214030244" lon="139.63996141281947"><ele>14.93143764758521</ele></trkpt>
<trkpt lat="35.89542610622832" lon="139.6397692798589"><ele>15.02856987847222</ele></trkpt>
<trkpt lat="35.89534863411459" lon="139.6395322486121"><ele>15.148763020833332</ele></trkpt>
<trkpt lat="35.89519785243057" lon="139.6390747754971"><ele>15.36443142361111</ele></trkpt>
<trkpt lat="35.895137241210946" lon="139.63889231750215"><ele>15.42861328125</ele></trkpt>
<trkpt lat="35.895086742187516" lon="139.63874175645853"><ele>15.45390625</ele></trkpt>
<trkpt lat="35.895042172851575" lon="139.6386107655333"><ele>15.43935546875</ele></trkpt>
<trkpt lat="35.8949988941334" lon="139.63848553770364"><ele>15.386867042824074</ele></trkpt>
<trkpt lat="35.89490687836373" lon="139.63822350108853"><ele>15.196082899305555</ele></trkpt>
<trkpt lat="35.89481394925493" lon="139.6379614799503"><ele>14.975886140046295</ele></trkpt>
<trkpt lat="35.89472218750002" lon="139.63770532666564"><ele>14.7828125</ele></trkpt>
<trkpt lat="35.89460170757379" lon="139.6373724112882"><ele>14.571332465277779</ele></trkpt>
<trkpt lat="35.89443456087242" lon="139.63691225334458"><ele>14.3037109375</ele></trkpt>
<trkpt lat="35.894264116862" lon="139.6364427622487"><ele>14.063953993055556</ele></trkpt>
<trkpt lat="35.89419281152345" lon="139.63624566660982"><ele>13.9953125</ele></trkpt>
<trkpt lat="35.894129507812515" lon="139.6360698495283"><ele>13.971875</ele></trkpt>
<trkpt lat="35.89406852441408" lon="139.6358994462269"><ele>13.9953125</ele></trkpt>
<trkpt lat="35.89393286997253" lon="139.63551761470478"><ele>14.170858651620371</ele></trkpt>
<trkpt lat="35.893780893193004" lon="139.63508814327554"><ele>14.432957175925926</ele></trkpt>
<trkpt lat="35.893648870117204" lon="139.6347147012889"><ele>14.62666015625</ele></trkpt>
<trkpt lat="35.893535325195316" lon="139.63439329504058"><ele>14.68037109375</ele></trkpt>
<trkpt lat="35.8934036409867" lon="139.63402027118184"><ele>14.610456452546297</ele></trkpt>
<trkpt lat="35.893254732458054" lon="139.63359800487962"><ele>14.47428023726852</ele></trkpt>
<trkpt lat="35.893134341796895" lon="139.6332548687005"><ele>14.33173828125</ele></trkpt>
<trkpt lat="35.89309064062501" lon="139.63312872556966"><ele>14.25703125</ele></trkpt>
<trkpt lat="35.89302040794735" lon="139.63292077867425"><ele>14.062634924768519</ele></trkpt>
<trkpt lat="35.892948122269104" lon="139.6326986859028"><ele>13.776310503472224</ele></trkpt>
<trkpt lat="35.89291019048323" lon="139.63257853449306"><ele>13.635168547453704</ele></trkpt>
<trkpt lat="35.892874916523745" lon="139.6324618817358"><ele>13.544782494212964</ele></trkpt>
<trkpt lat="35.892844563112426" lon="139.63235374892446"><ele>13.536110268869452</ele></trkpt>
<trkpt lat="35.892818370826056" lon="139.63225124928408"><ele>13.609237447359897</ele></trkpt>
<trkpt lat="35.89279526992421" lon="139.6321531629385"><ele>13.732897570456755</ele></trkpt>
<trkpt lat="35.89277442171948" lon="139.6320595762577"><ele>13.86182520246194</ele></trkpt>
<trkpt lat="35.89275554648786" lon="139.63197076450038"><ele>13.955981988986071</ele></trkpt>
<trkpt lat="35.892737272594765" lon="139.63188010466655"><ele>13.992711370262391</ele></trkpt>
<trkpt lat="35.892717339650154" lon="139.6317758640196"><ele>13.96137026239067</ele></trkpt>
<trkpt lat="35.892693431540884" lon="139.63164616706297"><ele>13.86064139941691</ele></trkpt>
<trkpt lat="35.892664685077214" lon="139.63148714440035"><ele>13.699109167476513</ele></trkpt>
<trkpt lat="35.89260090729944" lon="139.63113005030363"><ele>13.307725947521867</ele></trkpt>
<trkpt lat="35.8925510714286" lon="139.63084702294492"><ele>13.077988338192421</ele></trkpt>
<trkpt lat="35.8925343979592" lon="139.63074936419508"><ele>13.084256559766764</ele></trkpt>
<trkpt lat="35.89252115855893" lon="139.63066837641682"><ele>13.182417277426843</ele></trkpt>
<trkpt lat="35.89250956642693" lon="139.63059249253982"><ele>13.368847097370695</ele></trkpt>
<trkpt lat="35.89249920750072" lon="139.6305156528217"><ele>13.62684822440881</ele></trkpt>
<trkpt lat="35.892492111016644" lon="139.63044156345697"><ele>13.916673415397906</ele></trkpt>
<trkpt lat="35.89249102588815" lon="139.6303774401102"><ele>14.198275024295434</ele></trkpt>
<trkpt lat="35.89249777820297" lon="139.63032890316944"><ele>14.445205026455026</ele></trkpt>
<trkpt lat="35.89251148007017" lon="139.6302945524731"><ele>14.656226969954648</ele></trkpt>
<trkpt lat="35.89253127637827" lon="139.63026972889818"><ele>14.845532761715798</ele></trkpt>
<trkpt lat="35.89255848843185" lon="139.6302492582399"><ele>15.037297453703703</ele></trkpt>
<trkpt lat="35.89259839795919" lon="139.6302289798031"><ele>15.266326530612243</ele></trkpt>
<trkpt lat="35.89265851020409" lon="139.63020528607524"><ele>15.573469387755102</ele></trkpt>
<trkpt lat="35.89274529980565" lon="139.6301753124969"><ele>15.993920742900334</ele></trkpt>
<trkpt lat="35.89285932167154" lon="139.6301388471493"><ele>16.534602094806175</ele></trkpt>
<trkpt lat="35.89299149708456" lon="139.63010021064204"><ele>17.158924522189825</ele></trkpt>
<trkpt lat="35.89312536929059" lon="139.63006873819157"><ele>17.79843429435266</ele></trkpt>
<trkpt lat="35.89324518124394" lon="139.63005671941133"><ele>18.3909405031854</ele></trkpt>
<trkpt lat="35.89334374344025" lon="139.63007645173542"><ele>18.9167638483965</ele></trkpt>
<trkpt lat="35.893424164723044" lon="139.63013850664768"><ele>19.40568513119533</ele></trkpt>
<trkpt lat="35.89349471423173" lon="139.63024930764954"><ele>19.907509988122232</ele></trkpt>
<trkpt lat="35.89356274398015" lon="139.63040669718595"><ele>20.452321563546054</ele></trkpt>
<trkpt lat="35.893630538224826" lon="139.63059574679633"><ele>21.017379332685454</ele></trkpt>
<trkpt lat="35.893695844887176" lon="139.63079287736096"><ele>21.526924738149226</ele></trkpt>
<trkpt lat="35.89375538608143" lon="139.63097784187752"><ele>21.882307526185073</ele></trkpt>
<trkpt lat="35.89380867638485" lon="139.6311447086851"><ele>21.998979591836733</ele></trkpt>
<trkpt lat="35.89385932361517" lon="139.63130348273728"><ele>21.823469387755097</ele></trkpt>
<trkpt lat="35.89391262115323" lon="139.6314703883623"><ele>21.338235611704995</ele></trkpt>
<trkpt lat="35.89397223469389" lon="139.63165526317428"><ele>20.57796134326746</ele></trkpt>
<trkpt lat="35.894037874149674" lon="139.63185162047427"><ele>19.65153871072238</ele></trkpt>
<trkpt lat="35.89410670294786" lon="139.63203797534075"><ele>18.72773458589785</ele></trkpt>
<trkpt lat="35.89417719970847" lon="139.6321887179005"><ele>17.97639563762013</ele></trkpt>
<trkpt lat="35.894252625364444" lon="139.63228622416318"><ele>17.50932944606414</ele></trkpt>
<trkpt lat="35.894341446064146" lon="139.63232527592672"><ele>17.36516034985423</ele></trkpt>
<trkpt lat="35.89445279775404" lon="139.63230993556581"><ele>17.529451463124936</ele></trkpt>
<trkpt lat="35.89458979294895" lon="139.63225087769334"><ele>17.947921390778536</ele></trkpt>
<trkpt lat="35.89474383835441" lon="139.6321646167017"><ele>18.528004535147396</ele></trkpt>
<trkpt lat="35.89489675780156" lon="139.6320708925578"><ele>19.155744520030236</ele></trkpt>
<trkpt lat="35.89502991080879" lon="139.63198636800126"><ele>19.73683727459238</ele></trkpt>
<trkpt lat="35.895133450437335" lon="139.63191924878808"><ele>20.231778425655975</ele></trkpt>
<trkpt lat="35.89520879446065" lon="139.63186897725367"><ele>20.65801749271137</ele></trkpt>
<trkpt lat="35.895264438536785" lon="139.63182982452273"><ele>21.069623707617968</ele></trkpt>
<trkpt lat="35.89530977179082" lon="139.63179549503187"><ele>21.517990683376528</ele></trkpt>
<trkpt lat="35.89535121252178" lon="139.63176165281735"><ele>22.03117281138646</ele></trkpt>
<trkpt lat="35.89538990651659" lon="139.63172743208477"><ele>22.596060765576073</ele></trkpt>
<trkpt lat="35.895424238083216" lon="139.63169381852842"><ele>23.181941983795934</ele></trkpt>
<trkpt lat="35.89545207790671" lon="139.63166219591497"><ele>23.753113092516386</ele></trkpt>
<trkpt lat="35.89547320138295" lon="139.63163278084255"><ele>24.274168738568818</ele></trkpt>
<trkpt lat="35.895488446315916" lon="139.63160354538115"><ele>24.721392627838743</ele></trkpt>
<trkpt lat="35.89549878334136" lon="139.63156998663715"><ele>25.08588760764365</ele></trkpt>
<trkpt lat="35.89550514197531" lon="139.63152456169297"><ele>25.394444444444446</ele></trkpt>
<trkpt lat="35.89550803155008" lon="139.6314586391347"><ele>25.681687242798354</ele></trkpt>
<trkpt lat="35.895507801783275" lon="139.63136319391728"><ele>25.984979423868314</ele></trkpt>
<trkpt lat="35.895504432098775" lon="139.63122967871976"><ele>26.33148148148148</ele></trkpt>
<trkpt lat="35.89549799502109" lon="139.63105222974076"><ele>26.742658639435042</ele></trkpt>
<trkpt lat="35.895488737413004" lon="139.6308330626748"><ele>27.222605801961084</ele></trkpt>
<trkpt lat="35.89547700426765" lon="139.6305879121172"><ele>27.745945739978662</ele></trkpt>
<trkpt lat="35.8954627257532" lon="139.63034346387442"><ele>28.262386323223087</ele></trkpt>
<trkpt lat="35.89544478240107" lon="139.63012669332338"><ele>28.718790326677844</ele></trkpt>
<trkpt lat="35.89542068518521" lon="139.6299541169105"><ele>29.0820987654321</ele></trkpt>
<trkpt lat="35.89538684979425" lon="139.62982900730003"><ele>29.3460219478738</ele></trkpt>
<trkpt lat="35.89533915020577" lon="139.62974665903286"><ele>29.520644718792866</ele></trkpt>
<trkpt lat="35.89527331481483" lon="139.62969969761585"><ele>29.621604938271606</ele></trkpt>
<trkpt lat="35.89518507734036" lon="139.62968079677032"><ele>29.664277167744316</ele></trkpt>
<trkpt lat="35.89507335028193" lon="139.62968244255512"><ele>29.663183891798713</ele></trkpt>
<trkpt lat="35.89494311084384" lon="139.62969704027876"><ele>29.62972616703615</ele></trkpt>
<trkpt lat="35.894807983354916" lon="139.62971721951982"><ele>29.56902359393471</ele></trkpt>
<trkpt lat="35.8946830297573" lon="139.62973733422368"><ele>29.476050154422822</ele></trkpt>
<trkpt lat="35.894578115160364" lon="139.62975427721295"><ele>29.33513119533528</ele></trkpt>
<trkpt lat="35.89449186443151" lon="139.62976775380795"><ele>29.12201166180758</ele></trkpt>
<trkpt lat="35.89441571956421" lon="139.62977900621348"><ele>28.807780887593132</ele></trkpt>
<trkpt lat="35.89434020610346" lon="139.62978950879733"><ele>28.375909167476514</ele></trkpt>
<trkpt lat="35.89426057201038" lon="139.62979995050352"><ele>27.831324003887268</ele></trkpt>
<trkpt lat="35.89417857221684" lon="139.6298098709048"><ele>27.203172659540005</ele></trkpt>
<trkpt lat="35.89409642870577" lon="139.62981840453156"><ele>26.49666459345643</ele></trkpt>
<trkpt lat="35.8940134848889" lon="139.6298249692246"><ele>25.68237037037037</ele></trkpt>
<trkpt lat="35.89392566444446" lon="139.62982982995592"><ele>24.721096296296295</ele></trkpt>
<trkpt lat="35.89383315866667" lon="139.62983351024664"><ele>23.645777777777777</ele></trkpt>
<trkpt lat="35.893657778222234" lon="139.62983837364146"><ele>21.57748148148148</ele></trkpt>
<trkpt lat="35.89358235732496" lon="139.62983954977744"><ele>20.71915486111111</ele></trkpt>
<trkpt lat="35.89344487273005" lon="139.62984092158723"><ele>19.252077083333337</ele></trkpt>
<trkpt lat="35.893380991863445" lon="139.62984315164957"><ele>18.626422222222224</ele></trkpt>
<trkpt lat="35.89331955376593" lon="139.62984874803598"><ele>18.089279861111113</ele></trkpt>
<trkpt lat="35.893254659179696" lon="139.62986008920456"><ele>17.61640625</ele></trkpt>
<trkpt lat="35.89317761718752" lon="139.62987982093435"><ele>17.162499999999998</ele></trkpt>
<trkpt lat="35.89307837988284" lon="139.62991068557685"><ele>16.67109375</ele></trkpt>
<trkpt lat="35.89294958289932" lon="139.62995462535247"><ele>16.099721498842595</ele></trkpt>
<trkpt lat="35.89279063183595" lon="139.63001114469967"><ele>15.433481626157409</ele></trkpt>
<trkpt lat="35.89261224739585" lon="139.63007571222542"><ele>14.703917100694445</ele></trkpt>
<trkpt lat="35.89221332186251" lon="139.63022185310638"><ele>13.069837769264614</ele></trkpt>
<trkpt lat="35.89218394710721" lon="139.6302325453948"><ele>12.948800686652895</ele></trkpt>
<trkpt lat="35.89215452658789" lon="139.63024304796505"><ele>12.827763604041161</ele></trkpt>
<trkpt lat="35.892125109823844" lon="139.63025358461184"><ele>12.696386486000828</ele></trkpt>
<trkpt lat="35.89209566047063" lon="139.6302639805393"><ele>12.563506318614362</ele></trkpt>
<trkpt lat="35.892066172587626" lon="139.63027422062478"><ele>12.430626151227914</ele></trkpt>
<trkpt lat="35.89203665090286" lon="139.630284323991"><ele>12.297745983841466</ele></trkpt>
<trkpt lat="35.89200710095778" lon="139.63029431305054"><ele>12.164865816455</ele></trkpt>
<trkpt lat="35.891977492922756" lon="139.63030448734284"><ele>12.02133358756926</ele></trkpt>
<trkpt lat="35.89194809020157" lon="139.63031513516339"><ele>11.852350362448544</ele></trkpt>
<trkpt lat="35.8919186787202" lon="139.63032575017644"><ele>11.68336713732785</ele></trkpt>
<trkpt lat="35.89188926632622" lon="139.63033636176465"><ele>11.514383912207157</ele></trkpt>
<trkpt lat="35.89185986326383" lon="139.6303479296993"><ele>11.327673804524817</ele></trkpt>
<trkpt lat="35.89183053722197" lon="139.6303599457184"><ele>11.14015345072215</ele></trkpt>
<trkpt lat="35.891801698763786" lon="139.6303727180404"><ele>10.963911522169603</ele></trkpt>
<trkpt lat="35.891772706132045" lon="139.6303864578234"><ele>10.805065767313154</ele></trkpt>
<trkpt lat="35.89174437184008" lon="139.63040082976823"><ele>10.664864050191335</ele></trkpt>
<trkpt lat="35.891715954211385" lon="139.6304166711723"><ele>10.5559809490186</ele></trkpt>
<trkpt lat="35.89168829750482" lon="139.63043291591507"><ele>10.463345471140256</ele></trkpt>
<trkpt lat="35.891660656461525" lon="139.6304505946006"><ele>10.402056771972482</ele></trkpt>
<trkpt lat="35.89163367811296" lon="139.63046848595644"><ele>10.35131905930893</ele></trkpt>
<trkpt lat="35.89162726803233" lon="139.630472772646"><ele>10.339583333333334</ele></trkpt>
<trkpt lat="35.89157428467226" lon="139.630510874531"><ele>10.306510416666665</ele></trkpt>
<trkpt lat="35.89152250262307" lon="139.6305504881087"><ele>10.335329861111111</ele></trkpt>
<trkpt lat="35.89147122907592" lon="139.63059221529693"><ele>10.425868055555556</ele></trkpt>
<trkpt lat="35.891420022364485" lon="139.63063633111676"><ele>10.56484375</ele></trkpt>
<trkpt lat="35.89137028527515" lon="139.63068196539433"><ele>10.72907986111111</ele></trkpt>
<trkpt lat="35.89132374554153" lon="139.63072848621383"><ele>10.900318287037036</ele></trkpt>
<trkpt lat="35.891280480375585" lon="139.6307764498043"><ele>11.074421296296295</ele></trkpt>
<trkpt lat="35.891239506128" lon="139.63082597473593"><ele>11.253298611111111</ele></trkpt>
<trkpt lat="35.891200464323354" lon="139.63087575178233"><ele>11.437789351851851</ele></trkpt>
<trkpt lat="35.891125708540194" lon="139.63097540233574"><ele>11.841400891632373</ele></trkpt>
<trkpt lat="35.891086553678065" lon="139.63103016645496"><ele>12.06349022633745</ele></trkpt>
<trkpt lat="35.89104638747162" lon="139.6310889632263"><ele>12.272907505888893</ele></trkpt>
<trkpt lat="35.891002967659226" lon="139.63115673042176"><ele>12.453437428192844</ele></trkpt>
<trkpt lat="35.890984428898356" lon="139.63118712722763"><ele>12.509336384006463</ele></trkpt>
<trkpt lat="35.89096606425786" lon="139.631217590036"><ele>12.553104933700185</ele></trkpt>
<trkpt lat="35.89094797273921" lon="139.63124845565022"><ele>12.577754839273046</ele></trkpt>
<trkpt lat="35.89093039497559" lon="139.63127981763748"><ele>12.574426432815857</ele></trkpt>
<trkpt lat="35.890913044384554" lon="139.63131150042733"><ele>12.553857205568598</ele></trkpt>
<trkpt lat="35.89089640982889" lon="139.63134359818721"><ele>12.500701200480835</ele></trkpt>
<trkpt lat="35.89087995275926" lon="139.63137588776635"><ele>12.434805643630597</ele></trkpt>
<trkpt lat="35.89086396911405" lon="139.6314082443036"><ele>12.352853995868534</ele></trkpt>
<trkpt lat="35.89084817855135" lon="139.63144065204864"><ele>12.26787584107543</ele></trkpt>
<trkpt lat="35.89083270685355" lon="139.6314734549069"><ele>12.171174487155852</ele></trkpt>
<trkpt lat="35.89081742182683" lon="139.6315062167067"><ele>12.074405293027265</ele></trkpt>
<trkpt lat="35.890802318108676" lon="139.6315391720083"><ele>11.97602882846412</ele></trkpt>
<trkpt lat="35.890787514602785" lon="139.63157242009797"><ele>11.871413510794559</ele></trkpt>
<trkpt lat="35.890772919606306" lon="139.63160572229225"><ele>11.76670020320179</ele></trkpt>
<trkpt lat="35.89075850484555" lon="139.63163915725391"><ele>11.66196795241372</ele></trkpt>
<trkpt lat="35.890744277945814" lon="139.63167272264624"><ele>11.557215411298444</ele></trkpt>
<trkpt lat="35.890730242016296" lon="139.6317064129524"><ele>11.452443166238671</ele></trkpt>
<trkpt lat="35.89071639538828" lon="139.63174021993868"><ele>11.347653685637347</ele></trkpt>
<trkpt lat="35.890702097502384" lon="139.6317735211659"><ele>11.239312110912866</ele></trkpt>
<trkpt lat="35.89068769711083" lon="139.6318069365163"><ele>11.132777403072565</ele></trkpt>
<trkpt lat="35.890672432311185" lon="139.6318394571045"><ele>11.022708314228732</ele></trkpt>
<trkpt lat="35.890656868575775" lon="139.6318720602937"><ele>10.915534029235674</ele></trkpt>
<trkpt lat="35.89064125813313" lon="139.63190459414187"><ele>10.808681133179721</ele></trkpt>
<trkpt lat="35.89062567841478" lon="139.63193715952647"><ele>10.702256344450893</ele></trkpt>
<trkpt lat="35.8906101484349" lon="139.6319697519459"><ele>10.595948688246304</ele></trkpt>
<trkpt lat="35.89059581521299" lon="139.6320031777496"><ele>10.492113626335765</ele></trkpt>
<trkpt lat="35.890581837304865" lon="139.63203681420958"><ele>10.386275508572924</ele></trkpt>
<trkpt lat="35.89056498310254" lon="139.63207842644485"><ele>10.268627144443245</ele></trkpt>
<trkpt lat="35.89055154643772" lon="139.6321124455302"><ele>10.1796288587868</ele></trkpt>
<trkpt lat="35.89053814574353" lon="139.63214648898034"><ele>10.090630573130364</ele></trkpt>
<trkpt lat="35.89052544485757" lon="139.63218305301646"><ele>10.026023250281728</ele></trkpt>
<trkpt lat="35.890518983884995" lon="139.6322221470204"><ele>10.033366465151513</ele></trkpt>
<trkpt lat="35.89052141505053" lon="139.63226193177474"><ele>10.040740580633846</ele></trkpt>
<trkpt lat="35.89053442416901" lon="139.63229796528387"><ele>10.048007909674995</ele></trkpt>
<trkpt lat="35.8905569621073" lon="139.6323251566116"><ele>10.055244006431485</ele></trkpt>
<trkpt lat="35.890585538826315" lon="139.63234027702535"><ele>10.062369322006424</ele></trkpt>
<trkpt lat="35.890616240653884" lon="139.6323433103522"><ele>10.069436300761081</ele></trkpt>
<trkpt lat="35.890645948741884" lon="139.63233428141118"><ele>10.076360728099823</ele></trkpt>
<trkpt lat="35.890671888487326" lon="139.63231441068245"><ele>10.08316809706799</ele></trkpt>
<trkpt lat="35.89069130625692" lon="139.63228529388223"><ele>10.096454282161103</ele></trkpt>
<trkpt lat="35.89070504847902" lon="139.6322531935009"><ele>10.157701702934148</ele></trkpt>
<trkpt lat="35.89071895097089" lon="139.6322194574588"><ele>10.228820152238901</ele></trkpt>
<trkpt lat="35.89073247182095" lon="139.63218453178092"><ele>10.3067398776739</ele></trkpt>
<trkpt lat="35.8907446605526" lon="139.63214980726178"><ele>10.39554197481455</ele></trkpt>
<trkpt lat="35.89075675287643" lon="139.63211503765007"><ele>10.484344071955212</ele></trkpt>
<trkpt lat="35.8907687189186" lon="139.63208020897642"><ele>10.573146169095862</ele></trkpt>
<trkpt lat="35.89078004280635" lon="139.6320444100657"><ele>10.661322918133342</ele></trkpt>
<trkpt lat="35.89079084653589" lon="139.63200902265746"><ele>10.74933441408606</ele></trkpt>
<trkpt lat="35.89080188533157" lon="139.6319744298044"><ele>10.837165767128411</ele></trkpt>
<trkpt lat="35.89081306072633" lon="139.63193923040004"><ele>10.924945597981575</ele></trkpt>
<trkpt lat="35.89082461304663" lon="139.63190530164357"><ele>11.011972889198441</ele></trkpt>
<trkpt lat="35.89082722932201" lon="139.63189769660667"><ele>11.032050318249482</ele></trkpt>
<trkpt lat="35.89090742080953" lon="139.63168778714723"><ele>11.553986625514403</ele></trkpt>
<trkpt lat="35.89094410970466" lon="139.63159427310043"><ele>11.760416666666668</ele></trkpt>
<trkpt lat="35.89097263290088" lon="139.63152535171346"><ele>11.877404835390946</ele></trkpt>
<trkpt lat="35.89099711468668" lon="139.6314707879822"><ele>11.92514146090535</ele></trkpt>
<trkpt lat="35.89102136163416" lon="139.63142101822385"><ele>11.92480709876543</ele></trkpt>
<trkpt lat="35.89104747404309" lon="139.63137118601645"><ele>11.886522633744855</ele></trkpt>
<trkpt lat="35.89107709247831" lon="139.63131844862644"><ele>11.809272119341564</ele></trkpt>
<trkpt lat="35.89111120451765" lon="139.63126148705777"><ele>11.688310185185184</ele></trkpt>
<trkpt lat="35.89114951216898" lon="139.63120079982122"><ele>11.52361111111111</ele></trkpt>
<trkpt lat="35.89119042269975" lon="139.63113939395464"><ele>11.31400462962963</ele></trkpt>
<trkpt lat="35.891233140219256" lon="139.63107950594332"><ele>11.050289351851852</ele></trkpt>
<trkpt lat="35.8912782366477" lon="139.63102103328342"><ele>10.723900462962963</ele></trkpt>
<trkpt lat="35.891325439843314" lon="139.63096376453308"><ele>10.353298611111109</ele></trkpt>
<trkpt lat="35.89137223752806" lon="139.63091007163402"><ele>9.988310185185185</ele></trkpt>
<trkpt lat="35.89141642598901" lon="139.6308626450786"><ele>9.678622256515775</ele></trkpt>
<trkpt lat="35.891458561682164" lon="139.63082139007452"><ele>9.44335562414266</ele></trkpt>
<trkpt lat="35.89150202171787" lon="139.63078292333506"><ele>9.272382973251029</ele></trkpt>
<trkpt lat="35.89154870155948" lon="139.63074493989726"><ele>9.156371099108368</ele></trkpt>
<trkpt lat="35.89159872391853" lon="139.6307069132789"><ele>9.096985382373115</ele></trkpt>
<trkpt lat="35.89164973445182" lon="139.630670526211"><ele>9.107217721193416</ele></trkpt>
<trkpt lat="35.891701390785215" lon="139.63063620168987"><ele>9.211505486968452</ele></trkpt>
<trkpt lat="35.89175538095106" lon="139.63060320510078"><ele>9.444699502743484</ele></trkpt>
<trkpt lat="35.891782908940705" lon="139.63058753773717"><ele>9.620995935158259</ele></trkpt>
<trkpt lat="35.89181062223636" lon="139.63057144347096"><ele>9.797292367573071</ele></trkpt>
<trkpt lat="35.891838065082204" lon="139.63055607291622"><ele>10.0037450765073</ele></trkpt>
<trkpt lat="35.89186593199089" lon="139.63054036353498"><ele>10.21631554629879</ele></trkpt>
<trkpt lat="35.89189344398243" lon="139.6305251068913"><ele>10.435035357804022</ele></trkpt>
<trkpt lat="35.891921516218595" lon="139.63050992914495"><ele>10.660567619289857</ele></trkpt>
<trkpt lat="35.891952331659354" lon="139.6304932475891"><ele>10.911912936779679</ele></trkpt>
<trkpt lat="35.891995304982274" lon="139.63047186713538"><ele>11.283903687023757</ele></trkpt>
<trkpt lat="35.89203866612437" lon="139.63045173368027"><ele>11.716787727966773</ele></trkpt>
<trkpt lat="35.89208251846559" lon="139.63043327786602"><ele>12.189086196573934</ele></trkpt>
<trkpt lat="35.892126935643795" lon="139.6304170297107"><ele>12.678579032911319</ele></trkpt>
<trkpt lat="35.892171880292125" lon="139.6304032624944"><ele>13.161762106459234</ele></trkpt>
<trkpt lat="35.89221739313346" lon="139.63039283580287"><ele>13.609242573525894</ele></trkpt>
<trkpt lat="35.89226363936863" lon="139.6303910263044"><ele>13.970940687970096</ele></trkpt>
<trkpt lat="35.892307226724114" lon="139.6304070653603"><ele>14.175044265262091</ele></trkpt>
<trkpt lat="35.89232425184007" lon="139.63042304154237"><ele>14.1957830152522</ele></trkpt>
<trkpt lat="35.8923474541664" lon="139.63047209909908"><ele>14.161698549571911</ele></trkpt>
<trkpt lat="35.89236182996142" lon="139.6305264181969"><ele>14.096170298879633</ele></trkpt>
<trkpt lat="35.89237315435898" lon="139.63058186130974"><ele>14.010012754121668</ele></trkpt>
<trkpt lat="35.89238368260474" lon="139.630637553294"><ele>13.910811353532052</ele></trkpt>
<trkpt lat="35.89239344252708" lon="139.63069346244095"><ele>13.809873484444939</ele></trkpt>
<trkpt lat="35.89240306874533" lon="139.63074940625356"><ele>13.718888440775778</ele></trkpt>
<trkpt lat="35.892412353749194" lon="139.6308054385115"><ele>13.649882293588403</ele></trkpt>
<trkpt lat="35.89242163875304" lon="139.63086147078252"><ele>13.607920086498275</ele></trkpt>
<trkpt lat="35.89246715097738" lon="139.63113612387852"><ele>13.545389055335123</ele></trkpt>
<trkpt lat="35.89248566666668" lon="139.63124397896007"><ele>13.546396974124272</ele></trkpt>
<trkpt lat="35.89250308445543" lon="139.63134028773683"><ele>13.571480428451663</ele></trkpt>
<trkpt lat="35.89252121296023" lon="139.6314356114437"><ele>13.618933292471276</ele></trkpt>
<trkpt lat="35.89256163182443" lon="139.63163912385824"><ele>13.73441718803457</ele></trkpt>
<trkpt lat="35.89258325828259" lon="139.63174485548655"><ele>13.763987731992028</ele></trkpt>
<trkpt lat="35.892606454124845" lon="139.63185592046992"><ele>13.753555390406781</ele></trkpt>
<trkpt lat="35.89266029326339" lon="139.6321068922675"><ele>13.62719637280444</ele></trkpt>
<trkpt lat="35.89268848407683" lon="139.6322344090844"><ele>13.549980225345614</ele></trkpt>
<trkpt lat="35.892715347705085" lon="139.6323507850993"><ele>13.493331948344029</ele></trkpt>
<trkpt lat="35.89274187500001" lon="139.63245749967462"><ele>13.470370526301828</ele></trkpt>
<trkpt lat="35.892770579356586" lon="139.63256362788837"><ele>13.48424039165155</ele></trkpt>
<trkpt lat="35.89280333944419" lon="139.6326775358867"><ele>13.529808429161394</ele></trkpt>
<trkpt lat="35.89283921569096" lon="139.6327981082869"><ele>13.595903995454812</ele></trkpt>
<trkpt lat="35.89287560610457" lon="139.63291784321692"><ele>13.670415913288611</ele></trkpt>
<trkpt lat="35.89291052462889" lon="139.6330302289506"><ele>13.745555853379356</ele></trkpt>
<trkpt lat="35.89294486297378" lon="139.63313737988213"><ele>13.8221793940494</ele></trkpt>
<trkpt lat="35.89298209620993" lon="139.63324945551372"><ele>13.908031220476165</ele></trkpt>
<trkpt lat="35.89302627416047" lon="139.63337872262017"><ele>14.01227599904082</ele></trkpt>
<trkpt lat="35.89307920073428" lon="139.63353112708728"><ele>14.138209023752454</ele></trkpt>
<trkpt lat="35.89319873588167" lon="139.63387226762856"><ele>14.413734410064341</ele></trkpt>
<trkpt lat="35.893254700464325" lon="139.63403157057016"><ele>14.526439999793077</ele></trkpt>
<trkpt lat="35.893305055393604" lon="139.63417486343525"><ele>14.603790087463558</ele></trkpt>
<trkpt lat="35.89335294460643" lon="139.63431113457227"><ele>14.672740524781343</ele></trkpt>
<trkpt lat="35.89340330871398" lon="139.6344544480128"><ele>14.665613864593457</ele></trkpt>
<trkpt lat="35.89345936507938" lon="139.6346139590189"><ele>14.598898607061873</ele></trkpt>
<trkpt lat="35.89363669128605" lon="139.63511854972973"><ele>14.308049886621314</ele></trkpt>
<trkpt lat="35.89373494460643" lon="139.63539813457228"><ele>14.280758017492712</ele></trkpt>
<trkpt lat="35.893839029398336" lon="139.63569428302966"><ele>14.454310508142989</ele></trkpt>
<trkpt lat="35.89395074113653" lon="139.63601165392654"><ele>14.723548491402136</ele></trkpt>
<trkpt lat="35.89404709876544" lon="139.63628310366485"><ele>14.948765432098764</ele></trkpt>
<trkpt lat="35.894139257887524" lon="139.63653732675468"><ele>15.11406035665295</ele></trkpt>
<trkpt lat="35.894267503226146" lon="139.63688424867595"><ele>15.279243509627596</ele></trkpt>
<trkpt lat="35.89437841888941" lon="139.63718232052167"><ele>15.403434435807549</ele></trkpt>
<trkpt lat="35.894745" lon="139.638166"><ele>15.8</ele></trkpt>
</trkseg>
</trk></gpx>
