<?xml version='1.0' encoding='UTF-8'?>
<gpx version="1.1"
  creator="GPXmagic"
  xmlns="http://www.topografix.com/GPX/1/1"
  xmlns:rgt="http://www.rgtcycling.com/XML/GpxExtensions/v1"
  xmlns:xsi="http://www.w3.org/2001/XMLSchema-instance" xsi:schemaLocation="http://www.topografix.com/GPX/1/1
  http://www.topografix.com/GPX/1/1/gpx.xsd">
  <metadata>
    <name>Smoothed with GPXmagic</name>
    <author>
      <link href="https://www.stepwiserefinement.co.uk">
        <text>GPXmagic v3</text>
        <type>text/html</type>
      </link>
    </author>
  </metadata>
<trk>  <name>Suzuka&#32;Circuit</name>
<trkseg>
<trkpt lat="34.845007" lon="136.538604"><ele>36.4</ele></trkpt>
<trkpt lat="34.84446592257854" lon="136.5391472470703"><ele>34.906595442726996</ele></trkpt>
<trkpt lat="34.8443096313573" lon="136.53930419208498"><ele>34.472953002963074</ele></trkpt>
<trkpt lat="34.84420042419825" lon="136.53941389346414"><ele>34.166933697717575</ele></trkpt>
<trkpt lat="34.84398897559658" lon="136.53962640142876"><ele>33.566075351753206</ele></trkpt>
<trkpt lat="34.84374801301155" lon="136.53986861344714"><ele>32.876462856839055</ele></trkpt>
<trkpt lat="34.843536510204075" lon="136.54008117480652"><ele>32.267337689445924</ele></trkpt>
<trkpt lat="34.843441295918346" lon="136.5401768278682"><ele>31.990491065388138</ele></trkpt>
<trkpt lat="34.84322962471654" lon="136.54038939063307"><ele>31.36920607538097</ele></trkpt>
<trkpt lat="34.84298837528344" lon="136.54063161285524"><ele>30.657032902108213</ele></trkpt>
<trkpt lat="34.84277670408162" lon="136.54084417480692"><ele>30.02924285513762</ele></trkpt>
<trkpt lat="34.842681489795915" lon="136.54093982786767"><ele>29.744873474720976</ele></trkpt>
<trkpt lat="34.84246998698844" lon="136.54115239063097"><ele>29.10887174041936</ele></trkpt>
<trkpt lat="34.84222902440341" lon="136.54139461285303"><ele>28.38206755588871</ele></trkpt>
<trkpt lat="34.84201757580175" lon="136.5416071748057"><ele>27.74614631047584</ele></trkpt>
<trkpt lat="34.84182235519922" lon="136.54180342436257"><ele>27.164377839409674</ele></trkpt>
<trkpt lat="34.841590499999995" lon="136.54203649876797"><ele>26.47801503673442</ele></trkpt>
<trkpt lat="34.84116342419825" lon="136.5424656995859"><ele>25.216112124191653</ele></trkpt>
<trkpt lat="34.84083324182053" lon="136.54279709995907"><ele>24.24131759177899</ele></trkpt>
<trkpt lat="34.84071713546053" lon="136.54291329106607"><ele>23.89945776092921</ele></trkpt>
<trkpt lat="34.84061617681675" lon="136.54301375117"><ele>23.603784938898087</ele></trkpt>
<trkpt lat="34.84053670408162" lon="136.5430917632234"><ele>23.373997860675377</ele></trkpt>
<trkpt lat="34.840477030612234" lon="136.54314861565524"><ele>23.20621643074422</ele></trkpt>
<trkpt lat="34.84043021068357" lon="136.54319075597152"><ele>23.081289546983825</ele></trkpt>
<trkpt lat="34.84038877698649" lon="136.54322528236685"><ele>22.977941394923906</ele></trkpt>
<trkpt lat="34.84034761057964" lon="136.54325707934274"><ele>22.880938263122673</ele></trkpt>
<trkpt lat="34.840305750236205" lon="136.54328710362898"><ele>22.785757052166986</ele></trkpt>
<trkpt lat="34.8402632079449" lon="136.5433147860378"><ele>22.691385466375806</ele></trkpt>
<trkpt lat="34.84022003986625" lon="136.5433392823793"><ele>22.597762047016808</ele></trkpt>
<trkpt lat="34.840174385609565" lon="136.54336123690047"><ele>22.50109936217948</ele></trkpt>
<trkpt lat="34.84012575567987" lon="136.54338065881188"><ele>22.40098380514614</ele></trkpt>
<trkpt lat="34.84007438346622" lon="136.54339724623065"><ele>22.29856053923283</ele></trkpt>
<trkpt lat="34.8400220473251" lon="136.54341018521112"><ele>22.1978844327641</ele></trkpt>
<trkpt lat="34.83997041463048" lon="136.54341932124012"><ele>22.102205313748982</ele></trkpt>
<trkpt lat="34.839920870091724" lon="136.54342465692199"><ele>22.013994137461722</ele></trkpt>
<trkpt lat="34.83987406012088" lon="136.5434261986208"><ele>21.933825989647953</ele></trkpt>
<trkpt lat="34.83982808444787" lon="136.54342331873943"><ele>21.85756771322956</ele></trkpt>
<trkpt lat="34.839779208601236" lon="136.54341487991843"><ele>21.77775692080911</ele></trkpt>
<trkpt lat="34.83972322714121" lon="136.54340012463922"><ele>21.68622945692979</ele></trkpt>
<trkpt lat="34.83965994357638" lon="136.54337993827568"><ele>21.581634829829422</ele></trkpt>
<trkpt lat="34.839592309606466" lon="136.54335624353058"><ele>21.467453564253958</ele></trkpt>
<trkpt lat="34.83952296498842" lon="136.54333033119377"><ele>21.346335878712402</ele></trkpt>
<trkpt lat="34.8394519927662" lon="136.54330222701358"><ele>21.217445536306787</ele></trkpt>
<trkpt lat="34.83938034201389" lon="136.54327226896507"><ele>21.08339241710285</ele></trkpt>
<trkpt lat="34.83931267679397" lon="136.54324191799552"><ele>20.95442695053636</ele></trkpt>
<trkpt lat="34.83925400097522" lon="136.54321222372556"><ele>20.840855104213475</ele></trkpt>
<trkpt lat="34.83920540569272" lon="136.54318253687657"><ele>20.74457318951775</ele></trkpt>
<trkpt lat="34.83916358510159" lon="136.54315056143653"><ele>20.65856655917466</ele></trkpt>
<trkpt lat="34.83912578351122" lon="136.54311475851964"><ele>20.576959019640775</ele></trkpt>
<trkpt lat="34.839090995423945" lon="136.54307460799484"><ele>20.497086211401925</ele></trkpt>
<trkpt lat="34.839059893004105" lon="136.54303105343985"><ele>20.419063123218127</ele></trkpt>
<trkpt lat="34.839032576817544" lon="136.54298516867192"><ele>20.341657415889397</ele></trkpt>
<trkpt lat="34.839009063100136" lon="136.54293793822578"><ele>20.26358024691358</ele></trkpt>
<trkpt lat="34.83898931481481" lon="136.54288963987926"><ele>20.31872427983539</ele></trkpt>
<trkpt lat="34.83897356652949" lon="136.54284010970932"><ele>20.329903978052126</ele></trkpt>
<trkpt lat="34.83896205281207" lon="136.54278911657704"><ele>20.297256515775036</ele></trkpt>
<trkpt lat="34.83895473662552" lon="136.54273667900026"><ele>20.22263374485597</ele></trkpt>
<trkpt lat="34.83895129766804" lon="136.54268309738998"><ele>20.109602194787378</ele></trkpt>
<trkpt lat="34.8389513340192" lon="136.5426288305939"><ele>19.965089163237312</ele></trkpt>
<trkpt lat="34.83895449382715" lon="136.5425745082415"><ele>19.803909465020578</ele></trkpt>
<trkpt lat="34.83896051440328" lon="136.54252088890598"><ele>19.647599451303158</ele></trkpt>
<trkpt lat="34.83896932510287" lon="136.54246859673077"><ele>19.51289437585734</ele></trkpt>
<trkpt lat="34.8389813148148" lon="136.54241774282855"><ele>19.396090534979425</ele></trkpt>
<trkpt lat="34.838997299725634" lon="136.54236793831134"><ele>19.27373113854595</ele></trkpt>
<trkpt lat="34.83901806241426" lon="136.54231875107934"><ele>19.12235939643347</ele></trkpt>
<trkpt lat="34.8390438621399" lon="136.5422701255749"><ele>18.938271604938272</ele></trkpt>
<trkpt lat="34.83907350375219" lon="136.54222336064066"><ele>18.741861175411525</ele></trkpt>
<trkpt lat="34.83910517257559" lon="136.54218019118034"><ele>18.559817065329224</ele></trkpt>
<trkpt lat="34.83913628068334" lon="136.54214273464805"><ele>18.41457851080247</ele></trkpt>
<trkpt lat="34.83916684416795" lon="136.54211010885618"><ele>18.31343235596708</ele></trkpt>
<trkpt lat="34.83919951420636" lon="136.54207913065386"><ele>18.25938303755144</ele></trkpt>
<trkpt lat="34.839241116210935" lon="136.54204324377906"><ele>18.250390625</ele></trkpt>
<trkpt lat="34.83929955468749" lon="136.54199568078886"><ele>18.289062500000004</ele></trkpt>
<trkpt lat="34.839383235351555" lon="136.5419294851645"><ele>18.379296875</ele></trkpt>
<trkpt lat="34.8394978264974" lon="136.54184006128938"><ele>18.525191695601855</ele></trkpt>
<trkpt lat="34.83964274414062" lon="136.54172764282322"><ele>18.72211733217593</ele></trkpt>
<trkpt lat="34.83997118717446" lon="136.54147340161177"><ele>19.181698495370373</ele></trkpt>
<trkpt lat="34.840115997070306" lon="136.54136104175694"><ele>19.384610098379632</ele></trkpt>
<trkpt lat="34.84023036914061" lon="136.54127173809215"><ele>19.54267578125</ele></trkpt>
<trkpt lat="34.84031367187499" lon="136.5412057510984"><ele>19.65390625</ele></trkpt>
<trkpt lat="34.840371521484364" lon="136.541158514283"><ele>19.72529296875</ele></trkpt>
<trkpt lat="34.84041222018871" lon="136.5411231277219"><ele>19.76687256194273</ele></trkpt>
<trkpt lat="34.84044358519804" lon="136.54109286507676"><ele>19.78921146262003</ele></trkpt>
<trkpt lat="34.84047237801408" lon="136.54106118079395"><ele>19.804314155735597</ele></trkpt>
<trkpt lat="34.840501404318296" lon="136.5410247810242"><ele>19.824838043338477</ele></trkpt>
<trkpt lat="34.84053101559552" lon="136.54098268711368"><ele>19.862901475694443</ele></trkpt>
<trkpt lat="34.840559349794226" lon="136.54093703092167"><ele>20.0254638795432</ele></trkpt>
<trkpt lat="34.84058546639231" lon="136.54088978880364"><ele>20.198342925511707</ele></trkpt>
<trkpt lat="34.84060879286693" lon="136.54084262693215"><ele>20.380292913821282</ele></trkpt>
<trkpt lat="34.84062931069958" lon="136.54079600826987"><ele>20.571555214333536</ele></trkpt>
<trkpt lat="34.84064661811247" lon="136.54075063459968"><ele>20.768056770010016</ele></trkpt>
<trkpt lat="34.84066033421673" lon="136.54070708636146"><ele>20.96516078928229</ele></trkpt>
<trkpt lat="34.84067042582715" lon="136.5406658613346"><ele>21.15818013816235</ele></trkpt>
<trkpt lat="34.84067753539093" lon="136.54062466978118"><ele>21.35550068380061</ele></trkpt>
<trkpt lat="34.84068251270781" lon="136.54057788218165"><ele>21.581861683156482</ele></trkpt>
<trkpt lat="34.84068628474073" lon="136.54051712031307"><ele>21.876456544208335</ele></trkpt>
<trkpt lat="34.84068949925925" lon="136.5404377499463"><ele>22.261260525875976</ele></trkpt>
<trkpt lat="34.84069603214814" lon="136.5402494992826"><ele>23.17096910101206</ele></trkpt>
<trkpt lat="34.84070008029629" lon="136.54016581365335"><ele>23.57054140425856</ele></trkpt>
<trkpt lat="34.840705567764054" lon="136.54009628590342"><ele>23.89528357709479</ele></trkpt>
<trkpt lat="34.84071348910837" lon="136.5400353987992"><ele>24.17067685290772</ele></trkpt>
<trkpt lat="34.84072527366254" lon="136.53997525204505"><ele>24.435460469837082</ele></trkpt>
<trkpt lat="34.840742239972556" lon="136.53991286039462"><ele>24.707389436652072</ele></trkpt>
<trkpt lat="34.840765382578866" lon="136.53984876227548"><ele>24.988067413440703</ele></trkpt>
<trkpt lat="34.84079451851851" lon="136.53978568938808"><ele>25.268365284760804</ele></trkpt>
<trkpt lat="34.84082881687241" lon="136.53972478678986"><ele>25.54429820636242</ele></trkpt>
<trkpt lat="34.84086738065842" lon="136.5396669150525"><ele>25.81239935207938</ele></trkpt>
<trkpt lat="34.840909932098754" lon="136.53961287047133"><ele>26.070425654464227</ele></trkpt>
<trkpt lat="34.84095566212276" lon="136.53956477084202"><ele>26.311244151736602</ele></trkpt>
<trkpt lat="34.84100332656035" lon="136.53952466349244"><ele>26.52796740015129</ele></trkpt>
<trkpt lat="34.84105027494855" lon="136.53949341417132"><ele>26.715157504046868</ele></trkpt>
<trkpt lat="34.84109617249656" lon="136.5394690199768"><ele>26.87975023112351</ele></trkpt>
<trkpt lat="34.84114370430384" lon="136.53944805482564"><ele>27.037792712145254</ele></trkpt>
<trkpt lat="34.841201229166664" lon="136.53942579187725"><ele>27.220144207865395</ele></trkpt>
<trkpt lat="34.8412775169753" lon="136.53939843937263"><ele>27.455781470438836</ele></trkpt>
<trkpt lat="34.841376426697515" lon="136.539364174054"><ele>27.757939112409</ele></trkpt>
<trkpt lat="34.84160459645061" lon="136.53928598963813"><ele>28.45319733128874</ele></trkpt>
<trkpt lat="34.84170197376542" lon="136.53925197949093"><ele>28.752742404812338</ele></trkpt>
<trkpt lat="34.841775145833324" lon="136.53922514603494"><ele>28.983083616323253</ele></trkpt>
<trkpt lat="34.841827153892304" lon="136.53920385016502"><ele>29.15604222650608</ele></trkpt>
<trkpt lat="34.841866225994494" lon="136.53918477270025"><ele>29.299111034304865</ele></trkpt>
<trkpt lat="34.8419006422325" lon="136.53916449001696"><ele>29.440522517934212</ele></trkpt>
<trkpt lat="34.84193417463991" lon="136.53914150047163"><ele>29.593104959601177</ele></trkpt>
<trkpt lat="34.84196776877571" lon="136.53911538130055"><ele>29.76036055946896</ele></trkpt>
<trkpt lat="34.842000084362134" lon="136.5390868662964"><ele>29.93673753552674</ele></trkpt>
<trkpt lat="34.84203037037036" lon="136.53905630182334"><ele>30.11883165050797</ele></trkpt>
<trkpt lat="34.842058242798345" lon="136.53902381759772"><ele>30.304759633805066</ele></trkpt>
<trkpt lat="34.84208425720164" lon="136.53898900621297"><ele>30.496612734775507</ele></trkpt>
<trkpt lat="34.842109198216725" lon="136.53895138687398"><ele>30.69724060336157</ele></trkpt>
<trkpt lat="34.84213372565157" lon="136.5389106564246"><ele>30.9084454192336</ele></trkpt>
<trkpt lat="34.84215791358024" lon="136.53886709264037"><ele>31.128635124821834</ele></trkpt>
<trkpt lat="34.842181244855965" lon="136.53882153708378"><ele>31.353047074861266</ele></trkpt>
<trkpt lat="34.84220303909465" lon="136.53877488893235"><ele>31.576788983615693</ele></trkpt>
<trkpt lat="34.84222274074074" lon="136.53872764818715"><ele>31.797704853584403</ele></trkpt>
<trkpt lat="34.84223983741563" lon="136.5386804927138"><ele>32.013849751727086</ele></trkpt>
<trkpt lat="34.84225394120164" lon="136.53863395827702"><ele>32.2239649082097</ele></trkpt>
<trkpt lat="34.842264862320974" lon="136.53858856058187"><ele>32.425898285606</ele></trkpt>
<trkpt lat="34.84227298806584" lon="136.5385416343682"><ele>32.629964556002406</ele></trkpt>
<trkpt lat="34.8422789369218" lon="136.53848645986196"><ele>32.862908025891095</ele></trkpt>
<trkpt lat="34.84228358548148" lon="136.5384130386926"><ele>33.16584562075192</ele></trkpt>
<trkpt lat="34.84228762651852" lon="136.53831600580983"><ele>33.561419480700486</ele></trkpt>
<trkpt lat="34.842295592296296" lon="136.53808583736713"><ele>34.49224006830128</ele></trkpt>
<trkpt lat="34.84229997659259" lon="136.53798542091891"><ele>34.89400454326247</ele></trkpt>
<trkpt lat="34.84230532747325" lon="136.53790512516983"><ele>35.209533191329456</ele></trkpt>
<trkpt lat="34.84231244823045" lon="136.53783888211612"><ele>35.462664245023404</ele></trkpt>
<trkpt lat="34.84232231338272" lon="136.53777703234994"><ele>35.69344932312053</ele></trkpt>
<trkpt lat="34.84233555065569" lon="136.5377148751453"><ele>35.92415000371726</ele></trkpt>
<trkpt lat="34.842352493015085" lon="136.5376519457426"><ele>36.15972218911238</ele></trkpt>
<trkpt lat="34.842372720164605" lon="136.53759061939928"><ele>36.391657356681634</ele></trkpt>
<trkpt lat="34.842395543209875" lon="136.53753206864684"><ele>36.61300529036583</ele></trkpt>
<trkpt lat="34.842420273662555" lon="136.53747705492972"><ele>36.818075815627545</ele></trkpt>
<trkpt lat="34.84244663374485" lon="136.53742554121177"><ele>37.00659481840774</ele></trkpt>
<trkpt lat="34.84247459190671" lon="136.53737764820644"><ele>37.18056263407402</ele></trkpt>
<trkpt lat="34.84250402537722" lon="136.53733356384205"><ele>37.34233955124897</ele></trkpt>
<trkpt lat="34.842534304526744" lon="136.5372935103397"><ele>37.492682205869585</ele></trkpt>
<trkpt lat="34.84256434019203" lon="136.53725770786372"><ele>37.63052566901151</ele></trkpt>
<trkpt lat="34.84259328326473" lon="136.53722618933767"><ele>37.75506431014381</ele></trkpt>
<trkpt lat="34.842621430041135" lon="136.53719845476476"><ele>37.86856044772389</ele></trkpt>
<trkpt lat="34.84265018312756" lon="136.5371735055179"><ele>37.97647496544736</ele></trkpt>
<trkpt lat="34.84268091152262" lon="136.5371503957792"><ele>38.08412436368891</ele></trkpt>
<trkpt lat="34.842713781892996" lon="136.53712882924933"><ele>38.19278151465722</ele></trkpt>
<trkpt lat="34.84274774348422" lon="136.53710915983632"><ele>38.299514134714954</ele></trkpt>
<trkpt lat="34.842781606310005" lon="136.53709179906392"><ele>38.400945744208066</ele></trkpt>
<trkpt lat="34.842814999999995" lon="136.5370766728602"><ele>38.49677435933377</ele></trkpt>
<trkpt lat="34.84284845267489" lon="136.53706322567058"><ele>38.58990552787919</ele></trkpt>
<trkpt lat="34.842882905349796" lon="136.53705098835823"><ele>38.68384751405619</ele></trkpt>
<trkpt lat="34.84291958024691" lon="136.5370402201805"><ele>38.78085729433567</ele></trkpt>
<trkpt lat="34.84295983264745" lon="136.5370319046752"><ele>38.881985941057444</ele></trkpt>
<trkpt lat="34.843004393689974" lon="136.53702708299494"><ele>38.987350118673746</ele></trkpt>
<trkpt lat="34.84305207818929" lon="136.53702623662272"><ele>39.094451297307515</ele></trkpt>
<trkpt lat="34.8430992874657" lon="136.53702905211705"><ele>39.19684951575082</ele></trkpt>
<trkpt lat="34.84314239257543" lon="136.53703492316697"><ele>39.28862301506208</ele></trkpt>
<trkpt lat="34.843179655092584" lon="136.5370430627302"><ele>39.368791555414816</ele></trkpt>
<trkpt lat="34.843213938271596" lon="136.53705350165862"><ele>39.4475339785148</ele></trkpt>
<trkpt lat="34.843251368055554" lon="136.53706747450212"><ele>39.543628560084244</ele></trkpt>
<trkpt lat="34.843301437499996" lon="136.5370880830971"><ele>39.68435026232838</ele></trkpt>
<trkpt lat="34.843372520576125" lon="136.53711855927656"><ele>39.89358771340123</ele></trkpt>
<trkpt lat="34.84346746167695" lon="136.53715988114467"><ele>40.17823160712285</ele></trkpt>
<trkpt lat="34.84368932124485" lon="136.53725668361557"><ele>40.84933425329572</ele></trkpt>
<trkpt lat="34.84378392181069" lon="136.5372973247124"><ele>41.13666232524204</ele></trkpt>
<trkpt lat="34.84385431249999" lon="136.53732641643617"><ele>41.351378979856406</ele></trkpt>
<trkpt lat="34.84390317755486" lon="136.53734457258952"><ele>41.50210068258272</ele></trkpt>
<trkpt lat="34.84393894307269" lon="136.5373547780745"><ele>41.61555323555979</ele></trkpt>
<trkpt lat="34.84397166692386" lon="136.53736007920273"><ele>41.7251214855644</ele></trkpt>
<trkpt lat="34.844008693501365" lon="136.5373621433449"><ele>41.85701507086769</ele></trkpt>
<trkpt lat="34.844054192301094" lon="136.53736140809946"><ele>42.02792109864233</ele></trkpt>
<trkpt lat="34.84410747119341" lon="136.53735721606557"><ele>42.239375900015304</ele></trkpt>
<trkpt lat="34.84416542866941" lon="136.53734843144275"><ele>42.48577622826038</ele></trkpt>
<trkpt lat="34.844224528120705" lon="136.5373340295375"><ele>42.759558476669966</ele></trkpt>
<trkpt lat="34.84428278806584" lon="136.53731382516128"><ele>43.05496086546884</ele></trkpt>
<trkpt lat="34.844339384773654" lon="136.53728841021902"><ele>43.36618631896054</ele></trkpt>
<trkpt lat="34.844393907407394" lon="136.53725845823718"><ele>43.68802374855458</ele></trkpt>
<trkpt lat="34.84444596707818" lon="136.53722409884685"><ele>44.017875075512194</ele></trkpt>
<trkpt lat="34.84449512277091" lon="136.53718496304964"><ele>44.35581927362941</ele></trkpt>
<trkpt lat="34.84454082784635" lon="136.53714108033597"><ele>44.70061180987477</ele></trkpt>
<trkpt lat="34.844582286008226" lon="136.53709411736813"><ele>45.04343540274461</ele></trkpt>
<trkpt lat="34.84461826806035" lon="136.53704771651437"><ele>45.36497167797533</ele></trkpt>
<trkpt lat="34.84464784635939" lon="136.53700530958332"><ele>45.6465734021251</ele></trkpt>
<trkpt lat="34.844671162979424" lon="136.53696814725302"><ele>45.88073165057932</ele></trkpt>
<trkpt lat="34.84469051862826" lon="136.5369329854028"><ele>46.083565758549284</ele></trkpt>
<trkpt lat="34.844709589240054" lon="136.53689311711065"><ele>46.28708949489018</ele></trkpt>
<trkpt lat="34.84473252918519" lon="136.53684018785617"><ele>46.5315043165142</ele></trkpt>
<trkpt lat="34.844761469481476" lon="136.5367700058476"><ele>46.83824624236927</ele></trkpt>
<trkpt lat="34.844828593037036" lon="136.5366028689615"><ele>47.54200845120408</ele></trkpt>
<trkpt lat="34.84485763140741" lon="136.53652935230673"><ele>47.836874074074075</ele></trkpt>
<trkpt lat="34.8448807197915" lon="136.53646964898343"><ele>47.917633820242344</ele></trkpt>
<trkpt lat="34.844899602990395" lon="136.53641888242473"><ele>47.96093210727756</ele></trkpt>
<trkpt lat="34.844917053300414" lon="136.5363690589985"><ele>47.97957861890589</ele></trkpt>
<trkpt lat="34.84493442429081" lon="136.5363154239392"><ele>47.98553691026186</ele></trkpt>
<trkpt lat="34.844951851725654" lon="136.53625628769723"><ele>47.98606314265432</ele></trkpt>
<trkpt lat="34.84496867901235" lon="136.53619253708507"><ele>47.985147577030105</ele></trkpt>
<trkpt lat="34.84498450023577" lon="136.53612520451142"><ele>47.98530196675348</ele></trkpt>
<trkpt lat="34.84499896555642" lon="136.53605568588378"><ele>47.987942451709095</ele></trkpt>
<trkpt lat="34.845011748006684" lon="136.53598631424504"><ele>47.99277385897054</ele></trkpt>
<trkpt lat="34.84502267266803" lon="136.5359179446523"><ele>47.99803368198539</ele></trkpt>
<trkpt lat="34.84503177730624" lon="136.5358493045171"><ele>48.0017164721327</ele></trkpt>
<trkpt lat="34.84503954282407" lon="136.53577675581894"><ele>48.00293952585186</ele></trkpt>
<trkpt lat="34.845046241319444" lon="136.53570031339748"><ele>48.00193535630336</ele></trkpt>
<trkpt lat="34.84505164872685" lon="136.5356244042469"><ele>47.99923207784202</ele></trkpt>
<trkpt lat="34.84505517371827" lon="136.5355535470477"><ele>47.994885635638205</ele></trkpt>
<trkpt lat="34.84505647513716" lon="136.53548752983752"><ele>47.98840054959691</ele></trkpt>
<trkpt lat="34.8450556745113" lon="136.53542124266417"><ele>47.97867084796246</ele></trkpt>
<trkpt lat="34.845053102537705" lon="136.53535133840106"><ele>47.9647234383018</ele></trkpt>
<trkpt lat="34.845048977709176" lon="136.53527731666156"><ele>47.9466217254359</ele></trkpt>
<trkpt lat="34.84504342965534" lon="136.53520341876475"><ele>47.9276798528762</ele></trkpt>
<trkpt lat="34.84503610973936" lon="136.53513262522534"><ele>47.914182117755175</ele></trkpt>
<trkpt lat="34.84502624767446" lon="136.53506588347523"><ele>47.91309757704127</ele></trkpt>
<trkpt lat="34.845013080729174" lon="136.53500018136404"><ele>47.92749390364841</ele></trkpt>
<trkpt lat="34.84499696093751" lon="136.53493414315992"><ele>47.95467180935679</ele></trkpt>
<trkpt lat="34.84497907291666" lon="136.53486919958257"><ele>47.98869585558639</ele></trkpt>
<trkpt lat="34.844960328993054" lon="136.534807631587"><ele>48.02500637312376</ele></trkpt>
<trkpt lat="34.844940677951385" lon="136.53474922765076"><ele>48.062340165676744</ele></trkpt>
<trkpt lat="34.84491990625" lon="136.5346923297892"><ele>48.10055041774363</ele></trkpt>
<trkpt lat="34.844898124131944" lon="136.53463599326997"><ele>48.13876162622982</ele></trkpt>
<trkpt lat="34.84487524421297" lon="136.53457937202504"><ele>48.17613482565577</ele></trkpt>
<trkpt lat="34.844850680266205" lon="136.53452092612278"><ele>48.21287781860184</ele></trkpt>
<trkpt lat="34.84482427430555" lon="136.53446020302428"><ele>48.24899250533755</ele></trkpt>
<trkpt lat="34.8447966333912" lon="136.53439897472413"><ele>48.28280303289198</ele></trkpt>
<trkpt lat="34.84476814207175" lon="136.5343389527325"><ele>48.31221941207302</ele></trkpt>
<trkpt lat="34.84473833912036" lon="136.5342798048682"><ele>48.33665198255879</ele></trkpt>
<trkpt lat="34.844707021701375" lon="136.53422097297818"><ele>48.35689623513849</ele></trkpt>
<trkpt lat="34.84467489033564" lon="136.5341637970564"><ele>48.373273252830515</ele></trkpt>
<trkpt lat="34.84464216526276" lon="136.53410945106148"><ele>48.385436369313645</ele></trkpt>
<trkpt lat="34.84460810039437" lon="136.53405725967207"><ele>48.39328183929574</ele></trkpt>
<trkpt lat="34.84457204179525" lon="136.53400558805637"><ele>48.397486872437774</ele></trkpt>
<trkpt lat="34.844535793167" lon="136.5339558387982"><ele>48.398655866126916</ele></trkpt>
<trkpt lat="34.84450175518688" lon="136.5339106180976"><ele>48.39691029387873</ele></trkpt>
<trkpt lat="34.8444711419753" lon="136.53387159665957"><ele>48.39185609212715</ele></trkpt>
<trkpt lat="34.84444314177972" lon="136.5338378164433"><ele>48.38348821283746</ele></trkpt>
<trkpt lat="34.84441664483935" lon="136.53380779197943"><ele>48.37238971408508</ele></trkpt>
<trkpt lat="34.8443671463906" lon="136.53375563067564"><ele>48.35072542973114</ele></trkpt>
<trkpt lat="34.844305017578115" lon="136.53369286072558"><ele>48.34438452286846</ele></trkpt>
<trkpt lat="34.84408106040219" lon="136.53346736607065"><ele>48.38113640456946</ele></trkpt>
<trkpt lat="34.84380962782117" lon="136.53319407699655"><ele>48.43718280839449</ele></trkpt>
<trkpt lat="34.84353915502024" lon="136.53292139342233"><ele>48.49538065022094</ele></trkpt>
<trkpt lat="34.8434402421875" lon="136.53282124531307"><ele>48.518018224506385</ele></trkpt>
<trkpt lat="34.84336982812499" lon="136.53274936610785"><ele>48.53591543476098</ele></trkpt>
<trkpt lat="34.843323367187494" lon="136.5327010414096"><ele>48.550451606821774</ele></trkpt>
<trkpt lat="34.84329421903935" lon="136.5326690915616"><ele>48.56441188073359</ele></trkpt>
<trkpt lat="34.843276063078704" lon="136.53264573629266"><ele>48.582454765345474</ele></trkpt>
<trkpt lat="34.843263621383095" lon="136.53262406611515"><ele>48.60921692387677</ele></trkpt>
<trkpt lat="34.84325421426504" lon="136.53260054566624"><ele>48.64561540184796</ele></trkpt>
<trkpt lat="34.84324697381365" lon="136.5325754917781"><ele>48.679866655499936</ele></trkpt>
<trkpt lat="34.84324185300925" lon="136.53254911514276"><ele>48.714048563719885</ele></trkpt>
<trkpt lat="34.843237938223375" lon="136.53251811504782"><ele>48.751353275353935</ele></trkpt>
<trkpt lat="34.84322840624999" lon="136.53240826546664"><ele>48.87358530668496</ele></trkpt>
<trkpt lat="34.843209866970476" lon="136.53217324135113"><ele>49.12787366332141</ele></trkpt>
<trkpt lat="34.843181037109375" lon="136.5318008737467"><ele>49.52862611281232</ele></trkpt>
<trkpt lat="34.84316579644097" lon="136.5316025558943"><ele>49.74185496137638</ele></trkpt>
<trkpt lat="34.84314190671999" lon="136.5312848691062"><ele>50.085719435029155</ele></trkpt>
<trkpt lat="34.843135218402374" lon="136.53118959990297"><ele>50.20083644520305</ele></trkpt>
<trkpt lat="34.84313130078263" lon="136.53112603419876"><ele>50.2831620109275</ele></trkpt>
<trkpt lat="34.84312868335854" lon="136.53106237741596"><ele>50.36928350517086</ele></trkpt>
<trkpt lat="34.84312848082761" lon="136.5310305065385"><ele>50.41353466634916</ele></trkpt>
<trkpt lat="34.84313011078999" lon="136.53099869610634"><ele>50.458525344567846</ele></trkpt>
<trkpt lat="34.843134224239336" lon="136.53096723278512"><ele>50.504404554273066</ele></trkpt>
<trkpt lat="34.84314168280069" lon="136.53093672773414"><ele>50.55129262893439</ele></trkpt>
<trkpt lat="34.8431527883029" lon="136.53090796558254"><ele>50.5991808594455</ele></trkpt>
<trkpt lat="34.84316706082692" lon="136.53088136066248"><ele>50.64794795469278</ele></trkpt>
<trkpt lat="34.843183967306075" lon="136.53085715095207"><ele>50.69744032512486</ele></trkpt>
<trkpt lat="34.84320320173999" lon="136.53083566807717"><ele>50.74757448242914</ele></trkpt>
<trkpt lat="34.843224575612325" lon="136.53081738087167"><ele>50.79835196697224</ele></trkpt>
<trkpt lat="34.84324783701027" lon="136.5308028021158"><ele>50.84979222123587</ele></trkpt>
<trkpt lat="34.84327234737305" lon="136.53079168990962"><ele>50.90169205563072</ele></trkpt>
<trkpt lat="34.84329738556265" lon="136.53078251553796"><ele>50.95372318767845</ele></trkpt>
<trkpt lat="34.84334818854701" lon="136.5307673438935"><ele>51.0575143349746</ele></trkpt>
<trkpt lat="34.84345056644109" lon="136.53074102499573"><ele>51.259038733451234</ele></trkpt>
<trkpt lat="34.84352746697223" lon="136.53072196870178"><ele>51.40076260411178</ele></trkpt>
<trkpt lat="34.8435787547791" lon="136.53070938965323"><ele>51.48967271912191</ele></trkpt>
<trkpt lat="34.843639787543395" lon="136.53069442049772"><ele>51.589107155774826</ele></trkpt>
<trkpt lat="34.844121048719614" lon="136.53057714123005"><ele>52.34459635416666</ele></trkpt>
<trkpt lat="34.84442013769531" lon="136.53050436797034"><ele>52.73832026947244</ele></trkpt>
<trkpt lat="34.84457473818755" lon="136.53046676186943"><ele>52.935665874198286</ele></trkpt>
<trkpt lat="34.8446773471878" lon="136.5304418063791"><ele>53.049906539619144</ele></trkpt>
<trkpt lat="34.84475430444627" lon="136.530423092854"><ele>53.121927069114015</ele></trkpt>
<trkpt lat="34.844805609288414" lon="136.5304106171706"><ele>53.16516326666743</ele></trkpt>
<trkpt lat="34.84488256712769" lon="136.53039190716217"><ele>53.22360774096005</ele></trkpt>
<trkpt lat="34.844933872434765" lon="136.5303794343016"><ele>53.25993651478248</ele></trkpt>
<trkpt lat="34.845036484329356" lon="136.53035449638435"><ele>53.330101672783</ele></trkpt>
<trkpt lat="34.845139097164534" lon="136.53032956417175"><ele>53.403221647429035</ele></trkpt>
<trkpt lat="34.845241715385555" lon="136.53030466487826"><ele>53.48613612733132</ele></trkpt>
<trkpt lat="34.845318680124784" lon="136.53028599694863"><ele>53.55824051423531</ele></trkpt>
<trkpt lat="34.845421313330036" lon="136.53026118945834"><ele>53.670623384455524</ele></trkpt>
<trkpt lat="34.84557431640625" lon="136.53022445270219"><ele>53.85593667933464</ele></trkpt>
<trkpt lat="34.845658734374986" lon="136.53020463315505"><ele>53.95889206917757</ele></trkpt>
<trkpt lat="34.845718261718744" lon="136.53019125897674"><ele>54.032393228374545</ele></trkpt>
<trkpt lat="34.84576152368934" lon="136.53018245716353"><ele>54.08717055265937</ele></trkpt>
<trkpt lat="34.8457968233239" lon="136.53017661926287"><ele>54.133675064053136</ele></trkpt>
<trkpt lat="34.845831907005525" lon="136.53017281603957"><ele>54.18204374689222</ele></trkpt>
<trkpt lat="34.84587050704624" lon="136.53017124709467"><ele>54.23741873453626</ele></trkpt>
<trkpt lat="34.845913500605484" lon="136.5301724958136"><ele>54.30124273152404</ele></trkpt>
<trkpt lat="34.845958209876535" lon="136.5301767983424"><ele>54.3696699636632</ele></trkpt>
<trkpt lat="34.84600209533607" lon="136.53018350821597"><ele>54.43845685848411</ele></trkpt>
<trkpt lat="34.8460429807956" lon="136.53019176130175"><ele>54.50370838374569</ele></trkpt>
<trkpt lat="34.84608010699587" lon="136.5302008909318"><ele>54.56376710447198</ele></trkpt>
<trkpt lat="34.84611323936898" lon="136.53021062755823"><ele>54.61809598874075</ele></trkpt>
<trkpt lat="34.846142964334696" lon="136.53022106171457"><ele>54.667619347808326</ele></trkpt>
<trkpt lat="34.84620303993055" lon="136.53024726247915"><ele>54.769996234349065</ele></trkpt>
<trkpt lat="34.84628197614453" lon="136.53028521950282"><ele>54.90559162657672</ele></trkpt>
<trkpt lat="34.8463739103545" lon="136.53033096180903"><ele>55.06289954546942</ele></trkpt>
<trkpt lat="34.846424125868054" lon="136.53035688735525"><ele>55.14840839253664</ele></trkpt>
<trkpt lat="34.84653225520833" lon="136.53041406616657"><ele>55.330537264997226</ele></trkpt>
<trkpt lat="34.84663720081019" lon="136.5304705812224"><ele>55.50068140931087</ele></trkpt>
<trkpt lat="34.846733312789354" lon="136.5305229006867"><ele>55.649424740452325</ele></trkpt>
<trkpt lat="34.846805778377906" lon="136.53056193344068"><ele>55.75713746547658</ele></trkpt>
<trkpt lat="34.84683561953445" lon="136.53057699306552"><ele>55.79922298002986</ele></trkpt>
<trkpt lat="34.846866319423" lon="136.53059083683863"><ele>55.84101245491806</ele></trkpt>
<trkpt lat="34.84690028628686" lon="136.53060387389743"><ele>55.88606463712061</ele></trkpt>
<trkpt lat="34.8469370473251" lon="136.53061515430346"><ele>55.93373477835007</ele></trkpt>
<trkpt lat="34.846974751028796" lon="136.53062320094924"><ele>55.984731887952606</ele></trkpt>
<trkpt lat="34.847011257201636" lon="136.5306264698195"><ele>56.028927806251325</ele></trkpt>
<trkpt lat="34.847045232510276" lon="136.53062388683787"><ele>56.06435297387941</ele></trkpt>
<trkpt lat="34.84707603978052" lon="136.53061480385506"><ele>56.091406877158505</ele></trkpt>
<trkpt lat="34.847103421124814" lon="136.53059896161133"><ele>56.11169317406097</ele></trkpt>
<trkpt lat="34.847127506172825" lon="136.53057678603224"><ele>56.12742351483703</ele></trkpt>
<trkpt lat="34.847148731824404" lon="136.53054935530685"><ele>56.14079852511506</ele></trkpt>
<trkpt lat="34.84716735253771" lon="136.53051790606068"><ele>56.153053440147545</ele></trkpt>
<trkpt lat="34.84718279423868" lon="136.5304834753298"><ele>56.16339243877296</ele></trkpt>
<trkpt lat="34.847193689300404" lon="136.53044687724224"><ele>56.169418616661645</ele></trkpt>
<trkpt lat="34.84719873251028" lon="136.5304089211276"><ele>56.16916869315969</ele></trkpt>
<trkpt lat="34.84719759053497" lon="136.53037062550735"><ele>56.16283094666416</ele></trkpt>
<trkpt lat="34.847190686385446" lon="136.5303328338329"><ele>56.152109763089534</ele></trkpt>
<trkpt lat="34.847178280692724" lon="136.53029601592493"><ele>56.13826493870849</ele></trkpt>
<trkpt lat="34.84716087745679" lon="136.53026062067332"><ele>56.12189494766701</ele></trkpt>
<trkpt lat="34.84713975673662" lon="136.53022806445"><ele>56.10340572602992</ele></trkpt>
<trkpt lat="34.84711684878189" lon="136.53019998093885"><ele>56.08401587673841</ele></trkpt>
<trkpt lat="34.84709152574074" lon="136.53017557604886"><ele>56.06376353121469</ele></trkpt>
<trkpt lat="34.847058853814815" lon="136.53014983487083"><ele>56.04014957130461</ele></trkpt>
<trkpt lat="34.84701176704938" lon="136.53011617852172"><ele>56.00871054787826</ele></trkpt>
<trkpt lat="34.84686866959258" lon="136.53001694807273"><ele>55.918211546547035</ele></trkpt>
<trkpt lat="34.84678658920986" lon="136.52995981571553"><ele>55.86885071677324</ele></trkpt>
<trkpt lat="34.84670756779011" lon="136.52990371040048"><ele>55.82503803979495</ele></trkpt>
<trkpt lat="34.84662987499999" lon="136.52984662446707"><ele>55.78803118828844</ele></trkpt>
<trkpt lat="34.84654599048353" lon="136.52978271321754"><ele>55.75519875505087</ele></trkpt>
<trkpt lat="34.846450001800406" lon="136.5297078073577"><ele>55.72321573473223</ele></trkpt>
<trkpt lat="34.846345068672825" lon="136.5296249324658"><ele>55.69150344533555</ele></trkpt>
<trkpt lat="34.84624280504114" lon="136.529543646132"><ele>55.66264959380585</ele></trkpt>
<trkpt lat="34.84615592566871" lon="136.52947416084191"><ele>55.64041949538472</ele></trkpt>
<trkpt lat="34.846090562499995" lon="136.5294212704694"><ele>55.62741165909909</ele></trkpt>
<trkpt lat="34.84604371699245" lon="136.5293823579135"><ele>55.62429166109697</ele></trkpt>
<trkpt lat="34.846007972565154" lon="136.52935131025106"><ele>55.63012646261456</ele></trkpt>
<trkpt lat="34.84597589634773" lon="136.52932200482007"><ele>55.64354852198314</ele></trkpt>
<trkpt lat="34.84591145121741" lon="136.5292593947535"><ele>55.68758137227147</ele></trkpt>
<trkpt lat="34.84587802263373" lon="136.52922441146586"><ele>55.721355453224234</ele></trkpt>
<trkpt lat="34.84584262277091" lon="136.52918451090144"><ele>55.7714838814029</ele></trkpt>
<trkpt lat="34.845804198216726" lon="136.52913768440544"><ele>55.844432493484526</ele></trkpt>
<trkpt lat="34.84576295267489" lon="136.52908395050827"><ele>55.940146142260424</ele></trkpt>
<trkpt lat="34.84572096159122" lon="136.5290259265009"><ele>56.05169026568781</ele></trkpt>
<trkpt lat="34.84568052606309" lon="136.52896653213222"><ele>56.17131135273043</ele></trkpt>
<trkpt lat="34.845642720164605" lon="136.52890695257847"><ele>56.295801549291056</ele></trkpt>
<trkpt lat="34.845607326474614" lon="136.52884654380276"><ele>56.42675676069773</ele></trkpt>
<trkpt lat="34.845573901920424" lon="136.52878430169181"><ele>56.56674785351024</ele></trkpt>
<trkpt lat="34.84554265020575" lon="136.5287200225466"><ele>56.71632877263282</ele></trkpt>
<trkpt lat="34.84551444375856" lon="136.5286543552034"><ele>56.8735477067581</ele></trkpt>
<trkpt lat="34.84549008299039" lon="136.5285879532948"><ele>57.03388419761092</ele></trkpt>
<trkpt lat="34.84546949382715" lon="136.52852063163076"><ele>57.18787991655164</ele></trkpt>
<trkpt lat="34.845451834962276" lon="136.5284520002701"><ele>57.32139274691358</ele></trkpt>
<trkpt lat="34.84543619693072" lon="136.52838212334393"><ele>57.339610022122585</ele></trkpt>
<trkpt lat="34.84542237371399" lon="136.5283132664809"><ele>57.32229101689126</ele></trkpt>
<trkpt lat="34.8454104729081" lon="136.5282470267963"><ele>57.27570998353461</ele></trkpt>
<trkpt lat="34.84540052792781" lon="136.52818320281298"><ele>57.205688125727434</ele></trkpt>
<trkpt lat="34.8453920318287" lon="136.52811846524696"><ele>57.113538456568875</ele></trkpt>
<trkpt lat="34.84538456076388" lon="136.52805101559613"><ele>57.003089262798355</ele></trkpt>
<trkpt lat="34.84537804398148" lon="136.52798103990546"><ele>56.88210430864004</ele></trkpt>
<trkpt lat="34.845372709780094" lon="136.52790888829009"><ele>56.75667081262953</ele></trkpt>
<trkpt lat="34.84536863859953" lon="136.52783310646578"><ele>56.626951570263444</ele></trkpt>
<trkpt lat="34.84536570920139" lon="136.5277531805441"><ele>56.49301587313482</ele></trkpt>
<trkpt lat="34.84536398668981" lon="136.52767100925402"><ele>56.35917193553178</ele></trkpt>
<trkpt lat="34.845363763888884" lon="136.52758808189012"><ele>56.2296730064656</ele></trkpt>
<trkpt lat="34.8453652980324" lon="136.52750329428395"><ele>56.10406220895137</ele></trkpt>
<trkpt lat="34.8453685720486" lon="136.52741575783452"><ele>55.9806422953589</ele></trkpt>
<trkpt lat="34.84537367042823" lon="136.52732695836556"><ele>55.86130308934876</ele></trkpt>
<trkpt lat="34.845381015046286" lon="136.52723812446797"><ele>55.74864731302105</ele></trkpt>
<trkpt lat="34.845391106192125" lon="136.5271478200875"><ele>55.6418919383746</ele></trkpt>
<trkpt lat="34.84540386892361" lon="136.52705453219804"><ele>55.53912038486629</ele></trkpt>
<trkpt lat="34.84541896122685" lon="136.52695874633304"><ele>55.44159491006563</ele></trkpt>
<trkpt lat="34.8454362848287" lon="136.52686129875534"><ele>55.3520636440141</ele></trkpt>
<trkpt lat="34.84545607216667" lon="136.526761336175"><ele>55.2707098001667</ele></trkpt>
<trkpt lat="34.84547767672916" lon="136.5266603864163"><ele>55.196365007176425</ele></trkpt>
<trkpt lat="34.84549975163195" lon="136.52656318753532"><ele>55.12899479517866</ele></trkpt>
<trkpt lat="34.84552151622917" lon="136.52647358037524"><ele>55.06882670165825</ele></trkpt>
<trkpt lat="34.845544044444445" lon="136.5263884349773"><ele>55.01280995873883</ele></trkpt>
<trkpt lat="34.845568994666664" lon="136.52630123159685"><ele>54.95607901972064</ele></trkpt>
<trkpt lat="34.84559650666666" lon="136.52620983798332"><ele>54.896292215537784</ele></trkpt>
<trkpt lat="34.845624880888884" lon="136.5261190191612"><ele>54.834811207407974</ele></trkpt>
<trkpt lat="34.845652773333335" lon="136.52603377722107"><ele>54.77229966732176</ele></trkpt>
<trkpt lat="34.845681163539346" lon="136.52595250662793"><ele>54.70490342758052</ele></trkpt>
<trkpt lat="34.845712412488425" lon="136.52586889060547"><ele>54.62745988036461</ele></trkpt>
<trkpt lat="34.845747920076384" lon="136.52577912063768"><ele>54.539921621824675</ele></trkpt>
<trkpt lat="34.84578741153703" lon="136.525685350877"><ele>54.44974042906903</ele></trkpt>
<trkpt lat="34.84583081675694" lon="136.5255906277555"><ele>54.364942269187914</ele></trkpt>
<trkpt lat="34.845878500289345" lon="136.52549595485758"><ele>54.289396959343094</ele></trkpt>
<trkpt lat="34.845929532986105" lon="136.52540208449298"><ele>54.22342092835379</ele></trkpt>
<trkpt lat="34.84598062181713" lon="136.52531346264456"><ele>54.169839217857245</ele></trkpt>
<trkpt lat="34.846028790798606" lon="136.52523473082184"><ele>54.13298308577429</ele></trkpt>
<trkpt lat="34.84607373668981" lon="136.52516659536528"><ele>54.11505682609528</ele></trkpt>
<trkpt lat="34.846117115451385" lon="136.52510584216338"><ele>54.11398323195503</ele></trkpt>
<trkpt lat="34.846160690682865" lon="136.52504907451"><ele>54.12791616177236</ele></trkpt>
<trkpt lat="34.846206271122675" lon="136.52499361994953"><ele>54.15771639526401</ele></trkpt>
<trkpt lat="34.84625563888888" lon="136.5249372921349"><ele>54.204895192498256</ele></trkpt>
<trkpt lat="34.84630869270833" lon="136.52487972588432"><ele>54.26656791824469</ele></trkpt>
<trkpt lat="34.84636292534721" lon="136.52482339456552"><ele>54.33649823864174</ele></trkpt>
<trkpt lat="34.84641601649304" lon="136.52477105137285"><ele>54.40988797380107</ele></trkpt>
<trkpt lat="34.84646795052081" lon="136.5247230927355"><ele>54.4854941668733</ele></trkpt>
<trkpt lat="34.84651945572915" lon="136.5246784957923"><ele>54.56097992689635</ele></trkpt>
<trkpt lat="34.846570034722205" lon="136.52463729496776"><ele>54.6290529686501</ele></trkpt>
<trkpt lat="34.84661816836659" lon="136.52460065060015"><ele>54.681056444582445</ele></trkpt>
<trkpt lat="34.846663424949355" lon="136.52456889198328"><ele>54.71327226458312</ele></trkpt>
<trkpt lat="34.84670563595918" lon="136.52454146310112"><ele>54.72853979757691</ele></trkpt>
<trkpt lat="34.84674605092591" lon="136.5245167625897"><ele>54.731274310436675</ele></trkpt>
<trkpt lat="34.84678750560618" lon="136.52449260750265"><ele>54.723011664619904</ele></trkpt>
<trkpt lat="34.84683667480468" lon="136.52446505224276"><ele>54.70139390931952</ele></trkpt>
<trkpt lat="34.84690186718749" lon="136.52442947740988"><ele>54.66182662157781</ele></trkpt>
<trkpt lat="34.8469921142578" lon="136.5243809417748"><ele>54.59890612169162</ele></trkpt>
<trkpt lat="34.84711370713974" lon="136.52431601840004"><ele>54.50873588669161</ele></trkpt>
<trkpt lat="34.84761092892794" lon="136.5240515109432"><ele>54.12749958503421</ele></trkpt>
<trkpt lat="34.847762469726554" lon="136.52397069113363"><ele>54.0118224497086</ele></trkpt>
<trkpt lat="34.84788179882812" lon="136.52390664293083"><ele>53.9227651283575</ele></trkpt>
<trkpt lat="34.84796814062499" lon="136.5238596180118"><ele>53.86176334390299</ele></trkpt>
<trkpt lat="34.84802724804687" lon="136.52382639791514"><ele>53.825181251410754</ele></trkpt>
<trkpt lat="34.84806757258712" lon="136.52380213672905"><ele>53.808099162925856</ele></trkpt>
<trkpt lat="34.848097228073556" lon="136.52378196695628"><ele>53.805745293473606</ele></trkpt>
<trkpt lat="34.848123631389846" lon="136.5237607818962"><ele>53.81391980318281</ele></trkpt>
<trkpt lat="34.84815088825392" lon="136.5237351926402"><ele>53.82821828678163</ele></trkpt>
<trkpt lat="34.84818054876382" lon="136.523703210121"><ele>53.84518428163099</ele></trkpt>
<trkpt lat="34.8482112962963" lon="136.5236648169296"><ele>53.86195425833321</ele></trkpt>
<trkpt lat="34.84824170644719" lon="136.5236199307896"><ele>53.87705026022836</ele></trkpt>
<trkpt lat="34.84827036351166" lon="136.5235684397094"><ele>53.88897623806493</ele></trkpt>
<trkpt lat="34.84829634156378" lon="136.52350991776098"><ele>53.895231762760005</ele></trkpt>
<trkpt lat="34.84831850155391" lon="136.5234448989571"><ele>53.89223923029486</ele></trkpt>
<trkpt lat="34.84833589775162" lon="136.5233747171469"><ele>53.877221753377256</ele></trkpt>
<trkpt lat="34.848348266557345" lon="136.52330278147681"><ele>53.851339742960164</ele></trkpt>
<trkpt lat="34.848356167095325" lon="136.52323128139952"><ele>53.81810455573975</ele></trkpt>
<trkpt lat="34.84836033335476" lon="136.52316016297797"><ele>53.7804515701343</ele></trkpt>
<trkpt lat="34.84836150983796" lon="136.52308616406017"><ele>53.738414532461874</ele></trkpt>
<trkpt lat="34.84836029600694" lon="136.52300865363492"><ele>53.69207584066747</ele></trkpt>
<trkpt lat="34.848357033275455" lon="136.52293055380068"><ele>53.64252579984495</ele></trkpt>
<trkpt lat="34.84835158275463" lon="136.52285532346707"><ele>53.590599153647545</ele></trkpt>
<trkpt lat="34.848343627025464" lon="136.52278305320175"><ele>53.5360643673036</ele></trkpt>
<trkpt lat="34.84833329600695" lon="136.52271227512594"><ele>53.480944126145296</ele></trkpt>
<trkpt lat="34.848320916087964" lon="136.522642816207"><ele>53.43192226382348</ele></trkpt>
<trkpt lat="34.84830643200232" lon="136.52257473199646"><ele>53.396742193278115</ele></trkpt>
<trkpt lat="34.84828937065972" lon="136.52250680576896"><ele>53.37854676012405</ele></trkpt>
<trkpt lat="34.848269713541654" lon="136.5224384730053"><ele>53.373867533475924</ele></trkpt>
<trkpt lat="34.848247867187496" lon="136.5223717962085"><ele>53.376572874573824</ele></trkpt>
<trkpt lat="34.84822351197059" lon="136.5223086420559"><ele>53.381761147542406</ele></trkpt>
<trkpt lat="34.8481955260631" lon="136.5222485318803"><ele>53.386851058226384</ele></trkpt>
<trkpt lat="34.84816284725436" lon="136.5221897669039"><ele>53.389777158060774</ele></trkpt>
<trkpt lat="34.84812627041537" lon="136.52213417695413"><ele>53.38773881519419</ele></trkpt>
<trkpt lat="34.84808725414737" lon="136.52208515453012"><ele>53.3776436882276</ele></trkpt>
<trkpt lat="34.84804730452674" lon="136.52204537236526"><ele>53.35692003178973</ele></trkpt>
<trkpt lat="34.84800670919066" lon="136.52201399652108"><ele>53.324056652957935</ele></trkpt>
<trkpt lat="34.84796526817558" lon="136.5219892811667"><ele>53.2780970874814</ele></trkpt>
<trkpt lat="34.847922240740736" lon="136.52196974482322"><ele>53.21825544862067</ele></trkpt>
<trkpt lat="34.847876748285316" lon="136.52195488680618"><ele>53.1436127887749</ele></trkpt>
<trkpt lat="34.84782815706446" lon="136.52194467693823"><ele>53.05316163190771</ele></trkpt>
<trkpt lat="34.84777667078189" lon="136.52193944855404"><ele>52.94586939422506</ele></trkpt>
<trkpt lat="34.847723325102876" lon="136.5219398065924"><ele>52.8208389808189</ele></trkpt>
<trkpt lat="34.84766936213991" lon="136.5219461831502"><ele>52.67835370115799</ele></trkpt>
<trkpt lat="34.847615781893" lon="136.52195824489067"><ele>52.52209075039671</ele></trkpt>
<trkpt lat="34.84756329080932" lon="136.52197491156528"><ele>52.3590433837304</ele></trkpt>
<trkpt lat="34.84751244170095" lon="136.52199505971834"><ele>52.19609715041314</ele></trkpt>
<trkpt lat="34.8474636419753" lon="136.52201818935194"><ele>52.03627373265595</ele></trkpt>
<trkpt lat="34.84741746379886" lon="136.52204416611065"><ele>51.879736523155884</ele></trkpt>
<trkpt lat="34.84737445981224" lon="136.52207280712383"><ele>51.725883531464774</ele></trkpt>
<trkpt lat="34.847335319251535" lon="136.52210310978722"><ele>51.576334040269096</ele></trkpt>
<trkpt lat="34.8472993297325" lon="136.52213479061496"><ele>51.42819385608937</ele></trkpt>
<trkpt lat="34.84726465416023" lon="136.52216867756528"><ele>51.27374203132797</ele></trkpt>
<trkpt lat="34.84722864843749" lon="136.52220667659617"><ele>51.1021672533011</ele></trkpt>
<trkpt lat="34.847190752604156" lon="136.52224877006776"><ele>50.913538315196696</ele></trkpt>
<trkpt lat="34.84715243576388" lon="136.5222930246967"><ele>50.71819092597093</ele></trkpt>
<trkpt lat="34.84711564975462" lon="136.52233734001086"><ele>50.52785841569331</ele></trkpt>
<trkpt lat="34.84708058792592" lon="136.52238171067202"><ele>50.34521278814156</ele></trkpt>
<trkpt lat="34.84704635632639" lon="136.5224270510974"><ele>50.16991444802292</ele></trkpt>
<trkpt lat="34.847011533738424" lon="136.5224750090132"><ele>50.00351402499456</ele></trkpt>
<trkpt lat="34.84697340006713" lon="136.52252951397395"><ele>49.845810672983305</ele></trkpt>
<trkpt lat="34.8469273954074" lon="136.52259738095512"><ele>49.6870173615463</ele></trkpt>
<trkpt lat="34.84687024592592" lon="136.52268334658058"><ele>49.51508127898737</ele></trkpt>
<trkpt lat="34.84680423155556" lon="136.5227836810231"><ele>49.330064425075925</ele></trkpt>
<trkpt lat="34.84673690948147" lon="136.5228868750572"><ele>49.14742706807031</ele></trkpt>
<trkpt lat="34.846675297629616" lon="136.5229825988077"><ele>48.983609666568654</ele></trkpt>
<trkpt lat="34.84662085244444" lon="136.52306914420853"><ele>48.842010134331574</ele></trkpt>
<trkpt lat="34.84657019911109" lon="136.5231519258083"><ele>48.71419574262839</ele></trkpt>
<trkpt lat="34.846520455999986" lon="136.52323509321027"><ele>48.59430034974111</ele></trkpt>
<trkpt lat="34.84647148888889" lon="136.52331841868707"><ele>48.48651506874576</ele></trkpt>
<trkpt lat="34.84642348355555" lon="136.5234017397386"><ele>48.400026300479226</ele></trkpt>
<trkpt lat="34.846374164148145" lon="136.5234893867609"><ele>48.33872080229062</ele></trkpt>
<trkpt lat="34.84632021807406" lon="136.52358724565985"><ele>48.29750001032441</ele></trkpt>
<trkpt lat="34.84626172977776" lon="136.52369487696612"><ele>48.266311881134605</ele></trkpt>
<trkpt lat="34.84620278162961" lon="136.5238048505732"><ele>48.23376881021392</ele></trkpt>
<trkpt lat="34.846147266370366" lon="136.52391070237593"><ele>48.187921384203115</ele></trkpt>
<trkpt lat="34.8460949185185" lon="136.52401387436342"><ele>48.117741399138126</ele></trkpt>
<trkpt lat="34.84604246103703" lon="136.52412086254037"><ele>48.01874677010544</ele></trkpt>
<trkpt lat="34.845988675555546" lon="136.52423328092627"><ele>47.89970696053142</ele></trkpt>
<trkpt lat="34.845936039703695" lon="136.52434532563046"><ele>47.78056133523132</ele></trkpt>
<trkpt lat="34.845887505185175" lon="136.52445103875618"><ele>47.681206727387696</ele></trkpt>
<trkpt lat="34.84584278474073" lon="136.5245517525046"><ele>47.61041263549025</ele></trkpt>
<trkpt lat="34.8457989628148" lon="136.52465401088367"><ele>47.564324823915264</ele></trkpt>
<trkpt lat="34.84575465022221" lon="136.52476017948243"><ele>47.53423827850972</ele></trkpt>
<trkpt lat="34.84571144414814" lon="136.52486580197385"><ele>47.51342843593288</ele></trkpt>
<trkpt lat="34.84567139807407" lon="136.52496619689737"><ele>47.498997122147</ele></trkpt>
<trkpt lat="34.84563403081481" lon="136.52506328873594"><ele>47.48966808360403</ele></trkpt>
<trkpt lat="34.84559686918517" lon="136.52516345852968"><ele>47.483806961152816</ele></trkpt>
<trkpt lat="34.8455588631111" lon="136.5252686016513"><ele>47.47875582892278</ele></trkpt>
<trkpt lat="34.84552147496295" lon="136.52537391718784"><ele>47.47055699825622</ele></trkpt>
<trkpt lat="34.84548642192591" lon="136.52547467538153"><ele>47.45395657743206</ele></trkpt>
<trkpt lat="34.84545316607406" lon="136.5255729073773"><ele>47.42379652185967</ele></trkpt>
<trkpt lat="34.84541952192591" lon="136.52567501673147"><ele>47.377803556283396</ele></trkpt>
<trkpt lat="34.84538471955555" lon="136.52578265229982"><ele>47.31893781985204</ele></trkpt>
<trkpt lat="34.845350290814814" lon="136.5258905465047"><ele>47.25320131495306</ele></trkpt>
<trkpt lat="34.845317921629615" lon="136.5259935384773"><ele>47.183763445877275</ele></trkpt>
<trkpt lat="34.84528749516725" lon="136.52609232169405"><ele>47.109134539122</ele></trkpt>
<trkpt lat="34.845257469733276" lon="136.5261917757863"><ele>47.02667575922773</ele></trkpt>
<trkpt lat="34.845198907928285" lon="136.526389077415"><ele>46.86037185850159</ele></trkpt>
<trkpt lat="34.845172153696566" lon="136.5264799862055"><ele>46.7962070767813</ele></trkpt>
<trkpt lat="34.84514594169096" lon="136.5265694653955"><ele>46.75202972583814</ele></trkpt>
<trkpt lat="34.84511717055393" lon="136.52666812734893"><ele>46.727002417444595</ele></trkpt>
<trkpt lat="34.8450825122017" lon="136.52678736310682"><ele>46.717374716182924</ele></trkpt>
<trkpt lat="34.8449935414642" lon="136.52709411049298"><ele>46.72334889764152</ele></trkpt>
<trkpt lat="34.844945657542375" lon="136.52725930929208"><ele>46.72261459934457</ele></trkpt>
<trkpt lat="34.844901127685986" lon="136.52741294274028"><ele>46.704339619056384</ele></trkpt>
<trkpt lat="34.844822944606406" lon="136.52768262609996"><ele>46.35457685720033</ele></trkpt>
<trkpt lat="34.8447828642695" lon="136.52782083427448"><ele>46.164267178687545</ele></trkpt>
<trkpt lat="34.84469" lon="136.52814099793795"><ele>45.70878993772764</ele></trkpt>
<trkpt lat="34.844597135730474" lon="136.52846113812922"><ele>45.24597411408411</ele></trkpt>
<trkpt lat="34.844518944606406" lon="136.52873069169732"><ele>44.8501807735631</ele></trkpt>
<trkpt lat="34.84441257871041" lon="136.52909737611066"><ele>44.29982477170284</ele></trkpt>
<trkpt lat="34.844377711045865" lon="136.5292175805018"><ele>44.10967286821429</ele></trkpt>
<trkpt lat="34.84434284412277" lon="136.52933778516424"><ele>43.911703061880445</ele></trkpt>
<trkpt lat="34.84431669530384" lon="136.52942793922654"><ele>43.76058661670312</ele></trkpt>
<trkpt lat="34.84429054714945" lon="136.52951809353223"><ele>43.60811355057097</ele></trkpt>
<trkpt lat="34.84425568697141" lon="136.52963830097406"><ele>43.408663577493165</ele></trkpt>
<trkpt lat="34.8442295463285" lon="136.52972845846034"><ele>43.26560563461497</ele></trkpt>
<trkpt lat="34.8442121201022" lon="136.5297885638009"><ele>43.17271617673548</ele></trkpt>
<trkpt lat="34.844177273168924" lon="136.52990877682913"><ele>42.998450102347874</ele></trkpt>
<trkpt lat="34.844151140650006" lon="136.5299989377293"><ele>42.876832848115484</ele></trkpt>
<trkpt lat="34.84413040897311" lon="136.530070465753"><ele>42.68903048590652</ele></trkpt>
<trkpt lat="34.84408280320699" lon="136.5302347159279"><ele>42.28802581887323</ele></trkpt>
<trkpt lat="34.84396617638483" lon="136.53063681531563"><ele>41.324635568513116</ele></trkpt>
<trkpt lat="34.84394442565597" lon="136.5307115323248"><ele>41.50998966754236</ele></trkpt>
<trkpt lat="34.84390620803489" lon="136.5308424179998"><ele>41.8334816193695</ele></trkpt>
<trkpt lat="34.84389037490672" lon="136.53090316450175"><ele>41.98431436756745</ele></trkpt>
<trkpt lat="34.84387749819424" lon="136.530964928247"><ele>42.144209135424774</ele></trkpt>
<trkpt lat="34.84387246282386" lon="136.53099620481214"><ele>42.22858030151596</ele></trkpt>
<trkpt lat="34.84386465733393" lon="136.5310592190504"><ele>42.40745631547279</ele></trkpt>
<trkpt lat="34.8438602370745" lon="136.5311227183835"><ele>42.60000517376795</ele></trkpt>
<trkpt lat="34.843859779163886" lon="136.53118643837462"><ele>42.80431512593404</ele></trkpt>
<trkpt lat="34.84386255705811" lon="136.5312500825071"><ele>43.01722859350421</ele></trkpt>
<trkpt lat="34.84386541579092" lon="136.53128176404346"><ele>43.12672572718057</ele></trkpt>
<trkpt lat="34.843873558208195" lon="136.53134470932326"><ele>43.35032245847215</ele></trkpt>
<trkpt lat="34.84387891997256" lon="136.53137590524236"><ele>43.46393305675048</ele></trkpt>
<trkpt lat="34.84389189432966" lon="136.5314376495276"><ele>43.69038001268485</ele></trkpt>
<trkpt lat="34.84390661591088" lon="136.5314988169705"><ele>43.90923750214155</ele></trkpt>
<trkpt lat="34.84393778985351" lon="136.53162051664108"><ele>44.31678268309448</ele></trkpt>
<trkpt lat="34.84396191956333" lon="136.53171150214746"><ele>44.5965176551623</ele></trkpt>
<trkpt lat="34.84398686698242" lon="136.53180215986117"><ele>44.85258018253293</ele></trkpt>
<trkpt lat="34.84401333861311" lon="136.53189217343007"><ele>45.080508270104325</ele></trkpt>
<trkpt lat="34.84404000781248" lon="136.5319749694891"><ele>45.27128632062769</ele></trkpt>
<trkpt lat="34.84406744531248" lon="136.53205321862302"><ele>45.446424429099714</ele></trkpt>
<trkpt lat="34.84409564062499" lon="136.53212843650581"><ele>45.61248213184767</ele></trkpt>
<trkpt lat="34.84412475231481" lon="136.53220170646722"><ele>45.774420485271946</ele></trkpt>
<trkpt lat="34.84415551678241" lon="136.5322749121852"><ele>45.9377127316874</ele></trkpt>
<trkpt lat="34.844188176215276" lon="136.5323490050591"><ele>46.10483723799989</ele></trkpt>
<trkpt lat="34.84422198640046" lon="136.53242225592896"><ele>46.27225590888513</ele></trkpt>
<trkpt lat="34.84425638773148" lon="136.5324927194745"><ele>46.4363253695654</ele></trkpt>
<trkpt lat="34.84429172309028" lon="136.532560624855"><ele>46.59818194501771</ele></trkpt>
<trkpt lat="34.8443277578125" lon="136.5326263774629"><ele>46.758235254010515</ele></trkpt>
<trkpt lat="34.84436252951389" lon="136.5326876674134"><ele>46.90988287085511</ele></trkpt>
<trkpt lat="34.84439346556713" lon="136.53274077446756"><ele>47.04334029346791</ele></trkpt>
<trkpt lat="34.8444197097801" lon="136.5327844705959"><ele>47.15544643410904</ele></trkpt>
<trkpt lat="34.844463525752296" lon="136.5328531303533"><ele>47.33944431905871</ele></trkpt>
<trkpt lat="34.84448720775462" lon="136.53288746045067"><ele>47.436919508067895</ele></trkpt>
<trkpt lat="34.844518460937486" lon="136.5329307679382"><ele>47.564207047597584</ele></trkpt>
<trkpt lat="34.844563187499986" lon="136.5329910691983"><ele>47.74527347102249</ele></trkpt>
<trkpt lat="34.844627601562486" lon="136.53307675308906"><ele>48.005298247008994</ele></trkpt>
<trkpt lat="34.84471604926214" lon="136.5331936672184"><ele>48.36187397683129</ele></trkpt>
<trkpt lat="34.84495523502603" lon="136.53350874806657"><ele>49.325506479793596</ele></trkpt>
<trkpt lat="34.84519618554686" lon="136.53382571927773"><ele>50.29631114192811</ele></trkpt>
<trkpt lat="34.84535660937499" lon="136.53403641288708"><ele>50.94363788371234</ele></trkpt>
<trkpt lat="34.845451168909136" lon="136.5341598940824"><ele>51.3274486400463</ele></trkpt>
<trkpt lat="34.84553008355034" lon="136.53426240137856"><ele>51.58709852430556</ele></trkpt>
<trkpt lat="34.845571199146406" lon="136.53431656453566"><ele>51.729408998842594</ele></trkpt>
<trkpt lat="34.84561238327599" lon="136.53437233556429"><ele>51.87450957540295</ele></trkpt>
<trkpt lat="34.84565218741426" lon="136.53442848444098"><ele>52.016778120713305</ele></trkpt>
<trkpt lat="34.84569088933898" lon="136.53448565729346"><ele>52.15583847736625</ele></trkpt>
<trkpt lat="34.845727223572524" lon="136.53454204791436"><ele>52.284859396433475</ele></trkpt>
<trkpt lat="34.845759827096174" lon="136.53459556508426"><ele>52.39698216735254</ele></trkpt>
<trkpt lat="34.84578764609053" lon="136.53464425508972"><ele>52.21575380139468</ele></trkpt>
<trkpt lat="34.845811783264736" lon="136.5346888970758"><ele>52.05205875708609</ele></trkpt>
<trkpt lat="34.84585377983539" lon="136.5347703106659"><ele>51.757063249696486</ele></trkpt>
<trkpt lat="34.84587148328189" lon="136.53480704549827"><ele>51.62589226523191</ele></trkpt>
<trkpt lat="34.84588561651235" lon="136.53484060363434"><ele>51.50883805711357</ele></trkpt>
<trkpt lat="34.84589537165637" lon="136.53487169340562"><ele>51.403986092259814</ele></trkpt>
<trkpt lat="34.845899701474615" lon="136.53490159113267"><ele>51.30594272426792</ele></trkpt>
<trkpt lat="34.84589781515775" lon="136.53493131327713"><ele>51.20680942460551</ele></trkpt>
<trkpt lat="34.84588916649519" lon="136.5349613733851"><ele>51.09829734366213</ele></trkpt>
<trkpt lat="34.8458743747428" lon="136.53499233670058"><ele>50.974884883519195</ele></trkpt>
<trkpt lat="34.84585395910493" lon="136.53502537057753"><ele>50.83222417798407</ele></trkpt>
<trkpt lat="34.84582864686213" lon="136.53506168917772"><ele>50.66838355250818</ele></trkpt>
<trkpt lat="34.845769858710554" lon="136.53514238345727"><ele>50.299397868174296</ele></trkpt>
<trkpt lat="34.845741857338815" lon="136.53518266808535"><ele>50.119814890439166</ele></trkpt>
<trkpt lat="34.84571751028806" lon="136.53522066258844"><ele>49.95669180359311</ele></trkpt>
<trkpt lat="34.845697278806576" lon="136.5352565397231"><ele>49.810669410083605</ele></trkpt>
<trkpt lat="34.84568118004114" lon="136.53529173090234"><ele>49.67734295826379</ele></trkpt>
<trkpt lat="34.84566909593621" lon="136.53532827084797"><ele>49.54912889038076</ele></trkpt>
<trkpt lat="34.845661476766104" lon="136.53536744445233"><ele>49.42034720721373</ele></trkpt>
<trkpt lat="34.84565884859395" lon="136.535408589849"><ele>49.29054583647523</ele></trkpt>
<trkpt lat="34.84566170961933" lon="136.53544935252975"><ele>49.16426557222401</ele></trkpt>
<trkpt lat="34.84566957253085" lon="136.5354874524033"><ele>49.04525939606556</ele></trkpt>
<trkpt lat="34.84568190577846" lon="136.53552237095025"><ele>48.93188759385988</ele></trkpt>
<trkpt lat="34.84569837714334" lon="136.5355559160382"><ele>48.816226062804105</ele></trkpt>
<trkpt lat="34.84571964403292" lon="136.5355916131259"><ele>48.68606247882147</ele></trkpt>
<trkpt lat="34.84574663854595" lon="136.5356333785345"><ele>48.52936382314671</ele></trkpt>
<trkpt lat="34.84581822016461" lon="136.53574276120096"><ele>48.11665643930654</ele></trkpt>
<trkpt lat="34.8458589478738" lon="136.53580761304528"><ele>47.873862014367845</ele></trkpt>
<trkpt lat="34.845898953360766" lon="136.53587473650785"><ele>47.62463292584596</ele></trkpt>
<trkpt lat="34.84593555144033" lon="136.53593996491978"><ele>47.38454267196479</ele></trkpt>
<trkpt lat="34.84596665432098" lon="136.5359989471131"><ele>47.16944731954479</ele></trkpt>
<trkpt lat="34.84599098559671" lon="136.5360487194314"><ele>46.990245849574244</ele></trkpt>
<trkpt lat="34.84600898971193" lon="136.5360904670497"><ele>46.843096772851936</ele></trkpt>
<trkpt lat="34.846022740740736" lon="136.53612937926502"><ele>46.709652431370216</ele></trkpt>
<trkpt lat="34.8460344855967" lon="136.53617101986816"><ele>46.569959307476076</ele></trkpt>
<trkpt lat="34.84604533539094" lon="136.53621801849533"><ele>46.414397257502664</ele></trkpt>
<trkpt lat="34.846055186556924" lon="136.53626990669957"><ele>46.24413803680721</ele></trkpt>
<trkpt lat="34.846063556241425" lon="136.53632544305398"><ele>46.062926911985485</ele></trkpt>
<trkpt lat="34.84607009259258" lon="136.5363842757057"><ele>45.871252876166906</ele></trkpt>
<trkpt lat="34.84607464981996" lon="136.5364464419058"><ele>45.668014509718276</ele></trkpt>
<trkpt lat="34.84607719431584" lon="136.53651157299845"><ele>45.453388292586425</ele></trkpt>
<trkpt lat="34.846077812885795" lon="136.53657707291845"><ele>45.235040893427126</ele></trkpt>
<trkpt lat="34.84607652726337" lon="136.5366409074158"><ele>45.01842153274792</ele></trkpt>
<trkpt lat="34.84607318888246" lon="136.53670280181086"><ele>44.80268006139459</ele></trkpt>
<trkpt lat="34.846067627604164" lon="136.536765532723"><ele>44.57727000830461</ele></trkpt>
<trkpt lat="34.84606005989583" lon="136.53683011548466"><ele>44.33958084900431</ele></trkpt>
<trkpt lat="34.8460508923611" lon="136.53689489471338"><ele>44.09734179951013</ele></trkpt>
<trkpt lat="34.84604022077546" lon="136.5369576968013"><ele>43.859267137320074</ele></trkpt>
<trkpt lat="34.84602765422453" lon="136.53701902667027"><ele>43.6232392724504</ele></trkpt>
<trkpt lat="34.84601278472221" lon="136.53708090197085"><ele>43.38159066674318</ele></trkpt>
<trkpt lat="34.84599499623842" lon="136.5371451629849"><ele>43.12712317380998</ele></trkpt>
<trkpt lat="34.8459731568287" lon="136.53721403627966"><ele>42.85041661382665</ele></trkpt>
<trkpt lat="34.84594622193286" lon="136.53728977676732"><ele>42.54200132855616</ele></trkpt>
<trkpt lat="34.84591497743055" lon="136.53737097238854"><ele>42.208810365346864</ele></trkpt>
<trkpt lat="34.845881992766195" lon="136.53745126983276"><ele>41.879287124426874</ele></trkpt>
<trkpt lat="34.84584951128471" lon="136.53752416737746"><ele>41.582394136802066</ele></trkpt>
<trkpt lat="34.84581779108796" lon="136.53758813958115"><ele>41.32507053241187</ele></trkpt>
<trkpt lat="34.845785988715264" lon="136.53764608170403"><ele>41.09406143632989</ele></trkpt>
<trkpt lat="34.84575331626156" lon="136.53770161006418"><ele>40.871964148168935</ele></trkpt>
<trkpt lat="34.84571930303711" lon="136.5377571617754"><ele>40.64638894225469</ele></trkpt>
<trkpt lat="34.845683293381335" lon="136.53781436125814"><ele>40.40926769729951</ele></trkpt>
<trkpt lat="34.845645703382196" lon="136.53787242667732"><ele>40.16330381110591</ele></trkpt>
<trkpt lat="34.84560694828103" lon="136.53792969793363"><ele>39.913644882475765</ele></trkpt>
<trkpt lat="34.84556592003171" lon="136.53798587355473"><ele>39.65698664241059</ele></trkpt>
<trkpt lat="34.84551731249999" lon="136.53804627128508"><ele>39.36328782779371</ele></trkpt>
<trkpt lat="34.845448604852535" lon="136.5381249119778"><ele>38.958909800661104</ele></trkpt>
<trkpt lat="34.84534355692729" lon="136.53824035282506"><ele>38.34799152946245</ele></trkpt>
<trkpt lat="34.84519208779149" lon="136.5384043897824"><ele>37.47072926891541</ele></trkpt>
<trkpt lat="34.845007" lon="136.538604"><ele>36.4</ele></trkpt>
</trkseg>
</trk></gpx>
