<?xml version="1.0" encoding="UTF-8"?>
<gpx version="1.1" creator="BikeTerra" xmlns="http://www.topografix.com/GPX/1/1" xmlns:biketerra="https://biketerra.com/xmlns/gpx/1">
    <metadata>
        <name>Peru 2026</name>
        <extensions>
            <biketerra:version>2.0.0</biketerra:version>
            <biketerra:isLoop>true</biketerra:isLoop>
            <biketerra:defaultSurface>asphalt</biketerra:defaultSurface>
        </extensions>
    </metadata>
    <trk>
        <name>Peru 2026</name>
        <trkseg>
            <trkpt lat="-12.248556" lon="-76.815806"><ele>158.28</ele></trkpt>
            <trkpt lat="-12.247675" lon="-76.815326"><ele>162.49</ele></trkpt>
            <trkpt lat="-12.247336" lon="-76.815142"><ele>163.59</ele></trkpt>
            <trkpt lat="-12.246704" lon="-76.814781"><ele>166.63</ele></trkpt>
            <trkpt lat="-12.24623" lon="-76.814511"><ele>168.55</ele></trkpt>
            <trkpt lat="-12.245652" lon="-76.814158"><ele>173.14</ele></trkpt>
            <trkpt lat="-12.245333" lon="-76.813936"><ele>174.97</ele></trkpt>
            <trkpt lat="-12.245203" lon="-76.813807"><ele>175.52</ele></trkpt>
            <trkpt lat="-12.245092" lon="-76.813662"><ele>176.19</ele></trkpt>
            <trkpt lat="-12.244983" lon="-76.813468"><ele>177.17</ele></trkpt>
            <trkpt lat="-12.244922" lon="-76.813314"><ele>177.79</ele></trkpt>
            <trkpt lat="-12.244868" lon="-76.81308"><ele>178.1</ele></trkpt>
            <trkpt lat="-12.244844" lon="-76.812762"><ele>177.94</ele></trkpt>
            <trkpt lat="-12.24482" lon="-76.812445"><ele>178.75</ele></trkpt>
            <trkpt lat="-12.244762" lon="-76.812074"><ele>180.61</ele></trkpt>
            <trkpt lat="-12.244713" lon="-76.811898"><ele>181.4</ele></trkpt>
            <trkpt lat="-12.24462" lon="-76.81178"><ele>182</ele></trkpt>
            <trkpt lat="-12.244485" lon="-76.811709"><ele>182.6</ele></trkpt>
            <trkpt lat="-12.244366" lon="-76.811694"><ele>183.02</ele></trkpt>
            <trkpt lat="-12.24376" lon="-76.811712"><ele>184.04</ele></trkpt>
            <trkpt lat="-12.243431" lon="-76.811729"><ele>184.49</ele></trkpt>
            <trkpt lat="-12.242909" lon="-76.811761"><ele>184.38</ele></trkpt>
            <trkpt lat="-12.242732" lon="-76.811768"><ele>184.62</ele></trkpt>
            <trkpt lat="-12.242287" lon="-76.811758"><ele>187.26</ele></trkpt>
            <trkpt lat="-12.241854" lon="-76.811786"><ele>190.33</ele></trkpt>
            <trkpt lat="-12.241483" lon="-76.811811"><ele>191.75</ele></trkpt>
            <trkpt lat="-12.241108" lon="-76.811856"><ele>192.7</ele></trkpt>
            <trkpt lat="-12.240775" lon="-76.811927"><ele>193.98</ele></trkpt>
            <trkpt lat="-12.240442" lon="-76.811998"><ele>196.85</ele></trkpt>
            <trkpt lat="-12.239991" lon="-76.812137"><ele>202.13</ele></trkpt>
            <trkpt lat="-12.239703" lon="-76.812286"><ele>204.45</ele></trkpt>
            <trkpt lat="-12.239541" lon="-76.812392"><ele>205.21</ele></trkpt>
            <trkpt lat="-12.239389" lon="-76.812506"><ele>205.63</ele></trkpt>
            <trkpt lat="-12.239144" lon="-76.812747"><ele>205.72</ele></trkpt>
            <trkpt lat="-12.239057" lon="-76.812848"><ele>205.5</ele></trkpt>
            <trkpt lat="-12.23883" lon="-76.81316"><ele>204.2</ele></trkpt>
            <trkpt lat="-12.238729" lon="-76.813356"><ele>203.59</ele></trkpt>
            <trkpt lat="-12.238654" lon="-76.813546"><ele>203.36</ele></trkpt>
            <trkpt lat="-12.238528" lon="-76.813918"><ele>203.13</ele></trkpt>
            <trkpt lat="-12.238402" lon="-76.81429"><ele>201.99</ele></trkpt>
            <trkpt lat="-12.238287" lon="-76.814682"><ele>200.36</ele></trkpt>
            <trkpt lat="-12.238254" lon="-76.814882"><ele>199.3</ele></trkpt>
            <trkpt lat="-12.238267" lon="-76.815078"><ele>197.95</ele></trkpt>
            <trkpt lat="-12.238327" lon="-76.815264"><ele>196.49</ele></trkpt>
            <trkpt lat="-12.238417" lon="-76.815407"><ele>195.45</ele></trkpt>
            <trkpt lat="-12.238634" lon="-76.815624"><ele>194.42</ele></trkpt>
            <trkpt lat="-12.238889" lon="-76.815832"><ele>193.64</ele></trkpt>
            <trkpt lat="-12.239144" lon="-76.81604"><ele>192.15</ele></trkpt>
            <trkpt lat="-12.239369" lon="-76.816271"><ele>190.55</ele></trkpt>
            <trkpt lat="-12.239774" lon="-76.816685"><ele>188.58</ele></trkpt>
            <trkpt lat="-12.239915" lon="-76.816814"><ele>187.61</ele></trkpt>
            <trkpt lat="-12.239978" lon="-76.81685"><ele>187.24</ele></trkpt>
            <trkpt lat="-12.240067" lon="-76.816871"><ele>186.84</ele></trkpt>
            <trkpt lat="-12.240173" lon="-76.816856"><ele>186.51</ele></trkpt>
            <trkpt lat="-12.240306" lon="-76.81676"><ele>186.37</ele></trkpt>
            <trkpt lat="-12.240653" lon="-76.816306"><ele>187.15</ele></trkpt>
            <trkpt lat="-12.240884" lon="-76.816004"><ele>186.84</ele></trkpt>
            <trkpt lat="-12.241003" lon="-76.81586"><ele>186.89</ele></trkpt>
            <trkpt lat="-12.241481" lon="-76.815282"><ele>188.45</ele></trkpt>
            <trkpt lat="-12.241718" lon="-76.814938"><ele>188.58</ele></trkpt>
            <trkpt lat="-12.241786" lon="-76.814778"><ele>188.71</ele></trkpt>
            <trkpt lat="-12.241828" lon="-76.814614"><ele>188.86</ele></trkpt>
            <trkpt lat="-12.241843" lon="-76.814157"><ele>189.29</ele></trkpt>
            <trkpt lat="-12.24181" lon="-76.813803"><ele>189.96</ele></trkpt>
            <trkpt lat="-12.241763" lon="-76.813597"><ele>190.54</ele></trkpt>
            <trkpt lat="-12.241703" lon="-76.813443"><ele>191.05</ele></trkpt>
            <trkpt lat="-12.24163" lon="-76.813323"><ele>191.53</ele></trkpt>
            <trkpt lat="-12.241482" lon="-76.813115"><ele>192.46</ele></trkpt>
            <trkpt lat="-12.241211" lon="-76.812802"><ele>193.45</ele></trkpt>
            <trkpt lat="-12.241076" lon="-76.812645"><ele>193.34</ele></trkpt>
            <trkpt lat="-12.240968" lon="-76.812461"><ele>192.88</ele></trkpt>
            <trkpt lat="-12.24092" lon="-76.812328"><ele>192.53</ele></trkpt>
            <trkpt lat="-12.240933" lon="-76.8121254"><ele>192.31</ele></trkpt>
            <trkpt lat="-12.2410904" lon="-76.8119216"><ele>192.7</ele></trkpt>
            <trkpt lat="-12.241483" lon="-76.811811"><ele>191.75</ele></trkpt>
            <trkpt lat="-12.241854" lon="-76.811786"><ele>190.33</ele></trkpt>
            <trkpt lat="-12.242287" lon="-76.811758"><ele>187.26</ele></trkpt>
            <trkpt lat="-12.242732" lon="-76.811768"><ele>184.62</ele></trkpt>
            <trkpt lat="-12.242909" lon="-76.811761"><ele>184.38</ele></trkpt>
            <trkpt lat="-12.243431" lon="-76.811729"><ele>184.49</ele></trkpt>
            <trkpt lat="-12.24376" lon="-76.811712"><ele>184.04</ele></trkpt>
            <trkpt lat="-12.24422" lon="-76.8118465"><ele>183.02</ele></trkpt>
            <trkpt lat="-12.244407" lon="-76.812098"><ele>182.2</ele></trkpt>
            <trkpt lat="-12.244426" lon="-76.812424"><ele>180.38</ele></trkpt>
            <trkpt lat="-12.244427" lon="-76.812847"><ele>178.73</ele></trkpt>
            <trkpt lat="-12.24444" lon="-76.813053"><ele>178.61</ele></trkpt>
            <trkpt lat="-12.244474" lon="-76.813257"><ele>178.47</ele></trkpt>
            <trkpt lat="-12.244549" lon="-76.813519"><ele>177.82</ele></trkpt>
            <trkpt lat="-12.244628" lon="-76.813704"><ele>177.1</ele></trkpt>
            <trkpt lat="-12.244761" lon="-76.813939"><ele>176.22</ele></trkpt>
            <trkpt lat="-12.244881" lon="-76.814104"><ele>175.71</ele></trkpt>
            <trkpt lat="-12.245062" lon="-76.814298"><ele>175.03</ele></trkpt>
            <trkpt lat="-12.245265" lon="-76.814464"><ele>173.86</ele></trkpt>
            <trkpt lat="-12.245716" lon="-76.814728"><ele>170.52</ele></trkpt>
            <trkpt lat="-12.246166" lon="-76.814992"><ele>168.67</ele></trkpt>
            <trkpt lat="-12.246522" lon="-76.815188"><ele>167.12</ele></trkpt>
            <trkpt lat="-12.247056" lon="-76.815482"><ele>163.04</ele></trkpt>
            <trkpt lat="-12.247334" lon="-76.815633"><ele>161.75</ele></trkpt>
            <trkpt lat="-12.247966" lon="-76.815971"><ele>159.71</ele></trkpt>
            <trkpt lat="-12.248282" lon="-76.81614"><ele>158.05</ele></trkpt>
            <trkpt lat="-12.248764" lon="-76.816404"><ele>155.56</ele></trkpt>
            <trkpt lat="-12.249247" lon="-76.816668"><ele>154.13</ele></trkpt>
            <trkpt lat="-12.249563" lon="-76.816869"><ele>153.18</ele></trkpt>
            <trkpt lat="-12.250031" lon="-76.817234"><ele>151.69</ele></trkpt>
            <trkpt lat="-12.250498" lon="-76.817599"><ele>148.83</ele></trkpt>
            <trkpt lat="-12.250651" lon="-76.817712"><ele>148.64</ele></trkpt>
            <trkpt lat="-12.251263" lon="-76.818163"><ele>149.12</ele></trkpt>
            <trkpt lat="-12.251464" lon="-76.818317"><ele>148.89</ele></trkpt>
            <trkpt lat="-12.25188" lon="-76.818649"><ele>147</ele></trkpt>
            <trkpt lat="-12.252157" lon="-76.81887"><ele>145</ele></trkpt>
            <trkpt lat="-12.252541" lon="-76.819135"><ele>142.98</ele></trkpt>
            <trkpt lat="-12.252716" lon="-76.819288"><ele>142.78</ele></trkpt>
            <trkpt lat="-12.252755" lon="-76.819351"><ele>142.86</ele></trkpt>
            <trkpt lat="-12.252783" lon="-76.819458"><ele>143.11</ele></trkpt>
            <trkpt lat="-12.252749" lon="-76.819618"><ele>143.72</ele></trkpt>
            <trkpt lat="-12.252641" lon="-76.819769"><ele>144.63</ele></trkpt>
            <trkpt lat="-12.252448" lon="-76.820018"><ele>146.23</ele></trkpt>
            <trkpt lat="-12.252256" lon="-76.820267"><ele>147.06</ele></trkpt>
            <trkpt lat="-12.252084" lon="-76.820561"><ele>146.39</ele></trkpt>
            <trkpt lat="-12.251912" lon="-76.820856"><ele>144.21</ele></trkpt>
            <trkpt lat="-12.251637" lon="-76.821332"><ele>139.61</ele></trkpt>
            <trkpt lat="-12.251456" lon="-76.821648"><ele>137.27</ele></trkpt>
            <trkpt lat="-12.251237" lon="-76.822035"><ele>135.79</ele></trkpt>
            <trkpt lat="-12.250986" lon="-76.822504"><ele>135.49</ele></trkpt>
            <trkpt lat="-12.250902" lon="-76.82266"><ele>135.82</ele></trkpt>
            <trkpt lat="-12.25086" lon="-76.822814"><ele>135.97</ele></trkpt>
            <trkpt lat="-12.250871" lon="-76.82297"><ele>135.87</ele></trkpt>
            <trkpt lat="-12.250912" lon="-76.823071"><ele>135.7</ele></trkpt>
            <trkpt lat="-12.250978" lon="-76.82316"><ele>135.47</ele></trkpt>
            <trkpt lat="-12.251176" lon="-76.823317"><ele>134.89</ele></trkpt>
            <trkpt lat="-12.251488" lon="-76.823491"><ele>133.6</ele></trkpt>
            <trkpt lat="-12.251957" lon="-76.82375"><ele>129.6</ele></trkpt>
            <trkpt lat="-12.252476" lon="-76.824092"><ele>124.74</ele></trkpt>
            <trkpt lat="-12.252823" lon="-76.824321"><ele>123.77</ele></trkpt>
            <trkpt lat="-12.253033" lon="-76.824463"><ele>123.94</ele></trkpt>
            <trkpt lat="-12.253542" lon="-76.824806"><ele>125.26</ele></trkpt>
            <trkpt lat="-12.253712" lon="-76.82492"><ele>125.25</ele></trkpt>
            <trkpt lat="-12.254025" lon="-76.825069"><ele>123.49</ele></trkpt>
            <trkpt lat="-12.254404" lon="-76.825184"><ele>119.93</ele></trkpt>
            <trkpt lat="-12.2548045" lon="-76.8252844"><ele>117.92</ele></trkpt>
            <trkpt lat="-12.2550039" lon="-76.825338"><ele>117.09</ele></trkpt>
            <trkpt lat="-12.255293" lon="-76.825411"><ele>115.08</ele></trkpt>
            <trkpt lat="-12.255354" lon="-76.825407"><ele>114.66</ele></trkpt>
            <trkpt lat="-12.255412" lon="-76.825339"><ele>114.15</ele></trkpt>
            <trkpt lat="-12.255391" lon="-76.825251"><ele>113.82</ele></trkpt>
            <trkpt lat="-12.255252" lon="-76.825192"><ele>113.77</ele></trkpt>
            <trkpt lat="-12.2549787" lon="-76.825169"><ele>114.94</ele></trkpt>
            <trkpt lat="-12.2547574" lon="-76.8251663"><ele>116.62</ele></trkpt>
            <trkpt lat="-12.254404" lon="-76.825184"><ele>119.93</ele></trkpt>
            <trkpt lat="-12.254025" lon="-76.825069"><ele>123.49</ele></trkpt>
            <trkpt lat="-12.253712" lon="-76.82492"><ele>125.25</ele></trkpt>
            <trkpt lat="-12.253542" lon="-76.824806"><ele>125.26</ele></trkpt>
            <trkpt lat="-12.253033" lon="-76.824463"><ele>123.94</ele></trkpt>
            <trkpt lat="-12.252823" lon="-76.824321"><ele>123.77</ele></trkpt>
            <trkpt lat="-12.252476" lon="-76.824092"><ele>124.74</ele></trkpt>
            <trkpt lat="-12.251957" lon="-76.82375"><ele>129.6</ele></trkpt>
            <trkpt lat="-12.251488" lon="-76.823491"><ele>133.6</ele></trkpt>
            <trkpt lat="-12.251176" lon="-76.823317"><ele>134.89</ele></trkpt>
            <trkpt lat="-12.250978" lon="-76.82316"><ele>135.47</ele></trkpt>
            <trkpt lat="-12.250912" lon="-76.823071"><ele>135.7</ele></trkpt>
            <trkpt lat="-12.250871" lon="-76.82297"><ele>135.87</ele></trkpt>
            <trkpt lat="-12.25086" lon="-76.822814"><ele>135.97</ele></trkpt>
            <trkpt lat="-12.250902" lon="-76.82266"><ele>135.82</ele></trkpt>
            <trkpt lat="-12.250986" lon="-76.822504"><ele>135.49</ele></trkpt>
            <trkpt lat="-12.251237" lon="-76.822035"><ele>135.79</ele></trkpt>
            <trkpt lat="-12.251456" lon="-76.821648"><ele>137.27</ele></trkpt>
            <trkpt lat="-12.251637" lon="-76.821332"><ele>139.61</ele></trkpt>
            <trkpt lat="-12.251912" lon="-76.820856"><ele>144.21</ele></trkpt>
            <trkpt lat="-12.252084" lon="-76.820561"><ele>146.39</ele></trkpt>
            <trkpt lat="-12.252256" lon="-76.820267"><ele>147.06</ele></trkpt>
            <trkpt lat="-12.252448" lon="-76.820018"><ele>146.23</ele></trkpt>
            <trkpt lat="-12.252641" lon="-76.819769"><ele>144.63</ele></trkpt>
            <trkpt lat="-12.252749" lon="-76.819618"><ele>143.72</ele></trkpt>
            <trkpt lat="-12.253027" lon="-76.81917"><ele>138.9</ele></trkpt>
            <trkpt lat="-12.253186" lon="-76.818948"><ele>137.82</ele></trkpt>
            <trkpt lat="-12.2534" lon="-76.818712"><ele>137.02</ele></trkpt>
            <trkpt lat="-12.253535" lon="-76.818578"><ele>136.79</ele></trkpt>
            <trkpt lat="-12.25382" lon="-76.818339"><ele>137.02</ele></trkpt>
            <trkpt lat="-12.254296" lon="-76.818032"><ele>139.47</ele></trkpt>
            <trkpt lat="-12.254621" lon="-76.817835"><ele>141.94</ele></trkpt>
            <trkpt lat="-12.254936" lon="-76.817644"><ele>143.56</ele></trkpt>
            <trkpt lat="-12.255251" lon="-76.817453"><ele>143.14</ele></trkpt>
            <trkpt lat="-12.255638" lon="-76.817212"><ele>140.79</ele></trkpt>
            <trkpt lat="-12.255935" lon="-76.817032"><ele>139.7</ele></trkpt>
            <trkpt lat="-12.256778" lon="-76.8165739"><ele>140.04</ele></trkpt>
            <trkpt lat="-12.256875" lon="-76.816508"><ele>140.14</ele></trkpt>
            <trkpt lat="-12.256924" lon="-76.81641"><ele>140.25</ele></trkpt>
            <trkpt lat="-12.256911" lon="-76.816358"><ele>140.3</ele></trkpt>
            <trkpt lat="-12.256872" lon="-76.816322"><ele>140.35</ele></trkpt>
            <trkpt lat="-12.256796" lon="-76.816316"><ele>140.42</ele></trkpt>
            <trkpt lat="-12.2567151" lon="-76.8163566"><ele>140.46</ele></trkpt>
            <trkpt lat="-12.2563403" lon="-76.8166664"><ele>140.91</ele></trkpt>
            <trkpt lat="-12.255935" lon="-76.817032"><ele>139.7</ele></trkpt>
            <trkpt lat="-12.255638" lon="-76.817212"><ele>140.79</ele></trkpt>
            <trkpt lat="-12.255251" lon="-76.817453"><ele>143.14</ele></trkpt>
            <trkpt lat="-12.254936" lon="-76.817644"><ele>143.56</ele></trkpt>
            <trkpt lat="-12.254621" lon="-76.817835"><ele>141.94</ele></trkpt>
            <trkpt lat="-12.254296" lon="-76.818032"><ele>139.47</ele></trkpt>
            <trkpt lat="-12.25382" lon="-76.818339"><ele>137.02</ele></trkpt>
            <trkpt lat="-12.253535" lon="-76.818578"><ele>136.79</ele></trkpt>
            <trkpt lat="-12.2534" lon="-76.818712"><ele>137.02</ele></trkpt>
            <trkpt lat="-12.2531645" lon="-76.8189114"><ele>137.82</ele></trkpt>
            <trkpt lat="-12.2529179" lon="-76.818949"><ele>138.9</ele></trkpt>
            <trkpt lat="-12.252634" lon="-76.818784"><ele>139.11</ele></trkpt>
            <trkpt lat="-12.252061" lon="-76.818294"><ele>143.24</ele></trkpt>
            <trkpt lat="-12.251387" lon="-76.817762"><ele>146.81</ele></trkpt>
            <trkpt lat="-12.250929" lon="-76.817403"><ele>147.84</ele></trkpt>
            <trkpt lat="-12.250624" lon="-76.817165"><ele>148.9</ele></trkpt>
            <trkpt lat="-12.250319" lon="-76.816926"><ele>150.82</ele></trkpt>
            <trkpt lat="-12.249994" lon="-76.816696"><ele>152.77</ele></trkpt>
            <trkpt lat="-12.249669" lon="-76.816466"><ele>153.31</ele></trkpt>
            <trkpt lat="-12.249378" lon="-76.816282"><ele>154.01</ele></trkpt>
            <trkpt lat="-12.249088" lon="-76.816097"><ele>155.8</ele></trkpt>
            <trkpt lat="-12.248556" lon="-76.815806"><ele>158.28</ele></trkpt>
        </trkseg>
    </trk>
</gpx>
