<?xml version='1.0' encoding='UTF-8'?>
<gpx version="1.1"
  creator="GPXmagic"
  xmlns="http://www.topografix.com/GPX/1/1"
  xmlns:rgt="http://www.rgtcycling.com/XML/GpxExtensions/v1"
  xmlns:xsi="http://www.w3.org/2001/XMLSchema-instance" xsi:schemaLocation="http://www.topografix.com/GPX/1/1
  http://www.topografix.com/GPX/1/1/gpx.xsd">
  <metadata>
    <name>Smoothed with GPXmagic</name>
    <author>
      <link href="https://www.stepwiserefinement.co.uk">
        <text>GPXmagic v3</text>
        <type>text/html</type>
      </link>
    </author>
  </metadata>
<trk>  <name>Switzerland&#32;2026</name>
<trkseg>
<trkpt lat="47.34445959999999" lon="7.3172500000000005"><ele>431.18</ele></trkpt>
<trkpt lat="47.34482200000001" lon="7.317251199999999"><ele>430.74</ele></trkpt>
<trkpt lat="47.3451791" lon="7.3172834"><ele>430.47</ele></trkpt>
<trkpt lat="47.34564919999999" lon="7.3174077"><ele>430.29</ele></trkpt>
<trkpt lat="47.345927800000005" lon="7.317519700000001"><ele>430.22</ele></trkpt>
<trkpt lat="47.3461698" lon="7.3176311"><ele>430.19</ele></trkpt>
<trkpt lat="47.3464714" lon="7.3178023"><ele>430.16</ele></trkpt>
<trkpt lat="47.34671740000001" lon="7.3179787"><ele>430.15</ele></trkpt>
<trkpt lat="47.3474077" lon="7.318528499999999"><ele>430.37</ele></trkpt>
<trkpt lat="47.347839199999996" lon="7.3188811"><ele>430.98</ele></trkpt>
<trkpt lat="47.34794120000001" lon="7.3189465"><ele>431.32</ele></trkpt>
<trkpt lat="47.34799530000001" lon="7.3189281"><ele>431.53</ele></trkpt>
<trkpt lat="47.3482338" lon="7.3186482"><ele>433.12</ele></trkpt>
<trkpt lat="47.3487507" lon="7.3180218"><ele>437.63</ele></trkpt>
<trkpt lat="47.3488938" lon="7.31779"><ele>439.32</ele></trkpt>
<trkpt lat="47.3489799" lon="7.3176766"><ele>440.32</ele></trkpt>
<trkpt lat="47.3492912" lon="7.317404100000001"><ele>443.81</ele></trkpt>
<trkpt lat="47.349394499999995" lon="7.317235899999997"><ele>445.5</ele></trkpt>
<trkpt lat="47.3494717" lon="7.3167225"><ele>449.77</ele></trkpt>
<trkpt lat="47.349569300000006" lon="7.3162188000000015"><ele>454.49</ele></trkpt>
<trkpt lat="47.349651" lon="7.3158314"><ele>458.36</ele></trkpt>
<trkpt lat="47.34977049999999" lon="7.315304600000001"><ele>463.79</ele></trkpt>
<trkpt lat="47.34989900000001" lon="7.3149259"><ele>467.88</ele></trkpt>
<trkpt lat="47.349995299999996" lon="7.3147205"><ele>470.2</ele></trkpt>
<trkpt lat="47.35009569999999" lon="7.314612200000001"><ele>471.85</ele></trkpt>
<trkpt lat="47.350176899999994" lon="7.314568200000001"><ele>472.96</ele></trkpt>
<trkpt lat="47.3503703" lon="7.314533800000001"><ele>475.33</ele></trkpt>
<trkpt lat="47.350972999999996" lon="7.314548"><ele>481.65</ele></trkpt>
<trkpt lat="47.3512392" lon="7.3145583"><ele>484.04</ele></trkpt>
<trkpt lat="47.351433400000005" lon="7.3145279"><ele>485.67</ele></trkpt>
<trkpt lat="47.3517475" lon="7.314420000000001"><ele>488.24</ele></trkpt>
<trkpt lat="47.352114" lon="7.3142195999999995"><ele>491.2</ele></trkpt>
<trkpt lat="47.3522538" lon="7.3141196"><ele>490.72</ele></trkpt>
<trkpt lat="47.3524048" lon="7.3139934"><ele>491</ele></trkpt>
<trkpt lat="47.3527035" lon="7.3136999"><ele>491.54</ele></trkpt>
<trkpt lat="47.3529481" lon="7.3134498"><ele>491.82</ele></trkpt>
<trkpt lat="47.3530694" lon="7.313290299999999"><ele>491.87</ele></trkpt>
<trkpt lat="47.3532097" lon="7.3130641"><ele>491.8</ele></trkpt>
<trkpt lat="47.353550799999994" lon="7.3126255"><ele>491.09</ele></trkpt>
<trkpt lat="47.353641800000005" lon="7.3125626000000015"><ele>490.81</ele></trkpt>
<trkpt lat="47.35393249999999" lon="7.3124312"><ele>489.69</ele></trkpt>
<trkpt lat="47.35404989999999" lon="7.3123941"><ele>489.14</ele></trkpt>
<trkpt lat="47.3541616" lon="7.3123937"><ele>488.58</ele></trkpt>
<trkpt lat="47.3544698" lon="7.312493300000001"><ele>486.82</ele></trkpt>
<trkpt lat="47.3545863" lon="7.312496"><ele>486.12</ele></trkpt>
<trkpt lat="47.3547034" lon="7.312470199999997"><ele>485.41</ele></trkpt>
<trkpt lat="47.3548878" lon="7.3123461"><ele>484.19</ele></trkpt>
<trkpt lat="47.355337" lon="7.311841900000002"><ele>481.06</ele></trkpt>
<trkpt lat="47.355518700000005" lon="7.311586899999998"><ele>479.86</ele></trkpt>
<trkpt lat="47.3556354" lon="7.311367300000001"><ele>479.04</ele></trkpt>
<trkpt lat="47.3557434" lon="7.3110528"><ele>478.13</ele></trkpt>
<trkpt lat="47.3557753" lon="7.3108986"><ele>477.75</ele></trkpt>
<trkpt lat="47.355784199999995" lon="7.3107126"><ele>477.34</ele></trkpt>
<trkpt lat="47.3557689" lon="7.3105056"><ele>476.91</ele></trkpt>
<trkpt lat="47.355681000000004" lon="7.310060199999999"><ele>475.98</ele></trkpt>
<trkpt lat="47.3556561" lon="7.309898900000001"><ele>475.64</ele></trkpt>
<trkpt lat="47.35565400000001" lon="7.3097332"><ele>475.27</ele></trkpt>
<trkpt lat="47.3557021" lon="7.309480299999998"><ele>474.63</ele></trkpt>
<trkpt lat="47.3558881" lon="7.308898400000001"><ele>472.59</ele></trkpt>
<trkpt lat="47.355964300000004" lon="7.308725999999999"><ele>471.76</ele></trkpt>
<trkpt lat="47.35608499999999" lon="7.308566999999998"><ele>470.71</ele></trkpt>
<trkpt lat="47.356454500000005" lon="7.308176700000002"><ele>467.33</ele></trkpt>
<trkpt lat="47.3565745" lon="7.308007999999997"><ele>466.01</ele></trkpt>
<trkpt lat="47.3568357" lon="7.3073234000000005"><ele>461.86</ele></trkpt>
<trkpt lat="47.3569354" lon="7.307090499999999"><ele>460.54</ele></trkpt>
<trkpt lat="47.3570706" lon="7.3068665"><ele>459.25</ele></trkpt>
<trkpt lat="47.3574455" lon="7.3064447"><ele>456.99</ele></trkpt>
<trkpt lat="47.3575255" lon="7.306341"><ele>456.65</ele></trkpt>
<trkpt lat="47.3575376" lon="7.306247900000001"><ele>456.47</ele></trkpt>
<trkpt lat="47.35750649999999" lon="7.3060497999999985"><ele>456.16</ele></trkpt>
<trkpt lat="47.35751220000001" lon="7.3058703000000005"><ele>455.96</ele></trkpt>
<trkpt lat="47.3575906" lon="7.3054168"><ele>455.74</ele></trkpt>
<trkpt lat="47.3576139" lon="7.305185000000001"><ele>455.75</ele></trkpt>
<trkpt lat="47.3575935" lon="7.304820200000001"><ele>455.88</ele></trkpt>
<trkpt lat="47.35752740000001" lon="7.3045048"><ele>456.08</ele></trkpt>
<trkpt lat="47.3572944" lon="7.303647800000001"><ele>457.01</ele></trkpt>
<trkpt lat="47.357017799999994" lon="7.302702300000002"><ele>458.98</ele></trkpt>
<trkpt lat="47.3569176" lon="7.3024227"><ele>459.88</ele></trkpt>
<trkpt lat="47.35677530000001" lon="7.301936"><ele>461.76</ele></trkpt>
<trkpt lat="47.3565883" lon="7.3013731"><ele>464.54</ele></trkpt>
<trkpt lat="47.35638459999999" lon="7.300840199999999"><ele>467.59</ele></trkpt>
<trkpt lat="47.356048" lon="7.300092199999999"><ele>472.07</ele></trkpt>
<trkpt lat="47.35595889999999" lon="7.299874200000001"><ele>473.23</ele></trkpt>
<trkpt lat="47.355782100000006" lon="7.2994813"><ele>475.21</ele></trkpt>
<trkpt lat="47.35572259999999" lon="7.2993135"><ele>475.93</ele></trkpt>
<trkpt lat="47.3556881" lon="7.299080200000001"><ele>476.8</ele></trkpt>
<trkpt lat="47.35557489999999" lon="7.2987578"><ele>478.01</ele></trkpt>
<trkpt lat="47.3554865" lon="7.2984418"><ele>479.06</ele></trkpt>
<trkpt lat="47.3551294" lon="7.297678800000003"><ele>481.35</ele></trkpt>
<trkpt lat="47.3549324" lon="7.297256799999999"><ele>482.09</ele></trkpt>
<trkpt lat="47.3544561" lon="7.2963538"><ele>482.29</ele></trkpt>
<trkpt lat="47.3540166" lon="7.295565299999999"><ele>482.66</ele></trkpt>
<trkpt lat="47.353669" lon="7.294988400000001"><ele>484.93</ele></trkpt>
<trkpt lat="47.35311690000001" lon="7.29411"><ele>491.44</ele></trkpt>
<trkpt lat="47.35265520000001" lon="7.293433899999998"><ele>495.63</ele></trkpt>
<trkpt lat="47.3522514" lon="7.292871999999999"><ele>496.74</ele></trkpt>
<trkpt lat="47.3518245" lon="7.292261500000001"><ele>495.88</ele></trkpt>
<trkpt lat="47.35156280000001" lon="7.2918813"><ele>494.72</ele></trkpt>
<trkpt lat="47.3515313" lon="7.291788400000001"><ele>494.46</ele></trkpt>
<trkpt lat="47.3515474" lon="7.291696"><ele>494.23</ele></trkpt>
<trkpt lat="47.351639" lon="7.2914889"><ele>493.61</ele></trkpt>
<trkpt lat="47.351598700000004" lon="7.2913209000000005"><ele>493.15</ele></trkpt>
<trkpt lat="47.3513393" lon="7.2909308"><ele>491.94</ele></trkpt>
<trkpt lat="47.3510068" lon="7.290483600000001"><ele>491.15</ele></trkpt>
<trkpt lat="47.3508644" lon="7.2903023000000005"><ele>491.16</ele></trkpt>
<trkpt lat="47.35036600000001" lon="7.289558000000003"><ele>492.79</ele></trkpt>
<trkpt lat="47.349845" lon="7.288767499999999"><ele>495.23</ele></trkpt>
<trkpt lat="47.3493915" lon="7.288200799999999"><ele>496.57</ele></trkpt>
<trkpt lat="47.349165600000006" lon="7.2879062"><ele>497.21</ele></trkpt>
<trkpt lat="47.3489414" lon="7.287560399999999"><ele>498.04</ele></trkpt>
<trkpt lat="47.34843140000001" lon="7.2866699"><ele>500.65</ele></trkpt>
<trkpt lat="47.3482166" lon="7.286321200000001"><ele>501.85</ele></trkpt>
<trkpt lat="47.347950399999995" lon="7.2859105"><ele>503.43</ele></trkpt>
<trkpt lat="47.3475376" lon="7.2852032"><ele>506.67</ele></trkpt>
<trkpt lat="47.3473913" lon="7.2849278"><ele>508.05</ele></trkpt>
<trkpt lat="47.34727590000001" lon="7.284688700000001"><ele>509.21</ele></trkpt>
<trkpt lat="47.3469394" lon="7.2839258"><ele>512.19</ele></trkpt>
<trkpt lat="47.3467561" lon="7.2834606"><ele>513.1</ele></trkpt>
<trkpt lat="47.34673959999999" lon="7.283383200000002"><ele>513.16</ele></trkpt>
<trkpt lat="47.3467779" lon="7.2832352"><ele>513.22</ele></trkpt>
<trkpt lat="47.3468882" lon="7.2831631"><ele>513.19</ele></trkpt>
<trkpt lat="47.34704910000001" lon="7.283123000000001"><ele>513</ele></trkpt>
<trkpt lat="47.3472532" lon="7.283159799999999"><ele>512.55</ele></trkpt>
<trkpt lat="47.347464" lon="7.2832749"><ele>511.83</ele></trkpt>
<trkpt lat="47.347578" lon="7.2833734"><ele>511.33</ele></trkpt>
<trkpt lat="47.34771260000001" lon="7.283529400000001"><ele>510.58</ele></trkpt>
<trkpt lat="47.3485236" lon="7.284501800000001"><ele>505</ele></trkpt>
<trkpt lat="47.3487478" lon="7.2846966"><ele>503.43</ele></trkpt>
<trkpt lat="47.3490049" lon="7.2848171"><ele>501.75</ele></trkpt>
<trkpt lat="47.349480099999994" lon="7.2849326"><ele>498.61</ele></trkpt>
<trkpt lat="47.3496402" lon="7.2850047"><ele>497.5</ele></trkpt>
<trkpt lat="47.3498562" lon="7.2851976"><ele>495.87</ele></trkpt>
<trkpt lat="47.3502222" lon="7.285609"><ele>493.1</ele></trkpt>
<trkpt lat="47.350395" lon="7.285755"><ele>492.02</ele></trkpt>
<trkpt lat="47.3505287" lon="7.285785699999998"><ele>491.34</ele></trkpt>
<trkpt lat="47.3508803" lon="7.2857457"><ele>489.73</ele></trkpt>
<trkpt lat="47.35102259999999" lon="7.285767700000001"><ele>489.14</ele></trkpt>
<trkpt lat="47.35134070000001" lon="7.2858711000000005"><ele>487.88</ele></trkpt>
<trkpt lat="47.3514606" lon="7.2859273"><ele>487.42</ele></trkpt>
<trkpt lat="47.351590099999996" lon="7.286022199999999"><ele>486.9</ele></trkpt>
<trkpt lat="47.3516836" lon="7.286150899999998"><ele>486.46</ele></trkpt>
<trkpt lat="47.35187" lon="7.2866366"><ele>485.22</ele></trkpt>
<trkpt lat="47.3521209" lon="7.2873459"><ele>483.68</ele></trkpt>
<trkpt lat="47.352221199999995" lon="7.287682200000001"><ele>483.12</ele></trkpt>
<trkpt lat="47.3523459" lon="7.2880342"><ele>482.66</ele></trkpt>
<trkpt lat="47.3525088" lon="7.288283700000001"><ele>482.42</ele></trkpt>
<trkpt lat="47.35266" lon="7.2884724"><ele>482.36</ele></trkpt>
<trkpt lat="47.3527567" lon="7.2886191"><ele>482.41</ele></trkpt>
<trkpt lat="47.3529404" lon="7.2889886"><ele>482.84</ele></trkpt>
<trkpt lat="47.3530644" lon="7.2891266"><ele>483.24</ele></trkpt>
<trkpt lat="47.35328750000001" lon="7.289185999999999"><ele>484.02</ele></trkpt>
<trkpt lat="47.3536377" lon="7.2891603"><ele>485.59</ele></trkpt>
<trkpt lat="47.354103" lon="7.289133800000001"><ele>488.02</ele></trkpt>
<trkpt lat="47.35418249999999" lon="7.289049799999999"><ele>488.59</ele></trkpt>
<trkpt lat="47.3541904" lon="7.2887495"><ele>489.68</ele></trkpt>
<trkpt lat="47.3542406" lon="7.2883933"><ele>490.96</ele></trkpt>
<trkpt lat="47.354314800000004" lon="7.2880407"><ele>492.2</ele></trkpt>
<trkpt lat="47.3543898" lon="7.287615300000001"><ele>493.61</ele></trkpt>
<trkpt lat="47.354433400000005" lon="7.2872796"><ele>494.68</ele></trkpt>
<trkpt lat="47.3544766" lon="7.286740599999999"><ele>496.39</ele></trkpt>
<trkpt lat="47.354518" lon="7.285992"><ele>498.84</ele></trkpt>
<trkpt lat="47.3545643" lon="7.285039099999999"><ele>502.08</ele></trkpt>
<trkpt lat="47.35462749999999" lon="7.283860000000001"><ele>506.37</ele></trkpt>
<trkpt lat="47.3546625" lon="7.283189900000001"><ele>509.28</ele></trkpt>
<trkpt lat="47.3547005" lon="7.282834399999999"><ele>511.04</ele></trkpt>
<trkpt lat="47.3548015" lon="7.2823785"><ele>513.59</ele></trkpt>
<trkpt lat="47.35488050000001" lon="7.2821501"><ele>515.05</ele></trkpt>
<trkpt lat="47.3553102" lon="7.281080000000001"><ele>522.46</ele></trkpt>
<trkpt lat="47.35574" lon="7.28001"><ele>530.21</ele></trkpt>
<trkpt lat="47.35602500000001" lon="7.2793093"><ele>535.85</ele></trkpt>
<trkpt lat="47.3563099" lon="7.278608700000001"><ele>542.15</ele></trkpt>
<trkpt lat="47.3564847" lon="7.278101000000001"><ele>546.79</ele></trkpt>
<trkpt lat="47.3565775" lon="7.277727100000001"><ele>550.01</ele></trkpt>
<trkpt lat="47.356628099999995" lon="7.277422199999999"><ele>552.47</ele></trkpt>
<trkpt lat="47.3566625" lon="7.276943599999998"><ele>555.98</ele></trkpt>
<trkpt lat="47.3566802" lon="7.276190199999999"><ele>560.88</ele></trkpt>
<trkpt lat="47.35671" lon="7.275520200000002"><ele>564.91</ele></trkpt>
<trkpt lat="47.3567576" lon="7.2750895999999985"><ele>567.42</ele></trkpt>
<trkpt lat="47.3568598" lon="7.2743993"><ele>571.22</ele></trkpt>
<trkpt lat="47.35697199999999" lon="7.2737311"><ele>574.3</ele></trkpt>
<trkpt lat="47.357053799999996" lon="7.273249700000001"><ele>576.04</ele></trkpt>
<trkpt lat="47.3571307" lon="7.2728934"><ele>577.12</ele></trkpt>
<trkpt lat="47.357233" lon="7.2725276"><ele>578.12</ele></trkpt>
<trkpt lat="47.357445600000005" lon="7.272019799999999"><ele>579.43</ele></trkpt>
<trkpt lat="47.3575993" lon="7.2717443"><ele>580.13</ele></trkpt>
<trkpt lat="47.3581425" lon="7.2709725"><ele>581.99</ele></trkpt>
<trkpt lat="47.3583629" lon="7.270664300000001"><ele>582.58</ele></trkpt>
<trkpt lat="47.3590399" lon="7.269730100000002"><ele>583.97</ele></trkpt>
<trkpt lat="47.3597541" lon="7.268739700000002"><ele>585.56</ele></trkpt>
<trkpt lat="47.36062870000001" lon="7.2675304"><ele>588.38</ele></trkpt>
<trkpt lat="47.3613393" lon="7.2664206"><ele>590.69</ele></trkpt>
<trkpt lat="47.3618167" lon="7.265628899999999"><ele>592.61</ele></trkpt>
<trkpt lat="47.36197920000001" lon="7.2653662"><ele>593.46</ele></trkpt>
<trkpt lat="47.362470800000004" lon="7.264583899999999"><ele>596.82</ele></trkpt>
<trkpt lat="47.36288069999999" lon="7.2639189"><ele>600.4</ele></trkpt>
<trkpt lat="47.3632533" lon="7.2633066999999985"><ele>603.67</ele></trkpt>
<trkpt lat="47.36350349999999" lon="7.2629029"><ele>605.48</ele></trkpt>
<trkpt lat="47.363810599999994" lon="7.262408800000002"><ele>607.07</ele></trkpt>
<trkpt lat="47.3642727" lon="7.2616678"><ele>608.18</ele></trkpt>
<trkpt lat="47.3649789" lon="7.260567899999999"><ele>609.26</ele></trkpt>
<trkpt lat="47.365331999999995" lon="7.2600180000000005"><ele>610.91</ele></trkpt>
<trkpt lat="47.365501" lon="7.2597597"><ele>612.12</ele></trkpt>
<trkpt lat="47.3658304" lon="7.2593014"><ele>615.08</ele></trkpt>
<trkpt lat="47.366315" lon="7.258715"><ele>619.96</ele></trkpt>
<trkpt lat="47.366545" lon="7.258450000000001"><ele>622.08</ele></trkpt>
<trkpt lat="47.3668113" lon="7.25819"><ele>624</ele></trkpt>
<trkpt lat="47.3669599" lon="7.258072600000001"><ele>624.82</ele></trkpt>
<trkpt lat="47.3671581" lon="7.2579715"><ele>625.63</ele></trkpt>
<trkpt lat="47.3673627" lon="7.2579131"><ele>626.22</ele></trkpt>
<trkpt lat="47.3674801" lon="7.257900399999998"><ele>626.45</ele></trkpt>
<trkpt lat="47.36766339999999" lon="7.2579098"><ele>626.68</ele></trkpt>
<trkpt lat="47.3678362" lon="7.257944300000001"><ele>626.74</ele></trkpt>
<trkpt lat="47.3678755" lon="7.258023299999997"><ele>626.73</ele></trkpt>
<trkpt lat="47.367851900000005" lon="7.2587895"><ele>625.89</ele></trkpt>
<trkpt lat="47.36786459999999" lon="7.258968499999998"><ele>625.51</ele></trkpt>
<trkpt lat="47.3680199" lon="7.2596598000000006"><ele>623.34</ele></trkpt>
<trkpt lat="47.3681199" lon="7.260204499999999"><ele>621.13</ele></trkpt>
<trkpt lat="47.3682052" lon="7.2607879"><ele>618.47</ele></trkpt>
<trkpt lat="47.3683493" lon="7.2612221"><ele>616.11</ele></trkpt>
<trkpt lat="47.3683958" lon="7.261445300000001"><ele>614.9</ele></trkpt>
<trkpt lat="47.36840780000001" lon="7.2618434"><ele>612.75</ele></trkpt>
<trkpt lat="47.36835820000001" lon="7.2622496000000005"><ele>610.42</ele></trkpt>
<trkpt lat="47.3681748" lon="7.2631208"><ele>605.25</ele></trkpt>
<trkpt lat="47.3680528" lon="7.2636734"><ele>602.13</ele></trkpt>
<trkpt lat="47.368003200000004" lon="7.263967900000001"><ele>600.57</ele></trkpt>
<trkpt lat="47.367969300000006" lon="7.2642886"><ele>598.93</ele></trkpt>
<trkpt lat="47.3679088" lon="7.2645289"><ele>597.65</ele></trkpt>
<trkpt lat="47.3678205" lon="7.264721899999998"><ele>596.49</ele></trkpt>
<trkpt lat="47.3677374" lon="7.264866399999998"><ele>595.54</ele></trkpt>
<trkpt lat="47.3675994" lon="7.265029800000001"><ele>594.23</ele></trkpt>
<trkpt lat="47.36747019999999" lon="7.2651417"><ele>593.11</ele></trkpt>
<trkpt lat="47.367317699999994" lon="7.2652268"><ele>591.91</ele></trkpt>
<trkpt lat="47.3671247" lon="7.2653007"><ele>590.46</ele></trkpt>
<trkpt lat="47.3670192" lon="7.2653673"><ele>589.64</ele></trkpt>
<trkpt lat="47.3669519" lon="7.2654519"><ele>589.03</ele></trkpt>
<trkpt lat="47.366896499999996" lon="7.265599"><ele>588.25</ele></trkpt>
<trkpt lat="47.3668701" lon="7.265833300000001"><ele>587.2</ele></trkpt>
<trkpt lat="47.36684" lon="7.2666618"><ele>584</ele></trkpt>
<trkpt lat="47.366801" lon="7.267261"><ele>582.2</ele></trkpt>
<trkpt lat="47.3667604" lon="7.2677203"><ele>581.13</ele></trkpt>
<trkpt lat="47.3667067" lon="7.2682297999999985"><ele>580.21</ele></trkpt>
<trkpt lat="47.3666802" lon="7.268841"><ele>579.27</ele></trkpt>
<trkpt lat="47.36667210000001" lon="7.269205500000001"><ele>578.65</ele></trkpt>
<trkpt lat="47.36661169999999" lon="7.2698559000000005"><ele>577.16</ele></trkpt>
<trkpt lat="47.3665866" lon="7.270046800000002"><ele>576.57</ele></trkpt>
<trkpt lat="47.3665177" lon="7.270326699999999"><ele>575.53</ele></trkpt>
<trkpt lat="47.3664574" lon="7.270434"><ele>574.99</ele></trkpt>
<trkpt lat="47.3661101" lon="7.2707112"><ele>572.41</ele></trkpt>
<trkpt lat="47.36601739999999" lon="7.2708201"><ele>571.58</ele></trkpt>
<trkpt lat="47.3659522" lon="7.270991499999999"><ele>570.61</ele></trkpt>
<trkpt lat="47.3658903" lon="7.2715407"><ele>567.95</ele></trkpt>
<trkpt lat="47.365800199999995" lon="7.271943699999999"><ele>566.03</ele></trkpt>
<trkpt lat="47.3656475" lon="7.272498700000001"><ele>563.57</ele></trkpt>
<trkpt lat="47.3655281" lon="7.2728526"><ele>562.12</ele></trkpt>
<trkpt lat="47.36546370000001" lon="7.2728803"><ele>561.77</ele></trkpt>
<trkpt lat="47.3653683" lon="7.2728059"><ele>561.23</ele></trkpt>
<trkpt lat="47.3652545" lon="7.272766400000002"><ele>560.67</ele></trkpt>
<trkpt lat="47.365101900000006" lon="7.2727748"><ele>559.97</ele></trkpt>
<trkpt lat="47.3650103" lon="7.272841000000001"><ele>559.52</ele></trkpt>
<trkpt lat="47.364875" lon="7.2730254"><ele>558.72</ele></trkpt>
<trkpt lat="47.364841199999994" lon="7.2731255"><ele>558.41</ele></trkpt>
<trkpt lat="47.364811200000005" lon="7.273302300000001"><ele>557.9</ele></trkpt>
<trkpt lat="47.3648057" lon="7.273459600000001"><ele>557.48</ele></trkpt>
<trkpt lat="47.364877" lon="7.274030899999999"><ele>555.99</ele></trkpt>
<trkpt lat="47.3648789" lon="7.2743212"><ele>555.28</ele></trkpt>
<trkpt lat="47.364863" lon="7.274590100000001"><ele>554.65</ele></trkpt>
<trkpt lat="47.3648342" lon="7.274769899999999"><ele>554.22</ele></trkpt>
<trkpt lat="47.3647248" lon="7.2751069"><ele>553.36</ele></trkpt>
<trkpt lat="47.364613" lon="7.2753022"><ele>552.73</ele></trkpt>
<trkpt lat="47.3645331" lon="7.2753932"><ele>552.34</ele></trkpt>
<trkpt lat="47.3643946" lon="7.275504400000001"><ele>551.69</ele></trkpt>
<trkpt lat="47.36417300000001" lon="7.2756153999999995"><ele>550.58</ele></trkpt>
<trkpt lat="47.36379310000001" lon="7.2756503"><ele>548.34</ele></trkpt>
<trkpt lat="47.3636259" lon="7.2756897"><ele>547.13</ele></trkpt>
<trkpt lat="47.3634219" lon="7.2757799"><ele>545.45</ele></trkpt>
<trkpt lat="47.3632843" lon="7.2758594"><ele>544.17</ele></trkpt>
<trkpt lat="47.3630085" lon="7.2760838"><ele>541.22</ele></trkpt>
<trkpt lat="47.3629032" lon="7.276200699999999"><ele>539.92</ele></trkpt>
<trkpt lat="47.3627093" lon="7.2764878"><ele>537.14</ele></trkpt>
<trkpt lat="47.3624802" lon="7.2769022"><ele>533.52</ele></trkpt>
<trkpt lat="47.362303" lon="7.277356799999999"><ele>530.2</ele></trkpt>
<trkpt lat="47.3622168" lon="7.277670399999997"><ele>528.22</ele></trkpt>
<trkpt lat="47.3620585" lon="7.278330200000001"><ele>524.57</ele></trkpt>
<trkpt lat="47.36190010000001" lon="7.27899"><ele>521.42</ele></trkpt>
<trkpt lat="47.3616112" lon="7.2801993000000005"><ele>516.62</ele></trkpt>
<trkpt lat="47.3614205" lon="7.281237899999998"><ele>513.39</ele></trkpt>
<trkpt lat="47.3612849" lon="7.2820281000000024"><ele>511.25</ele></trkpt>
<trkpt lat="47.36122079999999" lon="7.2822977999999985"><ele>510.49</ele></trkpt>
<trkpt lat="47.361119" lon="7.282608400000003"><ele>509.52</ele></trkpt>
<trkpt lat="47.3610397" lon="7.282788000000001"><ele>508.87</ele></trkpt>
<trkpt lat="47.3608131" lon="7.2831827"><ele>507.15</ele></trkpt>
<trkpt lat="47.3607218" lon="7.283322699999999"><ele>506.45</ele></trkpt>
<trkpt lat="47.3603756" lon="7.283815599999999"><ele>503.78</ele></trkpt>
<trkpt lat="47.3598773" lon="7.2845554"><ele>500.22</ele></trkpt>
<trkpt lat="47.3595368" lon="7.2850607"><ele>498.49</ele></trkpt>
<trkpt lat="47.35917589999999" lon="7.2855985"><ele>497.34</ele></trkpt>
<trkpt lat="47.3588731" lon="7.286048899999999"><ele>496.8</ele></trkpt>
<trkpt lat="47.3585965" lon="7.286449400000001"><ele>496.57</ele></trkpt>
<trkpt lat="47.35849459999999" lon="7.286556599999998"><ele>496.53</ele></trkpt>
<trkpt lat="47.3581765" lon="7.2868246"><ele>496.52</ele></trkpt>
<trkpt lat="47.35797409999999" lon="7.286923599999999"><ele>496.58</ele></trkpt>
<trkpt lat="47.3574204" lon="7.287100499999999"><ele>496.87</ele></trkpt>
<trkpt lat="47.3572615" lon="7.2871596"><ele>496.98</ele></trkpt>
<trkpt lat="47.3569207" lon="7.2873108"><ele>497.16</ele></trkpt>
<trkpt lat="47.3566054" lon="7.287524699999999"><ele>497.15</ele></trkpt>
<trkpt lat="47.35637869999999" lon="7.2876922"><ele>496.97</ele></trkpt>
<trkpt lat="47.3562516" lon="7.2878017999999996"><ele>496.8</ele></trkpt>
<trkpt lat="47.3560414" lon="7.288049100000003"><ele>496.33</ele></trkpt>
<trkpt lat="47.3559423" lon="7.2881799"><ele>496.03</ele></trkpt>
<trkpt lat="47.3557826" lon="7.2884423"><ele>495.38</ele></trkpt>
<trkpt lat="47.3556413" lon="7.288700799999999"><ele>494.65</ele></trkpt>
<trkpt lat="47.355524" lon="7.2889901"><ele>493.79</ele></trkpt>
<trkpt lat="47.3554161" lon="7.289289800000001"><ele>492.8</ele></trkpt>
<trkpt lat="47.3551316" lon="7.2900581"><ele>489.59</ele></trkpt>
<trkpt lat="47.3549395" lon="7.2906811"><ele>486.4</ele></trkpt>
<trkpt lat="47.3548928" lon="7.290931900000001"><ele>485.1</ele></trkpt>
<trkpt lat="47.3548411" lon="7.291616899999999"><ele>481.72</ele></trkpt>
<trkpt lat="47.3548393" lon="7.291986100000001"><ele>480.11</ele></trkpt>
<trkpt lat="47.354912600000006" lon="7.292258900000002"><ele>478.99</ele></trkpt>
<trkpt lat="47.35510099999999" lon="7.292605100000001"><ele>477.64</ele></trkpt>
<trkpt lat="47.355347800000004" lon="7.293005"><ele>476.61</ele></trkpt>
<trkpt lat="47.3558626" lon="7.2938418"><ele>476.07</ele></trkpt>
<trkpt lat="47.3559594" lon="7.2939776999999975"><ele>476.1</ele></trkpt>
<trkpt lat="47.3562811" lon="7.2943383"><ele>476.24</ele></trkpt>
<trkpt lat="47.3569871" lon="7.2949037"><ele>475.84</ele></trkpt>
<trkpt lat="47.3572089" lon="7.2950989"><ele>475.36</ele></trkpt>
<trkpt lat="47.357673299999995" lon="7.295550500000001"><ele>473.72</ele></trkpt>
<trkpt lat="47.357736900000006" lon="7.2956219"><ele>473.43</ele></trkpt>
<trkpt lat="47.3581925" lon="7.2963389"><ele>470.7</ele></trkpt>
<trkpt lat="47.3584778" lon="7.296949499999999"><ele>468.67</ele></trkpt>
<trkpt lat="47.358836" lon="7.297800000000001"><ele>466.52</ele></trkpt>
<trkpt lat="47.3591303" lon="7.2984997"><ele>465.26</ele></trkpt>
<trkpt lat="47.3593479" lon="7.298987200000001"><ele>464.52</ele></trkpt>
<trkpt lat="47.35959900000001" lon="7.2996221"><ele>463.55</ele></trkpt>
<trkpt lat="47.3597178" lon="7.299998899999998"><ele>462.91</ele></trkpt>
<trkpt lat="47.35985" lon="7.3006428"><ele>461.67</ele></trkpt>
<trkpt lat="47.3599395" lon="7.3012507"><ele>460.32</ele></trkpt>
<trkpt lat="47.36001" lon="7.301877000000003"><ele>458.82</ele></trkpt>
<trkpt lat="47.360191699999994" lon="7.3032977"><ele>455.66</ele></trkpt>
<trkpt lat="47.360306" lon="7.3042001"><ele>454.15</ele></trkpt>
<trkpt lat="47.3604603" lon="7.3055208"><ele>452.18</ele></trkpt>
<trkpt lat="47.3605886" lon="7.3065036"><ele>450.65</ele></trkpt>
<trkpt lat="47.3606958" lon="7.3073893000000005"><ele>449.43</ele></trkpt>
<trkpt lat="47.3611095" lon="7.310572299999999"><ele>445.84</ele></trkpt>
<trkpt lat="47.3612391" lon="7.311615700000001"><ele>444.52</ele></trkpt>
<trkpt lat="47.36127" lon="7.311894199999999"><ele>444.16</ele></trkpt>
<trkpt lat="47.36133000000001" lon="7.312753200000002"><ele>443.04</ele></trkpt>
<trkpt lat="47.361335" lon="7.313215799999999"><ele>442.45</ele></trkpt>
<trkpt lat="47.3613792" lon="7.3142594"><ele>441.13</ele></trkpt>
<trkpt lat="47.3614433" lon="7.3162766999999995"><ele>438.75</ele></trkpt>
<trkpt lat="47.3614716" lon="7.3167497"><ele>438.25</ele></trkpt>
<trkpt lat="47.3614678" lon="7.316815999999999"><ele>438.18</ele></trkpt>
<trkpt lat="47.3614176" lon="7.316923899999999"><ele>438.04</ele></trkpt>
<trkpt lat="47.3613771" lon="7.3169528999999995"><ele>437.97</ele></trkpt>
<trkpt lat="47.3607999" lon="7.316959799999999"><ele>437.15</ele></trkpt>
<trkpt lat="47.3602102" lon="7.3169596"><ele>436.51</ele></trkpt>
<trkpt lat="47.3591826" lon="7.3169496"><ele>436.23</ele></trkpt>
<trkpt lat="47.3586689" lon="7.316944500000002"><ele>436.58</ele></trkpt>
<trkpt lat="47.358124" lon="7.31694"><ele>437.45</ele></trkpt>
<trkpt lat="47.3576199" lon="7.3169395"><ele>438.77</ele></trkpt>
<trkpt lat="47.356922700000005" lon="7.316925499999999"><ele>440.87</ele></trkpt>
<trkpt lat="47.3564903" lon="7.3169202"><ele>441.7</ele></trkpt>
<trkpt lat="47.35619830000001" lon="7.316923899999999"><ele>441.79</ele></trkpt>
<trkpt lat="47.3560528" lon="7.316998600000002"><ele>441.63</ele></trkpt>
<trkpt lat="47.3559901" lon="7.3171211000000005"><ele>441.46</ele></trkpt>
<trkpt lat="47.3559627" lon="7.3172738"><ele>441.22</ele></trkpt>
<trkpt lat="47.3559805" lon="7.318154100000001"><ele>439.15</ele></trkpt>
<trkpt lat="47.3560094" lon="7.319271699999999"><ele>436.27</ele></trkpt>
<trkpt lat="47.3559248" lon="7.320465000000002"><ele>434.36</ele></trkpt>
<trkpt lat="47.35588260000001" lon="7.320662399999999"><ele>434.19</ele></trkpt>
<trkpt lat="47.3556737" lon="7.3209835"><ele>433.98</ele></trkpt>
<trkpt lat="47.3555236" lon="7.321161399999999"><ele>433.93</ele></trkpt>
<trkpt lat="47.3551915" lon="7.321512499999999"><ele>433.89</ele></trkpt>
<trkpt lat="47.3551228" lon="7.321613500000001"><ele>433.88</ele></trkpt>
<trkpt lat="47.3550222" lon="7.3218533"><ele>433.82</ele></trkpt>
<trkpt lat="47.3549036" lon="7.3223844"><ele>433.51</ele></trkpt>
<trkpt lat="47.354857599999995" lon="7.322514"><ele>433.37</ele></trkpt>
<trkpt lat="47.354752" lon="7.322673199999998"><ele>433.13</ele></trkpt>
<trkpt lat="47.3547064" lon="7.3227753"><ele>432.98</ele></trkpt>
<trkpt lat="47.3546423" lon="7.3231407000000015"><ele>432.42</ele></trkpt>
<trkpt lat="47.35460489999999" lon="7.323262500000001"><ele>432.19</ele></trkpt>
<trkpt lat="47.35455000000001" lon="7.323292100000001"><ele>432.04</ele></trkpt>
<trkpt lat="47.3544654" lon="7.3232721"><ele>431.81</ele></trkpt>
<trkpt lat="47.3539106" lon="7.322934199999998"><ele>429.89</ele></trkpt>
<trkpt lat="47.3538124" lon="7.322906000000001"><ele>429.54</ele></trkpt>
<trkpt lat="47.353719100000006" lon="7.3229508"><ele>429.19</ele></trkpt>
<trkpt lat="47.35366139999999" lon="7.323032900000002"><ele>428.9</ele></trkpt>
<trkpt lat="47.3531921" lon="7.3240483"><ele>426.17</ele></trkpt>
<trkpt lat="47.353029400000004" lon="7.324279400000001"><ele>425.59</ele></trkpt>
<trkpt lat="47.352893300000005" lon="7.3243789"><ele>425.23</ele></trkpt>
<trkpt lat="47.352855" lon="7.324590999999999"><ele>424.92</ele></trkpt>
<trkpt lat="47.3526581" lon="7.324957999999998"><ele>424.31</ele></trkpt>
<trkpt lat="47.35151659999999" lon="7.326654999999997"><ele>421.81</ele></trkpt>
<trkpt lat="47.35130409999999" lon="7.326994899999999"><ele>421.5</ele></trkpt>
<trkpt lat="47.3512439" lon="7.327130500000002"><ele>421.41</ele></trkpt>
<trkpt lat="47.3511736" lon="7.327369300000001"><ele>421.28</ele></trkpt>
<trkpt lat="47.3511111" lon="7.327715199999998"><ele>421.13</ele></trkpt>
<trkpt lat="47.3510933" lon="7.3282919999999985"><ele>420.94</ele></trkpt>
<trkpt lat="47.35107320000001" lon="7.328527399999999"><ele>420.89</ele></trkpt>
<trkpt lat="47.3510026" lon="7.3288252"><ele>420.87</ele></trkpt>
<trkpt lat="47.3509072" lon="7.329116800000001"><ele>420.89</ele></trkpt>
<trkpt lat="47.35081" lon="7.3293131"><ele>420.94</ele></trkpt>
<trkpt lat="47.3506851" lon="7.329522"><ele>421.05</ele></trkpt>
<trkpt lat="47.3504296" lon="7.3298503"><ele>421.35</ele></trkpt>
<trkpt lat="47.3503649" lon="7.3298953000000004"><ele>421.43</ele></trkpt>
<trkpt lat="47.3502126" lon="7.329770600000001"><ele>421.64</ele></trkpt>
<trkpt lat="47.3501194" lon="7.3297078"><ele>421.78</ele></trkpt>
<trkpt lat="47.349840400000005" lon="7.3296315"><ele>422.21</ele></trkpt>
<trkpt lat="47.349690300000006" lon="7.3295017"><ele>422.49</ele></trkpt>
<trkpt lat="47.3494601" lon="7.329191499999999"><ele>423.03</ele></trkpt>
<trkpt lat="47.3487912" lon="7.3282503"><ele>424.75</ele></trkpt>
<trkpt lat="47.3485805" lon="7.3279174"><ele>425.28</ele></trkpt>
<trkpt lat="47.3484515" lon="7.327660700000001"><ele>425.61</ele></trkpt>
<trkpt lat="47.3483709" lon="7.327468600000001"><ele>425.82</ele></trkpt>
<trkpt lat="47.348110299999995" lon="7.3266938"><ele>426.55</ele></trkpt>
<trkpt lat="47.3479776" lon="7.326368299999998"><ele>426.86</ele></trkpt>
<trkpt lat="47.3475989" lon="7.325640500000001"><ele>427.67</ele></trkpt>
<trkpt lat="47.347287" lon="7.3251346"><ele>428.25</ele></trkpt>
<trkpt lat="47.3466318" lon="7.324028599999999"><ele>428.99</ele></trkpt>
<trkpt lat="47.34583979999999" lon="7.322698700000001"><ele>429.43</ele></trkpt>
<trkpt lat="47.3453905" lon="7.3219094999999985"><ele>430.07</ele></trkpt>
<trkpt lat="47.3449987" lon="7.3211605"><ele>430.85</ele></trkpt>
<trkpt lat="47.344746199999996" lon="7.3207626"><ele>431.28</ele></trkpt>
<trkpt lat="47.3441762" lon="7.319996500000002"><ele>432.08</ele></trkpt>
<trkpt lat="47.34388499999999" lon="7.319534999999999"><ele>432.54</ele></trkpt>
<trkpt lat="47.3435753" lon="7.3189681"><ele>433.15</ele></trkpt>
<trkpt lat="47.3431804" lon="7.3181275999999995"><ele>433.93</ele></trkpt>
<trkpt lat="47.342971199999994" lon="7.317615600000001"><ele>434.12</ele></trkpt>
<trkpt lat="47.34282489999999" lon="7.317330799999999"><ele>434.06</ele></trkpt>
<trkpt lat="47.3428151" lon="7.3172475"><ele>434.02</ele></trkpt>
<trkpt lat="47.3428521" lon="7.3171888"><ele>433.98</ele></trkpt>
<trkpt lat="47.3440854" lon="7.317245999999999"><ele>431.86</ele></trkpt>
<trkpt lat="47.34445959999999" lon="7.3172500000000005"><ele>431.18</ele></trkpt>
</trkseg>
</trk></gpx>
