<?xml version="1.0" encoding="UTF-8"?>
<gpx version="1.1" creator="BikeTerra" xmlns="http://www.topografix.com/GPX/1/1" xmlns:biketerra="https://biketerra.com/xmlns/gpx/1">
    <metadata>
        <name>Tongariro Desert Road NZ</name>
        <extensions>
            <biketerra:version>2.0.0</biketerra:version>
            <biketerra:isLoop>false</biketerra:isLoop>
            <biketerra:defaultSurface>asphalt</biketerra:defaultSurface>
        </extensions>
    </metadata>
    <trk>
        <name>Tongariro Desert Road NZ</name>
        <trkseg>
            <trkpt lat="-38.9822773" lon="175.8214459"><ele>372.6</ele></trkpt>
            <trkpt lat="-38.9824404" lon="175.8211305"><ele>372.83</ele></trkpt>
            <trkpt lat="-38.9828041" lon="175.8205559"><ele>373.16</ele></trkpt>
            <trkpt lat="-38.9829713" lon="175.8203655"><ele>373.26</ele></trkpt>
            <trkpt lat="-38.9832371" lon="175.8201821"><ele>373.39</ele></trkpt>
            <trkpt lat="-38.9834629" lon="175.82007"><ele>373.52</ele></trkpt>
            <trkpt lat="-38.9838587" lon="175.819961"><ele>373.85</ele></trkpt>
            <trkpt lat="-38.9845112" lon="175.8198657"><ele>374.72</ele></trkpt>
            <trkpt lat="-38.9847197" lon="175.8198301"><ele>375.08</ele></trkpt>
            <trkpt lat="-38.9851284" lon="175.8197447"><ele>375.86</ele></trkpt>
            <trkpt lat="-38.9852798" lon="175.819677"><ele>376.12</ele></trkpt>
            <trkpt lat="-38.9854181" lon="175.8195868"><ele>376.32</ele></trkpt>
            <trkpt lat="-38.9855934" lon="175.8194201"><ele>376.48</ele></trkpt>
            <trkpt lat="-38.9859069" lon="175.8191131"><ele>376.51</ele></trkpt>
            <trkpt lat="-38.9868775" lon="175.8181623"><ele>375.84</ele></trkpt>
            <trkpt lat="-38.9872506" lon="175.817774"><ele>375.74</ele></trkpt>
            <trkpt lat="-38.9876569" lon="175.817245"><ele>375.89</ele></trkpt>
            <trkpt lat="-38.9878579" lon="175.8169283"><ele>376.1</ele></trkpt>
            <trkpt lat="-38.9881057" lon="175.8164676"><ele>376.54</ele></trkpt>
            <trkpt lat="-38.9883197" lon="175.8159802"><ele>377.03</ele></trkpt>
            <trkpt lat="-38.9887329" lon="175.814978"><ele>377.94</ele></trkpt>
            <trkpt lat="-38.9898971" lon="175.8122919"><ele>379.14</ele></trkpt>
            <trkpt lat="-38.9899498" lon="175.8121713"><ele>379.07</ele></trkpt>
            <trkpt lat="-38.9900131" lon="175.8120479"><ele>378.94</ele></trkpt>
            <trkpt lat="-38.990202" lon="175.811682"><ele>378.35</ele></trkpt>
            <trkpt lat="-38.990265" lon="175.81156"><ele>378.16</ele></trkpt>
            <trkpt lat="-38.990391" lon="175.811316"><ele>377.91</ele></trkpt>
            <trkpt lat="-38.9905811" lon="175.8109486"><ele>377.9</ele></trkpt>
            <trkpt lat="-38.9907067" lon="175.8107333"><ele>378.18</ele></trkpt>
            <trkpt lat="-38.9913403" lon="175.80965"><ele>380.86</ele></trkpt>
            <trkpt lat="-38.9917375" lon="175.8090275"><ele>382.53</ele></trkpt>
            <trkpt lat="-38.9918711" lon="175.8088198"><ele>383</ele></trkpt>
            <trkpt lat="-38.99215" lon="175.8084407"><ele>383.68</ele></trkpt>
            <trkpt lat="-38.9927699" lon="175.8077408"><ele>384.6</ele></trkpt>
            <trkpt lat="-38.9934399" lon="175.8070805"><ele>385.3</ele></trkpt>
            <trkpt lat="-38.9943218" lon="175.8062897"><ele>386.06</ele></trkpt>
            <trkpt lat="-38.9952826" lon="175.80563"><ele>386.52</ele></trkpt>
            <trkpt lat="-38.9959088" lon="175.8052194"><ele>386.17</ele></trkpt>
            <trkpt lat="-38.9960398" lon="175.8051436"><ele>385.96</ele></trkpt>
            <trkpt lat="-38.9961473" lon="175.8050914"><ele>385.74</ele></trkpt>
            <trkpt lat="-38.9964342" lon="175.8049479"><ele>385.04</ele></trkpt>
            <trkpt lat="-38.9965291" lon="175.8049008"><ele>384.84</ele></trkpt>
            <trkpt lat="-38.9966326" lon="175.8048549"><ele>384.65</ele></trkpt>
            <trkpt lat="-38.9969422" lon="175.8047197"><ele>384.37</ele></trkpt>
            <trkpt lat="-38.99741" lon="175.804555"><ele>384.55</ele></trkpt>
            <trkpt lat="-38.9978786" lon="175.8043911"><ele>385.17</ele></trkpt>
            <trkpt lat="-38.9989509" lon="175.8041301"><ele>387.08</ele></trkpt>
            <trkpt lat="-38.9995108" lon="175.8040401"><ele>388.16</ele></trkpt>
            <trkpt lat="-38.9999421" lon="175.803992"><ele>388.99</ele></trkpt>
            <trkpt lat="-39.0001613" lon="175.8039762"><ele>389.37</ele></trkpt>
            <trkpt lat="-39.0009414" lon="175.8039504"><ele>390.55</ele></trkpt>
            <trkpt lat="-39.0013563" lon="175.803966"><ele>391.01</ele></trkpt>
            <trkpt lat="-39.0022374" lon="175.8040501"><ele>391.67</ele></trkpt>
            <trkpt lat="-39.00269" lon="175.804135"><ele>391.93</ele></trkpt>
            <trkpt lat="-39.0031405" lon="175.8042205"><ele>392.16</ele></trkpt>
            <trkpt lat="-39.0036809" lon="175.8043706"><ele>392.49</ele></trkpt>
            <trkpt lat="-39.0040867" lon="175.80451"><ele>392.92</ele></trkpt>
            <trkpt lat="-39.0042895" lon="175.8045799"><ele>393.26</ele></trkpt>
            <trkpt lat="-39.0051205" lon="175.8048848"><ele>395.16</ele></trkpt>
            <trkpt lat="-39.0058471" lon="175.8051514"><ele>396.87</ele></trkpt>
            <trkpt lat="-39.0064702" lon="175.80538"><ele>398.1</ele></trkpt>
            <trkpt lat="-39.00709" lon="175.805595"><ele>398.96</ele></trkpt>
            <trkpt lat="-39.0077105" lon="175.8058104"><ele>399.46</ele></trkpt>
            <trkpt lat="-39.00841" lon="175.80608"><ele>399.71</ele></trkpt>
            <trkpt lat="-39.0090101" lon="175.8063115"><ele>399.77</ele></trkpt>
            <trkpt lat="-39.00964" lon="175.80653"><ele>399.77</ele></trkpt>
            <trkpt lat="-39.0101693" lon="175.8067093"><ele>399.85</ele></trkpt>
            <trkpt lat="-39.0106211" lon="175.8068102"><ele>400.02</ele></trkpt>
            <trkpt lat="-39.0114733" lon="175.8069955"><ele>400.55</ele></trkpt>
            <trkpt lat="-39.01222" lon="175.8071579"><ele>401.06</ele></trkpt>
            <trkpt lat="-39.01318" lon="175.8073666"><ele>401.76</ele></trkpt>
            <trkpt lat="-39.01382" lon="175.8075058"><ele>402.42</ele></trkpt>
            <trkpt lat="-39.0142467" lon="175.8075986"><ele>402.99</ele></trkpt>
            <trkpt lat="-39.0156333" lon="175.8079001"><ele>405.05</ele></trkpt>
            <trkpt lat="-39.0158467" lon="175.8079465"><ele>405.21</ele></trkpt>
            <trkpt lat="-39.0165933" lon="175.8081089"><ele>405.22</ele></trkpt>
            <trkpt lat="-39.01734" lon="175.8082712"><ele>404.74</ele></trkpt>
            <trkpt lat="-39.0175533" lon="175.8083176"><ele>404.54</ele></trkpt>
            <trkpt lat="-39.0181932" lon="175.8084568"><ele>403.85</ele></trkpt>
            <trkpt lat="-39.0184004" lon="175.8085008"><ele>403.71</ele></trkpt>
            <trkpt lat="-39.019105" lon="175.8086467"><ele>403.54</ele></trkpt>
            <trkpt lat="-39.01991" lon="175.8088133"><ele>403.46</ele></trkpt>
            <trkpt lat="-39.0205138" lon="175.8089383"><ele>403.08</ele></trkpt>
            <trkpt lat="-39.0208156" lon="175.8090008"><ele>402.76</ele></trkpt>
            <trkpt lat="-39.0214194" lon="175.8091258"><ele>402.11</ele></trkpt>
            <trkpt lat="-39.0216206" lon="175.8091675"><ele>402.09</ele></trkpt>
            <trkpt lat="-39.0220231" lon="175.8092508"><ele>402.57</ele></trkpt>
            <trkpt lat="-39.022325" lon="175.8093133"><ele>403.28</ele></trkpt>
            <trkpt lat="-39.0229288" lon="175.8094383"><ele>405.12</ele></trkpt>
            <trkpt lat="-39.023129" lon="175.8094798"><ele>405.65</ele></trkpt>
            <trkpt lat="-39.0233413" lon="175.8095237"><ele>406.1</ele></trkpt>
            <trkpt lat="-39.0237638" lon="175.8096112"><ele>406.8</ele></trkpt>
            <trkpt lat="-39.023975" lon="175.809655"><ele>407.14</ele></trkpt>
            <trkpt lat="-39.0241863" lon="175.8096987"><ele>407.51</ele></trkpt>
            <trkpt lat="-39.02482" lon="175.80983"><ele>408.67</ele></trkpt>
            <trkpt lat="-39.0255594" lon="175.8099831"><ele>409.78</ele></trkpt>
            <trkpt lat="-39.0257706" lon="175.8100269"><ele>410.01</ele></trkpt>
            <trkpt lat="-39.0265076" lon="175.8101796"><ele>410.67</ele></trkpt>
            <trkpt lat="-39.0268708" lon="175.8102708"><ele>411.21</ele></trkpt>
            <trkpt lat="-39.0271792" lon="175.810403"><ele>411.92</ele></trkpt>
            <trkpt lat="-39.0275505" lon="175.8105909"><ele>413</ele></trkpt>
            <trkpt lat="-39.0280267" lon="175.8108433"><ele>414.41</ele></trkpt>
            <trkpt lat="-39.0293586" lon="175.8115493"><ele>417.6</ele></trkpt>
            <trkpt lat="-39.0296675" lon="175.8117108"><ele>417.98</ele></trkpt>
            <trkpt lat="-39.0311025" lon="175.8124613"><ele>418.3</ele></trkpt>
            <trkpt lat="-39.03182" lon="175.8128366"><ele>418.62</ele></trkpt>
            <trkpt lat="-39.03264" lon="175.8132655"><ele>419.23</ele></trkpt>
            <trkpt lat="-39.0335625" lon="175.813748"><ele>420.05</ele></trkpt>
            <trkpt lat="-39.03428" lon="175.8141232"><ele>421.09</ele></trkpt>
            <trkpt lat="-39.03592" lon="175.8149811"><ele>424.53</ele></trkpt>
            <trkpt lat="-39.03674" lon="175.8154098"><ele>426.16</ele></trkpt>
            <trkpt lat="-39.0375697" lon="175.8158191"><ele>427.75</ele></trkpt>
            <trkpt lat="-39.0380152" lon="175.8159599"><ele>428.6</ele></trkpt>
            <trkpt lat="-39.0384204" lon="175.8160332"><ele>429.37</ele></trkpt>
            <trkpt lat="-39.0387299" lon="175.8160555"><ele>429.94</ele></trkpt>
            <trkpt lat="-39.0390423" lon="175.8160486"><ele>430.48</ele></trkpt>
            <trkpt lat="-39.0393057" lon="175.8160194"><ele>430.91</ele></trkpt>
            <trkpt lat="-39.0397405" lon="175.8158795"><ele>431.56</ele></trkpt>
            <trkpt lat="-39.0400518" lon="175.8157583"><ele>431.97</ele></trkpt>
            <trkpt lat="-39.0404061" lon="175.8155716"><ele>432.37</ele></trkpt>
            <trkpt lat="-39.0412592" lon="175.8150006"><ele>433.21</ele></trkpt>
            <trkpt lat="-39.0414896" lon="175.8148577"><ele>433.38</ele></trkpt>
            <trkpt lat="-39.0417301" lon="175.814736"><ele>433.48</ele></trkpt>
            <trkpt lat="-39.0420237" lon="175.8146219"><ele>433.49</ele></trkpt>
            <trkpt lat="-39.042443" lon="175.814521"><ele>433.32</ele></trkpt>
            <trkpt lat="-39.0428594" lon="175.8144836"><ele>432.98</ele></trkpt>
            <trkpt lat="-39.0431621" lon="175.8144983"><ele>432.64</ele></trkpt>
            <trkpt lat="-39.0434263" lon="175.814539"><ele>432.27</ele></trkpt>
            <trkpt lat="-39.043773" lon="175.8146335"><ele>431.68</ele></trkpt>
            <trkpt lat="-39.0441055" lon="175.8147709"><ele>430.99</ele></trkpt>
            <trkpt lat="-39.044321" lon="175.8148864"><ele>430.42</ele></trkpt>
            <trkpt lat="-39.0445309" lon="175.8150211"><ele>429.75</ele></trkpt>
            <trkpt lat="-39.04519" lon="175.8155199"><ele>427.3</ele></trkpt>
            <trkpt lat="-39.0457614" lon="175.8159371"><ele>425.36</ele></trkpt>
            <trkpt lat="-39.0459519" lon="175.8160762"><ele>424.82</ele></trkpt>
            <trkpt lat="-39.0465233" lon="175.8164933"><ele>423.49</ele></trkpt>
            <trkpt lat="-39.0470948" lon="175.8169105"><ele>422.4</ele></trkpt>
            <trkpt lat="-39.0472888" lon="175.8170513"><ele>422.18</ele></trkpt>
            <trkpt lat="-39.0478811" lon="175.8174787"><ele>422.04</ele></trkpt>
            <trkpt lat="-39.0480759" lon="175.8176109"><ele>422.17</ele></trkpt>
            <trkpt lat="-39.0488439" lon="175.8180989"><ele>423.28</ele></trkpt>
            <trkpt lat="-39.0495667" lon="175.81858"><ele>424.37</ele></trkpt>
            <trkpt lat="-39.0500143" lon="175.81888"><ele>424.82</ele></trkpt>
            <trkpt lat="-39.050641" lon="175.8193"><ele>425.41</ele></trkpt>
            <trkpt lat="-39.0508178" lon="175.8194183"><ele>425.77</ele></trkpt>
            <trkpt lat="-39.0510265" lon="175.8195466"><ele>426.46</ele></trkpt>
            <trkpt lat="-39.0512292" lon="175.8196612"><ele>427.39</ele></trkpt>
            <trkpt lat="-39.051925" lon="175.82002"><ele>431.47</ele></trkpt>
            <trkpt lat="-39.0526203" lon="175.8203786"><ele>435.92</ele></trkpt>
            <trkpt lat="-39.0527226" lon="175.8204305"><ele>436.57</ele></trkpt>
            <trkpt lat="-39.0529909" lon="175.8205387"><ele>438.18</ele></trkpt>
            <trkpt lat="-39.0532546" lon="175.8205986"><ele>439.64</ele></trkpt>
            <trkpt lat="-39.05374" lon="175.82068"><ele>442.11</ele></trkpt>
            <trkpt lat="-39.0542186" lon="175.8207596"><ele>444.39</ele></trkpt>
            <trkpt lat="-39.0544915" lon="175.8207695"><ele>445.65</ele></trkpt>
            <trkpt lat="-39.0548517" lon="175.8207189"><ele>447.32</ele></trkpt>
            <trkpt lat="-39.0557" lon="175.82046"><ele>451.45</ele></trkpt>
            <trkpt lat="-39.0565495" lon="175.8201996"><ele>455.94</ele></trkpt>
            <trkpt lat="-39.057396" lon="175.819846"><ele>460.74</ele></trkpt>
            <trkpt lat="-39.058242" lon="175.819492"><ele>465.59</ele></trkpt>
            <trkpt lat="-39.059088" lon="175.819138"><ele>470.63</ele></trkpt>
            <trkpt lat="-39.0597225" lon="175.8188725"><ele>474.26</ele></trkpt>
            <trkpt lat="-39.0600398" lon="175.8187398"><ele>475.89</ele></trkpt>
            <trkpt lat="-39.0607839" lon="175.8184296"><ele>479.15</ele></trkpt>
            <trkpt lat="-39.0609577" lon="175.8183816"><ele>479.77</ele></trkpt>
            <trkpt lat="-39.06127" lon="175.8183409"><ele>480.64</ele></trkpt>
            <trkpt lat="-39.0622066" lon="175.8183541"><ele>482.63</ele></trkpt>
            <trkpt lat="-39.0636634" lon="175.8183759"><ele>485.6</ele></trkpt>
            <trkpt lat="-39.0646005" lon="175.8183897"><ele>487.61</ele></trkpt>
            <trkpt lat="-39.0652123" lon="175.8183684"><ele>488.91</ele></trkpt>
            <trkpt lat="-39.0654732" lon="175.8183185"><ele>489.47</ele></trkpt>
            <trkpt lat="-39.0658201" lon="175.8182155"><ele>490.23</ele></trkpt>
            <trkpt lat="-39.06624" lon="175.8180323"><ele>491.15</ele></trkpt>
            <trkpt lat="-39.0665097" lon="175.8178734"><ele>491.7</ele></trkpt>
            <trkpt lat="-39.0666911" lon="175.8177509"><ele>492.03</ele></trkpt>
            <trkpt lat="-39.0675089" lon="175.8171301"><ele>493.38</ele></trkpt>
            <trkpt lat="-39.0679546" lon="175.816705"><ele>494.38</ele></trkpt>
            <trkpt lat="-39.0681325" lon="175.816535"><ele>494.93</ele></trkpt>
            <trkpt lat="-39.0683104" lon="175.816365"><ele>495.64</ele></trkpt>
            <trkpt lat="-39.0686661" lon="175.816025"><ele>497.35</ele></trkpt>
            <trkpt lat="-39.0693775" lon="175.815345"><ele>500.96</ele></trkpt>
            <trkpt lat="-39.0698221" lon="175.81492"><ele>502.73</ele></trkpt>
            <trkpt lat="-39.0701744" lon="175.81458"><ele>503.63</ele></trkpt>
            <trkpt lat="-39.0704361" lon="175.814325"><ele>503.94</ele></trkpt>
            <trkpt lat="-39.0706978" lon="175.81407"><ele>503.92</ele></trkpt>
            <trkpt lat="-39.0721773" lon="175.8126198"><ele>502.46</ele></trkpt>
            <trkpt lat="-39.0723508" lon="175.8124483"><ele>502.58</ele></trkpt>
            <trkpt lat="-39.0727845" lon="175.8120195"><ele>503.74</ele></trkpt>
            <trkpt lat="-39.072958" lon="175.811848"><ele>504.54</ele></trkpt>
            <trkpt lat="-39.0730448" lon="175.8117623"><ele>505.05</ele></trkpt>
            <trkpt lat="-39.073652" lon="175.811162"><ele>509.33</ele></trkpt>
            <trkpt lat="-39.0741725" lon="175.8106475"><ele>512.97</ele></trkpt>
            <trkpt lat="-39.074346" lon="175.810476"><ele>513.99</ele></trkpt>
            <trkpt lat="-39.0745195" lon="175.8103045"><ele>514.79</ele></trkpt>
            <trkpt lat="-39.0750396" lon="175.8097909"><ele>516.53</ele></trkpt>
            <trkpt lat="-39.0754208" lon="175.8094701"><ele>517.42</ele></trkpt>
            <trkpt lat="-39.07581" lon="175.8092106"><ele>518.15</ele></trkpt>
            <trkpt lat="-39.0762208" lon="175.8089899"><ele>518.88</ele></trkpt>
            <trkpt lat="-39.0766195" lon="175.808801"><ele>519.61</ele></trkpt>
            <trkpt lat="-39.0773699" lon="175.8085705"><ele>521.04</ele></trkpt>
            <trkpt lat="-39.0782467" lon="175.8083883"><ele>522.86</ele></trkpt>
            <trkpt lat="-39.0791233" lon="175.8082067"><ele>524.96</ele></trkpt>
            <trkpt lat="-39.0801096" lon="175.8080023"><ele>527.38</ele></trkpt>
            <trkpt lat="-39.0818629" lon="175.807639"><ele>531.88</ele></trkpt>
            <trkpt lat="-39.0826301" lon="175.8074801"><ele>534.23</ele></trkpt>
            <trkpt lat="-39.0832867" lon="175.8073533"><ele>536.52</ele></trkpt>
            <trkpt lat="-39.0839433" lon="175.8072267"><ele>538.99</ele></trkpt>
            <trkpt lat="-39.0846043" lon="175.8071003"><ele>541.56</ele></trkpt>
            <trkpt lat="-39.08487" lon="175.8070814"><ele>542.6</ele></trkpt>
            <trkpt lat="-39.0851362" lon="175.8071009"><ele>543.66</ele></trkpt>
            <trkpt lat="-39.0855586" lon="175.8072199"><ele>545.39</ele></trkpt>
            <trkpt lat="-39.0863367" lon="175.8074967"><ele>548.59</ele></trkpt>
            <trkpt lat="-39.0871133" lon="175.8077733"><ele>551.47</ele></trkpt>
            <trkpt lat="-39.0878926" lon="175.8080507"><ele>553.63</ele></trkpt>
            <trkpt lat="-39.0890671" lon="175.8084214"><ele>555.4</ele></trkpt>
            <trkpt lat="-39.0893614" lon="175.8085143"><ele>555.6</ele></trkpt>
            <trkpt lat="-39.0899479" lon="175.8086988"><ele>555.61</ele></trkpt>
            <trkpt lat="-39.09129" lon="175.8089667"><ele>555.27</ele></trkpt>
            <trkpt lat="-39.0918483" lon="175.8090778"><ele>555.56</ele></trkpt>
            <trkpt lat="-39.0920682" lon="175.8091133"><ele>555.9</ele></trkpt>
            <trkpt lat="-39.0930433" lon="175.8092333"><ele>558.38</ele></trkpt>
            <trkpt lat="-39.0932601" lon="175.8092594"><ele>559.12</ele></trkpt>
            <trkpt lat="-39.09402" lon="175.80927"><ele>562.2</ele></trkpt>
            <trkpt lat="-39.0947806" lon="175.8092796"><ele>565.42</ele></trkpt>
            <trkpt lat="-39.09541" lon="175.80924"><ele>567.98</ele></trkpt>
            <trkpt lat="-39.0960408" lon="175.8091997"><ele>570.29</ele></trkpt>
            <trkpt lat="-39.0965442" lon="175.80915"><ele>571.79</ele></trkpt>
            <trkpt lat="-39.0968467" lon="175.80912"><ele>572.45</ele></trkpt>
            <trkpt lat="-39.0972476" lon="175.8090801"><ele>573</ele></trkpt>
            <trkpt lat="-39.0981567" lon="175.8089505"><ele>573.65</ele></trkpt>
            <trkpt lat="-39.09895" lon="175.8088371"><ele>574.15</ele></trkpt>
            <trkpt lat="-39.0996324" lon="175.8087399"><ele>574.75</ele></trkpt>
            <trkpt lat="-39.1009603" lon="175.8086075"><ele>576.38</ele></trkpt>
            <trkpt lat="-39.1018078" lon="175.8085201"><ele>577.75</ele></trkpt>
            <trkpt lat="-39.1034366" lon="175.8083091"><ele>580.9</ele></trkpt>
            <trkpt lat="-39.1044125" lon="175.8081825"><ele>583.11</ele></trkpt>
            <trkpt lat="-39.1052809" lon="175.8080695"><ele>584.9</ele></trkpt>
            <trkpt lat="-39.1059982" lon="175.8079302"><ele>586.1</ele></trkpt>
            <trkpt lat="-39.1071217" lon="175.8076593"><ele>587.79</ele></trkpt>
            <trkpt lat="-39.1081397" lon="175.8073696"><ele>589.79</ele></trkpt>
            <trkpt lat="-39.1083433" lon="175.8072967"><ele>590.35</ele></trkpt>
            <trkpt lat="-39.1087503" lon="175.8071493"><ele>591.75</ele></trkpt>
            <trkpt lat="-39.1096231" lon="175.806745"><ele>595.19</ele></trkpt>
            <trkpt lat="-39.1098201" lon="175.8066575"><ele>595.84</ele></trkpt>
            <trkpt lat="-39.1101182" lon="175.8065304"><ele>596.62</ele></trkpt>
            <trkpt lat="-39.110762" lon="175.8062"><ele>597.94</ele></trkpt>
            <trkpt lat="-39.1111922" lon="175.8059785"><ele>598.93</ele></trkpt>
            <trkpt lat="-39.11175" lon="175.80566"><ele>600.64</ele></trkpt>
            <trkpt lat="-39.1123096" lon="175.8053399"><ele>602.98</ele></trkpt>
            <trkpt lat="-39.112868" lon="175.804991"><ele>606.06</ele></trkpt>
            <trkpt lat="-39.1134786" lon="175.8045657"><ele>610.23</ele></trkpt>
            <trkpt lat="-39.1136814" lon="175.8044243"><ele>611.76</ele></trkpt>
            <trkpt lat="-39.1140871" lon="175.8041414"><ele>614.95</ele></trkpt>
            <trkpt lat="-39.1142917" lon="175.8039986"><ele>616.47</ele></trkpt>
            <trkpt lat="-39.1144708" lon="175.8038658"><ele>617.69</ele></trkpt>
            <trkpt lat="-39.1150133" lon="175.8034633"><ele>620.99</ele></trkpt>
            <trkpt lat="-39.1155558" lon="175.8030608"><ele>624.17</ele></trkpt>
            <trkpt lat="-39.1158271" lon="175.8028596"><ele>625.89</ele></trkpt>
            <trkpt lat="-39.1162792" lon="175.8025242"><ele>629.07</ele></trkpt>
            <trkpt lat="-39.1165504" lon="175.8023272"><ele>631.21</ele></trkpt>
            <trkpt lat="-39.1170933" lon="175.80195"><ele>635.83</ele></trkpt>
            <trkpt lat="-39.1178171" lon="175.8014472"><ele>642.1</ele></trkpt>
            <trkpt lat="-39.118359" lon="175.8010705"><ele>646.65</ele></trkpt>
            <trkpt lat="-39.1192038" lon="175.80044"><ele>653.61</ele></trkpt>
            <trkpt lat="-39.1198611" lon="175.799948"><ele>658.82</ele></trkpt>
            <trkpt lat="-39.1202581" lon="175.7995715"><ele>662.01</ele></trkpt>
            <trkpt lat="-39.1207775" lon="175.7990375"><ele>665.95</ele></trkpt>
            <trkpt lat="-39.12095" lon="175.79886"><ele>667.11</ele></trkpt>
            <trkpt lat="-39.1211225" lon="175.7986825"><ele>668.15</ele></trkpt>
            <trkpt lat="-39.1215537" lon="175.7982388"><ele>670.56</ele></trkpt>
            <trkpt lat="-39.1217242" lon="175.7980648"><ele>671.6</ele></trkpt>
            <trkpt lat="-39.12223" lon="175.7975534"><ele>675.06</ele></trkpt>
            <trkpt lat="-39.12282" lon="175.7969567"><ele>679.61</ele></trkpt>
            <trkpt lat="-39.1233257" lon="175.7964453"><ele>683.84</ele></trkpt>
            <trkpt lat="-39.1235786" lon="175.7961896"><ele>685.94</ele></trkpt>
            <trkpt lat="-39.1245057" lon="175.7952519"><ele>693.39</ele></trkpt>
            <trkpt lat="-39.12518" lon="175.7945699"><ele>698.59</ele></trkpt>
            <trkpt lat="-39.1258475" lon="175.7938825"><ele>703.67</ele></trkpt>
            <trkpt lat="-39.126515" lon="175.793195"><ele>708.38</ele></trkpt>
            <trkpt lat="-39.1276831" lon="175.7919919"><ele>715.68</ele></trkpt>
            <trkpt lat="-39.12785" lon="175.79182"><ele>716.55</ele></trkpt>
            <trkpt lat="-39.1281013" lon="175.7915642"><ele>717.62</ele></trkpt>
            <trkpt lat="-39.12852" lon="175.7911378"><ele>719.06</ele></trkpt>
            <trkpt lat="-39.1291063" lon="175.7905408"><ele>720.95</ele></trkpt>
            <trkpt lat="-39.1292738" lon="175.7903702"><ele>721.6</ele></trkpt>
            <trkpt lat="-39.1298601" lon="175.7897733"><ele>724.29</ele></trkpt>
            <trkpt lat="-39.1305301" lon="175.789091"><ele>727.77</ele></trkpt>
            <trkpt lat="-39.1312001" lon="175.7884087"><ele>731.34</ele></trkpt>
            <trkpt lat="-39.1318701" lon="175.7877264"><ele>734.85</ele></trkpt>
            <trkpt lat="-39.1325401" lon="175.7870441"><ele>738</ele></trkpt>
            <trkpt lat="-39.1332938" lon="175.7862765"><ele>741.18</ele></trkpt>
            <trkpt lat="-39.1338801" lon="175.7856795"><ele>743.31</ele></trkpt>
            <trkpt lat="-39.1343826" lon="175.7851677"><ele>744.74</ele></trkpt>
            <trkpt lat="-39.1346338" lon="175.7849118"><ele>745.22</ele></trkpt>
            <trkpt lat="-39.1358063" lon="175.7837177"><ele>746.4</ele></trkpt>
            <trkpt lat="-39.1363925" lon="175.7831206"><ele>746.6</ele></trkpt>
            <trkpt lat="-39.1365608" lon="175.7829493"><ele>746.49</ele></trkpt>
            <trkpt lat="-39.136721" lon="175.782789"><ele>746.24</ele></trkpt>
            <trkpt lat="-39.1372845" lon="175.7822255"><ele>745</ele></trkpt>
            <trkpt lat="-39.137687" lon="175.781823"><ele>744.36</ele></trkpt>
            <trkpt lat="-39.137848" lon="175.781662"><ele>744.33</ele></trkpt>
            <trkpt lat="-39.138009" lon="175.781501"><ele>744.52</ele></trkpt>
            <trkpt lat="-39.138492" lon="175.781018"><ele>745.87</ele></trkpt>
            <trkpt lat="-39.1390555" lon="175.7804545"><ele>748.28</ele></trkpt>
            <trkpt lat="-39.139619" lon="175.779891"><ele>751.26</ele></trkpt>
            <trkpt lat="-39.139785" lon="175.7797234"><ele>752.28</ele></trkpt>
            <trkpt lat="-39.1400473" lon="175.7794167"><ele>754.22</ele></trkpt>
            <trkpt lat="-39.140218" lon="175.7791136"><ele>756</ele></trkpt>
            <trkpt lat="-39.1403379" lon="175.7788735"><ele>757.5</ele></trkpt>
            <trkpt lat="-39.1404511" lon="175.7785556"><ele>759.47</ele></trkpt>
            <trkpt lat="-39.140736" lon="175.777528"><ele>766</ele></trkpt>
            <trkpt lat="-39.1409863" lon="175.776625"><ele>771.6</ele></trkpt>
            <trkpt lat="-39.1410935" lon="175.776238"><ele>773.74</ele></trkpt>
            <trkpt lat="-39.1412723" lon="175.775593"><ele>776.77</ele></trkpt>
            <trkpt lat="-39.1413438" lon="175.775335"><ele>777.77</ele></trkpt>
            <trkpt lat="-39.1418795" lon="175.7734027"><ele>783.71</ele></trkpt>
            <trkpt lat="-39.1420405" lon="175.7729338"><ele>784.94</ele></trkpt>
            <trkpt lat="-39.1421521" lon="175.7726821"><ele>785.53</ele></trkpt>
            <trkpt lat="-39.1422216" lon="175.7725658"><ele>785.81</ele></trkpt>
            <trkpt lat="-39.1423657" lon="175.772363"><ele>786.31</ele></trkpt>
            <trkpt lat="-39.1425406" lon="175.7721624"><ele>786.9</ele></trkpt>
            <trkpt lat="-39.1427475" lon="175.7719794"><ele>787.65</ele></trkpt>
            <trkpt lat="-39.1430194" lon="175.7718194"><ele>788.79</ele></trkpt>
            <trkpt lat="-39.1432116" lon="175.7717214"><ele>789.79</ele></trkpt>
            <trkpt lat="-39.1436124" lon="175.7715295"><ele>792.35</ele></trkpt>
            <trkpt lat="-39.1438133" lon="175.7714333"><ele>793.85</ele></trkpt>
            <trkpt lat="-39.1440143" lon="175.7713372"><ele>795.49</ele></trkpt>
            <trkpt lat="-39.1444162" lon="175.7711448"><ele>798.91</ele></trkpt>
            <trkpt lat="-39.1446171" lon="175.7710486"><ele>800.53</ele></trkpt>
            <trkpt lat="-39.1451195" lon="175.7708081"><ele>804.11</ele></trkpt>
            <trkpt lat="-39.1453206" lon="175.7707138"><ele>805.26</ele></trkpt>
            <trkpt lat="-39.1459244" lon="175.7704363"><ele>807.83</ele></trkpt>
            <trkpt lat="-39.1461256" lon="175.7703438"><ele>808.41</ele></trkpt>
            <trkpt lat="-39.14683" lon="175.77002"><ele>809.69</ele></trkpt>
            <trkpt lat="-39.1475344" lon="175.7696963"><ele>811.04</ele></trkpt>
            <trkpt lat="-39.1477356" lon="175.7696038"><ele>811.7</ele></trkpt>
            <trkpt lat="-39.1484385" lon="175.7692807"><ele>815.06</ele></trkpt>
            <trkpt lat="-39.1492071" lon="175.7689329"><ele>819.42</ele></trkpt>
            <trkpt lat="-39.149755" lon="175.768685"><ele>822.41</ele></trkpt>
            <trkpt lat="-39.1504125" lon="175.7683875"><ele>825.5</ele></trkpt>
            <trkpt lat="-39.151382" lon="175.767964"><ele>828.91</ele></trkpt>
            <trkpt lat="-39.1515919" lon="175.7678801"><ele>829.23</ele></trkpt>
            <trkpt lat="-39.1516872" lon="175.7678526"><ele>829.24</ele></trkpt>
            <trkpt lat="-39.1518819" lon="175.7677977"><ele>829.01</ele></trkpt>
            <trkpt lat="-39.1519839" lon="175.7677714"><ele>828.74</ele></trkpt>
            <trkpt lat="-39.152145" lon="175.767762"><ele>828.17</ele></trkpt>
            <trkpt lat="-39.1523035" lon="175.7677703"><ele>827.42</ele></trkpt>
            <trkpt lat="-39.1526524" lon="175.7678416"><ele>825.38</ele></trkpt>
            <trkpt lat="-39.1528438" lon="175.7679135"><ele>824.12</ele></trkpt>
            <trkpt lat="-39.1531699" lon="175.7680304"><ele>821.96</ele></trkpt>
            <trkpt lat="-39.1532793" lon="175.7680378"><ele>821.31</ele></trkpt>
            <trkpt lat="-39.153391" lon="175.7680154"><ele>820.69</ele></trkpt>
            <trkpt lat="-39.1534811" lon="175.7679502"><ele>820.18</ele></trkpt>
            <trkpt lat="-39.1535671" lon="175.7678051"><ele>819.57</ele></trkpt>
            <trkpt lat="-39.1536573" lon="175.7675575"><ele>818.87</ele></trkpt>
            <trkpt lat="-39.1537719" lon="175.7672668"><ele>818.36</ele></trkpt>
            <trkpt lat="-39.1538197" lon="175.7672063"><ele>818.29</ele></trkpt>
            <trkpt lat="-39.1538814" lon="175.7671628"><ele>818.24</ele></trkpt>
            <trkpt lat="-39.1539548" lon="175.7671379"><ele>818.22</ele></trkpt>
            <trkpt lat="-39.1540395" lon="175.7671432"><ele>818.23</ele></trkpt>
            <trkpt lat="-39.1541259" lon="175.7671875"><ele>818.27</ele></trkpt>
            <trkpt lat="-39.1541826" lon="175.7672657"><ele>818.34</ele></trkpt>
            <trkpt lat="-39.1542228" lon="175.7674068"><ele>818.46</ele></trkpt>
            <trkpt lat="-39.1542391" lon="175.7675415"><ele>818.59</ele></trkpt>
            <trkpt lat="-39.1542313" lon="175.7679974"><ele>819.03</ele></trkpt>
            <trkpt lat="-39.1540897" lon="175.7688777"><ele>819.63</ele></trkpt>
            <trkpt lat="-39.1541141" lon="175.7690762"><ele>819.64</ele></trkpt>
            <trkpt lat="-39.1541754" lon="175.769286"><ele>819.53</ele></trkpt>
            <trkpt lat="-39.1542469" lon="175.769399"><ele>819.38</ele></trkpt>
            <trkpt lat="-39.1543284" lon="175.7694641"><ele>819.21</ele></trkpt>
            <trkpt lat="-39.1544224" lon="175.7695102"><ele>818.97</ele></trkpt>
            <trkpt lat="-39.1545898" lon="175.7695374"><ele>818.48</ele></trkpt>
            <trkpt lat="-39.1547397" lon="175.7694929"><ele>817.94</ele></trkpt>
            <trkpt lat="-39.1548528" lon="175.7694263"><ele>817.45</ele></trkpt>
            <trkpt lat="-39.1549255" lon="175.7693413"><ele>817.03</ele></trkpt>
            <trkpt lat="-39.1550634" lon="175.7691058"><ele>815.99</ele></trkpt>
            <trkpt lat="-39.1552693" lon="175.7681287"><ele>812.17</ele></trkpt>
            <trkpt lat="-39.1554721" lon="175.7671353"><ele>808.09</ele></trkpt>
            <trkpt lat="-39.1555404" lon="175.7669218"><ele>807.11</ele></trkpt>
            <trkpt lat="-39.155775" lon="175.76637"><ele>804.38</ele></trkpt>
            <trkpt lat="-39.155869" lon="175.76615"><ele>803.42</ele></trkpt>
            <trkpt lat="-39.1560115" lon="175.7658092"><ele>802.29</ele></trkpt>
            <trkpt lat="-39.1560814" lon="175.7655559"><ele>801.85</ele></trkpt>
            <trkpt lat="-39.1561307" lon="175.7654051"><ele>801.78</ele></trkpt>
            <trkpt lat="-39.1561906" lon="175.7652736"><ele>801.85</ele></trkpt>
            <trkpt lat="-39.1562715" lon="175.7651561"><ele>802.09</ele></trkpt>
            <trkpt lat="-39.1563158" lon="175.7651163"><ele>802.24</ele></trkpt>
            <trkpt lat="-39.1564117" lon="175.765065"><ele>802.6</ele></trkpt>
            <trkpt lat="-39.1565441" lon="175.765054"><ele>803.19</ele></trkpt>
            <trkpt lat="-39.1566225" lon="175.7650775"><ele>803.61</ele></trkpt>
            <trkpt lat="-39.1567004" lon="175.7651283"><ele>804.11</ele></trkpt>
            <trkpt lat="-39.1567962" lon="175.7652499"><ele>804.94</ele></trkpt>
            <trkpt lat="-39.1568711" lon="175.7654331"><ele>805.98</ele></trkpt>
            <trkpt lat="-39.15688" lon="175.7656349"><ele>807.02</ele></trkpt>
            <trkpt lat="-39.15688" lon="175.7666618"><ele>812.37</ele></trkpt>
            <trkpt lat="-39.15688" lon="175.7673463"><ele>816.07</ele></trkpt>
            <trkpt lat="-39.1568809" lon="175.7676245"><ele>817.64</ele></trkpt>
            <trkpt lat="-39.1569107" lon="175.7678466"><ele>818.95</ele></trkpt>
            <trkpt lat="-39.1569444" lon="175.7679549"><ele>819.63</ele></trkpt>
            <trkpt lat="-39.1570403" lon="175.7681375"><ele>820.92</ele></trkpt>
            <trkpt lat="-39.1571347" lon="175.768247"><ele>821.88</ele></trkpt>
            <trkpt lat="-39.1572362" lon="175.7683248"><ele>822.77</ele></trkpt>
            <trkpt lat="-39.1573209" lon="175.7683644"><ele>823.44</ele></trkpt>
            <trkpt lat="-39.1577449" lon="175.7684297"><ele>826.58</ele></trkpt>
            <trkpt lat="-39.1579082" lon="175.7684849"><ele>827.82</ele></trkpt>
            <trkpt lat="-39.1580188" lon="175.768587"><ele>828.81</ele></trkpt>
            <trkpt lat="-39.1581639" lon="175.768782"><ele>830.32</ele></trkpt>
            <trkpt lat="-39.1583243" lon="175.7689668"><ele>831.85</ele></trkpt>
            <trkpt lat="-39.1584331" lon="175.7690385"><ele>832.72</ele></trkpt>
            <trkpt lat="-39.1585424" lon="175.7690705"><ele>833.5</ele></trkpt>
            <trkpt lat="-39.1587026" lon="175.7690694"><ele>834.59</ele></trkpt>
            <trkpt lat="-39.1593006" lon="175.7689103"><ele>838.63</ele></trkpt>
            <trkpt lat="-39.1598493" lon="175.7688108"><ele>841.93</ele></trkpt>
            <trkpt lat="-39.1604292" lon="175.7687975"><ele>844.68</ele></trkpt>
            <trkpt lat="-39.1606608" lon="175.7687925"><ele>845.42</ele></trkpt>
            <trkpt lat="-39.161124" lon="175.7687825"><ele>846.2</ele></trkpt>
            <trkpt lat="-39.1613482" lon="175.7687767"><ele>846.34</ele></trkpt>
            <trkpt lat="-39.1617817" lon="175.7687633"><ele>846.35</ele></trkpt>
            <trkpt lat="-39.1621067" lon="175.7687533"><ele>846.51</ele></trkpt>
            <trkpt lat="-39.1624317" lon="175.7687433"><ele>847.05</ele></trkpt>
            <trkpt lat="-39.16254" lon="175.76874"><ele>847.37</ele></trkpt>
            <trkpt lat="-39.1626483" lon="175.7687367"><ele>847.77</ele></trkpt>
            <trkpt lat="-39.1630819" lon="175.7687233"><ele>849.89</ele></trkpt>
            <trkpt lat="-39.1634204" lon="175.7686794"><ele>851.93</ele></trkpt>
            <trkpt lat="-39.1637483" lon="175.7685803"><ele>854.11</ele></trkpt>
            <trkpt lat="-39.164305" lon="175.7683525"><ele>857.94</ele></trkpt>
            <trkpt lat="-39.1647925" lon="175.7681338"><ele>861.05</ele></trkpt>
            <trkpt lat="-39.1649875" lon="175.7680463"><ele>862.13</ele></trkpt>
            <trkpt lat="-39.1663526" lon="175.7674337"><ele>868.43</ele></trkpt>
            <trkpt lat="-39.1666482" lon="175.7673011"><ele>869.57</ele></trkpt>
            <trkpt lat="-39.1671827" lon="175.7670618"><ele>871.24</ele></trkpt>
            <trkpt lat="-39.1677641" lon="175.7668146"><ele>872.6</ele></trkpt>
            <trkpt lat="-39.1680978" lon="175.7666711"><ele>873.07</ele></trkpt>
            <trkpt lat="-39.1685267" lon="175.7664867"><ele>873.18</ele></trkpt>
            <trkpt lat="-39.1689556" lon="175.7663022"><ele>872.68</ele></trkpt>
            <trkpt lat="-39.1691689" lon="175.7662112"><ele>872.11</ele></trkpt>
            <trkpt lat="-39.1694098" lon="175.7661634"><ele>871.19</ele></trkpt>
            <trkpt lat="-39.1695331" lon="175.7661402"><ele>870.6</ele></trkpt>
            <trkpt lat="-39.1698371" lon="175.7661207"><ele>868.89</ele></trkpt>
            <trkpt lat="-39.170201" lon="175.7661507"><ele>866.5</ele></trkpt>
            <trkpt lat="-39.1704212" lon="175.7662027"><ele>864.86</ele></trkpt>
            <trkpt lat="-39.1708731" lon="175.7662993"><ele>861.26</ele></trkpt>
            <trkpt lat="-39.1712587" lon="175.7662898"><ele>858.1</ele></trkpt>
            <trkpt lat="-39.171451" lon="175.7662685"><ele>856.52</ele></trkpt>
            <trkpt lat="-39.1717267" lon="175.7661967"><ele>854.28</ele></trkpt>
            <trkpt lat="-39.1720857" lon="175.7660543"><ele>851.49</ele></trkpt>
            <trkpt lat="-39.1722385" lon="175.7659763"><ele>850.4</ele></trkpt>
            <trkpt lat="-39.1723499" lon="175.7658925"><ele>849.64</ele></trkpt>
            <trkpt lat="-39.1726548" lon="175.7656498"><ele>847.88</ele></trkpt>
            <trkpt lat="-39.1728718" lon="175.7655047"><ele>847.01</ele></trkpt>
            <trkpt lat="-39.1731045" lon="175.7654218"><ele>846.46</ele></trkpt>
            <trkpt lat="-39.1733338" lon="175.7654178"><ele>846.25</ele></trkpt>
            <trkpt lat="-39.1734603" lon="175.7654369"><ele>846.27</ele></trkpt>
            <trkpt lat="-39.1735781" lon="175.7654837"><ele>846.39</ele></trkpt>
            <trkpt lat="-39.1738009" lon="175.765653"><ele>846.91</ele></trkpt>
            <trkpt lat="-39.1739392" lon="175.7658419"><ele>847.55</ele></trkpt>
            <trkpt lat="-39.174018" lon="175.7660049"><ele>848.15</ele></trkpt>
            <trkpt lat="-39.1740831" lon="175.7661501"><ele>848.76</ele></trkpt>
            <trkpt lat="-39.1741175" lon="175.7662788"><ele>849.29</ele></trkpt>
            <trkpt lat="-39.1741289" lon="175.7666239"><ele>850.78</ele></trkpt>
            <trkpt lat="-39.1740633" lon="175.7673736"><ele>854.23</ele></trkpt>
            <trkpt lat="-39.1740505" lon="175.767517"><ele>854.88</ele></trkpt>
            <trkpt lat="-39.17405" lon="175.7677"><ele>855.67</ele></trkpt>
            <trkpt lat="-39.1740524" lon="175.7678994"><ele>856.5</ele></trkpt>
            <trkpt lat="-39.1740734" lon="175.7680701"><ele>857.19</ele></trkpt>
            <trkpt lat="-39.1741547" lon="175.7683518"><ele>858.3</ele></trkpt>
            <trkpt lat="-39.1742537" lon="175.7685761"><ele>859.17</ele></trkpt>
            <trkpt lat="-39.174471" lon="175.7688535"><ele>860.31</ele></trkpt>
            <trkpt lat="-39.1746495" lon="175.7690242"><ele>860.98</ele></trkpt>
            <trkpt lat="-39.1749098" lon="175.7691424"><ele>861.6</ele></trkpt>
            <trkpt lat="-39.1750877" lon="175.7691801"><ele>861.88</ele></trkpt>
            <trkpt lat="-39.1752604" lon="175.7691827"><ele>862.05</ele></trkpt>
            <trkpt lat="-39.1754348" lon="175.76916"><ele>862.13</ele></trkpt>
            <trkpt lat="-39.1757811" lon="175.7690492"><ele>862.09</ele></trkpt>
            <trkpt lat="-39.1765096" lon="175.7687503"><ele>861.84</ele></trkpt>
            <trkpt lat="-39.1766175" lon="175.76871"><ele>861.9</ele></trkpt>
            <trkpt lat="-39.1768327" lon="175.7686299"><ele>862.2</ele></trkpt>
            <trkpt lat="-39.1769388" lon="175.7685911"><ele>862.45</ele></trkpt>
            <trkpt lat="-39.1770601" lon="175.76857"><ele>862.79</ele></trkpt>
            <trkpt lat="-39.1775273" lon="175.76851"><ele>864.36</ele></trkpt>
            <trkpt lat="-39.1776772" lon="175.7685082"><ele>864.79</ele></trkpt>
            <trkpt lat="-39.1778275" lon="175.7685352"><ele>865.13</ele></trkpt>
            <trkpt lat="-39.1781389" lon="175.7685935"><ele>865.44</ele></trkpt>
            <trkpt lat="-39.1783406" lon="175.7686314"><ele>865.31</ele></trkpt>
            <trkpt lat="-39.1784354" lon="175.7686488"><ele>865.14</ele></trkpt>
            <trkpt lat="-39.1785752" lon="175.7686485"><ele>864.77</ele></trkpt>
            <trkpt lat="-39.178854" lon="175.7685911"><ele>863.65</ele></trkpt>
            <trkpt lat="-39.1790012" lon="175.7685291"><ele>862.89</ele></trkpt>
            <trkpt lat="-39.1791131" lon="175.7684536"><ele>862.21</ele></trkpt>
            <trkpt lat="-39.1792547" lon="175.7683257"><ele>861.22</ele></trkpt>
            <trkpt lat="-39.1793961" lon="175.7681654"><ele>860.1</ele></trkpt>
            <trkpt lat="-39.1794864" lon="175.7680036"><ele>859.2</ele></trkpt>
            <trkpt lat="-39.1795488" lon="175.7678109"><ele>858.26</ele></trkpt>
            <trkpt lat="-39.1796113" lon="175.7675289"><ele>856.99</ele></trkpt>
            <trkpt lat="-39.1796194" lon="175.7673452"><ele>856.21</ele></trkpt>
            <trkpt lat="-39.179579" lon="175.7669144"><ele>854.36</ele></trkpt>
            <trkpt lat="-39.1795007" lon="175.7664305"><ele>852.17</ele></trkpt>
            <trkpt lat="-39.1794987" lon="175.7662188"><ele>851.16</ele></trkpt>
            <trkpt lat="-39.1795316" lon="175.7660681"><ele>850.37</ele></trkpt>
            <trkpt lat="-39.1795717" lon="175.7659388"><ele>849.65</ele></trkpt>
            <trkpt lat="-39.1797358" lon="175.7654682"><ele>846.83</ele></trkpt>
            <trkpt lat="-39.179754" lon="175.7653575"><ele>846.21</ele></trkpt>
            <trkpt lat="-39.1797612" lon="175.765206"><ele>845.38</ele></trkpt>
            <trkpt lat="-39.1797471" lon="175.7650456"><ele>844.51</ele></trkpt>
            <trkpt lat="-39.1797192" lon="175.7649215"><ele>843.81</ele></trkpt>
            <trkpt lat="-39.1795777" lon="175.7645862"><ele>841.78</ele></trkpt>
            <trkpt lat="-39.1795391" lon="175.7643662"><ele>840.58</ele></trkpt>
            <trkpt lat="-39.1795352" lon="175.764241"><ele>839.91</ele></trkpt>
            <trkpt lat="-39.1795769" lon="175.7640851"><ele>839.03</ele></trkpt>
            <trkpt lat="-39.1799572" lon="175.7633945"><ele>834.44</ele></trkpt>
            <trkpt lat="-39.1801609" lon="175.7629757"><ele>831.83</ele></trkpt>
            <trkpt lat="-39.1802126" lon="175.7628067"><ele>830.91</ele></trkpt>
            <trkpt lat="-39.1802298" lon="175.7626338"><ele>830.05</ele></trkpt>
            <trkpt lat="-39.1802276" lon="175.7623429"><ele>828.64</ele></trkpt>
            <trkpt lat="-39.1801065" lon="175.7618214"><ele>826.04</ele></trkpt>
            <trkpt lat="-39.1800906" lon="175.7616749"><ele>825.31</ele></trkpt>
            <trkpt lat="-39.1801129" lon="175.7614842"><ele>824.34</ele></trkpt>
            <trkpt lat="-39.1801846" lon="175.7613178"><ele>823.37</ele></trkpt>
            <trkpt lat="-39.1802872" lon="175.7611869"><ele>822.42</ele></trkpt>
            <trkpt lat="-39.1805" lon="175.760965"><ele>820.67</ele></trkpt>
            <trkpt lat="-39.1806597" lon="175.7607995"><ele>819.47</ele></trkpt>
            <trkpt lat="-39.18081" lon="175.76062"><ele>818.42</ele></trkpt>
            <trkpt lat="-39.1812567" lon="175.7600837"><ele>815.81</ele></trkpt>
            <trkpt lat="-39.1814426" lon="175.7598256"><ele>814.89</ele></trkpt>
            <trkpt lat="-39.181765" lon="175.7593174"><ele>813.68</ele></trkpt>
            <trkpt lat="-39.1818964" lon="175.7591102"><ele>813.5</ele></trkpt>
            <trkpt lat="-39.1821049" lon="175.7587815"><ele>813.84</ele></trkpt>
            <trkpt lat="-39.1822232" lon="175.7586043"><ele>814.4</ele></trkpt>
            <trkpt lat="-39.182312" lon="175.758516"><ele>814.92</ele></trkpt>
            <trkpt lat="-39.1824043" lon="175.7584326"><ele>815.55</ele></trkpt>
            <trkpt lat="-39.1824522" lon="175.7583955"><ele>815.9</ele></trkpt>
            <trkpt lat="-39.1825326" lon="175.7583551"><ele>816.48</ele></trkpt>
            <trkpt lat="-39.1825951" lon="175.7583429"><ele>816.92</ele></trkpt>
            <trkpt lat="-39.1826749" lon="175.7583618"><ele>817.51</ele></trkpt>
            <trkpt lat="-39.1827351" lon="175.7584108"><ele>818.03</ele></trkpt>
            <trkpt lat="-39.1827899" lon="175.7584961"><ele>818.66</ele></trkpt>
            <trkpt lat="-39.1828328" lon="175.7586032"><ele>819.31</ele></trkpt>
            <trkpt lat="-39.1828503" lon="175.7587208"><ele>819.92</ele></trkpt>
            <trkpt lat="-39.1828692" lon="175.7589384"><ele>820.91</ele></trkpt>
            <trkpt lat="-39.1829046" lon="175.7593548"><ele>822.44</ele></trkpt>
            <trkpt lat="-39.1828792" lon="175.7597859"><ele>823.67</ele></trkpt>
            <trkpt lat="-39.1828219" lon="175.7600128"><ele>824.28</ele></trkpt>
            <trkpt lat="-39.1825624" lon="175.7606642"><ele>826.07</ele></trkpt>
            <trkpt lat="-39.1824697" lon="175.7610558"><ele>827.17</ele></trkpt>
            <trkpt lat="-39.1824406" lon="175.7614569"><ele>828.37</ele></trkpt>
            <trkpt lat="-39.182455" lon="175.762085"><ele>830.39</ele></trkpt>
            <trkpt lat="-39.1824707" lon="175.7627122"><ele>832.5</ele></trkpt>
            <trkpt lat="-39.182524" lon="175.76313"><ele>833.88</ele></trkpt>
            <trkpt lat="-39.1825605" lon="175.7634088"><ele>834.75</ele></trkpt>
            <trkpt lat="-39.1828108" lon="175.7643983"><ele>837.9</ele></trkpt>
            <trkpt lat="-39.1829037" lon="175.7647643"><ele>839.28</ele></trkpt>
            <trkpt lat="-39.1830367" lon="175.7652877"><ele>841.64</ele></trkpt>
            <trkpt lat="-39.1830816" lon="175.7654263"><ele>842.34</ele></trkpt>
            <trkpt lat="-39.1832319" lon="175.7657572"><ele>844.24</ele></trkpt>
            <trkpt lat="-39.1833533" lon="175.7659229"><ele>845.4</ele></trkpt>
            <trkpt lat="-39.1834273" lon="175.7659664"><ele>845.92</ele></trkpt>
            <trkpt lat="-39.1835012" lon="175.7659813"><ele>846.4</ele></trkpt>
            <trkpt lat="-39.1836541" lon="175.765986"><ele>847.36</ele></trkpt>
            <trkpt lat="-39.1837349" lon="175.7659686"><ele>847.86</ele></trkpt>
            <trkpt lat="-39.1838202" lon="175.7659199"><ele>848.42</ele></trkpt>
            <trkpt lat="-39.1839363" lon="175.7657921"><ele>849.31</ele></trkpt>
            <trkpt lat="-39.1840051" lon="175.765683"><ele>849.94</ele></trkpt>
            <trkpt lat="-39.1840659" lon="175.7655377"><ele>850.66</ele></trkpt>
            <trkpt lat="-39.1842985" lon="175.7644431"><ele>855.71</ele></trkpt>
            <trkpt lat="-39.1844414" lon="175.7637571"><ele>859.35</ele></trkpt>
            <trkpt lat="-39.18447" lon="175.76362"><ele>860.16</ele></trkpt>
            <trkpt lat="-39.1844986" lon="175.7634829"><ele>861.02</ele></trkpt>
            <trkpt lat="-39.1846414" lon="175.7627971"><ele>865.54</ele></trkpt>
            <trkpt lat="-39.1846705" lon="175.7626605"><ele>866.39</ele></trkpt>
            <trkpt lat="-39.1847125" lon="175.7625275"><ele>867.21</ele></trkpt>
            <trkpt lat="-39.1848411" lon="175.7621293"><ele>869.42</ele></trkpt>
            <trkpt lat="-39.185219" lon="175.7613101"><ele>873.56</ele></trkpt>
            <trkpt lat="-39.1853796" lon="175.7607885"><ele>875.91</ele></trkpt>
            <trkpt lat="-39.1857013" lon="175.7591748"><ele>883.19</ele></trkpt>
            <trkpt lat="-39.1857506" lon="175.7589392"><ele>884.45</ele></trkpt>
            <trkpt lat="-39.1857973" lon="175.7587515"><ele>885.58</ele></trkpt>
            <trkpt lat="-39.1858584" lon="175.7585778"><ele>886.75</ele></trkpt>
            <trkpt lat="-39.186021" lon="175.7582281"><ele>889.42</ele></trkpt>
            <trkpt lat="-39.1861132" lon="175.7580531"><ele>890.83</ele></trkpt>
            <trkpt lat="-39.1863005" lon="175.7578123"><ele>893.04</ele></trkpt>
            <trkpt lat="-39.1865015" lon="175.7575791"><ele>895.15</ele></trkpt>
            <trkpt lat="-39.1868759" lon="175.7572692"><ele>898.2</ele></trkpt>
            <trkpt lat="-39.1871213" lon="175.7571241"><ele>899.65</ele></trkpt>
            <trkpt lat="-39.1873051" lon="175.7570658"><ele>900.36</ele></trkpt>
            <trkpt lat="-39.1875345" lon="175.757"><ele>900.87</ele></trkpt>
            <trkpt lat="-39.1877301" lon="175.7569811"><ele>900.97</ele></trkpt>
            <trkpt lat="-39.1879292" lon="175.7569907"><ele>900.82</ele></trkpt>
            <trkpt lat="-39.1885475" lon="175.7570925"><ele>899.65</ele></trkpt>
            <trkpt lat="-39.1887533" lon="175.7571267"><ele>899.26</ele></trkpt>
            <trkpt lat="-39.1889592" lon="175.7571608"><ele>898.9</ele></trkpt>
            <trkpt lat="-39.1900913" lon="175.7573487"><ele>897.11</ele></trkpt>
            <trkpt lat="-39.1902973" lon="175.7573829"><ele>896.52</ele></trkpt>
            <trkpt lat="-39.1903987" lon="175.7573996"><ele>896.14</ele></trkpt>
            <trkpt lat="-39.1905101" lon="175.7574134"><ele>895.67</ele></trkpt>
            <trkpt lat="-39.1908331" lon="175.7574433"><ele>894.09</ele></trkpt>
            <trkpt lat="-39.1910348" lon="175.7574498"><ele>893.11</ele></trkpt>
            <trkpt lat="-39.1912043" lon="175.7574244"><ele>892.37</ele></trkpt>
            <trkpt lat="-39.1914894" lon="175.7573763"><ele>891.47</ele></trkpt>
            <trkpt lat="-39.1916547" lon="175.7573151"><ele>891.22</ele></trkpt>
            <trkpt lat="-39.1918085" lon="175.7572541"><ele>891.23</ele></trkpt>
            <trkpt lat="-39.1919303" lon="175.7571927"><ele>891.42</ele></trkpt>
            <trkpt lat="-39.1922798" lon="175.7570101"><ele>892.61</ele></trkpt>
            <trkpt lat="-39.1924672" lon="175.7568695"><ele>893.6</ele></trkpt>
            <trkpt lat="-39.192867" lon="175.7565215"><ele>896.26</ele></trkpt>
            <trkpt lat="-39.1930496" lon="175.7563604"><ele>897.44</ele></trkpt>
            <trkpt lat="-39.19322" lon="175.75621"><ele>898.45</ele></trkpt>
            <trkpt lat="-39.1933886" lon="175.756062"><ele>899.3</ele></trkpt>
            <trkpt lat="-39.1935914" lon="175.7559196"><ele>900.07</ele></trkpt>
            <trkpt lat="-39.19388" lon="175.7557507"><ele>900.84</ele></trkpt>
            <trkpt lat="-39.1944886" lon="175.7554757"><ele>901.84</ele></trkpt>
            <trkpt lat="-39.1951986" lon="175.7551557"><ele>902.34</ele></trkpt>
            <trkpt lat="-39.1955029" lon="175.7550186"><ele>902.24</ele></trkpt>
            <trkpt lat="-39.1960078" lon="175.7547915"><ele>901.55</ele></trkpt>
            <trkpt lat="-39.1963715" lon="175.7546905"><ele>900.72</ele></trkpt>
            <trkpt lat="-39.1968193" lon="175.7546606"><ele>899.38</ele></trkpt>
            <trkpt lat="-39.1970529" lon="175.75468"><ele>898.59</ele></trkpt>
            <trkpt lat="-39.1972543" lon="175.7547126"><ele>897.87</ele></trkpt>
            <trkpt lat="-39.1975056" lon="175.7547994"><ele>896.93</ele></trkpt>
            <trkpt lat="-39.1980008" lon="175.7550919"><ele>894.97</ele></trkpt>
            <trkpt lat="-39.1985897" lon="175.7555897"><ele>892.53</ele></trkpt>
            <trkpt lat="-39.1991041" lon="175.7560269"><ele>890.58</ele></trkpt>
            <trkpt lat="-39.1991919" lon="175.7561004"><ele>890.29</ele></trkpt>
            <trkpt lat="-39.1994349" lon="175.7562663"><ele>889.62</ele></trkpt>
            <trkpt lat="-39.1996826" lon="175.7564003"><ele>889.11</ele></trkpt>
            <trkpt lat="-39.200221" lon="175.7565593"><ele>888.43</ele></trkpt>
            <trkpt lat="-39.2006429" lon="175.7566114"><ele>888.29</ele></trkpt>
            <trkpt lat="-39.2009589" lon="175.7566498"><ele>888.55</ele></trkpt>
            <trkpt lat="-39.2011838" lon="175.7566725"><ele>889.01</ele></trkpt>
            <trkpt lat="-39.201855" lon="175.75674"><ele>891.14</ele></trkpt>
            <trkpt lat="-39.2027475" lon="175.7568295"><ele>894.57</ele></trkpt>
            <trkpt lat="-39.2030152" lon="175.7568267"><ele>895.47</ele></trkpt>
            <trkpt lat="-39.2032858" lon="175.7567922"><ele>896.21</ele></trkpt>
            <trkpt lat="-39.2035746" lon="175.7567173"><ele>896.77</ele></trkpt>
            <trkpt lat="-39.2036943" lon="175.7566785"><ele>896.92</ele></trkpt>
            <trkpt lat="-39.2039577" lon="175.7565631"><ele>897.08</ele></trkpt>
            <trkpt lat="-39.2042604" lon="175.7563852"><ele>897.02</ele></trkpt>
            <trkpt lat="-39.2045452" lon="175.7561662"><ele>896.78</ele></trkpt>
            <trkpt lat="-39.2047885" lon="175.7559314"><ele>896.51</ele></trkpt>
            <trkpt lat="-39.2049397" lon="175.7557536"><ele>896.38</ele></trkpt>
            <trkpt lat="-39.2051808" lon="175.7554274"><ele>896.35</ele></trkpt>
            <trkpt lat="-39.205475" lon="175.754835"><ele>896.86</ele></trkpt>
            <trkpt lat="-39.2057695" lon="175.7542417"><ele>898.15</ele></trkpt>
            <trkpt lat="-39.2061317" lon="175.753638"><ele>900.38</ele></trkpt>
            <trkpt lat="-39.206618" lon="175.752936"><ele>903.79</ele></trkpt>
            <trkpt lat="-39.2069666" lon="175.7524332"><ele>906.28</ele></trkpt>
            <trkpt lat="-39.207106" lon="175.752232"><ele>907.27</ele></trkpt>
            <trkpt lat="-39.2074546" lon="175.7517292"><ele>909.77</ele></trkpt>
            <trkpt lat="-39.207594" lon="175.751528"><ele>910.88</ele></trkpt>
            <trkpt lat="-39.2076637" lon="175.7514275"><ele>911.46</ele></trkpt>
            <trkpt lat="-39.2079426" lon="175.7510252"><ele>913.93</ele></trkpt>
            <trkpt lat="-39.208082" lon="175.750824"><ele>915.14</ele></trkpt>
            <trkpt lat="-39.2082214" lon="175.7506229"><ele>916.28</ele></trkpt>
            <trkpt lat="-39.2085684" lon="175.7501218"><ele>918.86</ele></trkpt>
            <trkpt lat="-39.208931" lon="175.7495263"><ele>921.45</ele></trkpt>
            <trkpt lat="-39.20903" lon="175.749305"><ele>922.2</ele></trkpt>
            <trkpt lat="-39.2091283" lon="175.7490819"><ele>922.84</ele></trkpt>
            <trkpt lat="-39.2092497" lon="175.7486799"><ele>923.7</ele></trkpt>
            <trkpt lat="-39.20942" lon="175.748"><ele>924.75</ele></trkpt>
            <trkpt lat="-39.2095563" lon="175.7474547"><ele>925.25</ele></trkpt>
            <trkpt lat="-39.2096456" lon="175.7471277"><ele>925.2</ele></trkpt>
            <trkpt lat="-39.2097128" lon="175.7469345"><ele>924.9</ele></trkpt>
            <trkpt lat="-39.2097644" lon="175.746829"><ele>924.61</ele></trkpt>
            <trkpt lat="-39.2098211" lon="175.746715"><ele>924.2</ele></trkpt>
            <trkpt lat="-39.2100895" lon="175.7463118"><ele>921.86</ele></trkpt>
            <trkpt lat="-39.2105865" lon="175.745743"><ele>916.93</ele></trkpt>
            <trkpt lat="-39.2113313" lon="175.7448925"><ele>909.49</ele></trkpt>
            <trkpt lat="-39.211414" lon="175.744798"><ele>908.88</ele></trkpt>
            <trkpt lat="-39.2114968" lon="175.7447035"><ele>908.43</ele></trkpt>
            <trkpt lat="-39.2115795" lon="175.744609"><ele>908.12</ele></trkpt>
            <trkpt lat="-39.212076" lon="175.744042"><ele>907.74</ele></trkpt>
            <trkpt lat="-39.212738" lon="175.743286"><ele>908.91</ele></trkpt>
            <trkpt lat="-39.2133172" lon="175.7426246"><ele>910.55</ele></trkpt>
            <trkpt lat="-39.2134799" lon="175.7424376"><ele>911.16</ele></trkpt>
            <trkpt lat="-39.2137191" lon="175.7421598"><ele>912.22</ele></trkpt>
            <trkpt lat="-39.2139986" lon="175.7417212"><ele>913.73</ele></trkpt>
            <trkpt lat="-39.2140626" lon="175.7415874"><ele>914.1</ele></trkpt>
            <trkpt lat="-39.2141875" lon="175.7413226"><ele>914.67</ele></trkpt>
            <trkpt lat="-39.2142502" lon="175.7411891"><ele>914.88</ele></trkpt>
            <trkpt lat="-39.214305" lon="175.7410591"><ele>915.04</ele></trkpt>
            <trkpt lat="-39.214525" lon="175.740535"><ele>915.54</ele></trkpt>
            <trkpt lat="-39.214635" lon="175.740273"><ele>915.93</ele></trkpt>
            <trkpt lat="-39.2147449" lon="175.7400113"><ele>916.53</ele></trkpt>
            <trkpt lat="-39.2148019" lon="175.7398768"><ele>916.94</ele></trkpt>
            <trkpt lat="-39.2148527" lon="175.7397727"><ele>917.32</ele></trkpt>
            <trkpt lat="-39.215065" lon="175.73934"><ele>919.13</ele></trkpt>
            <trkpt lat="-39.215224" lon="175.739016"><ele>920.44</ele></trkpt>
            <trkpt lat="-39.2153279" lon="175.7388023"><ele>921.13</ele></trkpt>
            <trkpt lat="-39.2154167" lon="175.7385331"><ele>921.64</ele></trkpt>
            <trkpt lat="-39.215459" lon="175.7384017"><ele>921.75</ele></trkpt>
            <trkpt lat="-39.21549" lon="175.7382465"><ele>921.75</ele></trkpt>
            <trkpt lat="-39.215555" lon="175.7379265"><ele>921.4</ele></trkpt>
            <trkpt lat="-39.2156047" lon="175.737776"><ele>921.09</ele></trkpt>
            <trkpt lat="-39.2157143" lon="175.737474"><ele>920.26</ele></trkpt>
            <trkpt lat="-39.215888" lon="175.7371373"><ele>919.19</ele></trkpt>
            <trkpt lat="-39.2159557" lon="175.737039"><ele>918.9</ele></trkpt>
            <trkpt lat="-39.2160221" lon="175.7369501"><ele>918.69</ele></trkpt>
            <trkpt lat="-39.2161571" lon="175.7368137"><ele>918.48</ele></trkpt>
            <trkpt lat="-39.21634" lon="175.736658"><ele>918.57</ele></trkpt>
            <trkpt lat="-39.2165199" lon="175.7365061"><ele>919.08</ele></trkpt>
            <trkpt lat="-39.2166115" lon="175.7364298"><ele>919.51</ele></trkpt>
            <trkpt lat="-39.2166989" lon="175.7363701"><ele>920</ele></trkpt>
            <trkpt lat="-39.2168775" lon="175.73625"><ele>921.26</ele></trkpt>
            <trkpt lat="-39.217145" lon="175.73607"><ele>923.61</ele></trkpt>
            <trkpt lat="-39.2176803" lon="175.73571"><ele>928.95</ele></trkpt>
            <trkpt lat="-39.218125" lon="175.735425"><ele>933.41</ele></trkpt>
            <trkpt lat="-39.2185672" lon="175.7351414"><ele>937.67</ele></trkpt>
            <trkpt lat="-39.21887" lon="175.734918"><ele>940.52</ele></trkpt>
            <trkpt lat="-39.2193103" lon="175.7346118"><ele>944.4</ele></trkpt>
            <trkpt lat="-39.219561" lon="175.7344843"><ele>946.41</ele></trkpt>
            <trkpt lat="-39.2197867" lon="175.7344315"><ele>948.06</ele></trkpt>
            <trkpt lat="-39.2200139" lon="175.7344106"><ele>949.6</ele></trkpt>
            <trkpt lat="-39.2202295" lon="175.7344403"><ele>950.91</ele></trkpt>
            <trkpt lat="-39.2204533" lon="175.73449"><ele>952.1</ele></trkpt>
            <trkpt lat="-39.2208989" lon="175.7345895"><ele>953.97</ele></trkpt>
            <trkpt lat="-39.221263" lon="175.7346399"><ele>955.13</ele></trkpt>
            <trkpt lat="-39.2218784" lon="175.7346714"><ele>956.74</ele></trkpt>
            <trkpt lat="-39.2221876" lon="175.734687"><ele>957.67</ele></trkpt>
            <trkpt lat="-39.222806" lon="175.7347184"><ele>959.9</ele></trkpt>
            <trkpt lat="-39.2236306" lon="175.7347602"><ele>963.1</ele></trkpt>
            <trkpt lat="-39.2238367" lon="175.7347707"><ele>963.79</ele></trkpt>
            <trkpt lat="-39.2245582" lon="175.7348073"><ele>965.8</ele></trkpt>
            <trkpt lat="-39.2251766" lon="175.7348386"><ele>967.36</ele></trkpt>
            <trkpt lat="-39.2262073" lon="175.7348909"><ele>969.99</ele></trkpt>
            <trkpt lat="-39.2270318" lon="175.7349327"><ele>972.31</ele></trkpt>
            <trkpt lat="-39.2277533" lon="175.7349693"><ele>974.68</ele></trkpt>
            <trkpt lat="-39.228784" lon="175.7350216"><ele>978.37</ele></trkpt>
            <trkpt lat="-39.2296085" lon="175.7350634"><ele>981.09</ele></trkpt>
            <trkpt lat="-39.2305854" lon="175.7351055"><ele>983.83</ele></trkpt>
            <trkpt lat="-39.2308396" lon="175.7350814"><ele>984.47</ele></trkpt>
            <trkpt lat="-39.2311023" lon="175.7350245"><ele>985.05</ele></trkpt>
            <trkpt lat="-39.2313643" lon="175.7349333"><ele>985.55</ele></trkpt>
            <trkpt lat="-39.2317366" lon="175.7347371"><ele>986.07</ele></trkpt>
            <trkpt lat="-39.232051" lon="175.7345089"><ele>986.17</ele></trkpt>
            <trkpt lat="-39.232235" lon="175.73435"><ele>985.95</ele></trkpt>
            <trkpt lat="-39.2326975" lon="175.73395"><ele>984.57</ele></trkpt>
            <trkpt lat="-39.23279" lon="175.73387"><ele>984.15</ele></trkpt>
            <trkpt lat="-39.2328825" lon="175.73379"><ele>983.65</ele></trkpt>
            <trkpt lat="-39.2335315" lon="175.7332284"><ele>979.37</ele></trkpt>
            <trkpt lat="-39.2337786" lon="175.7330029"><ele>977.88</ele></trkpt>
            <trkpt lat="-39.2340272" lon="175.7327757"><ele>976.79</ele></trkpt>
            <trkpt lat="-39.2341886" lon="175.7326121"><ele>976.4</ele></trkpt>
            <trkpt lat="-39.2344243" lon="175.7323486"><ele>976.45</ele></trkpt>
            <trkpt lat="-39.2345814" lon="175.7321729"><ele>976.95</ele></trkpt>
            <trkpt lat="-39.23466" lon="175.732085"><ele>977.37</ele></trkpt>
            <trkpt lat="-39.2347386" lon="175.7319971"><ele>977.89</ele></trkpt>
            <trkpt lat="-39.2352084" lon="175.7314706"><ele>981.97</ele></trkpt>
            <trkpt lat="-39.2354986" lon="175.7310318"><ele>985.21</ele></trkpt>
            <trkpt lat="-39.2356509" lon="175.7307681"><ele>987.06</ele></trkpt>
            <trkpt lat="-39.2360367" lon="175.73005"><ele>991.96</ele></trkpt>
            <trkpt lat="-39.2364878" lon="175.72921"><ele>997.82</ele></trkpt>
            <trkpt lat="-39.2367456" lon="175.7287299"><ele>1001.05</ele></trkpt>
            <trkpt lat="-39.236878" lon="175.7284859"><ele>1002.6</ele></trkpt>
            <trkpt lat="-39.2370819" lon="175.7281142"><ele>1004.83</ele></trkpt>
            <trkpt lat="-39.2371516" lon="175.7279885"><ele>1005.56</ele></trkpt>
            <trkpt lat="-39.2374369" lon="175.7275919"><ele>1008.01</ele></trkpt>
            <trkpt lat="-39.2375865" lon="175.7274139"><ele>1009.11</ele></trkpt>
            <trkpt lat="-39.2377526" lon="175.7272374"><ele>1010.17</ele></trkpt>
            <trkpt lat="-39.2379347" lon="175.7270627"><ele>1011.16</ele></trkpt>
            <trkpt lat="-39.2382537" lon="175.7268154"><ele>1012.51</ele></trkpt>
            <trkpt lat="-39.2385619" lon="175.7266275"><ele>1013.47</ele></trkpt>
            <trkpt lat="-39.2390063" lon="175.7264319"><ele>1014.34</ele></trkpt>
            <trkpt lat="-39.2391201" lon="175.7263994"><ele>1014.45</ele></trkpt>
            <trkpt lat="-39.23935" lon="175.7263356"><ele>1014.45</ele></trkpt>
            <trkpt lat="-39.2396638" lon="175.7262918"><ele>1014</ele></trkpt>
            <trkpt lat="-39.2399508" lon="175.7262751"><ele>1013.13</ele></trkpt>
            <trkpt lat="-39.240223" lon="175.7262895"><ele>1011.91</ele></trkpt>
            <trkpt lat="-39.2403095" lon="175.7262976"><ele>1011.44</ele></trkpt>
            <trkpt lat="-39.2404175" lon="175.7263175"><ele>1010.82</ele></trkpt>
            <trkpt lat="-39.2407285" lon="175.7263896"><ele>1008.9</ele></trkpt>
            <trkpt lat="-39.240933" lon="175.726454"><ele>1007.72</ele></trkpt>
            <trkpt lat="-39.2411383" lon="175.7265473"><ele>1006.72</ele></trkpt>
            <trkpt lat="-39.2413437" lon="175.7266424"><ele>1006.06</ele></trkpt>
            <trkpt lat="-39.2415293" lon="175.7267559"><ele>1005.77</ele></trkpt>
            <trkpt lat="-39.2416232" lon="175.7268147"><ele>1005.75</ele></trkpt>
            <trkpt lat="-39.2417921" lon="175.7269454"><ele>1005.94</ele></trkpt>
            <trkpt lat="-39.2419579" lon="175.7270752"><ele>1006.32</ele></trkpt>
            <trkpt lat="-39.2422516" lon="175.7273628"><ele>1007.26</ele></trkpt>
            <trkpt lat="-39.2424751" lon="175.7276451"><ele>1007.89</ele></trkpt>
            <trkpt lat="-39.2425493" lon="175.7277396"><ele>1007.99</ele></trkpt>
            <trkpt lat="-39.2426232" lon="175.7278438"><ele>1008.03</ele></trkpt>
            <trkpt lat="-39.24372" lon="175.7293999"><ele>1006.63</ele></trkpt>
            <trkpt lat="-39.24489" lon="175.7310599"><ele>1004.86</ele></trkpt>
            <trkpt lat="-39.2453288" lon="175.7316824"><ele>1003.87</ele></trkpt>
            <trkpt lat="-39.245475" lon="175.7318899"><ele>1003.34</ele></trkpt>
            <trkpt lat="-39.2456213" lon="175.7320974"><ele>1002.61</ele></trkpt>
            <trkpt lat="-39.2459869" lon="175.7326162"><ele>1000.29</ele></trkpt>
            <trkpt lat="-39.2461332" lon="175.7328237"><ele>999.3</ele></trkpt>
            <trkpt lat="-39.2464988" lon="175.7333424"><ele>996.99</ele></trkpt>
            <trkpt lat="-39.2465719" lon="175.7334462"><ele>996.68</ele></trkpt>
            <trkpt lat="-39.246645" lon="175.73355"><ele>996.48</ele></trkpt>
            <trkpt lat="-39.2467181" lon="175.7336537"><ele>996.39</ele></trkpt>
            <trkpt lat="-39.2467913" lon="175.7337575"><ele>996.42</ele></trkpt>
            <trkpt lat="-39.2472341" lon="175.7343846"><ele>997.48</ele></trkpt>
            <trkpt lat="-39.2474384" lon="175.7346423"><ele>997.88</ele></trkpt>
            <trkpt lat="-39.2475717" lon="175.7347816"><ele>997.97</ele></trkpt>
            <trkpt lat="-39.2477397" lon="175.7349264"><ele>997.87</ele></trkpt>
            <trkpt lat="-39.2478632" lon="175.7350319"><ele>997.62</ele></trkpt>
            <trkpt lat="-39.2479576" lon="175.7350937"><ele>997.38</ele></trkpt>
            <trkpt lat="-39.2482521" lon="175.7352861"><ele>996.4</ele></trkpt>
            <trkpt lat="-39.2483494" lon="175.7353494"><ele>996.08</ele></trkpt>
            <trkpt lat="-39.2484534" lon="175.7354117"><ele>995.77</ele></trkpt>
            <trkpt lat="-39.2487633" lon="175.7355967"><ele>995.15</ele></trkpt>
            <trkpt lat="-39.2488668" lon="175.7356584"><ele>995.1</ele></trkpt>
            <trkpt lat="-39.2489692" lon="175.7357192"><ele>995.16</ele></trkpt>
            <trkpt lat="-39.2490826" lon="175.735775"><ele>995.36</ele></trkpt>
            <trkpt lat="-39.249195" lon="175.73583"><ele>995.69</ele></trkpt>
            <trkpt lat="-39.2494201" lon="175.7359395"><ele>996.68</ele></trkpt>
            <trkpt lat="-39.2498925" lon="175.7360796"><ele>999.39</ele></trkpt>
            <trkpt lat="-39.250525" lon="175.73614"><ele>1003.42</ele></trkpt>
            <trkpt lat="-39.2511582" lon="175.7361996"><ele>1007.54</ele></trkpt>
            <trkpt lat="-39.2517431" lon="175.7362167"><ele>1011.22</ele></trkpt>
            <trkpt lat="-39.2518624" lon="175.7362191"><ele>1011.89</ele></trkpt>
            <trkpt lat="-39.2519624" lon="175.7362072"><ele>1012.42</ele></trkpt>
            <trkpt lat="-39.2525786" lon="175.7361298"><ele>1015.23</ele></trkpt>
            <trkpt lat="-39.254325" lon="175.73577"><ele>1021.32</ele></trkpt>
            <trkpt lat="-39.2550884" lon="175.7356125"><ele>1023.37</ele></trkpt>
            <trkpt lat="-39.2560712" lon="175.7354098"><ele>1025.64</ele></trkpt>
            <trkpt lat="-39.256789" lon="175.7352671"><ele>1027.52</ele></trkpt>
            <trkpt lat="-39.2576106" lon="175.7351038"><ele>1030.13</ele></trkpt>
            <trkpt lat="-39.2584323" lon="175.7349404"><ele>1033.21</ele></trkpt>
            <trkpt lat="-39.2598702" lon="175.7346546"><ele>1039.39</ele></trkpt>
            <trkpt lat="-39.2601783" lon="175.7345933"><ele>1040.96</ele></trkpt>
            <trkpt lat="-39.2606919" lon="175.7344913"><ele>1043.99</ele></trkpt>
            <trkpt lat="-39.2609984" lon="175.7344304"><ele>1045.94</ele></trkpt>
            <trkpt lat="-39.2616686" lon="175.7343057"><ele>1050.2</ele></trkpt>
            <trkpt lat="-39.26178" lon="175.734285"><ele>1050.79</ele></trkpt>
            <trkpt lat="-39.2620029" lon="175.7342436"><ele>1051.73</ele></trkpt>
            <trkpt lat="-39.2624484" lon="175.7341607"><ele>1052.79</ele></trkpt>
            <trkpt lat="-39.2625609" lon="175.7341386"><ele>1052.88</ele></trkpt>
            <trkpt lat="-39.2626597" lon="175.7340993"><ele>1052.85</ele></trkpt>
            <trkpt lat="-39.2628019" lon="175.7340413"><ele>1052.66</ele></trkpt>
            <trkpt lat="-39.2630489" lon="175.7339365"><ele>1051.95</ele></trkpt>
            <trkpt lat="-39.2633064" lon="175.7337654"><ele>1050.82</ele></trkpt>
            <trkpt lat="-39.2635202" lon="175.7336189"><ele>1049.72</ele></trkpt>
            <trkpt lat="-39.2638818" lon="175.73328"><ele>1047.68</ele></trkpt>
            <trkpt lat="-39.2640657" lon="175.7331619"><ele>1046.92</ele></trkpt>
            <trkpt lat="-39.2642601" lon="175.7330711"><ele>1046.42</ele></trkpt>
            <trkpt lat="-39.2643617" lon="175.7330409"><ele>1046.29</ele></trkpt>
            <trkpt lat="-39.2644634" lon="175.7330127"><ele>1046.26</ele></trkpt>
            <trkpt lat="-39.2646736" lon="175.7329801"><ele>1046.48</ele></trkpt>
            <trkpt lat="-39.2649347" lon="175.7329676"><ele>1047.23</ele></trkpt>
            <trkpt lat="-39.2650128" lon="175.7329702"><ele>1047.54</ele></trkpt>
            <trkpt lat="-39.2652751" lon="175.7330235"><ele>1048.87</ele></trkpt>
            <trkpt lat="-39.2655245" lon="175.7331337"><ele>1050.5</ele></trkpt>
            <trkpt lat="-39.2656894" lon="175.7332507"><ele>1051.78</ele></trkpt>
            <trkpt lat="-39.2658471" lon="175.7333879"><ele>1053.13</ele></trkpt>
            <trkpt lat="-39.266121" lon="175.7336624"><ele>1055.57</ele></trkpt>
            <trkpt lat="-39.2664099" lon="175.7340409"><ele>1058.22</ele></trkpt>
            <trkpt lat="-39.2666029" lon="175.7343421"><ele>1059.82</ele></trkpt>
            <trkpt lat="-39.26686" lon="175.734745"><ele>1061.37</ele></trkpt>
            <trkpt lat="-39.2671814" lon="175.7352486"><ele>1062.44</ele></trkpt>
            <trkpt lat="-39.2673087" lon="175.7354474"><ele>1062.53</ele></trkpt>
            <trkpt lat="-39.267465" lon="175.735665"><ele>1062.25</ele></trkpt>
            <trkpt lat="-39.2676207" lon="175.7358799"><ele>1061.59</ele></trkpt>
            <trkpt lat="-39.2678751" lon="175.7361576"><ele>1060.11</ele></trkpt>
            <trkpt lat="-39.2679594" lon="175.7362485"><ele>1059.51</ele></trkpt>
            <trkpt lat="-39.2680601" lon="175.7363326"><ele>1058.8</ele></trkpt>
            <trkpt lat="-39.2683627" lon="175.7365812"><ele>1056.55</ele></trkpt>
            <trkpt lat="-39.2688183" lon="175.73688"><ele>1053.6</ele></trkpt>
            <trkpt lat="-39.2690017" lon="175.737"><ele>1052.79</ele></trkpt>
            <trkpt lat="-39.269185" lon="175.73712"><ele>1052.38</ele></trkpt>
            <trkpt lat="-39.2693686" lon="175.7372402"><ele>1052.42</ele></trkpt>
            <trkpt lat="-39.2694587" lon="175.7372988"><ele>1052.59</ele></trkpt>
            <trkpt lat="-39.2695616" lon="175.7373587"><ele>1052.9</ele></trkpt>
            <trkpt lat="-39.2700684" lon="175.7376513"><ele>1055.13</ele></trkpt>
            <trkpt lat="-39.2701719" lon="175.7377104"><ele>1055.58</ele></trkpt>
            <trkpt lat="-39.2703614" lon="175.7377986"><ele>1056.3</ele></trkpt>
            <trkpt lat="-39.2708383" lon="175.7380188"><ele>1057.73</ele></trkpt>
            <trkpt lat="-39.2714813" lon="175.7382637"><ele>1059.28</ele></trkpt>
            <trkpt lat="-39.2715881" lon="175.7383044"><ele>1059.61</ele></trkpt>
            <trkpt lat="-39.271695" lon="175.738345"><ele>1060</ele></trkpt>
            <trkpt lat="-39.2718019" lon="175.7383856"><ele>1060.46</ele></trkpt>
            <trkpt lat="-39.2719088" lon="175.7384262"><ele>1060.97</ele></trkpt>
            <trkpt lat="-39.2725501" lon="175.7386709"><ele>1064.51</ele></trkpt>
            <trkpt lat="-39.2728502" lon="175.7388426"><ele>1065.97</ele></trkpt>
            <trkpt lat="-39.2729482" lon="175.7388995"><ele>1066.31</ele></trkpt>
            <trkpt lat="-39.2730535" lon="175.7389801"><ele>1066.58</ele></trkpt>
            <trkpt lat="-39.2732606" lon="175.7391412"><ele>1066.69</ele></trkpt>
            <trkpt lat="-39.2734399" lon="175.7393199"><ele>1066.28</ele></trkpt>
            <trkpt lat="-39.2735309" lon="175.7394114"><ele>1065.86</ele></trkpt>
            <trkpt lat="-39.2736098" lon="175.7395002"><ele>1065.37</ele></trkpt>
            <trkpt lat="-39.27417" lon="175.7401328"><ele>1060.78</ele></trkpt>
            <trkpt lat="-39.27449" lon="175.7404943"><ele>1058.18</ele></trkpt>
            <trkpt lat="-39.27465" lon="175.740675"><ele>1057.1</ele></trkpt>
            <trkpt lat="-39.27481" lon="175.7408557"><ele>1056.3</ele></trkpt>
            <trkpt lat="-39.27513" lon="175.7412171"><ele>1055.47</ele></trkpt>
            <trkpt lat="-39.27521" lon="175.7413075"><ele>1055.44</ele></trkpt>
            <trkpt lat="-39.27529" lon="175.7413978"><ele>1055.5</ele></trkpt>
            <trkpt lat="-39.27553" lon="175.7416689"><ele>1056.16</ele></trkpt>
            <trkpt lat="-39.2757691" lon="175.7419389"><ele>1057.29</ele></trkpt>
            <trkpt lat="-39.2761978" lon="175.742415"><ele>1059.67</ele></trkpt>
            <trkpt lat="-39.2762833" lon="175.74251"><ele>1060.08</ele></trkpt>
            <trkpt lat="-39.2764544" lon="175.7427"><ele>1060.7</ele></trkpt>
            <trkpt lat="-39.2767111" lon="175.742985"><ele>1061.13</ele></trkpt>
            <trkpt lat="-39.2767967" lon="175.74308"><ele>1061.12</ele></trkpt>
            <trkpt lat="-39.2768822" lon="175.743175"><ele>1061.03</ele></trkpt>
            <trkpt lat="-39.2773117" lon="175.7436508"><ele>1059.96</ele></trkpt>
            <trkpt lat="-39.2775622" lon="175.7438799"><ele>1059.32</ele></trkpt>
            <trkpt lat="-39.2778712" lon="175.7440978"><ele>1058.76</ele></trkpt>
            <trkpt lat="-39.277977" lon="175.7441525"><ele>1058.66</ele></trkpt>
            <trkpt lat="-39.2781913" lon="175.7442612"><ele>1058.6</ele></trkpt>
            <trkpt lat="-39.2784968" lon="175.744366"><ele>1058.75</ele></trkpt>
            <trkpt lat="-39.278813" lon="175.7444265"><ele>1059</ele></trkpt>
            <trkpt lat="-39.2790977" lon="175.7444414"><ele>1059.09</ele></trkpt>
            <trkpt lat="-39.2794185" lon="175.7444138"><ele>1058.85</ele></trkpt>
            <trkpt lat="-39.2796392" lon="175.7443618"><ele>1058.34</ele></trkpt>
            <trkpt lat="-39.2797498" lon="175.7443346"><ele>1057.94</ele></trkpt>
            <trkpt lat="-39.2799557" lon="175.744258"><ele>1056.93</ele></trkpt>
            <trkpt lat="-39.2801571" lon="175.744161"><ele>1055.64</ele></trkpt>
            <trkpt lat="-39.2805397" lon="175.7439096"><ele>1052.75</ele></trkpt>
            <trkpt lat="-39.2808104" lon="175.7436772"><ele>1050.83</ele></trkpt>
            <trkpt lat="-39.2810099" lon="175.74352"><ele>1049.9</ele></trkpt>
            <trkpt lat="-39.2811238" lon="175.7434383"><ele>1049.64</ele></trkpt>
            <trkpt lat="-39.2812125" lon="175.7433888"><ele>1049.56</ele></trkpt>
            <trkpt lat="-39.281735" lon="175.743098"><ele>1050.3</ele></trkpt>
            <trkpt lat="-39.282012" lon="175.742854"><ele>1051.44</ele></trkpt>
            <trkpt lat="-39.2821499" lon="175.7426663"><ele>1052.38</ele></trkpt>
            <trkpt lat="-39.2824912" lon="175.7421583"><ele>1055.32</ele></trkpt>
            <trkpt lat="-39.2826452" lon="175.7419428"><ele>1056.63</ele></trkpt>
            <trkpt lat="-39.2827183" lon="175.7418575"><ele>1057.19</ele></trkpt>
            <trkpt lat="-39.2829323" lon="175.7416751"><ele>1058.56</ele></trkpt>
            <trkpt lat="-39.28315" lon="175.741526"><ele>1059.74</ele></trkpt>
            <trkpt lat="-39.2833995" lon="175.7414044"><ele>1060.82</ele></trkpt>
            <trkpt lat="-39.2835445" lon="175.7413557"><ele>1061.33</ele></trkpt>
            <trkpt lat="-39.2838218" lon="175.7413021"><ele>1062.08</ele></trkpt>
            <trkpt lat="-39.2841609" lon="175.7412702"><ele>1062.71</ele></trkpt>
            <trkpt lat="-39.2847943" lon="175.7412443"><ele>1063.4</ele></trkpt>
            <trkpt lat="-39.28564" lon="175.74121"><ele>1063.68</ele></trkpt>
            <trkpt lat="-39.2863795" lon="175.7411796"><ele>1063.22</ele></trkpt>
            <trkpt lat="-39.2868109" lon="175.7411321"><ele>1062.5</ele></trkpt>
            <trkpt lat="-39.2870658" lon="175.7410957"><ele>1061.84</ele></trkpt>
            <trkpt lat="-39.2873206" lon="175.7410414"><ele>1060.96</ele></trkpt>
            <trkpt lat="-39.2876642" lon="175.7408919"><ele>1059.51</ele></trkpt>
            <trkpt lat="-39.288236" lon="175.7406421"><ele>1057</ele></trkpt>
            <trkpt lat="-39.2884931" lon="175.7405774"><ele>1056.11</ele></trkpt>
            <trkpt lat="-39.2887552" lon="175.7405507"><ele>1055.52</ele></trkpt>
            <trkpt lat="-39.2888454" lon="175.7405566"><ele>1055.4</ele></trkpt>
            <trkpt lat="-39.2890372" lon="175.7405703"><ele>1055.33</ele></trkpt>
            <trkpt lat="-39.2891497" lon="175.7405884"><ele>1055.4</ele></trkpt>
            <trkpt lat="-39.2894778" lon="175.7406433"><ele>1056.01</ele></trkpt>
            <trkpt lat="-39.2896967" lon="175.74068"><ele>1056.73</ele></trkpt>
            <trkpt lat="-39.2901344" lon="175.7407533"><ele>1058.7</ele></trkpt>
            <trkpt lat="-39.2909004" lon="175.7408816"><ele>1062.7</ele></trkpt>
            <trkpt lat="-39.2911149" lon="175.7409083"><ele>1063.72</ele></trkpt>
            <trkpt lat="-39.2916387" lon="175.7409497"><ele>1065.82</ele></trkpt>
            <trkpt lat="-39.292536" lon="175.740973"><ele>1068.4</ele></trkpt>
            <trkpt lat="-39.294328" lon="175.741019"><ele>1071.51</ele></trkpt>
            <trkpt lat="-39.296008" lon="175.7410621"><ele>1073.47</ele></trkpt>
            <trkpt lat="-39.2978" lon="175.7411081"><ele>1074.83</ele></trkpt>
            <trkpt lat="-39.298696" lon="175.7411311"><ele>1075.81</ele></trkpt>
            <trkpt lat="-39.299704" lon="175.741157"><ele>1077.37</ele></trkpt>
            <trkpt lat="-39.3005997" lon="175.74118"><ele>1079.02</ele></trkpt>
            <trkpt lat="-39.3012829" lon="175.7411914"><ele>1080.16</ele></trkpt>
            <trkpt lat="-39.3016243" lon="175.7411971"><ele>1080.54</ele></trkpt>
            <trkpt lat="-39.3023071" lon="175.7412086"><ele>1080.83</ele></trkpt>
            <trkpt lat="-39.3029918" lon="175.7412194"><ele>1080.6</ele></trkpt>
            <trkpt lat="-39.3035101" lon="175.7411736"><ele>1080.08</ele></trkpt>
            <trkpt lat="-39.3039103" lon="175.7410943"><ele>1079.47</ele></trkpt>
            <trkpt lat="-39.3042832" lon="175.7409845"><ele>1078.81</ele></trkpt>
            <trkpt lat="-39.3046465" lon="175.740843"><ele>1078.13</ele></trkpt>
            <trkpt lat="-39.3049826" lon="175.7406791"><ele>1077.51</ele></trkpt>
            <trkpt lat="-39.3054444" lon="175.7403979"><ele>1076.7</ele></trkpt>
            <trkpt lat="-39.3058991" lon="175.7400499"><ele>1075.96</ele></trkpt>
            <trkpt lat="-39.3063402" lon="175.7396294"><ele>1075.29</ele></trkpt>
            <trkpt lat="-39.3076937" lon="175.738421"><ele>1073.7</ele></trkpt>
            <trkpt lat="-39.3084155" lon="175.7377765"><ele>1073.13</ele></trkpt>
            <trkpt lat="-39.3089569" lon="175.7372931"><ele>1072.65</ele></trkpt>
            <trkpt lat="-39.3091373" lon="175.737132"><ele>1072.35</ele></trkpt>
            <trkpt lat="-39.3093178" lon="175.7369709"><ele>1071.91</ele></trkpt>
            <trkpt lat="-39.3099494" lon="175.7364069"><ele>1069.89</ele></trkpt>
            <trkpt lat="-39.3106712" lon="175.7357624"><ele>1067.7</ele></trkpt>
            <trkpt lat="-39.3113028" lon="175.7351984"><ele>1066.35</ele></trkpt>
            <trkpt lat="-39.3119344" lon="175.7346344"><ele>1065.4</ele></trkpt>
            <trkpt lat="-39.312205" lon="175.7343927"><ele>1064.85</ele></trkpt>
            <trkpt lat="-39.3127464" lon="175.7339092"><ele>1063.33</ele></trkpt>
            <trkpt lat="-39.313378" lon="175.7333452"><ele>1061.13</ele></trkpt>
            <trkpt lat="-39.3135584" lon="175.733184"><ele>1060.56</ele></trkpt>
            <trkpt lat="-39.3141919" lon="175.7326186"><ele>1058.92</ele></trkpt>
            <trkpt lat="-39.3145177" lon="175.7323421"><ele>1058.37</ele></trkpt>
            <trkpt lat="-39.3151921" lon="175.7317894"><ele>1057.76</ele></trkpt>
            <trkpt lat="-39.3180498" lon="175.7300153"><ele>1056.97</ele></trkpt>
            <trkpt lat="-39.3188773" lon="175.7295021"><ele>1057.28</ele></trkpt>
            <trkpt lat="-39.3193311" lon="175.7292798"><ele>1057.55</ele></trkpt>
            <trkpt lat="-39.3198713" lon="175.72906"><ele>1057.79</ele></trkpt>
            <trkpt lat="-39.3204921" lon="175.728869"><ele>1057.67</ele></trkpt>
            <trkpt lat="-39.3208032" lon="175.7287735"><ele>1057.31</ele></trkpt>
            <trkpt lat="-39.3224621" lon="175.7282641"><ele>1053.84</ele></trkpt>
            <trkpt lat="-39.3231879" lon="175.7280412"><ele>1052.4</ele></trkpt>
            <trkpt lat="-39.3240174" lon="175.7277865"><ele>1050.89</ele></trkpt>
            <trkpt lat="-39.3255727" lon="175.7273089"><ele>1048.16</ele></trkpt>
            <trkpt lat="-39.3262984" lon="175.7270861"><ele>1047.07</ele></trkpt>
            <trkpt lat="-39.3266095" lon="175.7269905"><ele>1046.72</ele></trkpt>
            <trkpt lat="-39.3281648" lon="175.7265129"><ele>1045.57</ele></trkpt>
            <trkpt lat="-39.3289942" lon="175.7262582"><ele>1045.34</ele></trkpt>
            <trkpt lat="-39.3298237" lon="175.7260034"><ele>1045.5</ele></trkpt>
            <trkpt lat="-39.3305495" lon="175.7257805"><ele>1045.74</ele></trkpt>
            <trkpt lat="-39.3323121" lon="175.7252391"><ele>1046.28</ele></trkpt>
            <trkpt lat="-39.3348005" lon="175.7244748"><ele>1047.22</ele></trkpt>
            <trkpt lat="-39.3357345" lon="175.7241878"><ele>1047.26</ele></trkpt>
            <trkpt lat="-39.3373016" lon="175.7237043"><ele>1046.65</ele></trkpt>
            <trkpt lat="-39.3382419" lon="175.7234142"><ele>1046.08</ele></trkpt>
            <trkpt lat="-39.3396" lon="175.7229952"><ele>1044.84</ele></trkpt>
            <trkpt lat="-39.3421074" lon="175.7222216"><ele>1041.69</ele></trkpt>
            <trkpt lat="-39.3430477" lon="175.7219315"><ele>1040.89</ele></trkpt>
            <trkpt lat="-39.3438834" lon="175.7216736"><ele>1040.63</ele></trkpt>
            <trkpt lat="-39.3448237" lon="175.7213834"><ele>1040.53</ele></trkpt>
            <trkpt lat="-39.3456595" lon="175.7211255"><ele>1040.01</ele></trkpt>
            <trkpt lat="-39.3464953" lon="175.7208676"><ele>1038.89</ele></trkpt>
            <trkpt lat="-39.3474355" lon="175.7205774"><ele>1037.25</ele></trkpt>
            <trkpt lat="-39.3498384" lon="175.7198359"><ele>1033.32</ele></trkpt>
            <trkpt lat="-39.3505697" lon="175.7196102"><ele>1032.05</ele></trkpt>
            <trkpt lat="-39.3517208" lon="175.7192546"><ele>1029.84</ele></trkpt>
            <trkpt lat="-39.3523533" lon="175.7190584"><ele>1028.7</ele></trkpt>
            <trkpt lat="-39.35404" lon="175.7185351"><ele>1025.89</ele></trkpt>
            <trkpt lat="-39.3556213" lon="175.7180446"><ele>1022.92</ele></trkpt>
            <trkpt lat="-39.35657" lon="175.7177502"><ele>1020.85</ele></trkpt>
            <trkpt lat="-39.3575188" lon="175.7174559"><ele>1018.64</ele></trkpt>
            <trkpt lat="-39.3582567" lon="175.7172269"><ele>1017.07</ele></trkpt>
            <trkpt lat="-39.3592054" lon="175.7169325"><ele>1015.17</ele></trkpt>
            <trkpt lat="-39.3608921" lon="175.7164092"><ele>1011.34</ele></trkpt>
            <trkpt lat="-39.36163" lon="175.7161802"><ele>1009.76</ele></trkpt>
            <trkpt lat="-39.3623679" lon="175.7159513"><ele>1008.42</ele></trkpt>
            <trkpt lat="-39.3625788" lon="175.7158858"><ele>1008.12</ele></trkpt>
            <trkpt lat="-39.3633167" lon="175.7156568"><ele>1007.3</ele></trkpt>
            <trkpt lat="-39.36416" lon="175.7153951"><ele>1006.42</ele></trkpt>
            <trkpt lat="-39.3651088" lon="175.7151007"><ele>1005.37</ele></trkpt>
            <trkpt lat="-39.3658467" lon="175.7148717"><ele>1004.38</ele></trkpt>
            <trkpt lat="-39.3667983" lon="175.7145757"><ele>1002.94</ele></trkpt>
            <trkpt lat="-39.368206" lon="175.71413"><ele>1001.04</ele></trkpt>
            <trkpt lat="-39.368964" lon="175.71389"><ele>1000.06</ele></trkpt>
            <trkpt lat="-39.369722" lon="175.71365"><ele>999.06</ele></trkpt>
            <trkpt lat="-39.3703717" lon="175.7134443"><ele>998.23</ele></trkpt>
            <trkpt lat="-39.3711233" lon="175.7132133"><ele>997.28</ele></trkpt>
            <trkpt lat="-39.3717667" lon="175.7130167"><ele>996.31</ele></trkpt>
            <trkpt lat="-39.3724111" lon="175.7128199"><ele>995.12</ele></trkpt>
            <trkpt lat="-39.37487" lon="175.71216"><ele>989.64</ele></trkpt>
            <trkpt lat="-39.3757925" lon="175.7119125"><ele>986.68</ele></trkpt>
            <trkpt lat="-39.3773313" lon="175.7114995"><ele>980.84</ele></trkpt>
            <trkpt lat="-39.377906" lon="175.711332"><ele>978.7</ele></trkpt>
            <trkpt lat="-39.3787433" lon="175.7110733"><ele>975.5</ele></trkpt>
            <trkpt lat="-39.3789713" lon="175.7109988"><ele>974.54</ele></trkpt>
            <trkpt lat="-39.3797814" lon="175.71062"><ele>970.8</ele></trkpt>
            <trkpt lat="-39.3811" lon="175.7100025"><ele>964.91</ele></trkpt>
            <trkpt lat="-39.3817084" lon="175.7097176"><ele>962.31</ele></trkpt>
            <trkpt lat="-39.3823962" lon="175.7094195"><ele>959.48</ele></trkpt>
            <trkpt lat="-39.3826787" lon="175.7093011"><ele>958.29</ele></trkpt>
            <trkpt lat="-39.3832013" lon="175.7091304"><ele>956.05</ele></trkpt>
            <trkpt lat="-39.3840014" lon="175.7089606"><ele>952.54</ele></trkpt>
            <trkpt lat="-39.3843774" lon="175.7089206"><ele>950.81</ele></trkpt>
            <trkpt lat="-39.3853519" lon="175.708884"><ele>946.1</ele></trkpt>
            <trkpt lat="-39.3858684" lon="175.7088397"><ele>943.56</ele></trkpt>
            <trkpt lat="-39.3863098" lon="175.708757"><ele>941.38</ele></trkpt>
            <trkpt lat="-39.3864177" lon="175.7087364"><ele>940.85</ele></trkpt>
            <trkpt lat="-39.3867784" lon="175.7086329"><ele>939.13</ele></trkpt>
            <trkpt lat="-39.3868984" lon="175.7085888"><ele>938.59</ele></trkpt>
            <trkpt lat="-39.3870179" lon="175.7085446"><ele>938.07</ele></trkpt>
            <trkpt lat="-39.3874718" lon="175.7083482"><ele>936.18</ele></trkpt>
            <trkpt lat="-39.3879371" lon="175.7080517"><ele>934.17</ele></trkpt>
            <trkpt lat="-39.3882719" lon="175.7078179"><ele>932.62</ele></trkpt>
            <trkpt lat="-39.3889907" lon="175.7071893"><ele>928.91</ele></trkpt>
            <trkpt lat="-39.39028" lon="175.7060415"><ele>922.08</ele></trkpt>
            <trkpt lat="-39.390796" lon="175.705582"><ele>919.64</ele></trkpt>
            <trkpt lat="-39.391312" lon="175.7051226"><ele>917.6</ele></trkpt>
            <trkpt lat="-39.391484" lon="175.7049694"><ele>917.05</ele></trkpt>
            <trkpt lat="-39.3920893" lon="175.7044298"><ele>915.5</ele></trkpt>
            <trkpt lat="-39.392714" lon="175.7038691"><ele>914.14</ele></trkpt>
            <trkpt lat="-39.393428" lon="175.7032281"><ele>912.82</ele></trkpt>
            <trkpt lat="-39.394856" lon="175.7019462"><ele>910.79</ele></trkpt>
            <trkpt lat="-39.39557" lon="175.7013052"><ele>910</ele></trkpt>
            <trkpt lat="-39.396284" lon="175.7006642"><ele>909.14</ele></trkpt>
            <trkpt lat="-39.396998" lon="175.7000231"><ele>907.78</ele></trkpt>
            <trkpt lat="-39.397712" lon="175.6993821"><ele>905.66</ele></trkpt>
            <trkpt lat="-39.3982475" lon="175.6989013"><ele>903.55</ele></trkpt>
            <trkpt lat="-39.3985153" lon="175.6986609"><ele>902.33</ele></trkpt>
            <trkpt lat="-39.3991399" lon="175.6981007"><ele>899.34</ele></trkpt>
            <trkpt lat="-39.3995241" lon="175.6978119"><ele>897.8</ele></trkpt>
            <trkpt lat="-39.3997241" lon="175.6976679"><ele>897.17</ele></trkpt>
            <trkpt lat="-39.4001411" lon="175.6973795"><ele>896.19</ele></trkpt>
            <trkpt lat="-39.4008383" lon="175.6969467"><ele>895.09</ele></trkpt>
            <trkpt lat="-39.4014369" lon="175.6965753"><ele>894.42</ele></trkpt>
            <trkpt lat="-39.4017362" lon="175.6963896"><ele>894.26</ele></trkpt>
            <trkpt lat="-39.4023348" lon="175.6960181"><ele>894.29</ele></trkpt>
            <trkpt lat="-39.4036317" lon="175.6952134"><ele>895.02</ele></trkpt>
            <trkpt lat="-39.4041305" lon="175.6949038"><ele>895.09</ele></trkpt>
            <trkpt lat="-39.4044302" lon="175.694716"><ele>894.95</ele></trkpt>
            <trkpt lat="-39.4051317" lon="175.6942684"><ele>894.22</ele></trkpt>
            <trkpt lat="-39.4059334" lon="175.6937568"><ele>893.19</ele></trkpt>
            <trkpt lat="-39.4068352" lon="175.6931812"><ele>892.18</ele></trkpt>
            <trkpt lat="-39.4083384" lon="175.6922219"><ele>890.47</ele></trkpt>
            <trkpt lat="-39.40914" lon="175.6917102"><ele>889.62</ele></trkpt>
            <trkpt lat="-39.4116452" lon="175.6901112"><ele>886.88</ele></trkpt>
            <trkpt lat="-39.4123467" lon="175.6896635"><ele>885.9</ele></trkpt>
            <trkpt lat="-39.4138497" lon="175.688704"><ele>883.38</ele></trkpt>
            <trkpt lat="-39.4145512" lon="175.6883303"><ele>882.31</ele></trkpt>
            <trkpt lat="-39.415141" lon="175.6881101"><ele>881.65</ele></trkpt>
            <trkpt lat="-39.4155198" lon="175.6879907"><ele>881.37</ele></trkpt>
            <trkpt lat="-39.416008" lon="175.6878807"><ele>881.19</ele></trkpt>
            <trkpt lat="-39.4167713" lon="175.687754"><ele>881.15</ele></trkpt>
            <trkpt lat="-39.41775" lon="175.687592"><ele>881.3</ele></trkpt>
            <trkpt lat="-39.41862" lon="175.687448"><ele>881.4</ele></trkpt>
            <trkpt lat="-39.4195988" lon="175.687286"><ele>881.43</ele></trkpt>
            <trkpt lat="-39.420361" lon="175.6871597"><ele>881.34</ele></trkpt>
            <trkpt lat="-39.4220157" lon="175.6868558"><ele>880.92</ele></trkpt>
            <trkpt lat="-39.423568" lon="175.6865705"><ele>880.87</ele></trkpt>
            <trkpt lat="-39.4243958" lon="175.6864184"><ele>881.21</ele></trkpt>
            <trkpt lat="-39.4254306" lon="175.6862282"><ele>881.87</ele></trkpt>
            <trkpt lat="-39.426155" lon="175.6860951"><ele>882.13</ele></trkpt>
            <trkpt lat="-39.4276038" lon="175.6858288"><ele>882.07</ele></trkpt>
            <trkpt lat="-39.4285351" lon="175.6856577"><ele>881.61</ele></trkpt>
            <trkpt lat="-39.4294664" lon="175.6854865"><ele>880.87</ele></trkpt>
            <trkpt lat="-39.4301908" lon="175.6853533"><ele>880.2</ele></trkpt>
            <trkpt lat="-39.4305013" lon="175.6852963"><ele>879.8</ele></trkpt>
            <trkpt lat="-39.4310187" lon="175.6852012"><ele>878.85</ele></trkpt>
            <trkpt lat="-39.4313291" lon="175.6851441"><ele>878.07</ele></trkpt>
            <trkpt lat="-39.4319477" lon="175.6850303"><ele>876.08</ele></trkpt>
            <trkpt lat="-39.432298" lon="175.684952"><ele>874.69</ele></trkpt>
            <trkpt lat="-39.4325318" lon="175.6848991"><ele>873.61</ele></trkpt>
            <trkpt lat="-39.4327375" lon="175.684835"><ele>872.53</ele></trkpt>
            <trkpt lat="-39.4333583" lon="175.6846403"><ele>868.95</ele></trkpt>
            <trkpt lat="-39.4340314" lon="175.6843792"><ele>864.8</ele></trkpt>
            <trkpt lat="-39.4346401" lon="175.6841093"><ele>860.87</ele></trkpt>
            <trkpt lat="-39.43532" lon="175.68373"><ele>856.25</ele></trkpt>
            <trkpt lat="-39.4359027" lon="175.6834044"><ele>852.26</ele></trkpt>
            <trkpt lat="-39.436184" lon="175.683258"><ele>850.32</ele></trkpt>
            <trkpt lat="-39.43646" lon="175.68312"><ele>848.41</ele></trkpt>
            <trkpt lat="-39.4369174" lon="175.682891"><ele>845.27</ele></trkpt>
            <trkpt lat="-39.4374325" lon="175.68259"><ele>841.8</ele></trkpt>
            <trkpt lat="-39.4378419" lon="175.68236"><ele>839.11</ele></trkpt>
            <trkpt lat="-39.43825" lon="175.68216"><ele>836.45</ele></trkpt>
            <trkpt lat="-39.4387599" lon="175.6819106"><ele>833.06</ele></trkpt>
            <trkpt lat="-39.4396097" lon="175.6815908"><ele>827.5</ele></trkpt>
            <trkpt lat="-39.4402798" lon="175.6814508"><ele>823.21</ele></trkpt>
            <trkpt lat="-39.4408522" lon="175.6814417"><ele>819.6</ele></trkpt>
            <trkpt lat="-39.4410811" lon="175.6814383"><ele>818.19</ele></trkpt>
            <trkpt lat="-39.4422253" lon="175.6814217"><ele>811.35</ele></trkpt>
            <trkpt lat="-39.4423422" lon="175.6814194"><ele>810.66</ele></trkpt>
            <trkpt lat="-39.4428461" lon="175.6813701"><ele>807.79</ele></trkpt>
            <trkpt lat="-39.443103" lon="175.6813186"><ele>806.49</ele></trkpt>
            <trkpt lat="-39.4438175" lon="175.681075"><ele>803.5</ele></trkpt>
            <trkpt lat="-39.44433" lon="175.6809"><ele>802.09</ele></trkpt>
            <trkpt lat="-39.4446375" lon="175.680795"><ele>801.68</ele></trkpt>
            <trkpt lat="-39.4452525" lon="175.680585"><ele>801.72</ele></trkpt>
            <trkpt lat="-39.4458674" lon="175.680375"><ele>802.63</ele></trkpt>
            <trkpt lat="-39.44627" lon="175.68023"><ele>803.79</ele></trkpt>
            <trkpt lat="-39.4465683" lon="175.68012"><ele>805.01</ele></trkpt>
            <trkpt lat="-39.4471989" lon="175.6798001"><ele>808.3</ele></trkpt>
            <trkpt lat="-39.4477313" lon="175.6794438"><ele>811.27</ele></trkpt>
            <trkpt lat="-39.4481447" lon="175.6791702"><ele>813.33</ele></trkpt>
            <trkpt lat="-39.4488116" lon="175.6787495"><ele>816.01</ele></trkpt>
            <trkpt lat="-39.4490768" lon="175.6786023"><ele>816.76</ele></trkpt>
            <trkpt lat="-39.4496446" lon="175.6783687"><ele>817.69</ele></trkpt>
            <trkpt lat="-39.450846" lon="175.678019"><ele>818.27</ele></trkpt>
            <trkpt lat="-39.4514696" lon="175.6778543"><ele>818.08</ele></trkpt>
            <trkpt lat="-39.4523011" lon="175.6776372"><ele>817.32</ele></trkpt>
            <trkpt lat="-39.4530286" lon="175.6774471"><ele>816.47</ele></trkpt>
            <trkpt lat="-39.4532364" lon="175.6773929"><ele>816.28</ele></trkpt>
            <trkpt lat="-39.4554584" lon="175.6767941"><ele>815.03</ele></trkpt>
            <trkpt lat="-39.4564175" lon="175.6765325"><ele>814.89</ele></trkpt>
            <trkpt lat="-39.45773" lon="175.67616"><ele>815.06</ele></trkpt>
            <trkpt lat="-39.4581918" lon="175.676019"><ele>815.12</ele></trkpt>
            <trkpt lat="-39.4586995" lon="175.6758199"><ele>815.2</ele></trkpt>
            <trkpt lat="-39.4618904" lon="175.6743798"><ele>815.96</ele></trkpt>
            <trkpt lat="-39.4629196" lon="175.6739152"><ele>816.25</ele></trkpt>
            <trkpt lat="-39.4636402" lon="175.67359"><ele>816.27</ele></trkpt>
            <trkpt lat="-39.4641525" lon="175.6733692"><ele>816.05</ele></trkpt>
            <trkpt lat="-39.4648695" lon="175.6730599"><ele>815.42</ele></trkpt>
            <trkpt lat="-39.46549" lon="175.672755"><ele>814.72</ele></trkpt>
            <trkpt lat="-39.4661115" lon="175.672449"><ele>814.1</ele></trkpt>
            <trkpt lat="-39.466675" lon="175.672145"><ele>813.7</ele></trkpt>
            <trkpt lat="-39.4672391" lon="175.6718403"><ele>813.49</ele></trkpt>
            <trkpt lat="-39.4679188" lon="175.671441"><ele>813.52</ele></trkpt>
            <trkpt lat="-39.4692001" lon="175.6707898"><ele>814.28</ele></trkpt>
            <trkpt lat="-39.470665" lon="175.669985"><ele>815.78</ele></trkpt>
            <trkpt lat="-39.4721315" lon="175.6691795"><ele>817.23</ele></trkpt>
            <trkpt lat="-39.4727216" lon="175.6688885"><ele>817.81</ele></trkpt>
            <trkpt lat="-39.4731403" lon="175.6687005"><ele>818.24</ele></trkpt>
            <trkpt lat="-39.47379" lon="175.6685004"><ele>818.93</ele></trkpt>
            <trkpt lat="-39.4741096" lon="175.6684384"><ele>819.22</ele></trkpt>
            <trkpt lat="-39.4746076" lon="175.6683806"><ele>819.55</ele></trkpt>
            <trkpt lat="-39.4754005" lon="175.6683502"><ele>819.84</ele></trkpt>
            <trkpt lat="-39.47628" lon="175.6683538"><ele>819.96</ele></trkpt>
            <trkpt lat="-39.4777096" lon="175.6683606"><ele>819.96</ele></trkpt>
            <trkpt lat="-39.4783785" lon="175.6684501"><ele>819.95</ele></trkpt>
            <trkpt lat="-39.4787416" lon="175.6685408"><ele>819.95</ele></trkpt>
            <trkpt lat="-39.480682" lon="175.6691806"><ele>819.98</ele></trkpt>
            <trkpt lat="-39.4820493" lon="175.6696101"><ele>820.06</ele></trkpt>
            <trkpt lat="-39.4825378" lon="175.6697856"><ele>820.1</ele></trkpt>
        </trkseg>
    </trk>
</gpx>
