<?xml version='1.0' encoding='UTF-8'?>
<gpx version="1.1"
  creator="GPXmagic"
  xmlns="http://www.topografix.com/GPX/1/1"
  xmlns:rgt="http://www.rgtcycling.com/XML/GpxExtensions/v1"
  xmlns:xsi="http://www.w3.org/2001/XMLSchema-instance" xsi:schemaLocation="http://www.topografix.com/GPX/1/1
  http://www.topografix.com/GPX/1/1/gpx.xsd">
  <metadata>
    <name>Smoothed with GPXmagic</name>
    <author>
      <link href="https://www.stepwiserefinement.co.uk">
        <text>GPXmagic v3</text>
        <type>text/html</type>
      </link>
    </author>
  </metadata>
<trk>  <name>Heonhwa-ro&#32;Gangneung&#32;Korea</name>
<trkseg>
<trkpt lat="37.6901883" lon="129.0345053"><ele>10.76</ele></trkpt>
<trkpt lat="37.6898875" lon="129.03484"><ele>10.31</ele></trkpt>
<trkpt lat="37.6895312" lon="129.035215"><ele>9.78</ele></trkpt>
<trkpt lat="37.6893098" lon="129.0354321"><ele>9.47</ele></trkpt>
<trkpt lat="37.6891983" lon="129.0355104"><ele>9.34</ele></trkpt>
<trkpt lat="37.6889464" lon="129.0356395"><ele>9.08</ele></trkpt>
<trkpt lat="37.68889430000001" lon="129.0356882"><ele>9.03</ele></trkpt>
<trkpt lat="37.6888541" lon="129.0358355"><ele>8.94</ele></trkpt>
<trkpt lat="37.6889326" lon="129.0360338"><ele>8.83</ele></trkpt>
<trkpt lat="37.6889427" lon="129.03616259999998"><ele>8.79</ele></trkpt>
<trkpt lat="37.6888963" lon="129.0363376"><ele>8.75</ele></trkpt>
<trkpt lat="37.6887796" lon="129.0365506"><ele>8.72</ele></trkpt>
<trkpt lat="37.6882346" lon="129.0372563"><ele>8.8</ele></trkpt>
<trkpt lat="37.6879296" lon="129.0375412"><ele>8.87</ele></trkpt>
<trkpt lat="37.68706" lon="129.0387111"><ele>9.14</ele></trkpt>
<trkpt lat="37.6865701" lon="129.0394234"><ele>9.31</ele></trkpt>
<trkpt lat="37.686447" lon="129.0397369"><ele>9.36</ele></trkpt>
<trkpt lat="37.6862471" lon="129.040047"><ele>9.42</ele></trkpt>
<trkpt lat="37.6860993" lon="129.04021819999997"><ele>9.5</ele></trkpt>
<trkpt lat="37.685949" lon="129.04026020000003"><ele>9.63</ele></trkpt>
<trkpt lat="37.6858558" lon="129.0402044"><ele>9.75</ele></trkpt>
<trkpt lat="37.6856558" lon="129.0399711"><ele>10.29</ele></trkpt>
<trkpt lat="37.6855253" lon="129.0398698"><ele>10.78</ele></trkpt>
<trkpt lat="37.6849906" lon="129.03968460000002"><ele>14</ele></trkpt>
<trkpt lat="37.6843941" lon="129.0397164"><ele>20.16</ele></trkpt>
<trkpt lat="37.6840621" lon="129.0397726"><ele>24.19</ele></trkpt>
<trkpt lat="37.68378969999999" lon="129.0399076"><ele>27.93</ele></trkpt>
<trkpt lat="37.6834642" lon="129.0401255"><ele>32.65</ele></trkpt>
<trkpt lat="37.683139700000005" lon="129.0402552"><ele>37</ele></trkpt>
<trkpt lat="37.682810700000005" lon="129.0402803"><ele>41.27</ele></trkpt>
<trkpt lat="37.6825403" lon="129.0403216"><ele>44.87</ele></trkpt>
<trkpt lat="37.6821306" lon="129.0404302"><ele>50.39</ele></trkpt>
<trkpt lat="37.68196" lon="129.0405004"><ele>52.67</ele></trkpt>
<trkpt lat="37.6817876" lon="129.040628"><ele>55.05</ele></trkpt>
<trkpt lat="37.681663699999994" lon="129.0408223"><ele>57.25</ele></trkpt>
<trkpt lat="37.6815994" lon="129.0410841"><ele>59.45</ele></trkpt>
<trkpt lat="37.681516" lon="129.0415415"><ele>62.84</ele></trkpt>
<trkpt lat="37.6814422" lon="129.0417972"><ele>64.57</ele></trkpt>
<trkpt lat="37.6813075" lon="129.0420141"><ele>66.09</ele></trkpt>
<trkpt lat="37.681179" lon="129.04208550000004"><ele>66.91</ele></trkpt>
<trkpt lat="37.6807113" lon="129.04219879999997"><ele>69.13</ele></trkpt>
<trkpt lat="37.6803743" lon="129.0422571"><ele>70.15</ele></trkpt>
<trkpt lat="37.6798062" lon="129.0423552"><ele>70.29</ele></trkpt>
<trkpt lat="37.67950869999999" lon="129.0424923"><ele>69.55</ele></trkpt>
<trkpt lat="37.6791624" lon="129.0427275"><ele>68.01</ele></trkpt>
<trkpt lat="37.6787798" lon="129.0429074"><ele>65.87</ele></trkpt>
<trkpt lat="37.678539" lon="129.0429475"><ele>64.43</ele></trkpt>
<trkpt lat="37.6780496" lon="129.0429374"><ele>61.82</ele></trkpt>
<trkpt lat="37.6779023" lon="129.0429779"><ele>61.24</ele></trkpt>
<trkpt lat="37.6777214" lon="129.043152"><ele>60.64</ele></trkpt>
<trkpt lat="37.6774373" lon="129.0435765"><ele>60.12</ele></trkpt>
<trkpt lat="37.6773271" lon="129.0436589"><ele>60.06</ele></trkpt>
<trkpt lat="37.6771221" lon="129.0436203"><ele>60.09</ele></trkpt>
<trkpt lat="37.6764924" lon="129.04309249999997"><ele>60.79</ele></trkpt>
<trkpt lat="37.6762603" lon="129.04298960000003"><ele>61.36</ele></trkpt>
<trkpt lat="37.6759656" lon="129.0430685"><ele>62.56</ele></trkpt>
<trkpt lat="37.6758307" lon="129.0431778"><ele>63.4</ele></trkpt>
<trkpt lat="37.6757209" lon="129.043364"><ele>64.46</ele></trkpt>
<trkpt lat="37.6755493" lon="129.0438688"><ele>67.13</ele></trkpt>
<trkpt lat="37.6753862" lon="129.0441828"><ele>68.78</ele></trkpt>
<trkpt lat="37.6752507" lon="129.0443313"><ele>69.61</ele></trkpt>
<trkpt lat="37.6748105" lon="129.0447211"><ele>71.6</ele></trkpt>
<trkpt lat="37.6744621" lon="129.044996"><ele>72.57</ele></trkpt>
<trkpt lat="37.674308" lon="129.0450683"><ele>72.78</ele></trkpt>
<trkpt lat="37.6741107" lon="129.0450848"><ele>72.93</ele></trkpt>
<trkpt lat="37.6738919" lon="129.0450393"><ele>72.98</ele></trkpt>
<trkpt lat="37.6734496" lon="129.044893"><ele>72.9</ele></trkpt>
<trkpt lat="37.67319009999999" lon="129.0448659"><ele>72.81</ele></trkpt>
<trkpt lat="37.6726216" lon="129.0450014"><ele>72.58</ele></trkpt>
<trkpt lat="37.67236900000001" lon="129.0451134"><ele>72.46</ele></trkpt>
<trkpt lat="37.6721963" lon="129.0452522"><ele>72.36</ele></trkpt>
<trkpt lat="37.6720354" lon="129.0454643"><ele>72.23</ele></trkpt>
<trkpt lat="37.6717787" lon="129.0462214"><ele>71.7</ele></trkpt>
<trkpt lat="37.6716389" lon="129.04658939999996"><ele>71.26</ele></trkpt>
<trkpt lat="37.6715083" lon="129.04677740000002"><ele>70.87</ele></trkpt>
<trkpt lat="37.6714001" lon="129.0468564"><ele>70.56</ele></trkpt>
<trkpt lat="37.6711695" lon="129.0468762"><ele>69.91</ele></trkpt>
<trkpt lat="37.6709298" lon="129.0467963"><ele>69.14</ele></trkpt>
<trkpt lat="37.670773" lon="129.0466581"><ele>68.55</ele></trkpt>
<trkpt lat="37.6705384" lon="129.0463296"><ele>67.65</ele></trkpt>
<trkpt lat="37.6703534" lon="129.0461737"><ele>67.33</ele></trkpt>
<trkpt lat="37.6701903" lon="129.0461286"><ele>67.3</ele></trkpt>
<trkpt lat="37.669901900000006" lon="129.0461612"><ele>67.67</ele></trkpt>
<trkpt lat="37.6692838" lon="129.0463083"><ele>69.47</ele></trkpt>
<trkpt lat="37.6690191" lon="129.046504"><ele>70.75</ele></trkpt>
<trkpt lat="37.6688634" lon="129.0466949"><ele>71.82</ele></trkpt>
<trkpt lat="37.6684653" lon="129.0474893"><ele>75.43</ele></trkpt>
<trkpt lat="37.668276500000005" lon="129.0477496"><ele>75.99</ele></trkpt>
<trkpt lat="37.668126400000006" lon="129.04783100000003"><ele>75.82</ele></trkpt>
<trkpt lat="37.6678887" lon="129.0478363"><ele>74.91</ele></trkpt>
<trkpt lat="37.66738" lon="129.0477438"><ele>70.91</ele></trkpt>
<trkpt lat="37.6669895" lon="129.0477584"><ele>66.93</ele></trkpt>
<trkpt lat="37.6668623" lon="129.0477872"><ele>65.52</ele></trkpt>
<trkpt lat="37.6666964" lon="129.0479"><ele>63.39</ele></trkpt>
<trkpt lat="37.6666053" lon="129.0480351"><ele>61.77</ele></trkpt>
<trkpt lat="37.66651" lon="129.04829579999998"><ele>59.09</ele></trkpt>
<trkpt lat="37.666417" lon="129.0487398"><ele>54.72</ele></trkpt>
<trkpt lat="37.6663108" lon="129.0487675"><ele>53.21</ele></trkpt>
<trkpt lat="37.6662546" lon="129.0485561"><ele>50.88</ele></trkpt>
<trkpt lat="37.6662911" lon="129.0482107"><ele>47.17</ele></trkpt>
<trkpt lat="37.6664059" lon="129.047523"><ele>39.35</ele></trkpt>
<trkpt lat="37.6664195" lon="129.0473421"><ele>37.34</ele></trkpt>
<trkpt lat="37.6663389" lon="129.0472545"><ele>35.83</ele></trkpt>
<trkpt lat="37.66616530000001" lon="129.0473751"><ele>33.26</ele></trkpt>
<trkpt lat="37.666069900000004" lon="129.0475164"><ele>31.55</ele></trkpt>
<trkpt lat="37.6657327" lon="129.0481618"><ele>25.23</ele></trkpt>
<trkpt lat="37.6656127" lon="129.0485129"><ele>22.59</ele></trkpt>
<trkpt lat="37.665521700000006" lon="129.0488798"><ele>20.35</ele></trkpt>
<trkpt lat="37.6654187" lon="129.0495294"><ele>17.3</ele></trkpt>
<trkpt lat="37.6652978" lon="129.0500408"><ele>15.23</ele></trkpt>
<trkpt lat="37.665023700000006" lon="129.0506505"><ele>12.73</ele></trkpt>
<trkpt lat="37.6649846" lon="129.0509394"><ele>11.79</ele></trkpt>
<trkpt lat="37.66500799999999" lon="129.0512797"><ele>10.85</ele></trkpt>
<trkpt lat="37.6650457" lon="129.051461"><ele>10.41</ele></trkpt>
<trkpt lat="37.6651129" lon="129.0522813"><ele>9.16</ele></trkpt>
<trkpt lat="37.6651862" lon="129.0526725"><ele>8.8</ele></trkpt>
<trkpt lat="37.6651455" lon="129.0528361"><ele>8.7</ele></trkpt>
<trkpt lat="37.664833" lon="129.05325869999996"><ele>8.5</ele></trkpt>
<trkpt lat="37.6647045" lon="129.0535931"><ele>8.4</ele></trkpt>
<trkpt lat="37.664642300000004" lon="129.05391049999997"><ele>8.32</ele></trkpt>
<trkpt lat="37.6646004" lon="129.0543914"><ele>8.17</ele></trkpt>
<trkpt lat="37.664541" lon="129.0545252"><ele>8.12</ele></trkpt>
<trkpt lat="37.664427700000005" lon="129.0545973"><ele>8.07</ele></trkpt>
<trkpt lat="37.6640704" lon="129.05463609999998"><ele>7.94</ele></trkpt>
<trkpt lat="37.6638471" lon="129.0547126"><ele>7.88</ele></trkpt>
<trkpt lat="37.6637222" lon="129.0548282"><ele>7.85</ele></trkpt>
<trkpt lat="37.6636297" lon="129.0550757"><ele>7.82</ele></trkpt>
<trkpt lat="37.6635689" lon="129.05515199999996"><ele>7.81</ele></trkpt>
<trkpt lat="37.6633904" lon="129.0552526"><ele>7.77</ele></trkpt>
<trkpt lat="37.6631711" lon="129.0553422"><ele>7.7</ele></trkpt>
<trkpt lat="37.66286770000001" lon="129.0553797"><ele>7.58</ele></trkpt>
<trkpt lat="37.662348" lon="129.0552918"><ele>7.38</ele></trkpt>
<trkpt lat="37.6615891" lon="129.0550149"><ele>7.19</ele></trkpt>
<trkpt lat="37.6613987" lon="129.0550017"><ele>7.17</ele></trkpt>
<trkpt lat="37.6612831" lon="129.0550286"><ele>7.18</ele></trkpt>
<trkpt lat="37.6611378" lon="129.0551318"><ele>7.21</ele></trkpt>
<trkpt lat="37.66104589999999" lon="129.0552727"><ele>7.25</ele></trkpt>
<trkpt lat="37.6609947" lon="129.0554591"><ele>7.3</ele></trkpt>
<trkpt lat="37.66099140000001" lon="129.0558212"><ele>7.44</ele></trkpt>
<trkpt lat="37.6608935" lon="129.0559543"><ele>7.52</ele></trkpt>
<trkpt lat="37.66057" lon="129.0561231"><ele>7.74</ele></trkpt>
<trkpt lat="37.6603632" lon="129.05629"><ele>7.89</ele></trkpt>
<trkpt lat="37.6602873" lon="129.05631009999996"><ele>7.93</ele></trkpt>
<trkpt lat="37.6599997" lon="129.0561993"><ele>8.08</ele></trkpt>
<trkpt lat="37.6595706" lon="129.055965"><ele>8.27</ele></trkpt>
<trkpt lat="37.6594204" lon="129.0559726"><ele>8.33</ele></trkpt>
<trkpt lat="37.6592827" lon="129.05609250000003"><ele>8.37</ele></trkpt>
<trkpt lat="37.659151099999995" lon="129.0564531"><ele>8.37</ele></trkpt>
<trkpt lat="37.6590441" lon="129.0565771"><ele>8.3</ele></trkpt>
<trkpt lat="37.6588726" lon="129.0566658"><ele>8.17</ele></trkpt>
<trkpt lat="37.6587054" lon="129.0566743"><ele>8.01</ele></trkpt>
<trkpt lat="37.658553600000005" lon="129.0566218"><ele>7.84</ele></trkpt>
<trkpt lat="37.658339600000005" lon="129.0563863"><ele>7.53</ele></trkpt>
<trkpt lat="37.6579625" lon="129.05612560000003"><ele>7.19</ele></trkpt>
<trkpt lat="37.6576881" lon="129.0558339"><ele>7.07</ele></trkpt>
<trkpt lat="37.6573633" lon="129.05559839999998"><ele>7.12</ele></trkpt>
<trkpt lat="37.6571184" lon="129.0553535"><ele>7.28</ele></trkpt>
<trkpt lat="37.6570224" lon="129.0552966"><ele>7.36</ele></trkpt>
<trkpt lat="37.6569013" lon="129.0552861"><ele>7.47</ele></trkpt>
<trkpt lat="37.6566522" lon="129.05533540000002"><ele>7.69</ele></trkpt>
<trkpt lat="37.6564581" lon="129.05547359999997"><ele>7.84</ele></trkpt>
<trkpt lat="37.6563543" lon="129.0554976"><ele>7.88</ele></trkpt>
<trkpt lat="37.6561766" lon="129.0553543"><ele>7.91</ele></trkpt>
<trkpt lat="37.655998" lon="129.05522450000004"><ele>7.86</ele></trkpt>
<trkpt lat="37.6557604" lon="129.0551857"><ele>7.75</ele></trkpt>
<trkpt lat="37.65556620000001" lon="129.0552578"><ele>7.66</ele></trkpt>
<trkpt lat="37.6553064" lon="129.05550029999998"><ele>7.55</ele></trkpt>
<trkpt lat="37.655143" lon="129.0554748"><ele>7.5</ele></trkpt>
<trkpt lat="37.6550741" lon="129.05538920000004"><ele>7.48</ele></trkpt>
<trkpt lat="37.6549081" lon="129.0550597"><ele>7.44</ele></trkpt>
<trkpt lat="37.6547051" lon="129.05482570000004"><ele>7.41</ele></trkpt>
<trkpt lat="37.6545068" lon="129.0545714"><ele>7.41</ele></trkpt>
<trkpt lat="37.6543098" lon="129.0544528"><ele>7.42</ele></trkpt>
<trkpt lat="37.65351429999999" lon="129.0541599"><ele>7.54</ele></trkpt>
<trkpt lat="37.6533846" lon="129.054058"><ele>7.55</ele></trkpt>
<trkpt lat="37.6533318" lon="129.0539619"><ele>7.55</ele></trkpt>
<trkpt lat="37.6532336" lon="129.05360160000004"><ele>7.53</ele></trkpt>
<trkpt lat="37.6524804" lon="129.05002280000002"><ele>7.1</ele></trkpt>
<trkpt lat="37.6523197" lon="129.04927609999996"><ele>7.26</ele></trkpt>
<trkpt lat="37.65226500000001" lon="129.0491039"><ele>7.32</ele></trkpt>
<trkpt lat="37.652196" lon="129.0490111"><ele>7.37</ele></trkpt>
<trkpt lat="37.65203" lon="129.0489566"><ele>7.47</ele></trkpt>
<trkpt lat="37.6516931" lon="129.0490662"><ele>7.69</ele></trkpt>
<trkpt lat="37.6515256" lon="129.0490888"><ele>7.8</ele></trkpt>
<trkpt lat="37.6513539" lon="129.0490662"><ele>7.92</ele></trkpt>
<trkpt lat="37.6512177" lon="129.04900270000002"><ele>8.03</ele></trkpt>
<trkpt lat="37.6510079" lon="129.04879169999998"><ele>8.26</ele></trkpt>
<trkpt lat="37.6507888" lon="129.0482475"><ele>8.68</ele></trkpt>
<trkpt lat="37.6507003" lon="129.0481231"><ele>8.79</ele></trkpt>
<trkpt lat="37.6505794" lon="129.0480172"><ele>8.9</ele></trkpt>
<trkpt lat="37.6502286" lon="129.047816"><ele>9.17</ele></trkpt>
<trkpt lat="37.6497416" lon="129.0477237"><ele>9.45</ele></trkpt>
<trkpt lat="37.6496522" lon="129.0476863"><ele>9.49</ele></trkpt>
<trkpt lat="37.6494307" lon="129.0475137"><ele>9.57</ele></trkpt>
<trkpt lat="37.6487908" lon="129.0471372"><ele>9.65</ele></trkpt>
<trkpt lat="37.6478098" lon="129.0463165"><ele>9.45</ele></trkpt>
<trkpt lat="37.647478" lon="129.0461407"><ele>9.33</ele></trkpt>
<trkpt lat="37.646790300000006" lon="129.0458785"><ele>9.12</ele></trkpt>
<trkpt lat="37.6461885" lon="129.04558239999997"><ele>9.03</ele></trkpt>
<trkpt lat="37.64591" lon="129.045503"><ele>9.02</ele></trkpt>
<trkpt lat="37.64567" lon="129.045483"><ele>9.03</ele></trkpt>
<trkpt lat="37.6447989" lon="129.0455577"><ele>9.11</ele></trkpt>
<trkpt lat="37.6445403" lon="129.0455315"><ele>9.13</ele></trkpt>
<trkpt lat="37.64439990000001" lon="129.0454768"><ele>9.15</ele></trkpt>
<trkpt lat="37.6441114" lon="129.0452878"><ele>9.18</ele></trkpt>
<trkpt lat="37.6436178" lon="129.0448252"><ele>9.27</ele></trkpt>
<trkpt lat="37.6435012" lon="129.044622"><ele>9.31</ele></trkpt>
<trkpt lat="37.643227399999994" lon="129.0439628"><ele>9.47</ele></trkpt>
<trkpt lat="37.6430744" lon="129.0437504"><ele>9.52</ele></trkpt>
<trkpt lat="37.6428373" lon="129.0435268"><ele>9.56</ele></trkpt>
<trkpt lat="37.6424375" lon="129.0433702"><ele>9.58</ele></trkpt>
</trkseg>
</trk></gpx>
