<?xml version='1.0' encoding='UTF-8'?>
<gpx version="1.1"
  creator="GPXmagic"
  xmlns="http://www.topografix.com/GPX/1/1"
  xmlns:rgt="http://www.rgtcycling.com/XML/GpxExtensions/v1"
  xmlns:xsi="http://www.w3.org/2001/XMLSchema-instance" xsi:schemaLocation="http://www.topografix.com/GPX/1/1
  http://www.topografix.com/GPX/1/1/gpx.xsd">
  <metadata>
    <name>Smoothed with GPXmagic</name>
    <author>
      <link href="https://www.stepwiserefinement.co.uk">
        <text>GPXmagic v3</text>
        <type>text/html</type>
      </link>
    </author>
  </metadata>
<trk>  <name>Namhae&#32;Coastal&#32;Route</name>
<trkseg>
<trkpt lat="34.950105" lon="127.8781435"><ele>29.04</ele></trkpt>
<trkpt lat="34.9500396" lon="127.8779598"><ele>29.92</ele></trkpt>
<trkpt lat="34.949949" lon="127.87755149999998"><ele>31.62</ele></trkpt>
<trkpt lat="34.9496802" lon="127.8755826"><ele>38.08</ele></trkpt>
<trkpt lat="34.9495487" lon="127.8747298"><ele>39.79</ele></trkpt>
<trkpt lat="34.9493741" lon="127.8741488"><ele>40.72</ele></trkpt>
<trkpt lat="34.9492425" lon="127.87385669999999"><ele>40.98</ele></trkpt>
<trkpt lat="34.9490493" lon="127.87353070000002"><ele>40.87</ele></trkpt>
<trkpt lat="34.94879009999999" lon="127.87319080000002"><ele>40.06</ele></trkpt>
<trkpt lat="34.9484413" lon="127.8727749"><ele>37.53</ele></trkpt>
<trkpt lat="34.9482371" lon="127.8724808"><ele>34.95</ele></trkpt>
<trkpt lat="34.9481301" lon="127.8722284"><ele>32.96</ele></trkpt>
<trkpt lat="34.948035" lon="127.87201049999997"><ele>31.41</ele></trkpt>
<trkpt lat="34.947924900000004" lon="127.8720004"><ele>30.75</ele></trkpt>
<trkpt lat="34.9477859" lon="127.87225430000001"><ele>29.73</ele></trkpt>
<trkpt lat="34.947499" lon="127.8723164"><ele>29.34</ele></trkpt>
<trkpt lat="34.9472876" lon="127.8722962"><ele>29.39</ele></trkpt>
<trkpt lat="34.9449575" lon="127.87203499999998"><ele>32.08</ele></trkpt>
<trkpt lat="34.9441058" lon="127.87194049999998"><ele>32.38</ele></trkpt>
<trkpt lat="34.94211" lon="127.87170620000002"><ele>30.76</ele></trkpt>
<trkpt lat="34.94118769999999" lon="127.87160159999999"><ele>32.07</ele></trkpt>
<trkpt lat="34.940988700000005" lon="127.8716995"><ele>33.08</ele></trkpt>
<trkpt lat="34.9408461" lon="127.8719127"><ele>34.39</ele></trkpt>
<trkpt lat="34.9404693" lon="127.87260700000002"><ele>39.06</ele></trkpt>
<trkpt lat="34.940324100000005" lon="127.8727957"><ele>40.58</ele></trkpt>
<trkpt lat="34.9401217" lon="127.8729854"><ele>42.36</ele></trkpt>
<trkpt lat="34.9399297" lon="127.8731061"><ele>43.78</ele></trkpt>
<trkpt lat="34.9394172" lon="127.87332029999999"><ele>47.09</ele></trkpt>
<trkpt lat="34.938495" lon="127.87360749999999"><ele>52.05</ele></trkpt>
<trkpt lat="34.9378475" lon="127.8738088"><ele>54.4</ele></trkpt>
<trkpt lat="34.936274999999995" lon="127.8742975"><ele>57.43</ele></trkpt>
<trkpt lat="34.9355239" lon="127.8745286"><ele>58.2</ele></trkpt>
<trkpt lat="34.9351858" lon="127.874592"><ele>58.35</ele></trkpt>
<trkpt lat="34.93484" lon="127.8745726"><ele>58.37</ele></trkpt>
<trkpt lat="34.934783499999995" lon="127.87460689999999"><ele>58.37</ele></trkpt>
<trkpt lat="34.9346992" lon="127.8752405"><ele>58.25</ele></trkpt>
<trkpt lat="34.9346875" lon="127.87558929999999"><ele>58.07</ele></trkpt>
<trkpt lat="34.93476460000001" lon="127.8758847"><ele>57.72</ele></trkpt>
<trkpt lat="34.9349093" lon="127.8761174"><ele>57.17</ele></trkpt>
<trkpt lat="34.9350834" lon="127.8762814"><ele>56.44</ele></trkpt>
<trkpt lat="34.9356276" lon="127.87666689999999"><ele>53.23</ele></trkpt>
<trkpt lat="34.9359386" lon="127.8767874"><ele>51.01</ele></trkpt>
<trkpt lat="34.9361395" lon="127.8767928"><ele>49.49</ele></trkpt>
<trkpt lat="34.9364493" lon="127.8766865"><ele>46.88</ele></trkpt>
<trkpt lat="34.9370367" lon="127.8763032"><ele>41.16</ele></trkpt>
<trkpt lat="34.937421099999995" lon="127.8760544"><ele>37.19</ele></trkpt>
<trkpt lat="34.9377482" lon="127.8759609"><ele>33.91</ele></trkpt>
<trkpt lat="34.9383806" lon="127.87582659999997"><ele>27.17</ele></trkpt>
<trkpt lat="34.9386098" lon="127.8758057"><ele>24.62</ele></trkpt>
<trkpt lat="34.9392907" lon="127.87594639999999"><ele>17.24</ele></trkpt>
<trkpt lat="34.93961219999999" lon="127.8759006"><ele>14.36</ele></trkpt>
<trkpt lat="34.9398297" lon="127.8757879"><ele>12.65</ele></trkpt>
<trkpt lat="34.9399828" lon="127.8756626"><ele>11.57</ele></trkpt>
<trkpt lat="34.9400503" lon="127.8755023"><ele>10.89</ele></trkpt>
<trkpt lat="34.9400453" lon="127.87444170000002"><ele>8.83</ele></trkpt>
<trkpt lat="34.9401552" lon="127.87415859999999"><ele>8.47</ele></trkpt>
<trkpt lat="34.9402259" lon="127.87413120000001"><ele>8.38</ele></trkpt>
<trkpt lat="34.9403738" lon="127.8744269"><ele>8.13</ele></trkpt>
<trkpt lat="34.9404917" lon="127.87458849999999"><ele>8.02</ele></trkpt>
<trkpt lat="34.9405658" lon="127.8748193"><ele>7.91</ele></trkpt>
<trkpt lat="34.9407891" lon="127.8748963"><ele>7.83</ele></trkpt>
<trkpt lat="34.9413628" lon="127.8752661"><ele>7.72</ele></trkpt>
<trkpt lat="34.9415764" lon="127.87534959999999"><ele>7.71</ele></trkpt>
<trkpt lat="34.9419977" lon="127.8753777"><ele>7.71</ele></trkpt>
<trkpt lat="34.9422754" lon="127.87572340000001"><ele>7.7</ele></trkpt>
<trkpt lat="34.94256180000001" lon="127.8760268"><ele>7.68</ele></trkpt>
<trkpt lat="34.9425663" lon="127.8762641"><ele>7.68</ele></trkpt>
<trkpt lat="34.9422902" lon="127.8766061"><ele>7.69</ele></trkpt>
<trkpt lat="34.9422098" lon="127.87678289999998"><ele>7.71</ele></trkpt>
<trkpt lat="34.9421522" lon="127.8770179"><ele>7.76</ele></trkpt>
<trkpt lat="34.9421618" lon="127.8773409"><ele>7.85</ele></trkpt>
<trkpt lat="34.94222990000001" lon="127.87762529999999"><ele>7.96</ele></trkpt>
<trkpt lat="34.94297" lon="127.8796167"><ele>9.22</ele></trkpt>
<trkpt lat="34.9433397" lon="127.88061219999999"><ele>10.5</ele></trkpt>
<trkpt lat="34.94383930000001" lon="127.8824976"><ele>14.71</ele></trkpt>
<trkpt lat="34.9438611" lon="127.88330829999998"><ele>17.42</ele></trkpt>
<trkpt lat="34.9439892" lon="127.8841725"><ele>20.79</ele></trkpt>
<trkpt lat="34.944031" lon="127.8853107"><ele>25.55</ele></trkpt>
<trkpt lat="34.94416009999999" lon="127.88639700000002"><ele>30.92</ele></trkpt>
<trkpt lat="34.94436970000001" lon="127.8876115"><ele>38.33</ele></trkpt>
<trkpt lat="34.9445031" lon="127.88876909999999"><ele>45.29</ele></trkpt>
<trkpt lat="34.9446502" lon="127.8893152"><ele>48.38</ele></trkpt>
<trkpt lat="34.9447388" lon="127.8898263"><ele>50.83</ele></trkpt>
<trkpt lat="34.944779" lon="127.89020129999999"><ele>52.33</ele></trkpt>
<trkpt lat="34.9447717" lon="127.89079099999998"><ele>54.29</ele></trkpt>
<trkpt lat="34.9447344" lon="127.89126850000001"><ele>55.66</ele></trkpt>
<trkpt lat="34.94460599999999" lon="127.89177710000001"><ele>56.97</ele></trkpt>
<trkpt lat="34.9444415" lon="127.8922943"><ele>58.16</ele></trkpt>
<trkpt lat="34.9443377" lon="127.8925637"><ele>58.72</ele></trkpt>
<trkpt lat="34.94408980000001" lon="127.89307160000001"><ele>59.63</ele></trkpt>
<trkpt lat="34.9437393" lon="127.8938604"><ele>60.53</ele></trkpt>
<trkpt lat="34.94349050000001" lon="127.8941842"><ele>60.42</ele></trkpt>
<trkpt lat="34.9431021" lon="127.89488810000003"><ele>58.76</ele></trkpt>
<trkpt lat="34.94287860000001" lon="127.89543"><ele>56.8</ele></trkpt>
<trkpt lat="34.9426481" lon="127.89577919999999"><ele>55.37</ele></trkpt>
<trkpt lat="34.9424517" lon="127.8959698"><ele>54.55</ele></trkpt>
<trkpt lat="34.9416569" lon="127.89688829999999"><ele>52.95</ele></trkpt>
<trkpt lat="34.9415029" lon="127.8971423"><ele>53.12</ele></trkpt>
<trkpt lat="34.94130439999999" lon="127.89761829999999"><ele>53.88</ele></trkpt>
<trkpt lat="34.94120190000001" lon="127.8977801"><ele>54.29</ele></trkpt>
<trkpt lat="34.9408247" lon="127.89812089999998"><ele>55.67</ele></trkpt>
<trkpt lat="34.9405989" lon="127.898235"><ele>56.44</ele></trkpt>
<trkpt lat="34.9401229" lon="127.898359"><ele>57.98</ele></trkpt>
<trkpt lat="34.9398845" lon="127.8985762"><ele>58.81</ele></trkpt>
<trkpt lat="34.9397729" lon="127.89875839999999"><ele>59.25</ele></trkpt>
<trkpt lat="34.9396992" lon="127.8989966"><ele>59.68</ele></trkpt>
<trkpt lat="34.9397349" lon="127.8997299"><ele>60.58</ele></trkpt>
<trkpt lat="34.9397075" lon="127.8999081"><ele>60.76</ele></trkpt>
<trkpt lat="34.9395853" lon="127.90010920000002"><ele>61</ele></trkpt>
<trkpt lat="34.939414400000004" lon="127.90024259999998"><ele>61.24</ele></trkpt>
<trkpt lat="34.9387618" lon="127.90061030000001"><ele>62.15</ele></trkpt>
<trkpt lat="34.9384501" lon="127.9008602"><ele>62.67</ele></trkpt>
<trkpt lat="34.9382617" lon="127.9011224"><ele>63.1</ele></trkpt>
<trkpt lat="34.9380116" lon="127.90165899999998"><ele>63.86</ele></trkpt>
<trkpt lat="34.9377707" lon="127.90238650000003"><ele>64.91</ele></trkpt>
<trkpt lat="34.9376819" lon="127.9028724"><ele>65.78</ele></trkpt>
<trkpt lat="34.9376774" lon="127.9030762"><ele>66.22</ele></trkpt>
<trkpt lat="34.9377154" lon="127.9033419"><ele>66.87</ele></trkpt>
<trkpt lat="34.937882" lon="127.90394980000002"><ele>68.66</ele></trkpt>
<trkpt lat="34.9378792" lon="127.90415220000001"><ele>69.23</ele></trkpt>
<trkpt lat="34.937817" lon="127.9043824"><ele>69.89</ele></trkpt>
<trkpt lat="34.93767419999999" lon="127.9045329"><ele>70.48</ele></trkpt>
<trkpt lat="34.9372709" lon="127.90475400000001"><ele>71.77</ele></trkpt>
<trkpt lat="34.937090700000006" lon="127.9048877"><ele>72.39</ele></trkpt>
<trkpt lat="34.936708" lon="127.90535639999997"><ele>74.15</ele></trkpt>
<trkpt lat="34.9363391" lon="127.90586889999999"><ele>76.35</ele></trkpt>
<trkpt lat="34.9360423" lon="127.906174"><ele>78.05</ele></trkpt>
<trkpt lat="34.9358036" lon="127.9063649"><ele>79.35</ele></trkpt>
<trkpt lat="34.935728700000006" lon="127.906465"><ele>79.86</ele></trkpt>
<trkpt lat="34.9353584" lon="127.9071886"><ele>83.08</ele></trkpt>
<trkpt lat="34.9351742" lon="127.9076442"><ele>85</ele></trkpt>
<trkpt lat="34.93508189999999" lon="127.9078033"><ele>85.75</ele></trkpt>
<trkpt lat="34.934933599999994" lon="127.90793540000001"><ele>86.61</ele></trkpt>
<trkpt lat="34.9345917" lon="127.9080845"><ele>88.28</ele></trkpt>
<trkpt lat="34.9342801" lon="127.90839509999999"><ele>90.03</ele></trkpt>
<trkpt lat="34.9341913" lon="127.9087841"><ele>91.36</ele></trkpt>
<trkpt lat="34.9342606" lon="127.90910109999999"><ele>92.34</ele></trkpt>
<trkpt lat="34.9344486" lon="127.909437"><ele>93.37</ele></trkpt>
<trkpt lat="34.9344612" lon="127.90961609999998"><ele>93.74</ele></trkpt>
<trkpt lat="34.9343997" lon="127.90974099999997"><ele>93.98</ele></trkpt>
<trkpt lat="34.9337334" lon="127.91049069999998"><ele>94.29</ele></trkpt>
<trkpt lat="34.9335255" lon="127.9105979"><ele>93.69</ele></trkpt>
<trkpt lat="34.93319319999999" lon="127.9106356"><ele>92.19</ele></trkpt>
<trkpt lat="34.9329246" lon="127.91090110000002"><ele>90.07</ele></trkpt>
<trkpt lat="34.9325642" lon="127.9109626"><ele>87.51</ele></trkpt>
<trkpt lat="34.9323333" lon="127.9111823"><ele>85.37</ele></trkpt>
<trkpt lat="34.9322363" lon="127.9112246"><ele>84.62</ele></trkpt>
<trkpt lat="34.9320852" lon="127.911141"><ele>83.42</ele></trkpt>
<trkpt lat="34.931615199999996" lon="127.9106123"><ele>79.23</ele></trkpt>
<trkpt lat="34.9314128" lon="127.9105363"><ele>78.02</ele></trkpt>
<trkpt lat="34.9312538" lon="127.9106094"><ele>77.12</ele></trkpt>
<trkpt lat="34.9311289" lon="127.9107784"><ele>76.17</ele></trkpt>
<trkpt lat="34.9310531" lon="127.91095439999998"><ele>75.34</ele></trkpt>
<trkpt lat="34.93100499999999" lon="127.9112386"><ele>74.05</ele></trkpt>
<trkpt lat="34.93090459999999" lon="127.91142540000001"><ele>72.95</ele></trkpt>
<trkpt lat="34.9307634" lon="127.9115089"><ele>71.92</ele></trkpt>
<trkpt lat="34.9305297" lon="127.9114975"><ele>70.21</ele></trkpt>
<trkpt lat="34.9304247" lon="127.9114238"><ele>69.28</ele></trkpt>
<trkpt lat="34.9301662" lon="127.91098919999999"><ele>65.74</ele></trkpt>
<trkpt lat="34.930096" lon="127.91091600000003"><ele>65</ele></trkpt>
<trkpt lat="34.92990929999999" lon="127.91084990000002"><ele>63.47</ele></trkpt>
<trkpt lat="34.9296981" lon="127.91089089999998"><ele>61.88</ele></trkpt>
<trkpt lat="34.9293351" lon="127.91122560000001"><ele>58.79</ele></trkpt>
<trkpt lat="34.9290272" lon="127.9116113"><ele>56.09</ele></trkpt>
<trkpt lat="34.9289408" lon="127.91168169999999"><ele>55.5</ele></trkpt>
<trkpt lat="34.9287419" lon="127.9117454"><ele>54.41</ele></trkpt>
<trkpt lat="34.9282225" lon="127.9117201"><ele>51.98</ele></trkpt>
<trkpt lat="34.9281222" lon="127.9117454"><ele>51.54</ele></trkpt>
<trkpt lat="34.9279846" lon="127.91188439999999"><ele>50.81</ele></trkpt>
<trkpt lat="34.927900900000004" lon="127.9120557"><ele>50.2</ele></trkpt>
<trkpt lat="34.9276769" lon="127.9126912"><ele>48.27</ele></trkpt>
<trkpt lat="34.9274538" lon="127.91320720000002"><ele>46.75</ele></trkpt>
<trkpt lat="34.9272725" lon="127.91348409999998"><ele>45.9</ele></trkpt>
<trkpt lat="34.9270401" lon="127.91367980000001"><ele>45.17</ele></trkpt>
<trkpt lat="34.9268332" lon="127.91380949999999"><ele>44.67</ele></trkpt>
<trkpt lat="34.9258286" lon="127.91408109999998"><ele>43.19</ele></trkpt>
<trkpt lat="34.9253465" lon="127.9142551"><ele>43.06</ele></trkpt>
<trkpt lat="34.9247594" lon="127.9145408"><ele>43.52</ele></trkpt>
<trkpt lat="34.9243456" lon="127.9148666"><ele>44.17</ele></trkpt>
<trkpt lat="34.9239218" lon="127.9150284"><ele>44.79</ele></trkpt>
<trkpt lat="34.9232001" lon="127.91515440000003"><ele>45.79</ele></trkpt>
<trkpt lat="34.9225786" lon="127.91522150000002"><ele>46.83</ele></trkpt>
<trkpt lat="34.9221202" lon="127.9153411"><ele>47.82</ele></trkpt>
<trkpt lat="34.9218719" lon="127.9155536"><ele>48.45</ele></trkpt>
<trkpt lat="34.921536" lon="127.91600679999999"><ele>49.28</ele></trkpt>
<trkpt lat="34.92139649999999" lon="127.91616280000001"><ele>49.47</ele></trkpt>
<trkpt lat="34.920748" lon="127.916466"><ele>49.77</ele></trkpt>
<trkpt lat="34.9200642" lon="127.91680759999998"><ele>49.75</ele></trkpt>
<trkpt lat="34.91963400000001" lon="127.916994"><ele>49.7</ele></trkpt>
<trkpt lat="34.9193417" lon="127.91703780000002"><ele>49.7</ele></trkpt>
<trkpt lat="34.9191475" lon="127.91702890000002"><ele>49.74</ele></trkpt>
<trkpt lat="34.918659000000005" lon="127.9168377"><ele>49.97</ele></trkpt>
<trkpt lat="34.9183029" lon="127.9168401"><ele>50.32</ele></trkpt>
<trkpt lat="34.9174551" lon="127.91705139999999"><ele>52.29</ele></trkpt>
<trkpt lat="34.9172306" lon="127.9170248"><ele>53.02</ele></trkpt>
<trkpt lat="34.9170044" lon="127.9169154"><ele>53.83</ele></trkpt>
<trkpt lat="34.9164817" lon="127.9165623"><ele>55.6</ele></trkpt>
<trkpt lat="34.9161508" lon="127.91641999999999"><ele>56.25</ele></trkpt>
<trkpt lat="34.9160082" lon="127.91638730000003"><ele>56.42</ele></trkpt>
<trkpt lat="34.9155798" lon="127.91650129999998"><ele>56.55</ele></trkpt>
<trkpt lat="34.9152971" lon="127.9166428"><ele>56.43</ele></trkpt>
<trkpt lat="34.9150458" lon="127.91682179999998"><ele>56.26</ele></trkpt>
<trkpt lat="34.9148285" lon="127.91704670000001"><ele>56.08</ele></trkpt>
<trkpt lat="34.9144587" lon="127.91730170000001"><ele>55.89</ele></trkpt>
<trkpt lat="34.914279199999996" lon="127.9173749"><ele>55.83</ele></trkpt>
<trkpt lat="34.91371240000001" lon="127.9174273"><ele>55.7</ele></trkpt>
<trkpt lat="34.9134199" lon="127.917507"><ele>55.62</ele></trkpt>
<trkpt lat="34.9132119" lon="127.917528"><ele>55.54</ele></trkpt>
<trkpt lat="34.91269940000001" lon="127.9174109"><ele>55.29</ele></trkpt>
<trkpt lat="34.9123916" lon="127.9174114"><ele>55.2</ele></trkpt>
<trkpt lat="34.9117506" lon="127.9175055"><ele>55.57</ele></trkpt>
<trkpt lat="34.91096389999999" lon="127.9178679"><ele>57.58</ele></trkpt>
<trkpt lat="34.9106258" lon="127.91795920000001"><ele>58.43</ele></trkpt>
<trkpt lat="34.9102543" lon="127.9179565"><ele>59.09</ele></trkpt>
<trkpt lat="34.90998200000001" lon="127.91783599999997"><ele>59.32</ele></trkpt>
<trkpt lat="34.9094623" lon="127.9174201"><ele>59.12</ele></trkpt>
<trkpt lat="34.9091523" lon="127.9173019"><ele>58.63</ele></trkpt>
<trkpt lat="34.9088033" lon="127.91728799999999"><ele>57.87</ele></trkpt>
<trkpt lat="34.9078986" lon="127.9176806"><ele>55.42</ele></trkpt>
<trkpt lat="34.9074862" lon="127.91766290000001"><ele>54.55</ele></trkpt>
<trkpt lat="34.9073189" lon="127.9176116"><ele>54.31</ele></trkpt>
<trkpt lat="34.9070693" lon="127.9174428"><ele>54.15</ele></trkpt>
<trkpt lat="34.90686000000001" lon="127.9173544"><ele>54.29</ele></trkpt>
<trkpt lat="34.9067136" lon="127.917335"><ele>54.53</ele></trkpt>
<trkpt lat="34.9059779" lon="127.9173802"><ele>56.48</ele></trkpt>
<trkpt lat="34.9057465" lon="127.91728860000002"><ele>57.3</ele></trkpt>
<trkpt lat="34.9053388" lon="127.91683980000002"><ele>59.4</ele></trkpt>
<trkpt lat="34.90492220000001" lon="127.91666440000002"><ele>61</ele></trkpt>
<trkpt lat="34.9047529" lon="127.91652569999998"><ele>61.67</ele></trkpt>
<trkpt lat="34.904565" lon="127.9162757"><ele>62.51</ele></trkpt>
<trkpt lat="34.9044691" lon="127.9161972"><ele>62.85</ele></trkpt>
<trkpt lat="34.9037427" lon="127.9160094"><ele>64.91</ele></trkpt>
<trkpt lat="34.90349520000001" lon="127.9158853"><ele>65.65</ele></trkpt>
<trkpt lat="34.9031595" lon="127.9155907"><ele>66.74</ele></trkpt>
<trkpt lat="34.9028982" lon="127.9154564"><ele>67.34</ele></trkpt>
<trkpt lat="34.9021745" lon="127.9153307"><ele>67.46</ele></trkpt>
<trkpt lat="34.9018621" lon="127.9152764"><ele>66.39</ele></trkpt>
<trkpt lat="34.901581" lon="127.915166"><ele>64.59</ele></trkpt>
<trkpt lat="34.9013221" lon="127.9149377"><ele>61.9</ele></trkpt>
<trkpt lat="34.9007475" lon="127.9140126"><ele>52.29</ele></trkpt>
<trkpt lat="34.9004401" lon="127.9137307"><ele>48.78</ele></trkpt>
<trkpt lat="34.9001873" lon="127.91360900000001"><ele>46.72</ele></trkpt>
<trkpt lat="34.8995124" lon="127.91356210000001"><ele>42.39</ele></trkpt>
<trkpt lat="34.8993421" lon="127.9135218"><ele>41.39</ele></trkpt>
<trkpt lat="34.89830709999999" lon="127.9130631"><ele>35.47</ele></trkpt>
<trkpt lat="34.8980169" lon="127.91291470000002"><ele>33.46</ele></trkpt>
<trkpt lat="34.8978157" lon="127.9128542"><ele>32.02</ele></trkpt>
<trkpt lat="34.8975879" lon="127.9128483"><ele>30.39</ele></trkpt>
<trkpt lat="34.8972353" lon="127.9128788"><ele>27.89</ele></trkpt>
<trkpt lat="34.896891999999994" lon="127.91284760000002"><ele>25.73</ele></trkpt>
<trkpt lat="34.8967362" lon="127.9127664"><ele>24.87</ele></trkpt>
<trkpt lat="34.8964687" lon="127.9125378"><ele>23.81</ele></trkpt>
<trkpt lat="34.896323" lon="127.9124614"><ele>23.61</ele></trkpt>
<trkpt lat="34.8960077" lon="127.9123751"><ele>23.82</ele></trkpt>
<trkpt lat="34.8955433" lon="127.9123109"><ele>25.15</ele></trkpt>
<trkpt lat="34.89499820000001" lon="127.912293"><ele>27.22</ele></trkpt>
<trkpt lat="34.8947603" lon="127.9121819"><ele>28.12</ele></trkpt>
<trkpt lat="34.89458690000001" lon="127.9120254"><ele>28.76</ele></trkpt>
<trkpt lat="34.89370650000001" lon="127.91111959999998"><ele>29.95</ele></trkpt>
<trkpt lat="34.8935035" lon="127.91097409999999"><ele>29.51</ele></trkpt>
<trkpt lat="34.8930195" lon="127.9107504"><ele>27.7</ele></trkpt>
<trkpt lat="34.892347599999994" lon="127.9105017"><ele>24.37</ele></trkpt>
<trkpt lat="34.8913307" lon="127.91007989999999"><ele>19.87</ele></trkpt>
<trkpt lat="34.8908602" lon="127.9098597"><ele>18.31</ele></trkpt>
<trkpt lat="34.890305" lon="127.909565"><ele>17.37</ele></trkpt>
<trkpt lat="34.889518" lon="127.909141"><ele>17.41</ele></trkpt>
<trkpt lat="34.8893125" lon="127.90904730000001"><ele>17.58</ele></trkpt>
<trkpt lat="34.8891742" lon="127.9088775"><ele>17.82</ele></trkpt>
<trkpt lat="34.88913169999999" lon="127.9087153"><ele>18.02</ele></trkpt>
<trkpt lat="34.889133" lon="127.9084404"><ele>18.36</ele></trkpt>
<trkpt lat="34.8892405" lon="127.9076954"><ele>19.01</ele></trkpt>
<trkpt lat="34.8892412" lon="127.9075844"><ele>19</ele></trkpt>
<trkpt lat="34.8891457" lon="127.90690339999999"><ele>18.12</ele></trkpt>
<trkpt lat="34.88911389999999" lon="127.9064401"><ele>17.06</ele></trkpt>
<trkpt lat="34.8891987" lon="127.9056574"><ele>15.12</ele></trkpt>
<trkpt lat="34.8891532" lon="127.9054458"><ele>14.54</ele></trkpt>
<trkpt lat="34.8888226" lon="127.90534989999999"><ele>13.53</ele></trkpt>
<trkpt lat="34.88833120000001" lon="127.90514310000002"><ele>11.93</ele></trkpt>
<trkpt lat="34.8881765" lon="127.90503600000001"><ele>11.37</ele></trkpt>
<trkpt lat="34.8880971" lon="127.9049238"><ele>10.98</ele></trkpt>
<trkpt lat="34.8879536" lon="127.904536"><ele>9.91</ele></trkpt>
<trkpt lat="34.8876693" lon="127.90424709999999"><ele>8.96</ele></trkpt>
<trkpt lat="34.8875295" lon="127.9042225"><ele>8.69</ele></trkpt>
<trkpt lat="34.8873415" lon="127.90425540000001"><ele>8.43</ele></trkpt>
<trkpt lat="34.8872742" lon="127.90421740000002"><ele>8.35</ele></trkpt>
<trkpt lat="34.8869644" lon="127.90324170000001"><ele>7.96</ele></trkpt>
<trkpt lat="34.8868883" lon="127.9030897"><ele>7.92</ele></trkpt>
<trkpt lat="34.8867617" lon="127.9030831"><ele>7.89</ele></trkpt>
<trkpt lat="34.8853281" lon="127.9032091"><ele>7.87</ele></trkpt>
<trkpt lat="34.8850684" lon="127.9031826"><ele>8.04</ele></trkpt>
<trkpt lat="34.8847918" lon="127.9026915"><ele>8.44</ele></trkpt>
<trkpt lat="34.8845987" lon="127.90222960000001"><ele>8.63</ele></trkpt>
<trkpt lat="34.884056" lon="127.9012842"><ele>8.67</ele></trkpt>
<trkpt lat="34.8838693" lon="127.9011523"><ele>8.67</ele></trkpt>
<trkpt lat="34.88254150000001" lon="127.900914"><ele>8.44</ele></trkpt>
<trkpt lat="34.8822584" lon="127.9007635"><ele>8.29</ele></trkpt>
<trkpt lat="34.882130000000004" lon="127.90072510000003"><ele>8.23</ele></trkpt>
<trkpt lat="34.8817966" lon="127.90073849999999"><ele>8.09</ele></trkpt>
<trkpt lat="34.878558" lon="127.9014544"><ele>7.73</ele></trkpt>
<trkpt lat="34.8783149" lon="127.90142780000002"><ele>7.71</ele></trkpt>
<trkpt lat="34.878215299999994" lon="127.9013575"><ele>7.7</ele></trkpt>
<trkpt lat="34.8775807" lon="127.9006435"><ele>7.63</ele></trkpt>
<trkpt lat="34.8752128" lon="127.8980296"><ele>7.64</ele></trkpt>
<trkpt lat="34.87511239999999" lon="127.89794509999999"><ele>7.63</ele></trkpt>
<trkpt lat="34.8748364" lon="127.89782310000001"><ele>7.62</ele></trkpt>
<trkpt lat="34.8745697" lon="127.89785169999999"><ele>7.6</ele></trkpt>
<trkpt lat="34.8738693" lon="127.8980982"><ele>7.53</ele></trkpt>
<trkpt lat="34.873728" lon="127.89812339999997"><ele>7.53</ele></trkpt>
<trkpt lat="34.872698" lon="127.8979008"><ele>7.55</ele></trkpt>
<trkpt lat="34.87236029999999" lon="127.8979038"><ele>7.57</ele></trkpt>
<trkpt lat="34.8718886" lon="127.89801099999998"><ele>7.59</ele></trkpt>
<trkpt lat="34.87139" lon="127.89818079999999"><ele>7.61</ele></trkpt>
<trkpt lat="34.8704286" lon="127.89863050000001"><ele>7.63</ele></trkpt>
<trkpt lat="34.8689903" lon="127.8992702"><ele>7.64</ele></trkpt>
<trkpt lat="34.8682715" lon="127.89962029999997"><ele>7.62</ele></trkpt>
<trkpt lat="34.8679093" lon="127.89985989999998"><ele>7.6</ele></trkpt>
<trkpt lat="34.867013" lon="127.90037879999997"><ele>7.5</ele></trkpt>
<trkpt lat="34.8665815" lon="127.9007302"><ele>7.47</ele></trkpt>
<trkpt lat="34.8662966" lon="127.90113509999998"><ele>7.46</ele></trkpt>
<trkpt lat="34.8660961" lon="127.90129740000002"><ele>7.46</ele></trkpt>
<trkpt lat="34.8654185" lon="127.90157169999999"><ele>7.48</ele></trkpt>
<trkpt lat="34.8649359" lon="127.9018284"><ele>7.49</ele></trkpt>
<trkpt lat="34.8647923" lon="127.9018395"><ele>7.49</ele></trkpt>
<trkpt lat="34.8643387" lon="127.9016042"><ele>7.5</ele></trkpt>
<trkpt lat="34.864129899999995" lon="127.901551"><ele>7.5</ele></trkpt>
<trkpt lat="34.8630774" lon="127.90145970000002"><ele>7.5</ele></trkpt>
<trkpt lat="34.8629257" lon="127.90146109999999"><ele>7.5</ele></trkpt>
<trkpt lat="34.862221899999994" lon="127.90169540000002"><ele>7.52</ele></trkpt>
<trkpt lat="34.8619671" lon="127.90187380000002"><ele>7.52</ele></trkpt>
<trkpt lat="34.8611486" lon="127.90234930000001"><ele>7.5</ele></trkpt>
<trkpt lat="34.8602912" lon="127.90270339999996"><ele>7.48</ele></trkpt>
<trkpt lat="34.8595824" lon="127.9031796"><ele>7.46</ele></trkpt>
<trkpt lat="34.8593827" lon="127.90339269999998"><ele>7.46</ele></trkpt>
<trkpt lat="34.8592422" lon="127.90363169999999"><ele>7.46</ele></trkpt>
<trkpt lat="34.8589835" lon="127.90425999999998"><ele>7.44</ele></trkpt>
<trkpt lat="34.858733" lon="127.9047837"><ele>7.41</ele></trkpt>
<trkpt lat="34.85852080000001" lon="127.9051642"><ele>7.37</ele></trkpt>
<trkpt lat="34.8583979" lon="127.9052884"><ele>7.34</ele></trkpt>
<trkpt lat="34.8577666" lon="127.90572390000001"><ele>7.25</ele></trkpt>
<trkpt lat="34.8574606" lon="127.9058177"><ele>7.22</ele></trkpt>
<trkpt lat="34.8571593" lon="127.90575519999997"><ele>7.22</ele></trkpt>
<trkpt lat="34.8570032" lon="127.9057622"><ele>7.22</ele></trkpt>
<trkpt lat="34.8564403" lon="127.9060308"><ele>7.26</ele></trkpt>
<trkpt lat="34.8561565" lon="127.9062342"><ele>7.28</ele></trkpt>
<trkpt lat="34.855888" lon="127.90647380000003"><ele>7.31</ele></trkpt>
<trkpt lat="34.8553581" lon="127.9071223"><ele>7.37</ele></trkpt>
<trkpt lat="34.8552276" lon="127.90723290000003"><ele>7.38</ele></trkpt>
<trkpt lat="34.85467070000001" lon="127.9073805"><ele>7.38</ele></trkpt>
<trkpt lat="34.8542652" lon="127.90732729999999"><ele>7.36</ele></trkpt>
<trkpt lat="34.8540345" lon="127.9073245"><ele>7.34</ele></trkpt>
<trkpt lat="34.8538316" lon="127.9074665"><ele>7.3</ele></trkpt>
<trkpt lat="34.8536555" lon="127.90797810000001"><ele>7.21</ele></trkpt>
<trkpt lat="34.85356409999999" lon="127.9081529"><ele>7.18</ele></trkpt>
<trkpt lat="34.8526329" lon="127.90885219999998"><ele>6.96</ele></trkpt>
<trkpt lat="34.8525561" lon="127.90886440000001"><ele>6.94</ele></trkpt>
<trkpt lat="34.8524687" lon="127.9087596"><ele>6.92</ele></trkpt>
<trkpt lat="34.8524434" lon="127.90850739999999"><ele>6.88</ele></trkpt>
<trkpt lat="34.8525247" lon="127.9080591"><ele>6.8</ele></trkpt>
<trkpt lat="34.8524987" lon="127.9079628"><ele>6.77</ele></trkpt>
<trkpt lat="34.852256" lon="127.9078745"><ele>6.68</ele></trkpt>
<trkpt lat="34.85182" lon="127.9079095"><ele>6.5</ele></trkpt>
<trkpt lat="34.8515821" lon="127.90798600000001"><ele>6.41</ele></trkpt>
<trkpt lat="34.8511514" lon="127.90830759999999"><ele>6.3</ele></trkpt>
<trkpt lat="34.8508672" lon="127.9084559"><ele>6.31</ele></trkpt>
<trkpt lat="34.8505074" lon="127.9085165"><ele>6.43</ele></trkpt>
<trkpt lat="34.8501427" lon="127.90841399999996"><ele>6.6</ele></trkpt>
<trkpt lat="34.8498877" lon="127.9084772"><ele>6.69</ele></trkpt>
<trkpt lat="34.8495852" lon="127.9086619"><ele>6.75</ele></trkpt>
<trkpt lat="34.8486543" lon="127.9090667"><ele>6.57</ele></trkpt>
<trkpt lat="34.8484687" lon="127.9090741"><ele>6.46</ele></trkpt>
<trkpt lat="34.84836850000001" lon="127.909169"><ele>6.36</ele></trkpt>
<trkpt lat="34.8480461" lon="127.90965119999998"><ele>5.93</ele></trkpt>
<trkpt lat="34.8478786" lon="127.90999339999999"><ele>5.68</ele></trkpt>
<trkpt lat="34.8476662" lon="127.9101508"><ele>5.52</ele></trkpt>
<trkpt lat="34.8466676" lon="127.91034019999996"><ele>5.19</ele></trkpt>
<trkpt lat="34.8459105" lon="127.9104486"><ele>5.15</ele></trkpt>
<trkpt lat="34.8457346" lon="127.91040019999997"><ele>5.16</ele></trkpt>
<trkpt lat="34.8454876" lon="127.9101445"><ele>5.19</ele></trkpt>
<trkpt lat="34.8453982" lon="127.9100866"><ele>5.21</ele></trkpt>
<trkpt lat="34.8450855" lon="127.9100149"><ele>5.25</ele></trkpt>
<trkpt lat="34.844987100000004" lon="127.91003049999998"><ele>5.27</ele></trkpt>
<trkpt lat="34.8446614" lon="127.91043449999998"><ele>5.32</ele></trkpt>
<trkpt lat="34.8445314" lon="127.91072519999999"><ele>5.37</ele></trkpt>
<trkpt lat="34.8445171" lon="127.91098899999999"><ele>5.43</ele></trkpt>
<trkpt lat="34.84498140000001" lon="127.91268819999999"><ele>6</ele></trkpt>
<trkpt lat="34.845374" lon="127.9140766"><ele>6.77</ele></trkpt>
<trkpt lat="34.8453256" lon="127.91419470000001"><ele>6.84</ele></trkpt>
<trkpt lat="34.8446447" lon="127.9144561"><ele>7.13</ele></trkpt>
<trkpt lat="34.8431489" lon="127.9150497"><ele>7.35</ele></trkpt>
<trkpt lat="34.8422409" lon="127.9153293"><ele>7.39</ele></trkpt>
<trkpt lat="34.8413705" lon="127.9155506"><ele>7.43</ele></trkpt>
<trkpt lat="34.8394465" lon="127.91625470000002"><ele>7.56</ele></trkpt>
<trkpt lat="34.83692369999999" lon="127.9173069"><ele>7.62</ele></trkpt>
<trkpt lat="34.8367512" lon="127.9173479"><ele>7.62</ele></trkpt>
<trkpt lat="34.8363693" lon="127.9173252"><ele>7.56</ele></trkpt>
<trkpt lat="34.8357818" lon="127.91713209999998"><ele>7.4</ele></trkpt>
<trkpt lat="34.8355303" lon="127.9170973"><ele>7.31</ele></trkpt>
<trkpt lat="34.835396100000004" lon="127.9171457"><ele>7.25</ele></trkpt>
<trkpt lat="34.835342" lon="127.9172782"><ele>7.2</ele></trkpt>
<trkpt lat="34.8352411" lon="127.91831070000003"><ele>6.8</ele></trkpt>
<trkpt lat="34.8352411" lon="127.9185302"><ele>6.75</ele></trkpt>
<trkpt lat="34.8353054" lon="127.9192406"><ele>6.74</ele></trkpt>
<trkpt lat="34.8352842" lon="127.9193982"><ele>6.82</ele></trkpt>
<trkpt lat="34.8351302" lon="127.9196605"><ele>7.16</ele></trkpt>
<trkpt lat="34.83514650000001" lon="127.91995040000002"><ele>7.66</ele></trkpt>
<trkpt lat="34.8351232" lon="127.9202835"><ele>8.35</ele></trkpt>
<trkpt lat="34.8350611" lon="127.9204576"><ele>8.72</ele></trkpt>
<trkpt lat="34.83476180000001" lon="127.92081919999998"><ele>9.27</ele></trkpt>
<trkpt lat="34.83446719999999" lon="127.92125660000002"><ele>8.91</ele></trkpt>
<trkpt lat="34.834272" lon="127.92144149999999"><ele>8.48</ele></trkpt>
<trkpt lat="34.8337629" lon="127.92181469999998"><ele>7.34</ele></trkpt>
<trkpt lat="34.8336246" lon="127.9220129"><ele>7.03</ele></trkpt>
<trkpt lat="34.8334968" lon="127.92242049999999"><ele>6.71</ele></trkpt>
<trkpt lat="34.8333963" lon="127.92262619999998"><ele>6.61</ele></trkpt>
<trkpt lat="34.8331747" lon="127.92287420000001"><ele>6.55</ele></trkpt>
<trkpt lat="34.8326521" lon="127.9233869"><ele>6.55</ele></trkpt>
<trkpt lat="34.8324524" lon="127.9235331"><ele>6.55</ele></trkpt>
<trkpt lat="34.83215930000001" lon="127.9236547"><ele>6.53</ele></trkpt>
<trkpt lat="34.8317534" lon="127.9236705"><ele>6.46</ele></trkpt>
<trkpt lat="34.8310065" lon="127.92373269999999"><ele>6.29</ele></trkpt>
<trkpt lat="34.8306634" lon="127.92410369999997"><ele>6.23</ele></trkpt>
<trkpt lat="34.8305416" lon="127.924372"><ele>6.25</ele></trkpt>
<trkpt lat="34.83048879999999" lon="127.9246057"><ele>6.31</ele></trkpt>
<trkpt lat="34.8304874" lon="127.92484089999999"><ele>6.4</ele></trkpt>
<trkpt lat="34.8306453" lon="127.9256807"><ele>6.89</ele></trkpt>
<trkpt lat="34.830641" lon="127.92628800000001"><ele>7.14</ele></trkpt>
<trkpt lat="34.8307023" lon="127.92688599999998"><ele>7.13</ele></trkpt>
<trkpt lat="34.8308533" lon="127.9273977"><ele>7.03</ele></trkpt>
<trkpt lat="34.8312357" lon="127.9283079"><ele>6.84</ele></trkpt>
<trkpt lat="34.8313846" lon="127.9285641"><ele>6.77</ele></trkpt>
<trkpt lat="34.8315367" lon="127.9286579"><ele>6.72</ele></trkpt>
<trkpt lat="34.8318147" lon="127.92857990000002"><ele>6.61</ele></trkpt>
<trkpt lat="34.8319098" lon="127.92864709999999"><ele>6.56</ele></trkpt>
<trkpt lat="34.8319868" lon="127.92889500000001"><ele>6.47</ele></trkpt>
<trkpt lat="34.8321185" lon="127.9290933"><ele>6.39</ele></trkpt>
<trkpt lat="34.8322153" lon="127.9293828"><ele>6.31</ele></trkpt>
<trkpt lat="34.8322859" lon="127.92986120000002"><ele>6.24</ele></trkpt>
<trkpt lat="34.8323548" lon="127.93006740000001"><ele>6.22</ele></trkpt>
<trkpt lat="34.8326959" lon="127.9306204"><ele>6.23</ele></trkpt>
<trkpt lat="34.8329221" lon="127.93094610000001"><ele>6.25</ele></trkpt>
<trkpt lat="34.8330163" lon="127.9311322"><ele>6.26</ele></trkpt>
<trkpt lat="34.8330767" lon="127.93136219999998"><ele>6.27</ele></trkpt>
<trkpt lat="34.833224599999994" lon="127.93224930000002"><ele>6.3</ele></trkpt>
<trkpt lat="34.8331673" lon="127.93256679999998"><ele>6.31</ele></trkpt>
<trkpt lat="34.83247320000001" lon="127.9340118"><ele>6.36</ele></trkpt>
<trkpt lat="34.832195" lon="127.9349968"><ele>6.36</ele></trkpt>
<trkpt lat="34.832048" lon="127.935243"><ele>6.36</ele></trkpt>
<trkpt lat="34.8315883" lon="127.9359269"><ele>6.33</ele></trkpt>
<trkpt lat="34.8314477" lon="127.93630429999999"><ele>6.31</ele></trkpt>
<trkpt lat="34.8313566" lon="127.93640180000001"><ele>6.31</ele></trkpt>
<trkpt lat="34.8301204" lon="127.93738"><ele>6.24</ele></trkpt>
<trkpt lat="34.8296925" lon="127.9377444"><ele>6.23</ele></trkpt>
<trkpt lat="34.829060199999994" lon="127.9387311"><ele>6.21</ele></trkpt>
<trkpt lat="34.8288435" lon="127.9391367"><ele>6.21</ele></trkpt>
<trkpt lat="34.8286579" lon="127.93934659999998"><ele>6.21</ele></trkpt>
<trkpt lat="34.8284896" lon="127.9394551"><ele>6.2</ele></trkpt>
<trkpt lat="34.8281062" lon="127.93975850000001"><ele>6.19</ele></trkpt>
<trkpt lat="34.827812900000005" lon="127.9399536"><ele>6.17</ele></trkpt>
<trkpt lat="34.8276939" lon="127.9400932"><ele>6.16</ele></trkpt>
<trkpt lat="34.8276266" lon="127.9402836"><ele>6.15</ele></trkpt>
<trkpt lat="34.8275238" lon="127.94082939999998"><ele>6.14</ele></trkpt>
<trkpt lat="34.827518" lon="127.94104819999998"><ele>6.15</ele></trkpt>
<trkpt lat="34.8275529" lon="127.9412211"><ele>6.17</ele></trkpt>
<trkpt lat="34.8277605" lon="127.9417432"><ele>6.28</ele></trkpt>
<trkpt lat="34.827879800000005" lon="127.9419987"><ele>6.36</ele></trkpt>
<trkpt lat="34.8278338" lon="127.9421864"><ele>6.4</ele></trkpt>
<trkpt lat="34.8275909" lon="127.9424562"><ele>6.44</ele></trkpt>
<trkpt lat="34.827227" lon="127.9426849"><ele>6.42</ele></trkpt>
<trkpt lat="34.8270727" lon="127.94267590000001"><ele>6.4</ele></trkpt>
<trkpt lat="34.8267624" lon="127.94236600000004"><ele>6.36</ele></trkpt>
<trkpt lat="34.8261995" lon="127.94199349999998"><ele>6.35</ele></trkpt>
<trkpt lat="34.8260947" lon="127.94194569999999"><ele>6.36</ele></trkpt>
<trkpt lat="34.8253633" lon="127.9417574"><ele>6.53</ele></trkpt>
<trkpt lat="34.824952" lon="127.94184009999998"><ele>6.66</ele></trkpt>
<trkpt lat="34.8243897" lon="127.9417137"><ele>6.85</ele></trkpt>
<trkpt lat="34.8235312" lon="127.9416926"><ele>7.04</ele></trkpt>
<trkpt lat="34.8229718" lon="127.94146149999999"><ele>7.02</ele></trkpt>
<trkpt lat="34.8224607" lon="127.9414261"><ele>6.91</ele></trkpt>
<trkpt lat="34.8221141" lon="127.9412091"><ele>6.87</ele></trkpt>
<trkpt lat="34.8219891" lon="127.9411657"><ele>6.87</ele></trkpt>
<trkpt lat="34.8209082" lon="127.9412017"><ele>6.99</ele></trkpt>
<trkpt lat="34.8197907" lon="127.94122420000001"><ele>6.9</ele></trkpt>
<trkpt lat="34.81962059999999" lon="127.94127750000001"><ele>6.89</ele></trkpt>
<trkpt lat="34.8192911" lon="127.9414962"><ele>6.84</ele></trkpt>
<trkpt lat="34.81909019999999" lon="127.9415159"><ele>6.82</ele></trkpt>
<trkpt lat="34.8188799" lon="127.94138999999997"><ele>6.79</ele></trkpt>
<trkpt lat="34.818586" lon="127.94098050000001"><ele>6.75</ele></trkpt>
<trkpt lat="34.8184866" lon="127.9408713"><ele>6.73</ele></trkpt>
<trkpt lat="34.8181948" lon="127.94076170000001"><ele>6.71</ele></trkpt>
<trkpt lat="34.81797709999999" lon="127.94082590000001"><ele>6.7</ele></trkpt>
<trkpt lat="34.8174241" lon="127.9411907"><ele>6.69</ele></trkpt>
<trkpt lat="34.8171712" lon="127.94122649999997"><ele>6.67</ele></trkpt>
<trkpt lat="34.8160338" lon="127.9409309"><ele>6.58</ele></trkpt>
<trkpt lat="34.8158115" lon="127.94092890000002"><ele>6.56</ele></trkpt>
<trkpt lat="34.815651" lon="127.94097979999998"><ele>6.54</ele></trkpt>
<trkpt lat="34.81502100000001" lon="127.9413398"><ele>6.46</ele></trkpt>
<trkpt lat="34.8148135" lon="127.94158929999999"><ele>6.43</ele></trkpt>
<trkpt lat="34.8145176" lon="127.94224380000001"><ele>6.37</ele></trkpt>
<trkpt lat="34.8143714" lon="127.9425354"><ele>6.35</ele></trkpt>
<trkpt lat="34.81413169999999" lon="127.94281110000001"><ele>6.35</ele></trkpt>
<trkpt lat="34.8139068" lon="127.94289730000001"><ele>6.38</ele></trkpt>
<trkpt lat="34.8137107" lon="127.94303680000002"><ele>6.45</ele></trkpt>
<trkpt lat="34.81344380000001" lon="127.943347"><ele>6.66</ele></trkpt>
<trkpt lat="34.813198400000005" lon="127.9434764"><ele>6.93</ele></trkpt>
<trkpt lat="34.8128005" lon="127.9435136"><ele>7.52</ele></trkpt>
<trkpt lat="34.8124117" lon="127.9434248"><ele>8.26</ele></trkpt>
<trkpt lat="34.811738899999995" lon="127.94348060000002"><ele>9.62</ele></trkpt>
<trkpt lat="34.8115312" lon="127.94346449999999"><ele>9.95</ele></trkpt>
<trkpt lat="34.8111204" lon="127.94320870000001"><ele>10.26</ele></trkpt>
<trkpt lat="34.8103775" lon="127.9424696"><ele>10.01</ele></trkpt>
<trkpt lat="34.81029240000001" lon="127.9424587"><ele>9.95</ele></trkpt>
<trkpt lat="34.80956170000001" lon="127.9435629"><ele>8.66</ele></trkpt>
<trkpt lat="34.8089203" lon="127.9445303"><ele>8.23</ele></trkpt>
<trkpt lat="34.807974" lon="127.9460925"><ele>8.38</ele></trkpt>
<trkpt lat="34.80799139999999" lon="127.9462358"><ele>8.28</ele></trkpt>
<trkpt lat="34.8082673" lon="127.9465216"><ele>7.87</ele></trkpt>
<trkpt lat="34.8084095" lon="127.94679109999998"><ele>7.54</ele></trkpt>
<trkpt lat="34.8084809" lon="127.9470737"><ele>7.29</ele></trkpt>
<trkpt lat="34.8084647" lon="127.9473947"><ele>7.11</ele></trkpt>
<trkpt lat="34.8080011" lon="127.9486294"><ele>6.95</ele></trkpt>
<trkpt lat="34.8078409" lon="127.9492221"><ele>7.02</ele></trkpt>
<trkpt lat="34.8077667" lon="127.94980840000001"><ele>7.13</ele></trkpt>
<trkpt lat="34.8076417" lon="127.95009040000001"><ele>7.2</ele></trkpt>
<trkpt lat="34.8070397" lon="127.95073249999999"><ele>7.45</ele></trkpt>
<trkpt lat="34.80686000000001" lon="127.9509925"><ele>7.52</ele></trkpt>
<trkpt lat="34.8064899" lon="127.9516494"><ele>7.6</ele></trkpt>
<trkpt lat="34.8059857" lon="127.95249649999998"><ele>7.61</ele></trkpt>
<trkpt lat="34.8057102" lon="127.9529092"><ele>7.59</ele></trkpt>
<trkpt lat="34.8055913" lon="127.9530372"><ele>7.58</ele></trkpt>
<trkpt lat="34.8051928" lon="127.9533067"><ele>7.54</ele></trkpt>
<trkpt lat="34.80500080000001" lon="127.9535051"><ele>7.52</ele></trkpt>
<trkpt lat="34.8049247" lon="127.95369209999998"><ele>7.5</ele></trkpt>
<trkpt lat="34.8049018" lon="127.95387279999998"><ele>7.48</ele></trkpt>
<trkpt lat="34.8049638" lon="127.95423359999998"><ele>7.45</ele></trkpt>
<trkpt lat="34.8049604" lon="127.9547101"><ele>7.44</ele></trkpt>
<trkpt lat="34.8054111" lon="127.95922109999998"><ele>7.81</ele></trkpt>
<trkpt lat="34.8054313" lon="127.9594856"><ele>8</ele></trkpt>
<trkpt lat="34.8053705" lon="127.959527"><ele>8.09</ele></trkpt>
<trkpt lat="34.8050931" lon="127.9595425"><ele>8.57</ele></trkpt>
<trkpt lat="34.8040109" lon="127.9596367"><ele>10.91</ele></trkpt>
<trkpt lat="34.8034427" lon="127.95985849999998"><ele>11.08</ele></trkpt>
<trkpt lat="34.8031013" lon="127.9599759"><ele>10.4</ele></trkpt>
<trkpt lat="34.8028736" lon="127.96009650000002"><ele>9.66</ele></trkpt>
<trkpt lat="34.8023595" lon="127.9607089"><ele>7.3</ele></trkpt>
<trkpt lat="34.8019936" lon="127.96106130000001"><ele>6.39</ele></trkpt>
<trkpt lat="34.8016416" lon="127.96139480000001"><ele>5.86</ele></trkpt>
<trkpt lat="34.8014995" lon="127.96167980000003"><ele>5.43</ele></trkpt>
<trkpt lat="34.8014623" lon="127.96181679999998"><ele>5.21</ele></trkpt>
<trkpt lat="34.8018134" lon="127.96208559999998"><ele>4.39</ele></trkpt>
<trkpt lat="34.8020695" lon="127.9623678"><ele>3.88</ele></trkpt>
<trkpt lat="34.8022449" lon="127.9626305"><ele>3.73</ele></trkpt>
<trkpt lat="34.8023556" lon="127.96291149999999"><ele>3.85</ele></trkpt>
<trkpt lat="34.8026101" lon="127.96382180000002"><ele>5.24</ele></trkpt>
<trkpt lat="34.80292" lon="127.96508739999999"><ele>8.03</ele></trkpt>
<trkpt lat="34.8030321" lon="127.96543159999999"><ele>8.78</ele></trkpt>
<trkpt lat="34.8032602" lon="127.9659075"><ele>9.52</ele></trkpt>
<trkpt lat="34.8033537" lon="127.9660657"><ele>9.61</ele></trkpt>
<trkpt lat="34.8037817" lon="127.9664907"><ele>9.56</ele></trkpt>
<trkpt lat="34.8046052" lon="127.9671868"><ele>9.08</ele></trkpt>
<trkpt lat="34.80576969999999" lon="127.9682091"><ele>11.08</ele></trkpt>
<trkpt lat="34.8063532" lon="127.96865740000001"><ele>13.31</ele></trkpt>
<trkpt lat="34.807269" lon="127.96929020000002"><ele>16.08</ele></trkpt>
<trkpt lat="34.807598" lon="127.969562"><ele>16.49</ele></trkpt>
<trkpt lat="34.8079979" lon="127.9699193"><ele>16.28</ele></trkpt>
<trkpt lat="34.808289900000005" lon="127.9703214"><ele>15.38</ele></trkpt>
<trkpt lat="34.8084477" lon="127.97064559999998"><ele>14.43</ele></trkpt>
<trkpt lat="34.808566" lon="127.97103379999999"><ele>13.24</ele></trkpt>
<trkpt lat="34.8086057" lon="127.9713992"><ele>12.15</ele></trkpt>
<trkpt lat="34.80859860000001" lon="127.9727929"><ele>9.04</ele></trkpt>
<trkpt lat="34.8085911" lon="127.9737031"><ele>10.02</ele></trkpt>
<trkpt lat="34.808626" lon="127.9739296"><ele>10.6</ele></trkpt>
<trkpt lat="34.8085929" lon="127.9755149"><ele>13.96</ele></trkpt>
<trkpt lat="34.8086114" lon="127.97734250000002"><ele>18.49</ele></trkpt>
<trkpt lat="34.80870170000001" lon="127.9779979"><ele>20.81</ele></trkpt>
<trkpt lat="34.8088317" lon="127.9787025"><ele>23.43</ele></trkpt>
<trkpt lat="34.8090591" lon="127.97985919999999"><ele>27.44</ele></trkpt>
<trkpt lat="34.8091383" lon="127.9801966"><ele>28.39</ele></trkpt>
<trkpt lat="34.8093581" lon="127.98079239999998"><ele>29.5</ele></trkpt>
<trkpt lat="34.809365299999996" lon="127.980963"><ele>29.63</ele></trkpt>
<trkpt lat="34.8093555" lon="127.9812751"><ele>29.67</ele></trkpt>
<trkpt lat="34.8095189" lon="127.9814329"><ele>29.54</ele></trkpt>
<trkpt lat="34.809698" lon="127.9818333"><ele>29.07</ele></trkpt>
<trkpt lat="34.809812799999996" lon="127.9819953"><ele>28.75</ele></trkpt>
<trkpt lat="34.81011230000001" lon="127.98279300000002"><ele>27.02</ele></trkpt>
<trkpt lat="34.8104729" lon="127.98351829999999"><ele>25</ele></trkpt>
<trkpt lat="34.81060850000001" lon="127.9836923"><ele>24.4</ele></trkpt>
<trkpt lat="34.8109306" lon="127.9839522"><ele>23.23</ele></trkpt>
<trkpt lat="34.8111338" lon="127.9840453"><ele>22.62</ele></trkpt>
<trkpt lat="34.8116599" lon="127.9841896"><ele>21.32</ele></trkpt>
<trkpt lat="34.8123648" lon="127.98435"><ele>20.24</ele></trkpt>
<trkpt lat="34.81351" lon="127.9846049"><ele>20.06</ele></trkpt>
<trkpt lat="34.813769" lon="127.9845859"><ele>20.12</ele></trkpt>
<trkpt lat="34.8140154" lon="127.98448689999998"><ele>20.22</ele></trkpt>
<trkpt lat="34.8147461" lon="127.9838874"><ele>20.74</ele></trkpt>
<trkpt lat="34.8149284" lon="127.9837756"><ele>20.98</ele></trkpt>
<trkpt lat="34.815257700000004" lon="127.98367720000002"><ele>21.63</ele></trkpt>
<trkpt lat="34.815703000000006" lon="127.9836394"><ele>22.82</ele></trkpt>
<trkpt lat="34.8165095" lon="127.9835307"><ele>25.38</ele></trkpt>
<trkpt lat="34.816915200000004" lon="127.9835302"><ele>26.74</ele></trkpt>
<trkpt lat="34.8172993" lon="127.9835936"><ele>28.1</ele></trkpt>
<trkpt lat="34.8176537" lon="127.98373130000002"><ele>29.45</ele></trkpt>
<trkpt lat="34.81797769999999" lon="127.98391979999998"><ele>30.8</ele></trkpt>
<trkpt lat="34.819684800000005" lon="127.9852534"><ele>38.74</ele></trkpt>
<trkpt lat="34.8202923" lon="127.9857402"><ele>42.11</ele></trkpt>
<trkpt lat="34.8209682" lon="127.98613870000001"><ele>46.27</ele></trkpt>
<trkpt lat="34.8214446" lon="127.9863981"><ele>49.39</ele></trkpt>
<trkpt lat="34.8216144" lon="127.9865095"><ele>50.58</ele></trkpt>
<trkpt lat="34.82198780000001" lon="127.98680889999997"><ele>53.4</ele></trkpt>
<trkpt lat="34.8222342" lon="127.98703740000002"><ele>55.2</ele></trkpt>
<trkpt lat="34.82240769999999" lon="127.98728219999998"><ele>56.43</ele></trkpt>
<trkpt lat="34.822512" lon="127.9876089"><ele>57.22</ele></trkpt>
<trkpt lat="34.8225609" lon="127.98813249999998"><ele>57.07</ele></trkpt>
<trkpt lat="34.8226307" lon="127.98858069999999"><ele>55.56</ele></trkpt>
<trkpt lat="34.8227721" lon="127.9892666"><ele>51.52</ele></trkpt>
<trkpt lat="34.8229441" lon="127.9896851"><ele>48.38</ele></trkpt>
<trkpt lat="34.8231285" lon="127.9900012"><ele>45.73</ele></trkpt>
<trkpt lat="34.8233641" lon="127.99028869999998"><ele>43.38</ele></trkpt>
<trkpt lat="34.823609" lon="127.9904306"><ele>42.06</ele></trkpt>
<trkpt lat="34.8239049" lon="127.9904558"><ele>41.38</ele></trkpt>
<trkpt lat="34.824812400000006" lon="127.9902079"><ele>43.37</ele></trkpt>
<trkpt lat="34.8252371" lon="127.99018240000001"><ele>45.73</ele></trkpt>
<trkpt lat="34.82557210000001" lon="127.99027089999998"><ele>47.88</ele></trkpt>
<trkpt lat="34.826347" lon="127.9907451"><ele>53.41</ele></trkpt>
<trkpt lat="34.8265419" lon="127.9909947"><ele>54.78</ele></trkpt>
<trkpt lat="34.82657489999999" lon="127.99110640000002"><ele>55.11</ele></trkpt>
<trkpt lat="34.8266075" lon="127.9915784"><ele>55.74</ele></trkpt>
<trkpt lat="34.8266219" lon="127.9923701"><ele>55.39</ele></trkpt>
<trkpt lat="34.8264586" lon="127.99287320000002"><ele>54.33</ele></trkpt>
<trkpt lat="34.8264594" lon="127.99323780000002"><ele>53.12</ele></trkpt>
<trkpt lat="34.8266234" lon="127.9939443"><ele>50.09</ele></trkpt>
<trkpt lat="34.826720599999994" lon="127.9942895"><ele>48.37</ele></trkpt>
<trkpt lat="34.8269926" lon="127.99470679999999"><ele>45.49</ele></trkpt>
<trkpt lat="34.82713330000001" lon="127.99483930000001"><ele>44.18</ele></trkpt>
<trkpt lat="34.8274369" lon="127.9950368"><ele>41.41</ele></trkpt>
<trkpt lat="34.8280589" lon="127.99526079999998"><ele>35.64</ele></trkpt>
<trkpt lat="34.82849240000001" lon="127.99556009999999"><ele>31.15</ele></trkpt>
<trkpt lat="34.829073" lon="127.99585859999999"><ele>25.74</ele></trkpt>
<trkpt lat="34.8292725" lon="127.99601530000001"><ele>23.85</ele></trkpt>
<trkpt lat="34.829440600000005" lon="127.99624840000003"><ele>21.96</ele></trkpt>
<trkpt lat="34.8295461" lon="127.99648170000003"><ele>20.51</ele></trkpt>
<trkpt lat="34.8295967" lon="127.9968088"><ele>18.9</ele></trkpt>
<trkpt lat="34.8295648" lon="127.997527"><ele>16.19</ele></trkpt>
<trkpt lat="34.82958450000001" lon="127.99784590000002"><ele>15.21</ele></trkpt>
<trkpt lat="34.8298505" lon="127.9988699"><ele>12.66</ele></trkpt>
<trkpt lat="34.8300392" lon="127.99945499999997"><ele>11.48</ele></trkpt>
<trkpt lat="34.8300267" lon="127.9997113"><ele>11.1</ele></trkpt>
<trkpt lat="34.8300569" lon="127.9998526"><ele>10.94</ele></trkpt>
<trkpt lat="34.8301933" lon="127.99990579999998"><ele>10.79</ele></trkpt>
<trkpt lat="34.8303994" lon="127.999801"><ele>10.67</ele></trkpt>
<trkpt lat="34.8320763" lon="127.99997699999999"><ele>11.63</ele></trkpt>
<trkpt lat="34.833572200000006" lon="128.0001344"><ele>14.57</ele></trkpt>
<trkpt lat="34.8346941" lon="128.0002525"><ele>15.81</ele></trkpt>
<trkpt lat="34.8360951" lon="128.0004"><ele>15.93</ele></trkpt>
<trkpt lat="34.8364681" lon="128.0004658"><ele>15.94</ele></trkpt>
<trkpt lat="34.836640599999996" lon="128.0004949"><ele>15.95</ele></trkpt>
<trkpt lat="34.83671069999999" lon="128.00023439999998"><ele>15.95</ele></trkpt>
<trkpt lat="34.8367689" lon="127.9998782"><ele>15.93</ele></trkpt>
<trkpt lat="34.8367963" lon="127.99907480000002"><ele>15.73</ele></trkpt>
<trkpt lat="34.8368518" lon="127.9980715"><ele>14.94</ele></trkpt>
<trkpt lat="34.836904800000006" lon="127.99778539999998"><ele>14.66</ele></trkpt>
<trkpt lat="34.83720180000001" lon="127.9969992"><ele>13.89</ele></trkpt>
<trkpt lat="34.8372698" lon="127.9967396"><ele>13.78</ele></trkpt>
<trkpt lat="34.8372936" lon="127.99577050000002"><ele>13.98</ele></trkpt>
<trkpt lat="34.8374093" lon="127.99515139999998"><ele>14.73</ele></trkpt>
<trkpt lat="34.8375997" lon="127.9941602"><ele>18.03</ele></trkpt>
<trkpt lat="34.837617" lon="127.99383999999999"><ele>19.39</ele></trkpt>
<trkpt lat="34.8375582" lon="127.9933268"><ele>21.36</ele></trkpt>
<trkpt lat="34.83750419999999" lon="127.9930888"><ele>21.97</ele></trkpt>
<trkpt lat="34.837501800000005" lon="127.9928795"><ele>22.2</ele></trkpt>
<trkpt lat="34.8375607" lon="127.99241789999999"><ele>21.71</ele></trkpt>
<trkpt lat="34.837783099999996" lon="127.9911097"><ele>18.25</ele></trkpt>
<trkpt lat="34.83775010000001" lon="127.9908698"><ele>18.16</ele></trkpt>
<trkpt lat="34.8376759" lon="127.990675"><ele>18.3</ele></trkpt>
<trkpt lat="34.8372453" lon="127.9902039"><ele>19.47</ele></trkpt>
<trkpt lat="34.8370768" lon="127.98992050000001"><ele>19.95</ele></trkpt>
<trkpt lat="34.8369296" lon="127.98955600000001"><ele>20.09</ele></trkpt>
<trkpt lat="34.8368003" lon="127.98908800000002"><ele>19.76</ele></trkpt>
<trkpt lat="34.8367516" lon="127.9888193"><ele>19.44</ele></trkpt>
<trkpt lat="34.836733" lon="127.9885206"><ele>19.08</ele></trkpt>
<trkpt lat="34.8367697" lon="127.9881982"><ele>18.76</ele></trkpt>
<trkpt lat="34.8368504" lon="127.9877611"><ele>18.48</ele></trkpt>
<trkpt lat="34.8369803" lon="127.98725210000003"><ele>18.34</ele></trkpt>
<trkpt lat="34.8370966" lon="127.9869213"><ele>18.31</ele></trkpt>
<trkpt lat="34.8372987" lon="127.9865639"><ele>18.27</ele></trkpt>
<trkpt lat="34.8377272" lon="127.9859623"><ele>18.01</ele></trkpt>
<trkpt lat="34.8379409" lon="127.98550620000002"><ele>17.44</ele></trkpt>
<trkpt lat="34.8383115" lon="127.9844796"><ele>15.5</ele></trkpt>
<trkpt lat="34.8386807" lon="127.98377939999999"><ele>14.93</ele></trkpt>
<trkpt lat="34.839709199999994" lon="127.9820014"><ele>14.67</ele></trkpt>
<trkpt lat="34.8406304" lon="127.9804099"><ele>11.93</ele></trkpt>
<trkpt lat="34.8409098" lon="127.979962"><ele>11.08</ele></trkpt>
<trkpt lat="34.8412525" lon="127.97951900000001"><ele>10.29</ele></trkpt>
<trkpt lat="34.8416601" lon="127.9791113"><ele>9.74</ele></trkpt>
<trkpt lat="34.8424071" lon="127.9784918"><ele>10.28</ele></trkpt>
<trkpt lat="34.8427927" lon="127.97810750000002"><ele>11.82</ele></trkpt>
<trkpt lat="34.8429287" lon="127.97793420000004"><ele>12.63</ele></trkpt>
<trkpt lat="34.8434276" lon="127.97678960000002"><ele>17.19</ele></trkpt>
<trkpt lat="34.8436638" lon="127.9762989"><ele>18.58</ele></trkpt>
<trkpt lat="34.8438203" lon="127.9761405"><ele>18.9</ele></trkpt>
<trkpt lat="34.8439806" lon="127.97606710000001"><ele>19.03</ele></trkpt>
<trkpt lat="34.8449039" lon="127.97584119999999"><ele>18.91</ele></trkpt>
<trkpt lat="34.845299399999995" lon="127.9756428"><ele>18.83</ele></trkpt>
<trkpt lat="34.84544" lon="127.9755094"><ele>18.84</ele></trkpt>
<trkpt lat="34.8459826" lon="127.9747624"><ele>19</ele></trkpt>
<trkpt lat="34.846373" lon="127.9743155"><ele>19.06</ele></trkpt>
<trkpt lat="34.846672" lon="127.9739428"><ele>19.03</ele></trkpt>
<trkpt lat="34.847491500000004" lon="127.9732077"><ele>18.64</ele></trkpt>
<trkpt lat="34.848069599999995" lon="127.9725809"><ele>18.09</ele></trkpt>
<trkpt lat="34.8486715" lon="127.97196970000002"><ele>17.37</ele></trkpt>
<trkpt lat="34.8489433" lon="127.9718034"><ele>17.06</ele></trkpt>
<trkpt lat="34.849396" lon="127.97161050000001"><ele>16.52</ele></trkpt>
<trkpt lat="34.8499824" lon="127.9712429"><ele>15.71</ele></trkpt>
<trkpt lat="34.8500961" lon="127.97100850000002"><ele>15.42</ele></trkpt>
<trkpt lat="34.85022320000001" lon="127.9701542"><ele>14.53</ele></trkpt>
<trkpt lat="34.850363" lon="127.9697126"><ele>14.16</ele></trkpt>
<trkpt lat="34.8505639" lon="127.9694082"><ele>13.97</ele></trkpt>
<trkpt lat="34.8508616" lon="127.96908330000002"><ele>13.91</ele></trkpt>
<trkpt lat="34.8512499" lon="127.9688184"><ele>14.05</ele></trkpt>
<trkpt lat="34.8519899" lon="127.96814870000003"><ele>14.8</ele></trkpt>
<trkpt lat="34.85263619999999" lon="127.9674201"><ele>15.25</ele></trkpt>
<trkpt lat="34.853165" lon="127.96686500000001"><ele>14.77</ele></trkpt>
<trkpt lat="34.8540122" lon="127.9659487"><ele>12.99</ele></trkpt>
<trkpt lat="34.8546019" lon="127.96539380000003"><ele>10.85</ele></trkpt>
<trkpt lat="34.8553997" lon="127.9649268"><ele>8.15</ele></trkpt>
<trkpt lat="34.8556704" lon="127.9648279"><ele>7.54</ele></trkpt>
<trkpt lat="34.8570638" lon="127.9650551"><ele>6.01</ele></trkpt>
<trkpt lat="34.8575807" lon="127.9652665"><ele>5.84</ele></trkpt>
<trkpt lat="34.8579777" lon="127.96535080000001"><ele>6.02</ele></trkpt>
<trkpt lat="34.8583228" lon="127.96536979999999"><ele>6.53</ele></trkpt>
<trkpt lat="34.85860520000001" lon="127.9652971"><ele>7.3</ele></trkpt>
<trkpt lat="34.8589405" lon="127.9651265"><ele>8.64</ele></trkpt>
<trkpt lat="34.8591534" lon="127.96505649999999"><ele>9.59</ele></trkpt>
<trkpt lat="34.8597064" lon="127.9650805"><ele>12.26</ele></trkpt>
<trkpt lat="34.860019" lon="127.96513970000001"><ele>13.78</ele></trkpt>
<trkpt lat="34.8602929" lon="127.9651254"><ele>15.01</ele></trkpt>
<trkpt lat="34.8603737" lon="127.96507189999998"><ele>15.4</ele></trkpt>
<trkpt lat="34.8610568" lon="127.9644552"><ele>19.01</ele></trkpt>
<trkpt lat="34.8615067" lon="127.96400660000002"><ele>22.16</ele></trkpt>
<trkpt lat="34.862043" lon="127.9634937"><ele>27</ele></trkpt>
<trkpt lat="34.86240000000001" lon="127.96318250000002"><ele>30.76</ele></trkpt>
<trkpt lat="34.8628905" lon="127.9629012"><ele>36.08</ele></trkpt>
<trkpt lat="34.8630621" lon="127.9628309"><ele>37.87</ele></trkpt>
<trkpt lat="34.863378" lon="127.9627716"><ele>40.88</ele></trkpt>
<trkpt lat="34.8636517" lon="127.96278720000001"><ele>43.13</ele></trkpt>
<trkpt lat="34.8639694" lon="127.96285090000002"><ele>45.23</ele></trkpt>
<trkpt lat="34.86426289999999" lon="127.96305309999998"><ele>46.53</ele></trkpt>
<trkpt lat="34.8643503" lon="127.9631814"><ele>46.77</ele></trkpt>
<trkpt lat="34.8645131" lon="127.9635307"><ele>46.72</ele></trkpt>
<trkpt lat="34.8646823" lon="127.96374780000001"><ele>46.13</ele></trkpt>
<trkpt lat="34.8650798" lon="127.96401319999998"><ele>44.14</ele></trkpt>
<trkpt lat="34.8656099" lon="127.9643712"><ele>40.47</ele></trkpt>
<trkpt lat="34.8663102" lon="127.96499950000002"><ele>34.69</ele></trkpt>
<trkpt lat="34.86694690000001" lon="127.96550950000001"><ele>30.53</ele></trkpt>
</trkseg>
</trk></gpx>
