<?xml version="1.0" encoding="UTF-8"?>
<gpx version="1.1" creator="BikeTerra" xmlns="http://www.topografix.com/GPX/1/1" xmlns:biketerra="https://biketerra.com/xmlns/gpx/1">
    <metadata>
        <name>S05_simple_matching_TPV_terrain_elevation (1)</name>
        <extensions>
            <biketerra:version>2.0.0</biketerra:version>
            <biketerra:isLoop>false</biketerra:isLoop>
            <biketerra:defaultSurface>asphalt</biketerra:defaultSurface>
        </extensions>
    </metadata>
    <trk>
        <name>S05_simple_matching_TPV_terrain_elevation (1)</name>
        <trkseg>
            <trkpt lat="43.3732147" lon="-0.0328481"><ele>336.09</ele></trkpt>
            <trkpt lat="43.3727067" lon="-0.0350617"><ele>335.93</ele></trkpt>
            <trkpt lat="43.3718844" lon="-0.0386383"><ele>330.03</ele></trkpt>
            <trkpt lat="43.3712096" lon="-0.0414995"><ele>333.29</ele></trkpt>
            <trkpt lat="43.3709071" lon="-0.0428175"><ele>329.17</ele></trkpt>
            <trkpt lat="43.3708076" lon="-0.0433648"><ele>325.95</ele></trkpt>
            <trkpt lat="43.3707395" lon="-0.044106"><ele>321.76</ele></trkpt>
            <trkpt lat="43.3706698" lon="-0.0452744"><ele>319.78</ele></trkpt>
            <trkpt lat="43.37063" lon="-0.0458787"><ele>321.6</ele></trkpt>
            <trkpt lat="43.3705674" lon="-0.0464397"><ele>324.24</ele></trkpt>
            <trkpt lat="43.3703154" lon="-0.0479372"><ele>329.79</ele></trkpt>
            <trkpt lat="43.3699359" lon="-0.0500309"><ele>335.92</ele></trkpt>
            <trkpt lat="43.3698978" lon="-0.0503898"><ele>336.39</ele></trkpt>
            <trkpt lat="43.369882" lon="-0.0508471"><ele>336.35</ele></trkpt>
            <trkpt lat="43.36988" lon="-0.0516608"><ele>335.09</ele></trkpt>
            <trkpt lat="43.3699002" lon="-0.0519835"><ele>333.5</ele></trkpt>
            <trkpt lat="43.3699587" lon="-0.0522804"><ele>331.38</ele></trkpt>
            <trkpt lat="43.3701018" lon="-0.0526675"><ele>328.04</ele></trkpt>
            <trkpt lat="43.3702968" lon="-0.0529714"><ele>324.76</ele></trkpt>
            <trkpt lat="43.3705604" lon="-0.0532221"><ele>321.22</ele></trkpt>
            <trkpt lat="43.3709237" lon="-0.0534402"><ele>317.15</ele></trkpt>
            <trkpt lat="43.3714759" lon="-0.0535675"><ele>311.95</ele></trkpt>
            <trkpt lat="43.371832" lon="-0.0537695"><ele>308.49</ele></trkpt>
            <trkpt lat="43.372495" lon="-0.0541683"><ele>302.01</ele></trkpt>
            <trkpt lat="43.373405" lon="-0.0547033"><ele>291.61</ele></trkpt>
            <trkpt lat="43.3736359" lon="-0.0548895"><ele>288.73</ele></trkpt>
            <trkpt lat="43.3738763" lon="-0.0551308"><ele>285.54</ele></trkpt>
            <trkpt lat="43.3740882" lon="-0.0554433"><ele>282.18</ele></trkpt>
            <trkpt lat="43.3742818" lon="-0.0558161"><ele>278.37</ele></trkpt>
            <trkpt lat="43.3744729" lon="-0.0563241"><ele>272.86</ele></trkpt>
            <trkpt lat="43.3745811" lon="-0.056889"><ele>267.44</ele></trkpt>
            <trkpt lat="43.3745989" lon="-0.0573101"><ele>265.07</ele></trkpt>
            <trkpt lat="43.3745935" lon="-0.0577275"><ele>262.93</ele></trkpt>
            <trkpt lat="43.3745665" lon="-0.0580455"><ele>261.6</ele></trkpt>
            <trkpt lat="43.3745011" lon="-0.058367"><ele>260.84</ele></trkpt>
            <trkpt lat="43.3743912" lon="-0.0587631"><ele>261.31</ele></trkpt>
            <trkpt lat="43.3742343" lon="-0.0591555"><ele>262.82</ele></trkpt>
            <trkpt lat="43.3738151" lon="-0.0598447"><ele>267.63</ele></trkpt>
            <trkpt lat="43.3736182" lon="-0.0601507"><ele>269.29</ele></trkpt>
            <trkpt lat="43.3732865" lon="-0.060666"><ele>271.06</ele></trkpt>
            <trkpt lat="43.3730948" lon="-0.0610766"><ele>272.07</ele></trkpt>
            <trkpt lat="43.3729317" lon="-0.06154"><ele>272.96</ele></trkpt>
            <trkpt lat="43.3726424" lon="-0.0624224"><ele>274.66</ele></trkpt>
            <trkpt lat="43.3723713" lon="-0.0631459"><ele>276.16</ele></trkpt>
            <trkpt lat="43.3721122" lon="-0.063655"><ele>277.56</ele></trkpt>
            <trkpt lat="43.3719888" lon="-0.063923"><ele>278.38</ele></trkpt>
            <trkpt lat="43.3713905" lon="-0.0657358"><ele>284.03</ele></trkpt>
            <trkpt lat="43.3706511" lon="-0.0679651"><ele>285.86</ele></trkpt>
            <trkpt lat="43.3703245" lon="-0.0690172"><ele>285.55</ele></trkpt>
            <trkpt lat="43.3702553" lon="-0.0692402"><ele>284.82</ele></trkpt>
            <trkpt lat="43.3701657" lon="-0.0694647"><ele>283.69</ele></trkpt>
            <trkpt lat="43.3698199" lon="-0.0701316"><ele>279.84</ele></trkpt>
            <trkpt lat="43.3697074" lon="-0.0704852"><ele>278.11</ele></trkpt>
            <trkpt lat="43.3696481" lon="-0.0707427"><ele>276.96</ele></trkpt>
            <trkpt lat="43.3696049" lon="-0.0710518"><ele>275.7</ele></trkpt>
            <trkpt lat="43.3695482" lon="-0.0716581"><ele>273.31</ele></trkpt>
            <trkpt lat="43.3694799" lon="-0.0725303"><ele>270.14</ele></trkpt>
            <trkpt lat="43.3694894" lon="-0.0727919"><ele>269.57</ele></trkpt>
            <trkpt lat="43.3696005" lon="-0.0735421"><ele>269.33</ele></trkpt>
            <trkpt lat="43.3696474" lon="-0.0738636"><ele>269.79</ele></trkpt>
            <trkpt lat="43.3698093" lon="-0.0748742"><ele>272.97</ele></trkpt>
            <trkpt lat="43.3699633" lon="-0.0760483"><ele>278.17</ele></trkpt>
            <trkpt lat="43.3700685" lon="-0.0764877"><ele>280.09</ele></trkpt>
            <trkpt lat="43.3703777" lon="-0.0772711"><ele>283.79</ele></trkpt>
            <trkpt lat="43.3710408" lon="-0.0791809"><ele>293.57</ele></trkpt>
            <trkpt lat="43.3712373" lon="-0.0796324"><ele>296.76</ele></trkpt>
            <trkpt lat="43.3714712" lon="-0.0800747"><ele>300.43</ele></trkpt>
            <trkpt lat="43.3717598" lon="-0.0804925"><ele>304.58</ele></trkpt>
            <trkpt lat="43.372051" lon="-0.080798"><ele>308.39</ele></trkpt>
            <trkpt lat="43.3725312" lon="-0.0811943"><ele>314.31</ele></trkpt>
            <trkpt lat="43.3734186" lon="-0.0821215"><ele>326.69</ele></trkpt>
            <trkpt lat="43.3735228" lon="-0.0822755"><ele>328.16</ele></trkpt>
            <trkpt lat="43.3736149" lon="-0.0824654"><ele>329.58</ele></trkpt>
            <trkpt lat="43.3736742" lon="-0.0827002"><ele>330.86</ele></trkpt>
            <trkpt lat="43.3737161" lon="-0.0830185"><ele>332.04</ele></trkpt>
            <trkpt lat="43.3737441" lon="-0.0836882"><ele>333.44</ele></trkpt>
            <trkpt lat="43.3737872" lon="-0.0842848"><ele>334.47</ele></trkpt>
            <trkpt lat="43.3738578" lon="-0.0845433"><ele>335.03</ele></trkpt>
            <trkpt lat="43.3740523" lon="-0.084955"><ele>336.11</ele></trkpt>
            <trkpt lat="43.3742467" lon="-0.0853667"><ele>337.19</ele></trkpt>
            <trkpt lat="43.3744411" lon="-0.0857784"><ele>338.28</ele></trkpt>
            <trkpt lat="43.3746356" lon="-0.0861901"><ele>339.38</ele></trkpt>
            <trkpt lat="43.3748301" lon="-0.0866019"><ele>340.47</ele></trkpt>
            <trkpt lat="43.3750245" lon="-0.0870136"><ele>341.58</ele></trkpt>
            <trkpt lat="43.3752189" lon="-0.0874253"><ele>342.69</ele></trkpt>
            <trkpt lat="43.3754134" lon="-0.087837"><ele>343.82</ele></trkpt>
            <trkpt lat="43.3755828" lon="-0.0883213"><ele>345.22</ele></trkpt>
            <trkpt lat="43.3757628" lon="-0.0891809"><ele>347.22</ele></trkpt>
            <trkpt lat="43.375824" lon="-0.0896298"><ele>347.9</ele></trkpt>
            <trkpt lat="43.3758802" lon="-0.0901496"><ele>348.3</ele></trkpt>
            <trkpt lat="43.3759363" lon="-0.0906694"><ele>348.61</ele></trkpt>
            <trkpt lat="43.3759925" lon="-0.0911892"><ele>348.91</ele></trkpt>
            <trkpt lat="43.3760487" lon="-0.091709"><ele>349.21</ele></trkpt>
            <trkpt lat="43.3761048" lon="-0.0922288"><ele>349.51</ele></trkpt>
            <trkpt lat="43.376161" lon="-0.0927486"><ele>349.81</ele></trkpt>
            <trkpt lat="43.3762171" lon="-0.0932684"><ele>350.11</ele></trkpt>
            <trkpt lat="43.3762733" lon="-0.0937882"><ele>350.24</ele></trkpt>
            <trkpt lat="43.3763277" lon="-0.0943283"><ele>349.65</ele></trkpt>
            <trkpt lat="43.3763822" lon="-0.0948685"><ele>348.89</ele></trkpt>
            <trkpt lat="43.3764366" lon="-0.0954086"><ele>348.13</ele></trkpt>
            <trkpt lat="43.376491" lon="-0.0959488"><ele>347.37</ele></trkpt>
            <trkpt lat="43.3765454" lon="-0.0964889"><ele>346.63</ele></trkpt>
            <trkpt lat="43.3765999" lon="-0.0970291"><ele>345.9</ele></trkpt>
            <trkpt lat="43.3766543" lon="-0.0975692"><ele>345.37</ele></trkpt>
            <trkpt lat="43.3767053" lon="-0.0980757"><ele>345.58</ele></trkpt>
            <trkpt lat="43.3767672" lon="-0.0986681"><ele>346.05</ele></trkpt>
            <trkpt lat="43.376829" lon="-0.0992605"><ele>346.52</ele></trkpt>
            <trkpt lat="43.3768909" lon="-0.0998529"><ele>347</ele></trkpt>
            <trkpt lat="43.3769528" lon="-0.1004454"><ele>347.49</ele></trkpt>
            <trkpt lat="43.3770147" lon="-0.1010378"><ele>348</ele></trkpt>
            <trkpt lat="43.3770765" lon="-0.1016302"><ele>348.52</ele></trkpt>
            <trkpt lat="43.3771384" lon="-0.1022226"><ele>349</ele></trkpt>
            <trkpt lat="43.3771797" lon="-0.1026"><ele>348.99</ele></trkpt>
            <trkpt lat="43.3772015" lon="-0.1030414"><ele>348.45</ele></trkpt>
            <trkpt lat="43.3771816" lon="-0.1032144"><ele>348.06</ele></trkpt>
            <trkpt lat="43.377089" lon="-0.1033943"><ele>347.41</ele></trkpt>
            <trkpt lat="43.3769639" lon="-0.1035113"><ele>346.69</ele></trkpt>
            <trkpt lat="43.3758333" lon="-0.1041883"><ele>340.13</ele></trkpt>
            <trkpt lat="43.3753567" lon="-0.10445"><ele>335.96</ele></trkpt>
            <trkpt lat="43.3749317" lon="-0.1047967"><ele>331.29</ele></trkpt>
            <trkpt lat="43.3743833" lon="-0.1056"><ele>322.77</ele></trkpt>
            <trkpt lat="43.3741033" lon="-0.1058117"><ele>319.97</ele></trkpt>
            <trkpt lat="43.3737433" lon="-0.105865"><ele>317.34</ele></trkpt>
            <trkpt lat="43.3733355" lon="-0.1056428"><ele>314.97</ele></trkpt>
            <trkpt lat="43.3730454" lon="-0.1056661"><ele>313.18</ele></trkpt>
            <trkpt lat="43.372892" lon="-0.1057615"><ele>311.74</ele></trkpt>
            <trkpt lat="43.3728045" lon="-0.1058739"><ele>310.56</ele></trkpt>
            <trkpt lat="43.3727316" lon="-0.1060232"><ele>309.18</ele></trkpt>
            <trkpt lat="43.3726883" lon="-0.1061715"><ele>307.92</ele></trkpt>
            <trkpt lat="43.3726738" lon="-0.1063153"><ele>306.76</ele></trkpt>
            <trkpt lat="43.3727103" lon="-0.106552"><ele>304.78</ele></trkpt>
            <trkpt lat="43.3728206" lon="-0.106747"><ele>302.74</ele></trkpt>
            <trkpt lat="43.3729349" lon="-0.1069024"><ele>301.01</ele></trkpt>
            <trkpt lat="43.3731071" lon="-0.1070256"><ele>299.07</ele></trkpt>
            <trkpt lat="43.3734425" lon="-0.1072047"><ele>295.69</ele></trkpt>
            <trkpt lat="43.3740927" lon="-0.1074289"><ele>289.47</ele></trkpt>
            <trkpt lat="43.3746262" lon="-0.1077381"><ele>284.22</ele></trkpt>
            <trkpt lat="43.374834" lon="-0.1078259"><ele>282.45</ele></trkpt>
            <trkpt lat="43.3750534" lon="-0.1078439"><ele>280.43</ele></trkpt>
            <trkpt lat="43.3753285" lon="-0.107798"><ele>277.33</ele></trkpt>
            <trkpt lat="43.3758554" lon="-0.1076234"><ele>272.11</ele></trkpt>
            <trkpt lat="43.3761135" lon="-0.1076225"><ele>270.56</ele></trkpt>
            <trkpt lat="43.3761904" lon="-0.1076668"><ele>269.99</ele></trkpt>
            <trkpt lat="43.3762811" lon="-0.107775"><ele>269.03</ele></trkpt>
            <trkpt lat="43.3763959" lon="-0.1080037"><ele>267.1</ele></trkpt>
            <trkpt lat="43.3765322" lon="-0.1083053"><ele>264.31</ele></trkpt>
            <trkpt lat="43.3766069" lon="-0.1086333"><ele>261.18</ele></trkpt>
            <trkpt lat="43.3767052" lon="-0.1090195"><ele>257.25</ele></trkpt>
            <trkpt lat="43.3768483" lon="-0.1099003"><ele>248.39</ele></trkpt>
            <trkpt lat="43.3768807" lon="-0.1103483"><ele>245</ele></trkpt>
            <trkpt lat="43.3769378" lon="-0.1113876"><ele>240.29</ele></trkpt>
            <trkpt lat="43.3769592" lon="-0.1116414"><ele>239.61</ele></trkpt>
            <trkpt lat="43.3769777" lon="-0.1119724"><ele>239.19</ele></trkpt>
            <trkpt lat="43.3769963" lon="-0.1123035"><ele>239</ele></trkpt>
            <trkpt lat="43.3770148" lon="-0.1126345"><ele>238.83</ele></trkpt>
            <trkpt lat="43.3770333" lon="-0.1129655"><ele>238.67</ele></trkpt>
            <trkpt lat="43.3770518" lon="-0.1132965"><ele>238.49</ele></trkpt>
            <trkpt lat="43.3770704" lon="-0.1136276"><ele>238.29</ele></trkpt>
            <trkpt lat="43.3770889" lon="-0.1139586"><ele>238.21</ele></trkpt>
            <trkpt lat="43.3771748" lon="-0.1154616"><ele>239.61</ele></trkpt>
            <trkpt lat="43.3771958" lon="-0.1158115"><ele>239.92</ele></trkpt>
            <trkpt lat="43.3772169" lon="-0.1161614"><ele>240.22</ele></trkpt>
            <trkpt lat="43.3772379" lon="-0.1165112"><ele>240.51</ele></trkpt>
            <trkpt lat="43.377259" lon="-0.1168611"><ele>240.79</ele></trkpt>
            <trkpt lat="43.37728" lon="-0.117211"><ele>241.06</ele></trkpt>
            <trkpt lat="43.377301" lon="-0.1175609"><ele>241.34</ele></trkpt>
            <trkpt lat="43.3773221" lon="-0.1179107"><ele>241.61</ele></trkpt>
            <trkpt lat="43.3773431" lon="-0.1182606"><ele>241.89</ele></trkpt>
            <trkpt lat="43.3773641" lon="-0.1186105"><ele>242.16</ele></trkpt>
            <trkpt lat="43.3773852" lon="-0.1189604"><ele>242.42</ele></trkpt>
            <trkpt lat="43.3774062" lon="-0.1193102"><ele>242.69</ele></trkpt>
            <trkpt lat="43.3774273" lon="-0.1196601"><ele>242.95</ele></trkpt>
            <trkpt lat="43.3774483" lon="-0.12001"><ele>243.3</ele></trkpt>
            <trkpt lat="43.377469" lon="-0.1203537"><ele>243.8</ele></trkpt>
            <trkpt lat="43.3774896" lon="-0.1206975"><ele>244.38</ele></trkpt>
            <trkpt lat="43.3775103" lon="-0.1210412"><ele>244.98</ele></trkpt>
            <trkpt lat="43.377531" lon="-0.121385"><ele>245.57</ele></trkpt>
            <trkpt lat="43.3775516" lon="-0.1217287"><ele>246.16</ele></trkpt>
            <trkpt lat="43.3775723" lon="-0.1220725"><ele>246.75</ele></trkpt>
            <trkpt lat="43.377593" lon="-0.1224162"><ele>247.35</ele></trkpt>
            <trkpt lat="43.3776136" lon="-0.1227599"><ele>247.94</ele></trkpt>
            <trkpt lat="43.3776343" lon="-0.1231037"><ele>248.54</ele></trkpt>
            <trkpt lat="43.3776549" lon="-0.1234474"><ele>249.14</ele></trkpt>
            <trkpt lat="43.3776756" lon="-0.1237912"><ele>249.74</ele></trkpt>
            <trkpt lat="43.3776963" lon="-0.1241349"><ele>250.34</ele></trkpt>
            <trkpt lat="43.3777169" lon="-0.1244787"><ele>250.94</ele></trkpt>
            <trkpt lat="43.3777376" lon="-0.1248224"><ele>251.52</ele></trkpt>
            <trkpt lat="43.3777581" lon="-0.1251593"><ele>252.02</ele></trkpt>
            <trkpt lat="43.3777787" lon="-0.1254961"><ele>252.48</ele></trkpt>
            <trkpt lat="43.3777992" lon="-0.125833"><ele>252.93</ele></trkpt>
            <trkpt lat="43.3778197" lon="-0.1261699"><ele>253.36</ele></trkpt>
            <trkpt lat="43.3778403" lon="-0.1265067"><ele>253.78</ele></trkpt>
            <trkpt lat="43.3778608" lon="-0.1268436"><ele>254.2</ele></trkpt>
            <trkpt lat="43.3778813" lon="-0.1271805"><ele>254.61</ele></trkpt>
            <trkpt lat="43.3779019" lon="-0.1275173"><ele>255.02</ele></trkpt>
            <trkpt lat="43.3779224" lon="-0.1278542"><ele>255.62</ele></trkpt>
            <trkpt lat="43.3779822" lon="-0.1289067"><ele>259.03</ele></trkpt>
            <trkpt lat="43.3780203" lon="-0.1291055"><ele>259.84</ele></trkpt>
            <trkpt lat="43.3780564" lon="-0.1292141"><ele>260.33</ele></trkpt>
            <trkpt lat="43.3780734" lon="-0.1293314"><ele>260.84</ele></trkpt>
            <trkpt lat="43.3780681" lon="-0.1294126"><ele>261.2</ele></trkpt>
            <trkpt lat="43.3780251" lon="-0.1296372"><ele>262.25</ele></trkpt>
            <trkpt lat="43.3780152" lon="-0.1298762"><ele>263.43</ele></trkpt>
            <trkpt lat="43.3779914" lon="-0.1300619"><ele>264.43</ele></trkpt>
            <trkpt lat="43.3779628" lon="-0.1302078"><ele>265.28</ele></trkpt>
            <trkpt lat="43.3778671" lon="-0.1305284"><ele>267.33</ele></trkpt>
            <trkpt lat="43.3778048" lon="-0.1307291"><ele>268.67</ele></trkpt>
            <trkpt lat="43.3777426" lon="-0.1309299"><ele>270</ele></trkpt>
            <trkpt lat="43.3776803" lon="-0.1311306"><ele>271.32</ele></trkpt>
            <trkpt lat="43.3776181" lon="-0.1313314"><ele>272.6</ele></trkpt>
            <trkpt lat="43.3775558" lon="-0.1315321"><ele>273.9</ele></trkpt>
            <trkpt lat="43.3775376" lon="-0.1317828"><ele>275.5</ele></trkpt>
            <trkpt lat="43.3775607" lon="-0.1319672"><ele>276.8</ele></trkpt>
            <trkpt lat="43.377584" lon="-0.1320718"><ele>277.61</ele></trkpt>
            <trkpt lat="43.3776969" lon="-0.1324447"><ele>280.74</ele></trkpt>
            <trkpt lat="43.3778172" lon="-0.1328871"><ele>284.44</ele></trkpt>
            <trkpt lat="43.3778816" lon="-0.1330545"><ele>285.9</ele></trkpt>
            <trkpt lat="43.3781554" lon="-0.1339718"><ele>293.6</ele></trkpt>
            <trkpt lat="43.378198" lon="-0.1341766"><ele>295.18</ele></trkpt>
            <trkpt lat="43.3782011" lon="-0.1344269"><ele>297.04</ele></trkpt>
            <trkpt lat="43.3781648" lon="-0.1345691"><ele>298.18</ele></trkpt>
            <trkpt lat="43.3781093" lon="-0.134701"><ele>299.34</ele></trkpt>
            <trkpt lat="43.3778822" lon="-0.1351384"><ele>303.35</ele></trkpt>
            <trkpt lat="43.3777159" lon="-0.1355454"><ele>306.67</ele></trkpt>
            <trkpt lat="43.3776085" lon="-0.1359482"><ele>309.44</ele></trkpt>
            <trkpt lat="43.3775777" lon="-0.1361204"><ele>310.59</ele></trkpt>
            <trkpt lat="43.3775679" lon="-0.1362551"><ele>311.47</ele></trkpt>
            <trkpt lat="43.3775803" lon="-0.1367598"><ele>314.91</ele></trkpt>
            <trkpt lat="43.3775833" lon="-0.1369523"><ele>316.42</ele></trkpt>
            <trkpt lat="43.3775863" lon="-0.1371449"><ele>318.04</ele></trkpt>
            <trkpt lat="43.3775893" lon="-0.1373374"><ele>319.74</ele></trkpt>
            <trkpt lat="43.3775923" lon="-0.1375299"><ele>321.44</ele></trkpt>
            <trkpt lat="43.3775953" lon="-0.1377225"><ele>323.09</ele></trkpt>
            <trkpt lat="43.3775983" lon="-0.137915"><ele>324.67</ele></trkpt>
            <trkpt lat="43.37761" lon="-0.1383964"><ele>328.32</ele></trkpt>
            <trkpt lat="43.3776064" lon="-0.1385988"><ele>329.73</ele></trkpt>
            <trkpt lat="43.3775644" lon="-0.1387804"><ele>331</ele></trkpt>
            <trkpt lat="43.3774909" lon="-0.1389168"><ele>332.11</ele></trkpt>
            <trkpt lat="43.3772755" lon="-0.1391776"><ele>334.71</ele></trkpt>
            <trkpt lat="43.3771935" lon="-0.1393298"><ele>335.97</ele></trkpt>
            <trkpt lat="43.3771601" lon="-0.139443"><ele>336.77</ele></trkpt>
            <trkpt lat="43.3771417" lon="-0.1395998"><ele>337.76</ele></trkpt>
            <trkpt lat="43.3771417" lon="-0.1397544"><ele>338.64</ele></trkpt>
            <trkpt lat="43.3773145" lon="-0.1405191"><ele>342.16</ele></trkpt>
            <trkpt lat="43.3773683" lon="-0.1408738"><ele>343.33</ele></trkpt>
            <trkpt lat="43.3774411" lon="-0.141885"><ele>345.39</ele></trkpt>
            <trkpt lat="43.3774874" lon="-0.1426178"><ele>346.04</ele></trkpt>
            <trkpt lat="43.3774894" lon="-0.14287"><ele>346.1</ele></trkpt>
            <trkpt lat="43.377479" lon="-0.1431302"><ele>346.05</ele></trkpt>
            <trkpt lat="43.3774566" lon="-0.1433879"><ele>345.88</ele></trkpt>
            <trkpt lat="43.3774313" lon="-0.1435223"><ele>345.74</ele></trkpt>
            <trkpt lat="43.377301" lon="-0.1442647"><ele>344.46</ele></trkpt>
            <trkpt lat="43.376928" lon="-0.1464374"><ele>339.57</ele></trkpt>
            <trkpt lat="43.376701" lon="-0.1478092"><ele>338.15</ele></trkpt>
            <trkpt lat="43.376054" lon="-0.1516541"><ele>342.76</ele></trkpt>
            <trkpt lat="43.3754544" lon="-0.1552437"><ele>346.08</ele></trkpt>
            <trkpt lat="43.3751067" lon="-0.157325"><ele>346.2</ele></trkpt>
            <trkpt lat="43.3747132" lon="-0.1596935"><ele>345.36</ele></trkpt>
            <trkpt lat="43.374283" lon="-0.1621412"><ele>345.3</ele></trkpt>
            <trkpt lat="43.3733844" lon="-0.1678353"><ele>336.59</ele></trkpt>
            <trkpt lat="43.3728932" lon="-0.1708477"><ele>339.31</ele></trkpt>
            <trkpt lat="43.3726457" lon="-0.1723637"><ele>341.74</ele></trkpt>
            <trkpt lat="43.3724734" lon="-0.1734997"><ele>343.73</ele></trkpt>
            <trkpt lat="43.3724207" lon="-0.1737842"><ele>344.19</ele></trkpt>
            <trkpt lat="43.3723434" lon="-0.1741148"><ele>344.58</ele></trkpt>
            <trkpt lat="43.3722153" lon="-0.174526"><ele>344.7</ele></trkpt>
            <trkpt lat="43.3720532" lon="-0.1749217"><ele>344.23</ele></trkpt>
            <trkpt lat="43.3715227" lon="-0.1761375"><ele>340.56</ele></trkpt>
            <trkpt lat="43.3713661" lon="-0.1765432"><ele>338.63</ele></trkpt>
            <trkpt lat="43.371175" lon="-0.1771861"><ele>334.69</ele></trkpt>
            <trkpt lat="43.3710479" lon="-0.1777054"><ele>331.43</ele></trkpt>
            <trkpt lat="43.3709794" lon="-0.1780915"><ele>328.88</ele></trkpt>
            <trkpt lat="43.3708407" lon="-0.1795795"><ele>317.74</ele></trkpt>
            <trkpt lat="43.3707676" lon="-0.1801144"><ele>315.12</ele></trkpt>
            <trkpt lat="43.3703654" lon="-0.182183"><ele>317.37</ele></trkpt>
            <trkpt lat="43.370207" lon="-0.183034"><ele>319.89</ele></trkpt>
            <trkpt lat="43.3701014" lon="-0.1837073"><ele>321.94</ele></trkpt>
            <trkpt lat="43.3700144" lon="-0.1840865"><ele>323.14</ele></trkpt>
            <trkpt lat="43.3698774" lon="-0.1844948"><ele>324.72</ele></trkpt>
            <trkpt lat="43.3697047" lon="-0.1849667"><ele>326.83</ele></trkpt>
            <trkpt lat="43.369532" lon="-0.1854386"><ele>329</ele></trkpt>
            <trkpt lat="43.3693593" lon="-0.1859104"><ele>331.19</ele></trkpt>
            <trkpt lat="43.3691866" lon="-0.1863823"><ele>333.41</ele></trkpt>
            <trkpt lat="43.3690139" lon="-0.1868542"><ele>335.6</ele></trkpt>
            <trkpt lat="43.3688412" lon="-0.1873261"><ele>337.56</ele></trkpt>
            <trkpt lat="43.3680914" lon="-0.1890348"><ele>341.08</ele></trkpt>
            <trkpt lat="43.3677308" lon="-0.189887"><ele>342.18</ele></trkpt>
            <trkpt lat="43.3676255" lon="-0.1901941"><ele>342.28</ele></trkpt>
            <trkpt lat="43.3675582" lon="-0.1904489"><ele>342.12</ele></trkpt>
            <trkpt lat="43.3674851" lon="-0.1908164"><ele>341.4</ele></trkpt>
            <trkpt lat="43.3673945" lon="-0.1915392"><ele>338.41</ele></trkpt>
            <trkpt lat="43.3673223" lon="-0.1920328"><ele>335.98</ele></trkpt>
            <trkpt lat="43.3672326" lon="-0.1924069"><ele>333.85</ele></trkpt>
            <trkpt lat="43.3671341" lon="-0.1927087"><ele>331.85</ele></trkpt>
            <trkpt lat="43.3670249" lon="-0.192946"><ele>330.04</ele></trkpt>
            <trkpt lat="43.366905" lon="-0.1931445"><ele>328.37</ele></trkpt>
            <trkpt lat="43.3666905" lon="-0.193406"><ele>325.94</ele></trkpt>
            <trkpt lat="43.3658189" lon="-0.194094"><ele>317.87</ele></trkpt>
            <trkpt lat="43.3657097" lon="-0.1941919"><ele>316.7</ele></trkpt>
            <trkpt lat="43.3656397" lon="-0.1943188"><ele>315.59</ele></trkpt>
            <trkpt lat="43.3656122" lon="-0.1944119"><ele>314.86</ele></trkpt>
            <trkpt lat="43.3655917" lon="-0.1945453"><ele>313.83</ele></trkpt>
            <trkpt lat="43.365588" lon="-0.1947085"><ele>312.57</ele></trkpt>
            <trkpt lat="43.3656062" lon="-0.1950461"><ele>309.88</ele></trkpt>
            <trkpt lat="43.3656434" lon="-0.1958817"><ele>303.03</ele></trkpt>
            <trkpt lat="43.3656971" lon="-0.1961607"><ele>300.81</ele></trkpt>
            <trkpt lat="43.3657994" lon="-0.1964195"><ele>298.59</ele></trkpt>
            <trkpt lat="43.3658765" lon="-0.1965987"><ele>297.02</ele></trkpt>
            <trkpt lat="43.3659536" lon="-0.1967779"><ele>295.48</ele></trkpt>
            <trkpt lat="43.3660307" lon="-0.1969571"><ele>293.93</ele></trkpt>
            <trkpt lat="43.3661078" lon="-0.1971363"><ele>292.37</ele></trkpt>
            <trkpt lat="43.3661848" lon="-0.1973156"><ele>290.8</ele></trkpt>
            <trkpt lat="43.3662619" lon="-0.1974948"><ele>289.23</ele></trkpt>
            <trkpt lat="43.366339" lon="-0.197674"><ele>287.67</ele></trkpt>
            <trkpt lat="43.3664161" lon="-0.1978532"><ele>286.15</ele></trkpt>
            <trkpt lat="43.3664932" lon="-0.1980324"><ele>284.78</ele></trkpt>
            <trkpt lat="43.3668106" lon="-0.1987144"><ele>280.93</ele></trkpt>
            <trkpt lat="43.3669014" lon="-0.1989881"><ele>280.06</ele></trkpt>
            <trkpt lat="43.3669187" lon="-0.1990644"><ele>279.88</ele></trkpt>
            <trkpt lat="43.3669255" lon="-0.1992037"><ele>279.6</ele></trkpt>
            <trkpt lat="43.3669187" lon="-0.1992811"><ele>279.46</ele></trkpt>
            <trkpt lat="43.3668634" lon="-0.1994647"><ele>279.16</ele></trkpt>
            <trkpt lat="43.3667841" lon="-0.1995993"><ele>278.97</ele></trkpt>
            <trkpt lat="43.3667071" lon="-0.1996797"><ele>278.86</ele></trkpt>
            <trkpt lat="43.3660929" lon="-0.2002524"><ele>278.34</ele></trkpt>
            <trkpt lat="43.3656403" lon="-0.2006665"><ele>279.46</ele></trkpt>
            <trkpt lat="43.3655411" lon="-0.2007727"><ele>279.85</ele></trkpt>
            <trkpt lat="43.3654504" lon="-0.2009176"><ele>280.34</ele></trkpt>
            <trkpt lat="43.3653333" lon="-0.2011603"><ele>281.16</ele></trkpt>
            <trkpt lat="43.3651335" lon="-0.201686"><ele>282.93</ele></trkpt>
            <trkpt lat="43.3649525" lon="-0.2022324"><ele>284.66</ele></trkpt>
            <trkpt lat="43.3648565" lon="-0.2025884"><ele>285.71</ele></trkpt>
            <trkpt lat="43.3645484" lon="-0.2040132"><ele>289.66</ele></trkpt>
            <trkpt lat="43.3644925" lon="-0.2043379"><ele>290.62</ele></trkpt>
            <trkpt lat="43.3644813" lon="-0.2044554"><ele>290.94</ele></trkpt>
            <trkpt lat="43.3644764" lon="-0.204674"><ele>291.48</ele></trkpt>
            <trkpt lat="43.36453" lon="-0.2054331"><ele>292.79</ele></trkpt>
            <trkpt lat="43.3645622" lon="-0.2062833"><ele>293.54</ele></trkpt>
            <trkpt lat="43.364625" lon="-0.2070683"><ele>294.41</ele></trkpt>
            <trkpt lat="43.364613" lon="-0.2078532"><ele>295.71</ele></trkpt>
            <trkpt lat="43.3646061" lon="-0.2084868"><ele>297.08</ele></trkpt>
            <trkpt lat="43.3645934" lon="-0.2087644"><ele>297.65</ele></trkpt>
            <trkpt lat="43.364571" lon="-0.2089414"><ele>297.99</ele></trkpt>
            <trkpt lat="43.364532" lon="-0.2091184"><ele>298.29</ele></trkpt>
            <trkpt lat="43.3644715" lon="-0.2093089"><ele>298.59</ele></trkpt>
            <trkpt lat="43.364178" lon="-0.2100062"><ele>299.61</ele></trkpt>
            <trkpt lat="43.3641195" lon="-0.2102597"><ele>299.97</ele></trkpt>
            <trkpt lat="43.3640874" lon="-0.2104917"><ele>300.31</ele></trkpt>
            <trkpt lat="43.364061" lon="-0.2107801"><ele>300.79</ele></trkpt>
            <trkpt lat="43.3640512" lon="-0.2110268"><ele>301.27</ele></trkpt>
            <trkpt lat="43.3640649" lon="-0.2116504"><ele>302.68</ele></trkpt>
            <trkpt lat="43.3640513" lon="-0.2118248"><ele>303.09</ele></trkpt>
            <trkpt lat="43.364024" lon="-0.2119777"><ele>303.45</ele></trkpt>
            <trkpt lat="43.363984" lon="-0.2120957"><ele>303.72</ele></trkpt>
            <trkpt lat="43.363906" lon="-0.2122566"><ele>304.08</ele></trkpt>
            <trkpt lat="43.3634117" lon="-0.2131096"><ele>305.3</ele></trkpt>
            <trkpt lat="43.3631533" lon="-0.2135669"><ele>305.37</ele></trkpt>
            <trkpt lat="43.3628374" lon="-0.2141435"><ele>304.87</ele></trkpt>
            <trkpt lat="43.3627224" lon="-0.2143823"><ele>304.65</ele></trkpt>
            <trkpt lat="43.3626492" lon="-0.2145566"><ele>304.52</ele></trkpt>
            <trkpt lat="43.3625668" lon="-0.2147938"><ele>304.37</ele></trkpt>
            <trkpt lat="43.3624843" lon="-0.2150309"><ele>304.24</ele></trkpt>
            <trkpt lat="43.3624019" lon="-0.2152681"><ele>304.11</ele></trkpt>
            <trkpt lat="43.3623195" lon="-0.2155053"><ele>303.99</ele></trkpt>
            <trkpt lat="43.362237" lon="-0.2157424"><ele>303.87</ele></trkpt>
            <trkpt lat="43.3621546" lon="-0.2159796"><ele>303.82</ele></trkpt>
            <trkpt lat="43.3620706" lon="-0.2162185"><ele>303.87</ele></trkpt>
            <trkpt lat="43.3619867" lon="-0.2164575"><ele>303.99</ele></trkpt>
            <trkpt lat="43.3619027" lon="-0.2166964"><ele>304.13</ele></trkpt>
            <trkpt lat="43.3618187" lon="-0.2169353"><ele>304.27</ele></trkpt>
            <trkpt lat="43.3617348" lon="-0.2171743"><ele>304.42</ele></trkpt>
            <trkpt lat="43.3616508" lon="-0.2174132"><ele>304.61</ele></trkpt>
            <trkpt lat="43.3615533" lon="-0.2177069"><ele>304.96</ele></trkpt>
            <trkpt lat="43.3615133" lon="-0.2178423"><ele>305.14</ele></trkpt>
            <trkpt lat="43.3614763" lon="-0.2180904"><ele>305.46</ele></trkpt>
            <trkpt lat="43.3614548" lon="-0.2181923"><ele>305.58</ele></trkpt>
            <trkpt lat="43.3613827" lon="-0.2184109"><ele>305.82</ele></trkpt>
            <trkpt lat="43.3613424" lon="-0.2185598"><ele>305.95</ele></trkpt>
            <trkpt lat="43.3612384" lon="-0.2188924"><ele>306.11</ele></trkpt>
            <trkpt lat="43.3608464" lon="-0.2201021"><ele>306.12</ele></trkpt>
            <trkpt lat="43.3606885" lon="-0.2206197"><ele>305.87</ele></trkpt>
            <trkpt lat="43.3604038" lon="-0.2216524"><ele>305.45</ele></trkpt>
            <trkpt lat="43.360236" lon="-0.2222022"><ele>305.72</ele></trkpt>
            <trkpt lat="43.3600771" lon="-0.2226958"><ele>306.05</ele></trkpt>
            <trkpt lat="43.3599505" lon="-0.2230837"><ele>306.05</ele></trkpt>
            <trkpt lat="43.3598368" lon="-0.2234463"><ele>305.76</ele></trkpt>
            <trkpt lat="43.3597231" lon="-0.2238088"><ele>305.39</ele></trkpt>
            <trkpt lat="43.3596093" lon="-0.2241714"><ele>305.02</ele></trkpt>
            <trkpt lat="43.3594956" lon="-0.2245339"><ele>304.66</ele></trkpt>
            <trkpt lat="43.3593819" lon="-0.2248965"><ele>304.3</ele></trkpt>
            <trkpt lat="43.3592376" lon="-0.2253807"><ele>303.87</ele></trkpt>
            <trkpt lat="43.35917" lon="-0.225649"><ele>303.67</ele></trkpt>
            <trkpt lat="43.3591196" lon="-0.2259319"><ele>303.44</ele></trkpt>
            <trkpt lat="43.3590542" lon="-0.2264862"><ele>302.81</ele></trkpt>
            <trkpt lat="43.3589304" lon="-0.2275988"><ele>300.62</ele></trkpt>
            <trkpt lat="43.3589031" lon="-0.2278322"><ele>299.86</ele></trkpt>
            <trkpt lat="43.3588651" lon="-0.2280776"><ele>298.85</ele></trkpt>
            <trkpt lat="43.3588066" lon="-0.2283029"><ele>297.78</ele></trkpt>
            <trkpt lat="43.3587575" lon="-0.2284519"><ele>297.04</ele></trkpt>
            <trkpt lat="43.3587179" lon="-0.2285443"><ele>296.55</ele></trkpt>
            <trkpt lat="43.3585209" lon="-0.22894"><ele>294.72</ele></trkpt>
            <trkpt lat="43.3584517" lon="-0.2291438"><ele>294.27</ele></trkpt>
            <trkpt lat="43.3584214" lon="-0.2293852"><ele>294.08</ele></trkpt>
            <trkpt lat="43.3584273" lon="-0.2297768"><ele>294.25</ele></trkpt>
            <trkpt lat="43.3584479" lon="-0.2304673"><ele>295.49</ele></trkpt>
            <trkpt lat="43.358469" lon="-0.231074"><ele>297.03</ele></trkpt>
            <trkpt lat="43.3584857" lon="-0.2316896"><ele>298.71</ele></trkpt>
            <trkpt lat="43.3585143" lon="-0.2323467"><ele>300</ele></trkpt>
            <trkpt lat="43.358518" lon="-0.2325153"><ele>300.16</ele></trkpt>
            <trkpt lat="43.3585623" lon="-0.2335708"><ele>299.98</ele></trkpt>
            <trkpt lat="43.3586182" lon="-0.2346702"><ele>298.75</ele></trkpt>
            <trkpt lat="43.3586734" lon="-0.2361635"><ele>298.69</ele></trkpt>
            <trkpt lat="43.3586892" lon="-0.2367506"><ele>298.74</ele></trkpt>
            <trkpt lat="43.3587325" lon="-0.2378847"><ele>298.9</ele></trkpt>
            <trkpt lat="43.3587853" lon="-0.2392685"><ele>299.72</ele></trkpt>
            <trkpt lat="43.3588411" lon="-0.240883"><ele>300.81</ele></trkpt>
            <trkpt lat="43.3589241" lon="-0.2432811"><ele>300.98</ele></trkpt>
            <trkpt lat="43.3589607" lon="-0.2440071"><ele>300.43</ele></trkpt>
            <trkpt lat="43.3590274" lon="-0.2441543"><ele>300.24</ele></trkpt>
            <trkpt lat="43.3590932" lon="-0.2442445"><ele>300.09</ele></trkpt>
            <trkpt lat="43.3591384" lon="-0.2442529"><ele>300.01</ele></trkpt>
            <trkpt lat="43.3591935" lon="-0.2443128"><ele>299.88</ele></trkpt>
            <trkpt lat="43.3592078" lon="-0.2443577"><ele>299.82</ele></trkpt>
            <trkpt lat="43.3592056" lon="-0.2444432"><ele>299.71</ele></trkpt>
            <trkpt lat="43.3591699" lon="-0.2445133"><ele>299.6</ele></trkpt>
            <trkpt lat="43.3591121" lon="-0.2445455"><ele>299.5</ele></trkpt>
            <trkpt lat="43.3590924" lon="-0.2446555"><ele>299.37</ele></trkpt>
            <trkpt lat="43.3590367" lon="-0.2448736"><ele>299.15</ele></trkpt>
            <trkpt lat="43.3589889" lon="-0.2450225"><ele>299.02</ele></trkpt>
            <trkpt lat="43.3589197" lon="-0.2451968"><ele>298.9</ele></trkpt>
            <trkpt lat="43.3587364" lon="-0.2456126"><ele>298.62</ele></trkpt>
            <trkpt lat="43.3586628" lon="-0.245776"><ele>298.47</ele></trkpt>
            <trkpt lat="43.3585892" lon="-0.2459394"><ele>298.29</ele></trkpt>
            <trkpt lat="43.3585156" lon="-0.2461027"><ele>298.09</ele></trkpt>
            <trkpt lat="43.3584419" lon="-0.2462661"><ele>297.9</ele></trkpt>
            <trkpt lat="43.3583683" lon="-0.2464295"><ele>297.67</ele></trkpt>
            <trkpt lat="43.3582947" lon="-0.2465929"><ele>297.39</ele></trkpt>
            <trkpt lat="43.3578832" lon="-0.2474982"><ele>295.19</ele></trkpt>
            <trkpt lat="43.3576024" lon="-0.2481124"><ele>294.58</ele></trkpt>
            <trkpt lat="43.3574629" lon="-0.2484691"><ele>294.52</ele></trkpt>
            <trkpt lat="43.3574259" lon="-0.2485871"><ele>294.51</ele></trkpt>
            <trkpt lat="43.3573637" lon="-0.2488437"><ele>294.5</ele></trkpt>
            <trkpt lat="43.3573561" lon="-0.2489573"><ele>294.49</ele></trkpt>
            <trkpt lat="43.357383" lon="-0.2491933"><ele>294.47</ele></trkpt>
            <trkpt lat="43.3574132" lon="-0.2493422"><ele>294.48</ele></trkpt>
            <trkpt lat="43.3574692" lon="-0.249586"><ele>294.51</ele></trkpt>
            <trkpt lat="43.3575252" lon="-0.2498298"><ele>294.58</ele></trkpt>
            <trkpt lat="43.3575811" lon="-0.2500736"><ele>294.64</ele></trkpt>
            <trkpt lat="43.3576371" lon="-0.2503174"><ele>294.71</ele></trkpt>
            <trkpt lat="43.3576931" lon="-0.2505612"><ele>294.74</ele></trkpt>
            <trkpt lat="43.3577545" lon="-0.2507691"><ele>294.71</ele></trkpt>
            <trkpt lat="43.3578695" lon="-0.251103"><ele>294.47</ele></trkpt>
            <trkpt lat="43.3579973" lon="-0.2514397"><ele>294.03</ele></trkpt>
            <trkpt lat="43.3580889" lon="-0.2516972"><ele>293.56</ele></trkpt>
            <trkpt lat="43.3581075" lon="-0.2517803"><ele>293.39</ele></trkpt>
            <trkpt lat="43.3581114" lon="-0.2519855"><ele>292.91</ele></trkpt>
            <trkpt lat="43.3580987" lon="-0.2520981"><ele>292.59</ele></trkpt>
            <trkpt lat="43.3580714" lon="-0.2521893"><ele>292.28</ele></trkpt>
            <trkpt lat="43.3580236" lon="-0.2522792"><ele>291.88</ele></trkpt>
            <trkpt lat="43.3578968" lon="-0.2524267"><ele>290.95</ele></trkpt>
            <trkpt lat="43.357784" lon="-0.2524854"><ele>290.17</ele></trkpt>
            <trkpt lat="43.3576345" lon="-0.252538"><ele>289.09</ele></trkpt>
            <trkpt lat="43.3575019" lon="-0.2525595"><ele>288.13</ele></trkpt>
            <trkpt lat="43.3573752" lon="-0.2525595"><ele>287.23</ele></trkpt>
            <trkpt lat="43.3567667" lon="-0.2524844"><ele>283.22</ele></trkpt>
            <trkpt lat="43.3564332" lon="-0.2524254"><ele>281.4</ele></trkpt>
            <trkpt lat="43.3563172" lon="-0.2523865"><ele>280.84</ele></trkpt>
            <trkpt lat="43.3561348" lon="-0.2522524"><ele>279.92</ele></trkpt>
            <trkpt lat="43.3556248" lon="-0.251728"><ele>277</ele></trkpt>
            <trkpt lat="43.355502" lon="-0.2516381"><ele>276.26</ele></trkpt>
            <trkpt lat="43.355422" lon="-0.2516033"><ele>275.79</ele></trkpt>
            <trkpt lat="43.3552904" lon="-0.2515845"><ele>275.02</ele></trkpt>
            <trkpt lat="43.3551704" lon="-0.2515952"><ele>274.33</ele></trkpt>
            <trkpt lat="43.354993" lon="-0.251673"><ele>273.25</ele></trkpt>
            <trkpt lat="43.3549189" lon="-0.2517307"><ele>272.74</ele></trkpt>
            <trkpt lat="43.3548321" lon="-0.251838"><ele>272.02</ele></trkpt>
            <trkpt lat="43.3547141" lon="-0.2520767"><ele>270.62</ele></trkpt>
            <trkpt lat="43.3544878" lon="-0.2525769"><ele>267.8</ele></trkpt>
            <trkpt lat="43.3544128" lon="-0.2527379"><ele>267.03</ele></trkpt>
            <trkpt lat="43.3541807" lon="-0.2530637"><ele>265.37</ele></trkpt>
            <trkpt lat="43.3539917" lon="-0.2532779"><ele>264.75</ele></trkpt>
            <trkpt lat="43.3538884" lon="-0.2533966"><ele>265.08</ele></trkpt>
            <trkpt lat="43.3537851" lon="-0.2535153"><ele>265.86</ele></trkpt>
            <trkpt lat="43.3536818" lon="-0.253634"><ele>266.85</ele></trkpt>
            <trkpt lat="43.3535784" lon="-0.2537526"><ele>267.87</ele></trkpt>
            <trkpt lat="43.3534751" lon="-0.2538713"><ele>268.91</ele></trkpt>
            <trkpt lat="43.3533718" lon="-0.25399"><ele>269.94</ele></trkpt>
            <trkpt lat="43.3532685" lon="-0.2541087"><ele>270.96</ele></trkpt>
            <trkpt lat="43.3531652" lon="-0.2542274"><ele>272</ele></trkpt>
            <trkpt lat="43.3530619" lon="-0.2543461"><ele>273.06</ele></trkpt>
            <trkpt lat="43.3529586" lon="-0.2544648"><ele>274.14</ele></trkpt>
            <trkpt lat="43.3528552" lon="-0.2545834"><ele>275.24</ele></trkpt>
            <trkpt lat="43.3527519" lon="-0.2547021"><ele>276.32</ele></trkpt>
            <trkpt lat="43.3526486" lon="-0.2548208"><ele>277.36</ele></trkpt>
            <trkpt lat="43.3525453" lon="-0.2549395"><ele>278.33</ele></trkpt>
            <trkpt lat="43.3524439" lon="-0.2550471"><ele>279.17</ele></trkpt>
            <trkpt lat="43.3523425" lon="-0.2551548"><ele>279.94</ele></trkpt>
            <trkpt lat="43.3522411" lon="-0.2552624"><ele>280.67</ele></trkpt>
            <trkpt lat="43.3521397" lon="-0.2553701"><ele>281.38</ele></trkpt>
            <trkpt lat="43.3520382" lon="-0.2554777"><ele>282.08</ele></trkpt>
            <trkpt lat="43.3519368" lon="-0.2555854"><ele>282.77</ele></trkpt>
            <trkpt lat="43.3518354" lon="-0.255693"><ele>283.46</ele></trkpt>
            <trkpt lat="43.351734" lon="-0.2558007"><ele>284.13</ele></trkpt>
            <trkpt lat="43.3516326" lon="-0.2559083"><ele>284.74</ele></trkpt>
            <trkpt lat="43.3515595" lon="-0.2560338"><ele>285.23</ele></trkpt>
            <trkpt lat="43.3514863" lon="-0.2561592"><ele>285.66</ele></trkpt>
            <trkpt lat="43.3514132" lon="-0.2562847"><ele>286.07</ele></trkpt>
            <trkpt lat="43.35134" lon="-0.2564102"><ele>286.47</ele></trkpt>
            <trkpt lat="43.3512669" lon="-0.2565357"><ele>286.86</ele></trkpt>
            <trkpt lat="43.3511937" lon="-0.2566611"><ele>287.24</ele></trkpt>
            <trkpt lat="43.3511206" lon="-0.2567866"><ele>287.6</ele></trkpt>
            <trkpt lat="43.3510494" lon="-0.2569288"><ele>287.96</ele></trkpt>
            <trkpt lat="43.350939" lon="-0.2570439"><ele>288.31</ele></trkpt>
            <trkpt lat="43.3509235" lon="-0.2571172"><ele>288.43</ele></trkpt>
            <trkpt lat="43.350888" lon="-0.2571897"><ele>288.55</ele></trkpt>
            <trkpt lat="43.3508373" lon="-0.2572423"><ele>288.64</ele></trkpt>
            <trkpt lat="43.3507666" lon="-0.2572711"><ele>288.72</ele></trkpt>
            <trkpt lat="43.3506933" lon="-0.2572612"><ele>288.76</ele></trkpt>
            <trkpt lat="43.350628" lon="-0.2572141"><ele>288.76</ele></trkpt>
            <trkpt lat="43.3505878" lon="-0.2571537"><ele>288.73</ele></trkpt>
            <trkpt lat="43.3505567" lon="-0.2570324"><ele>288.63</ele></trkpt>
            <trkpt lat="43.3504057" lon="-0.2568604"><ele>288.23</ele></trkpt>
            <trkpt lat="43.3502487" lon="-0.2566378"><ele>287.49</ele></trkpt>
            <trkpt lat="43.3499201" lon="-0.2560812"><ele>285.32</ele></trkpt>
            <trkpt lat="43.349804" lon="-0.2559163"><ele>284.79</ele></trkpt>
            <trkpt lat="43.3496919" lon="-0.2558036"><ele>284.56</ele></trkpt>
            <trkpt lat="43.3495573" lon="-0.2556802"><ele>284.56</ele></trkpt>
            <trkpt lat="43.3494422" lon="-0.2555917"><ele>284.76</ele></trkpt>
            <trkpt lat="43.3492062" lon="-0.2554455"><ele>285.42</ele></trkpt>
            <trkpt lat="43.3489341" lon="-0.2553101"><ele>285.91</ele></trkpt>
            <trkpt lat="43.348115" lon="-0.2549252"><ele>284.65</ele></trkpt>
            <trkpt lat="43.3477902" lon="-0.2547696"><ele>283.92</ele></trkpt>
            <trkpt lat="43.3472996" lon="-0.2545403"><ele>283.99</ele></trkpt>
            <trkpt lat="43.3466043" lon="-0.254209"><ele>286.29</ele></trkpt>
            <trkpt lat="43.345747" lon="-0.2537584"><ele>288.13</ele></trkpt>
            <trkpt lat="43.3453032" lon="-0.2534835"><ele>289.53</ele></trkpt>
            <trkpt lat="43.3447424" lon="-0.2530946"><ele>291.96</ele></trkpt>
            <trkpt lat="43.3444567" lon="-0.2528787"><ele>292.88</ele></trkpt>
            <trkpt lat="43.3437192" lon="-0.2523121"><ele>293.98</ele></trkpt>
            <trkpt lat="43.3432629" lon="-0.2519627"><ele>293.9</ele></trkpt>
            <trkpt lat="43.3424943" lon="-0.251378"><ele>292.96</ele></trkpt>
            <trkpt lat="43.3423256" lon="-0.2512626"><ele>292.81</ele></trkpt>
            <trkpt lat="43.3420613" lon="-0.251095"><ele>292.78</ele></trkpt>
            <trkpt lat="43.3416931" lon="-0.2509176"><ele>293.3</ele></trkpt>
            <trkpt lat="43.3414673" lon="-0.2508402"><ele>294.02</ele></trkpt>
            <trkpt lat="43.3412947" lon="-0.2507946"><ele>294.76</ele></trkpt>
            <trkpt lat="43.3411415" lon="-0.2507705"><ele>295.45</ele></trkpt>
            <trkpt lat="43.3408265" lon="-0.2507651"><ele>296.7</ele></trkpt>
            <trkpt lat="43.3404532" lon="-0.2507887"><ele>297.54</ele></trkpt>
            <trkpt lat="43.3403144" lon="-0.250812"><ele>297.67</ele></trkpt>
            <trkpt lat="43.3401118" lon="-0.2508608"><ele>297.7</ele></trkpt>
            <trkpt lat="43.3396825" lon="-0.2510371"><ele>297.55</ele></trkpt>
            <trkpt lat="43.339437" lon="-0.2511911"><ele>297.53</ele></trkpt>
            <trkpt lat="43.3391776" lon="-0.2513943"><ele>297.65</ele></trkpt>
            <trkpt lat="43.3389791" lon="-0.2516757"><ele>297.88</ele></trkpt>
            <trkpt lat="43.3388647" lon="-0.2518799"><ele>298.06</ele></trkpt>
            <trkpt lat="43.3388647" lon="-0.2519788"><ele>298.12</ele></trkpt>
            <trkpt lat="43.3388417" lon="-0.2520724"><ele>298.19</ele></trkpt>
            <trkpt lat="43.3387933" lon="-0.2521571"><ele>298.26</ele></trkpt>
            <trkpt lat="43.3387265" lon="-0.2522133"><ele>298.32</ele></trkpt>
            <trkpt lat="43.3386673" lon="-0.2522327"><ele>298.36</ele></trkpt>
            <trkpt lat="43.3386065" lon="-0.2522292"><ele>298.4</ele></trkpt>
            <trkpt lat="43.3384197" lon="-0.252368"><ele>298.5</ele></trkpt>
            <trkpt lat="43.3381647" lon="-0.2527311"><ele>298.61</ele></trkpt>
            <trkpt lat="43.3380281" lon="-0.2530356"><ele>298.67</ele></trkpt>
            <trkpt lat="43.3379159" lon="-0.2533333"><ele>298.71</ele></trkpt>
            <trkpt lat="43.3378379" lon="-0.2536042"><ele>298.72</ele></trkpt>
            <trkpt lat="43.3377647" lon="-0.2538979"><ele>298.64</ele></trkpt>
            <trkpt lat="43.3377052" lon="-0.2542238"><ele>298.37</ele></trkpt>
            <trkpt lat="43.3376691" lon="-0.2544692"><ele>298.03</ele></trkpt>
            <trkpt lat="43.3376477" lon="-0.2547428"><ele>297.53</ele></trkpt>
            <trkpt lat="43.3376331" lon="-0.2550459"><ele>296.95</ele></trkpt>
            <trkpt lat="43.3376379" lon="-0.2553289"><ele>296.44</ele></trkpt>
            <trkpt lat="43.3376457" lon="-0.2555273"><ele>296.13</ele></trkpt>
            <trkpt lat="43.3376926" lon="-0.2560088"><ele>295.51</ele></trkpt>
            <trkpt lat="43.3377425" lon="-0.256331"><ele>295.17</ele></trkpt>
            <trkpt lat="43.3378077" lon="-0.2567062"><ele>294.86</ele></trkpt>
            <trkpt lat="43.3380066" lon="-0.2577697"><ele>294.41</ele></trkpt>
            <trkpt lat="43.3381529" lon="-0.2585481"><ele>294.54</ele></trkpt>
            <trkpt lat="43.338272" lon="-0.2591939"><ele>294.96</ele></trkpt>
            <trkpt lat="43.3383275" lon="-0.259548"><ele>295.21</ele></trkpt>
            <trkpt lat="43.3383861" lon="-0.260008"><ele>295.56</ele></trkpt>
            <trkpt lat="43.3384144" lon="-0.2603111"><ele>295.81</ele></trkpt>
            <trkpt lat="43.3384426" lon="-0.2606839"><ele>296.12</ele></trkpt>
            <trkpt lat="43.3384631" lon="-0.2611037"><ele>296.42</ele></trkpt>
            <trkpt lat="43.338467" lon="-0.2614577"><ele>296.69</ele></trkpt>
            <trkpt lat="43.3384661" lon="-0.2617018"><ele>296.91</ele></trkpt>
            <trkpt lat="43.3384417" lon="-0.2622651"><ele>297.6</ele></trkpt>
            <trkpt lat="43.3383816" lon="-0.2631009"><ele>299.02</ele></trkpt>
            <trkpt lat="43.3381746" lon="-0.2643237"><ele>302.19</ele></trkpt>
            <trkpt lat="43.3380509" lon="-0.264795"><ele>303.55</ele></trkpt>
            <trkpt lat="43.3379272" lon="-0.2652662"><ele>304.95</ele></trkpt>
            <trkpt lat="43.3378035" lon="-0.2657375"><ele>306.35</ele></trkpt>
            <trkpt lat="43.3376797" lon="-0.2662088"><ele>307.74</ele></trkpt>
            <trkpt lat="43.337556" lon="-0.26668"><ele>309.14</ele></trkpt>
            <trkpt lat="43.3374323" lon="-0.2671513"><ele>310.76</ele></trkpt>
            <trkpt lat="43.3373172" lon="-0.2675895"><ele>312.95</ele></trkpt>
            <trkpt lat="43.3370534" lon="-0.2686623"><ele>318.77</ele></trkpt>
            <trkpt lat="43.3369648" lon="-0.2696273"><ele>322.23</ele></trkpt>
            <trkpt lat="43.3369727" lon="-0.2699965"><ele>323.3</ele></trkpt>
            <trkpt lat="43.3370023" lon="-0.270302"><ele>324.16</ele></trkpt>
            <trkpt lat="43.3371161" lon="-0.2709501"><ele>326.02</ele></trkpt>
            <trkpt lat="43.3372712" lon="-0.2714463"><ele>327.63</ele></trkpt>
            <trkpt lat="43.3374575" lon="-0.2720886"><ele>329.89</ele></trkpt>
            <trkpt lat="43.3375072" lon="-0.2722992"><ele>330.53</ele></trkpt>
            <trkpt lat="43.3375423" lon="-0.2725446"><ele>331.12</ele></trkpt>
            <trkpt lat="43.3375404" lon="-0.2727243"><ele>331.45</ele></trkpt>
            <trkpt lat="43.3375248" lon="-0.2729121"><ele>331.73</ele></trkpt>
            <trkpt lat="43.3374955" lon="-0.273073"><ele>331.96</ele></trkpt>
            <trkpt lat="43.3374565" lon="-0.2732071"><ele>332.15</ele></trkpt>
            <trkpt lat="43.3374194" lon="-0.2732985"><ele>332.29</ele></trkpt>
            <trkpt lat="43.3373238" lon="-0.2734807"><ele>332.56</ele></trkpt>
            <trkpt lat="43.3372478" lon="-0.2735867"><ele>332.71</ele></trkpt>
            <trkpt lat="43.3371249" lon="-0.2737275"><ele>332.92</ele></trkpt>
            <trkpt lat="43.3367357" lon="-0.2741124"><ele>333.75</ele></trkpt>
            <trkpt lat="43.3364743" lon="-0.27439"><ele>334.52</ele></trkpt>
            <trkpt lat="43.3363913" lon="-0.2744946"><ele>334.83</ele></trkpt>
            <trkpt lat="43.3363139" lon="-0.274675"><ele>335.28</ele></trkpt>
            <trkpt lat="43.336245" lon="-0.2748651"><ele>335.74</ele></trkpt>
            <trkpt lat="43.3362187" lon="-0.2749822"><ele>336.01</ele></trkpt>
            <trkpt lat="43.3362004" lon="-0.2752335"><ele>336.52</ele></trkpt>
            <trkpt lat="43.3362275" lon="-0.275418"><ele>336.75</ele></trkpt>
            <trkpt lat="43.3362692" lon="-0.2754886"><ele>336.78</ele></trkpt>
            <trkpt lat="43.3362834" lon="-0.2755774"><ele>336.77</ele></trkpt>
            <trkpt lat="43.3362682" lon="-0.2756625"><ele>336.7</ele></trkpt>
            <trkpt lat="43.3362035" lon="-0.2757507"><ele>336.53</ele></trkpt>
            <trkpt lat="43.3361133" lon="-0.2757675"><ele>336.28</ele></trkpt>
            <trkpt lat="43.3359772" lon="-0.2759208"><ele>335.58</ele></trkpt>
            <trkpt lat="43.3358635" lon="-0.2762726"><ele>334</ele></trkpt>
            <trkpt lat="43.3357877" lon="-0.2765748"><ele>332.57</ele></trkpt>
            <trkpt lat="43.3357241" lon="-0.2767885"><ele>331.53</ele></trkpt>
            <trkpt lat="43.3356622" lon="-0.2769285"><ele>330.79</ele></trkpt>
            <trkpt lat="43.3355908" lon="-0.2770593"><ele>330.07</ele></trkpt>
            <trkpt lat="43.3354369" lon="-0.2773001"><ele>328.67</ele></trkpt>
            <trkpt lat="43.3352043" lon="-0.2776432"><ele>326.56</ele></trkpt>
            <trkpt lat="43.3350598" lon="-0.2778522"><ele>325.28</ele></trkpt>
            <trkpt lat="43.3348952" lon="-0.2780501"><ele>323.99</ele></trkpt>
            <trkpt lat="43.3347633" lon="-0.2781897"><ele>322.99</ele></trkpt>
            <trkpt lat="43.3346221" lon="-0.2783134"><ele>321.95</ele></trkpt>
            <trkpt lat="43.334533" lon="-0.2783619"><ele>321.34</ele></trkpt>
            <trkpt lat="43.3342496" lon="-0.2784376"><ele>319.36</ele></trkpt>
            <trkpt lat="43.3340903" lon="-0.278443"><ele>318.21</ele></trkpt>
            <trkpt lat="43.3339506" lon="-0.2784247"><ele>317.23</ele></trkpt>
            <trkpt lat="43.3336712" lon="-0.2783626"><ele>315.28</ele></trkpt>
            <trkpt lat="43.3333489" lon="-0.2782671"><ele>312.66</ele></trkpt>
            <trkpt lat="43.3331557" lon="-0.2781746"><ele>311.02</ele></trkpt>
            <trkpt lat="43.3329955" lon="-0.2780551"><ele>309.79</ele></trkpt>
            <trkpt lat="43.3328353" lon="-0.2779356"><ele>308.75</ele></trkpt>
            <trkpt lat="43.3326752" lon="-0.277816"><ele>307.74</ele></trkpt>
            <trkpt lat="43.332515" lon="-0.2776965"><ele>306.73</ele></trkpt>
            <trkpt lat="43.3323548" lon="-0.277577"><ele>305.68</ele></trkpt>
            <trkpt lat="43.3318111" lon="-0.2772001"><ele>301.93</ele></trkpt>
            <trkpt lat="43.3316345" lon="-0.2770043"><ele>300.54</ele></trkpt>
            <trkpt lat="43.3314833" lon="-0.2767863"><ele>299.43</ele></trkpt>
            <trkpt lat="43.3311397" lon="-0.2759201"><ele>297.34</ele></trkpt>
            <trkpt lat="43.331039" lon="-0.2757726"><ele>296.41</ele></trkpt>
            <trkpt lat="43.3309898" lon="-0.275732"><ele>295.94</ele></trkpt>
            <trkpt lat="43.3308966" lon="-0.2756893"><ele>295</ele></trkpt>
            <trkpt lat="43.3307767" lon="-0.2756979"><ele>293.73</ele></trkpt>
            <trkpt lat="43.3307045" lon="-0.275733"><ele>292.91</ele></trkpt>
            <trkpt lat="43.3306343" lon="-0.2758062"><ele>292.01</ele></trkpt>
            <trkpt lat="43.3305972" lon="-0.2758858"><ele>291.36</ele></trkpt>
            <trkpt lat="43.3305762" lon="-0.2759669"><ele>290.81</ele></trkpt>
            <trkpt lat="43.3305673" lon="-0.2761335"><ele>289.87</ele></trkpt>
            <trkpt lat="43.330586" lon="-0.2762985"><ele>289.01</ele></trkpt>
            <trkpt lat="43.330734" lon="-0.2768945"><ele>285.91</ele></trkpt>
            <trkpt lat="43.3307961" lon="-0.2771332"><ele>284.66</ele></trkpt>
            <trkpt lat="43.3308582" lon="-0.2773719"><ele>283.41</ele></trkpt>
            <trkpt lat="43.3309202" lon="-0.2776107"><ele>282.16</ele></trkpt>
            <trkpt lat="43.3309823" lon="-0.2778494"><ele>280.91</ele></trkpt>
            <trkpt lat="43.3310444" lon="-0.2780881"><ele>279.66</ele></trkpt>
            <trkpt lat="43.331173" lon="-0.2784989"><ele>277.42</ele></trkpt>
            <trkpt lat="43.3313062" lon="-0.2788622"><ele>275.34</ele></trkpt>
            <trkpt lat="43.3314417" lon="-0.279189"><ele>273.37</ele></trkpt>
            <trkpt lat="43.3315864" lon="-0.2795127"><ele>271.41</ele></trkpt>
            <trkpt lat="43.3321054" lon="-0.2804384"><ele>265.63</ele></trkpt>
            <trkpt lat="43.3322565" lon="-0.280831"><ele>263.33</ele></trkpt>
            <trkpt lat="43.3323029" lon="-0.2810525"><ele>262.09</ele></trkpt>
            <trkpt lat="43.332316" lon="-0.2812725"><ele>260.86</ele></trkpt>
            <trkpt lat="43.3322893" lon="-0.2815648"><ele>259.26</ele></trkpt>
            <trkpt lat="43.3321626" lon="-0.2819144"><ele>257.34</ele></trkpt>
            <trkpt lat="43.3320381" lon="-0.2821027"><ele>256.18</ele></trkpt>
            <trkpt lat="43.331888" lon="-0.2822491"><ele>255.06</ele></trkpt>
            <trkpt lat="43.3316634" lon="-0.2823937"><ele>253.69</ele></trkpt>
            <trkpt lat="43.3310538" lon="-0.282736"><ele>250.93</ele></trkpt>
            <trkpt lat="43.330753" lon="-0.2829358"><ele>249.84</ele></trkpt>
            <trkpt lat="43.3305659" lon="-0.283113"><ele>249.05</ele></trkpt>
            <trkpt lat="43.3303926" lon="-0.2833123"><ele>248.2</ele></trkpt>
            <trkpt lat="43.3302358" lon="-0.283553"><ele>247.36</ele></trkpt>
            <trkpt lat="43.3300928" lon="-0.2838032"><ele>246.65</ele></trkpt>
            <trkpt lat="43.3297686" lon="-0.2844382"><ele>245.25</ele></trkpt>
            <trkpt lat="43.3294047" lon="-0.2852305"><ele>243.83</ele></trkpt>
            <trkpt lat="43.3289172" lon="-0.2864604"><ele>241.48</ele></trkpt>
            <trkpt lat="43.3287909" lon="-0.2867783"><ele>241.02</ele></trkpt>
            <trkpt lat="43.3280265" lon="-0.2886757"><ele>239.62</ele></trkpt>
            <trkpt lat="43.3276623" lon="-0.2894612"><ele>239.71</ele></trkpt>
            <trkpt lat="43.3273379" lon="-0.2901187"><ele>239.79</ele></trkpt>
            <trkpt lat="43.3267214" lon="-0.2914251"><ele>239.31</ele></trkpt>
            <trkpt lat="43.326357" lon="-0.2921995"><ele>238.33</ele></trkpt>
            <trkpt lat="43.3260938" lon="-0.2927603"><ele>238.12</ele></trkpt>
            <trkpt lat="43.3249522" lon="-0.2951278"><ele>240.24</ele></trkpt>
            <trkpt lat="43.3245068" lon="-0.2960516"><ele>240.53</ele></trkpt>
            <trkpt lat="43.3237638" lon="-0.2975956"><ele>241.36</ele></trkpt>
            <trkpt lat="43.3236264" lon="-0.2978754"><ele>241.32</ele></trkpt>
            <trkpt lat="43.3233117" lon="-0.2984529"><ele>240.82</ele></trkpt>
            <trkpt lat="43.3232462" lon="-0.298644"><ele>240.56</ele></trkpt>
            <trkpt lat="43.3231932" lon="-0.2987384"><ele>240.4</ele></trkpt>
            <trkpt lat="43.3231742" lon="-0.2988155"><ele>240.28</ele></trkpt>
            <trkpt lat="43.3231772" lon="-0.2989592"><ele>240.08</ele></trkpt>
            <trkpt lat="43.3231981" lon="-0.2990082"><ele>240.01</ele></trkpt>
            <trkpt lat="43.3232126" lon="-0.2991074"><ele>239.89</ele></trkpt>
            <trkpt lat="43.3231958" lon="-0.2992059"><ele>239.79</ele></trkpt>
            <trkpt lat="43.3231725" lon="-0.2992561"><ele>239.73</ele></trkpt>
            <trkpt lat="43.3231027" lon="-0.2993253"><ele>239.65</ele></trkpt>
            <trkpt lat="43.3229791" lon="-0.2993888"><ele>239.59</ele></trkpt>
            <trkpt lat="43.3229336" lon="-0.2994554"><ele>239.58</ele></trkpt>
            <trkpt lat="43.322764" lon="-0.2998938"><ele>239.77</ele></trkpt>
            <trkpt lat="43.3225464" lon="-0.3003632"><ele>240.19</ele></trkpt>
            <trkpt lat="43.3221617" lon="-0.3013341"><ele>240.87</ele></trkpt>
            <trkpt lat="43.3219464" lon="-0.3018719"><ele>240.56</ele></trkpt>
            <trkpt lat="43.3218439" lon="-0.3020744"><ele>240.25</ele></trkpt>
            <trkpt lat="43.3216205" lon="-0.302466"><ele>239.43</ele></trkpt>
            <trkpt lat="43.3212058" lon="-0.3030668"><ele>238.3</ele></trkpt>
            <trkpt lat="43.3210653" lon="-0.3032975"><ele>238.24</ele></trkpt>
            <trkpt lat="43.320879" lon="-0.3036448"><ele>238.48</ele></trkpt>
            <trkpt lat="43.3205663" lon="-0.3042944"><ele>238.84</ele></trkpt>
            <trkpt lat="43.3200376" lon="-0.3054033"><ele>238.36</ele></trkpt>
            <trkpt lat="43.3198428" lon="-0.305801"><ele>238.09</ele></trkpt>
            <trkpt lat="43.3197022" lon="-0.3060609"><ele>237.87</ele></trkpt>
            <trkpt lat="43.3194978" lon="-0.3064754"><ele>237.3</ele></trkpt>
            <trkpt lat="43.3192243" lon="-0.3071039"><ele>236.15</ele></trkpt>
            <trkpt lat="43.3191649" lon="-0.3072888"><ele>235.8</ele></trkpt>
            <trkpt lat="43.3191512" lon="-0.3073848"><ele>235.62</ele></trkpt>
            <trkpt lat="43.319181" lon="-0.3074962"><ele>235.39</ele></trkpt>
            <trkpt lat="43.3191834" lon="-0.3075558"><ele>235.26</ele></trkpt>
            <trkpt lat="43.3191626" lon="-0.307671"><ele>235.01</ele></trkpt>
            <trkpt lat="43.3191119" lon="-0.307765"><ele>234.76</ele></trkpt>
            <trkpt lat="43.3190389" lon="-0.3078254"><ele>234.51</ele></trkpt>
            <trkpt lat="43.3189974" lon="-0.3078398"><ele>234.38</ele></trkpt>
            <trkpt lat="43.3189104" lon="-0.3078338"><ele>234.11</ele></trkpt>
            <trkpt lat="43.3188241" lon="-0.307931"><ele>233.78</ele></trkpt>
            <trkpt lat="43.3187495" lon="-0.308051"><ele>233.43</ele></trkpt>
            <trkpt lat="43.3182592" lon="-0.3090508"><ele>231</ele></trkpt>
            <trkpt lat="43.317989" lon="-0.3095558"><ele>229.91</ele></trkpt>
            <trkpt lat="43.3177718" lon="-0.3100117"><ele>229.29</ele></trkpt>
            <trkpt lat="43.3175031" lon="-0.3105678"><ele>229.18</ele></trkpt>
            <trkpt lat="43.3172344" lon="-0.3111239"><ele>229.2</ele></trkpt>
            <trkpt lat="43.3169658" lon="-0.31168"><ele>229.24</ele></trkpt>
            <trkpt lat="43.3166971" lon="-0.3122361"><ele>229.34</ele></trkpt>
            <trkpt lat="43.3164284" lon="-0.3127922"><ele>229.55</ele></trkpt>
            <trkpt lat="43.3157979" lon="-0.314105"><ele>230.17</ele></trkpt>
            <trkpt lat="43.3155682" lon="-0.3145895"><ele>229.94</ele></trkpt>
            <trkpt lat="43.315406" lon="-0.3149315"><ele>229.4</ele></trkpt>
            <trkpt lat="43.3150021" lon="-0.3157617"><ele>227.31</ele></trkpt>
            <trkpt lat="43.3143287" lon="-0.317137"><ele>225.05</ele></trkpt>
            <trkpt lat="43.314026" lon="-0.3177606"><ele>224.44</ele></trkpt>
            <trkpt lat="43.3135642" lon="-0.318712"><ele>224.49</ele></trkpt>
            <trkpt lat="43.3124376" lon="-0.3210568"><ele>227.94</ele></trkpt>
            <trkpt lat="43.3120172" lon="-0.3219034"><ele>228.41</ele></trkpt>
            <trkpt lat="43.3114026" lon="-0.3232304"><ele>228.14</ele></trkpt>
            <trkpt lat="43.311381" lon="-0.3233431"><ele>228.09</ele></trkpt>
            <trkpt lat="43.3114489" lon="-0.3235673"><ele>227.97</ele></trkpt>
            <trkpt lat="43.3114985" lon="-0.3237052"><ele>227.88</ele></trkpt>
            <trkpt lat="43.3115924" lon="-0.3240339"><ele>227.66</ele></trkpt>
            <trkpt lat="43.3123748" lon="-0.3269255"><ele>225.43</ele></trkpt>
            <trkpt lat="43.3122452" lon="-0.3272811"><ele>225.26</ele></trkpt>
            <trkpt lat="43.3116646" lon="-0.3289672"><ele>225.26</ele></trkpt>
            <trkpt lat="43.3114181" lon="-0.3296552"><ele>224.99</ele></trkpt>
            <trkpt lat="43.3111067" lon="-0.3305063"><ele>224.42</ele></trkpt>
            <trkpt lat="43.3103451" lon="-0.3326089"><ele>222.66</ele></trkpt>
            <trkpt lat="43.3099227" lon="-0.3337656"><ele>223.33</ele></trkpt>
            <trkpt lat="43.3095903" lon="-0.3346597"><ele>223.69</ele></trkpt>
            <trkpt lat="43.3093481" lon="-0.3353507"><ele>223.54</ele></trkpt>
            <trkpt lat="43.3089843" lon="-0.3363238"><ele>222.97</ele></trkpt>
            <trkpt lat="43.3086987" lon="-0.3371134"><ele>222.61</ele></trkpt>
            <trkpt lat="43.3085097" lon="-0.3376477"><ele>222.56</ele></trkpt>
            <trkpt lat="43.3081586" lon="-0.3384932"><ele>222.72</ele></trkpt>
            <trkpt lat="43.3082458" lon="-0.3385808"><ele>222.76</ele></trkpt>
            <trkpt lat="43.3083074" lon="-0.3387027"><ele>222.8</ele></trkpt>
            <trkpt lat="43.3083366" lon="-0.3388456"><ele>222.81</ele></trkpt>
            <trkpt lat="43.3083301" lon="-0.3389937"><ele>222.8</ele></trkpt>
            <trkpt lat="43.3082994" lon="-0.3391056"><ele>222.79</ele></trkpt>
            <trkpt lat="43.3082482" lon="-0.3392024"><ele>222.77</ele></trkpt>
            <trkpt lat="43.3081802" lon="-0.3392771"><ele>222.75</ele></trkpt>
            <trkpt lat="43.3081002" lon="-0.3393243"><ele>222.73</ele></trkpt>
            <trkpt lat="43.3081484" lon="-0.3395186"><ele>222.67</ele></trkpt>
            <trkpt lat="43.3082022" lon="-0.3397147"><ele>222.57</ele></trkpt>
            <trkpt lat="43.308256" lon="-0.3399108"><ele>222.45</ele></trkpt>
            <trkpt lat="43.3083098" lon="-0.3401069"><ele>222.33</ele></trkpt>
            <trkpt lat="43.3083636" lon="-0.340303"><ele>222.21</ele></trkpt>
            <trkpt lat="43.3084175" lon="-0.3404992"><ele>222.09</ele></trkpt>
            <trkpt lat="43.3084713" lon="-0.3406953"><ele>221.97</ele></trkpt>
            <trkpt lat="43.3085251" lon="-0.3408914"><ele>221.85</ele></trkpt>
            <trkpt lat="43.3085789" lon="-0.3410875"><ele>221.73</ele></trkpt>
            <trkpt lat="43.3086327" lon="-0.3412836"><ele>221.62</ele></trkpt>
            <trkpt lat="43.3086865" lon="-0.3414797"><ele>221.51</ele></trkpt>
            <trkpt lat="43.3088182" lon="-0.3419915"><ele>221.25</ele></trkpt>
            <trkpt lat="43.3089569" lon="-0.3428592"><ele>220.65</ele></trkpt>
            <trkpt lat="43.3090711" lon="-0.3434783"><ele>220.09</ele></trkpt>
            <trkpt lat="43.3091141" lon="-0.3436635"><ele>219.9</ele></trkpt>
            <trkpt lat="43.309152" lon="-0.343782"><ele>219.78</ele></trkpt>
            <trkpt lat="43.3093114" lon="-0.3441413"><ele>219.48</ele></trkpt>
            <trkpt lat="43.3098893" lon="-0.3457302"><ele>219.15</ele></trkpt>
            <trkpt lat="43.3100269" lon="-0.3460888"><ele>218.98</ele></trkpt>
            <trkpt lat="43.3102168" lon="-0.3466057"><ele>218.7</ele></trkpt>
            <trkpt lat="43.3104019" lon="-0.3471645"><ele>218.56</ele></trkpt>
            <trkpt lat="43.3107052" lon="-0.3480708"><ele>218.06</ele></trkpt>
            <trkpt lat="43.3108146" lon="-0.3489591"><ele>217.63</ele></trkpt>
            <trkpt lat="43.3109731" lon="-0.3503852"><ele>217.77</ele></trkpt>
            <trkpt lat="43.3109938" lon="-0.3508007"><ele>217.64</ele></trkpt>
            <trkpt lat="43.3109936" lon="-0.3513655"><ele>217.36</ele></trkpt>
            <trkpt lat="43.3109959" lon="-0.3515042"><ele>217.28</ele></trkpt>
            <trkpt lat="43.3110178" lon="-0.3526952"><ele>216.62</ele></trkpt>
            <trkpt lat="43.3111256" lon="-0.3540841"><ele>215.99</ele></trkpt>
            <trkpt lat="43.3112284" lon="-0.3555178"><ele>215.43</ele></trkpt>
            <trkpt lat="43.3112931" lon="-0.3564318"><ele>214.92</ele></trkpt>
            <trkpt lat="43.3111521" lon="-0.357807"><ele>214.45</ele></trkpt>
            <trkpt lat="43.3111825" lon="-0.3583244"><ele>214.19</ele></trkpt>
            <trkpt lat="43.3112045" lon="-0.3587342"><ele>213.85</ele></trkpt>
            <trkpt lat="43.3111943" lon="-0.3594425"><ele>213.29</ele></trkpt>
            <trkpt lat="43.3111733" lon="-0.3597443"><ele>213.09</ele></trkpt>
            <trkpt lat="43.3111463" lon="-0.3600989"><ele>212.9</ele></trkpt>
            <trkpt lat="43.3111255" lon="-0.3608133"><ele>212.73</ele></trkpt>
            <trkpt lat="43.3111287" lon="-0.3610252"><ele>212.68</ele></trkpt>
            <trkpt lat="43.3111892" lon="-0.3624017"><ele>212.11</ele></trkpt>
            <trkpt lat="43.3111993" lon="-0.3626086"><ele>212.07</ele></trkpt>
            <trkpt lat="43.3111443" lon="-0.3626559"><ele>212.05</ele></trkpt>
            <trkpt lat="43.3111002" lon="-0.3627213"><ele>212.04</ele></trkpt>
            <trkpt lat="43.311057" lon="-0.3628706"><ele>212.02</ele></trkpt>
            <trkpt lat="43.3110683" lon="-0.3630292"><ele>212</ele></trkpt>
            <trkpt lat="43.3111176" lon="-0.3631442"><ele>211.98</ele></trkpt>
            <trkpt lat="43.3111747" lon="-0.363209"><ele>211.95</ele></trkpt>
            <trkpt lat="43.311235" lon="-0.3634397"><ele>211.9</ele></trkpt>
            <trkpt lat="43.3113136" lon="-0.364341"><ele>211.84</ele></trkpt>
            <trkpt lat="43.3113894" lon="-0.365464"><ele>211.77</ele></trkpt>
            <trkpt lat="43.3113993" lon="-0.3656491"><ele>211.75</ele></trkpt>
            <trkpt lat="43.3113561" lon="-0.3659443"><ele>211.69</ele></trkpt>
            <trkpt lat="43.3111671" lon="-0.3663806"><ele>211.52</ele></trkpt>
            <trkpt lat="43.310955" lon="-0.3668825"><ele>211.12</ele></trkpt>
            <trkpt lat="43.3106237" lon="-0.3677066"><ele>210.55</ele></trkpt>
            <trkpt lat="43.3099832" lon="-0.3692491"><ele>209.73</ele></trkpt>
            <trkpt lat="43.3097229" lon="-0.3698394"><ele>209.55</ele></trkpt>
            <trkpt lat="43.3092685" lon="-0.3709552"><ele>209.46</ele></trkpt>
            <trkpt lat="43.3090189" lon="-0.3716624"><ele>209.17</ele></trkpt>
            <trkpt lat="43.3087919" lon="-0.3725074"><ele>208.46</ele></trkpt>
            <trkpt lat="43.3086748" lon="-0.3729714"><ele>207.94</ele></trkpt>
            <trkpt lat="43.3086312" lon="-0.3731933"><ele>207.73</ele></trkpt>
            <trkpt lat="43.308464" lon="-0.3741558"><ele>206.96</ele></trkpt>
            <trkpt lat="43.3082178" lon="-0.3756051"><ele>206.48</ele></trkpt>
            <trkpt lat="43.308188" lon="-0.3757939"><ele>206.45</ele></trkpt>
            <trkpt lat="43.3080987" lon="-0.3766075"><ele>206.34</ele></trkpt>
            <trkpt lat="43.3073064" lon="-0.3764482"><ele>206.04</ele></trkpt>
            <trkpt lat="43.3063456" lon="-0.3762769"><ele>205.28</ele></trkpt>
            <trkpt lat="43.3062001" lon="-0.3763351"><ele>205.07</ele></trkpt>
            <trkpt lat="43.3059772" lon="-0.3764983"><ele>204.71</ele></trkpt>
            <trkpt lat="43.3059576" lon="-0.3765756"><ele>204.65</ele></trkpt>
            <trkpt lat="43.3059204" lon="-0.3766454"><ele>204.59</ele></trkpt>
            <trkpt lat="43.3058697" lon="-0.3766965"><ele>204.55</ele></trkpt>
            <trkpt lat="43.3058102" lon="-0.3767245"><ele>204.51</ele></trkpt>
            <trkpt lat="43.3057473" lon="-0.3767266"><ele>204.48</ele></trkpt>
            <trkpt lat="43.3056868" lon="-0.3767026"><ele>204.45</ele></trkpt>
            <trkpt lat="43.3056077" lon="-0.3766146"><ele>204.38</ele></trkpt>
            <trkpt lat="43.305354" lon="-0.3765755"><ele>204.14</ele></trkpt>
            <trkpt lat="43.3051226" lon="-0.3766731"><ele>203.89</ele></trkpt>
            <trkpt lat="43.3047838" lon="-0.3770043"><ele>203.57</ele></trkpt>
            <trkpt lat="43.304561" lon="-0.3772218"><ele>203.47</ele></trkpt>
            <trkpt lat="43.3040794" lon="-0.3776876"><ele>203.53</ele></trkpt>
            <trkpt lat="43.3035923" lon="-0.3781595"><ele>203.84</ele></trkpt>
            <trkpt lat="43.3031763" lon="-0.3779124"><ele>204.46</ele></trkpt>
            <trkpt lat="43.3017065" lon="-0.3775495"><ele>206.19</ele></trkpt>
            <trkpt lat="43.3002694" lon="-0.3772403"><ele>206.19</ele></trkpt>
            <trkpt lat="43.300203" lon="-0.3772044"><ele>206.11</ele></trkpt>
            <trkpt lat="43.3001317" lon="-0.3771926"><ele>206</ele></trkpt>
            <trkpt lat="43.3000217" lon="-0.3771422"><ele>205.79</ele></trkpt>
            <trkpt lat="43.299487" lon="-0.3770385"><ele>204.75</ele></trkpt>
            <trkpt lat="43.2989893" lon="-0.3769419"><ele>203.98</ele></trkpt>
            <trkpt lat="43.2986308" lon="-0.3768724"><ele>203.68</ele></trkpt>
        </trkseg>
    </trk>
</gpx>
