<?xml version='1.0' encoding='UTF-8'?>
<gpx version="1.1"
  creator="GPXmagic"
  xmlns="http://www.topografix.com/GPX/1/1"
  xmlns:rgt="http://www.rgtcycling.com/XML/GpxExtensions/v1"
  xmlns:xsi="http://www.w3.org/2001/XMLSchema-instance" xsi:schemaLocation="http://www.topografix.com/GPX/1/1
  http://www.topografix.com/GPX/1/1/gpx.xsd">
  <metadata>
    <name>Smoothed with GPXmagic</name>
    <author>
      <link href="https://www.stepwiserefinement.co.uk">
        <text>GPXmagic v3</text>
        <type>text/html</type>
      </link>
    </author>
  </metadata>
<trk>  <name>Arches</name>
<trkseg>
<trkpt lat="38.57482999999999" lon="-109.54562999999999"><ele>1236.89</ele></trkpt>
<trkpt lat="38.57482999999999" lon="-109.54659"><ele>1235.05</ele></trkpt>
<trkpt lat="38.57482" lon="-109.54754000000001"><ele>1233.16</ele></trkpt>
<trkpt lat="38.57482" lon="-109.5485"><ele>1231.2</ele></trkpt>
<trkpt lat="38.57482" lon="-109.54946000000002"><ele>1229.28</ele></trkpt>
<trkpt lat="38.57482" lon="-109.55041000000001"><ele>1227.65</ele></trkpt>
<trkpt lat="38.57482" lon="-109.55077"><ele>1226.9</ele></trkpt>
<trkpt lat="38.5756" lon="-109.55076"><ele>1226.36</ele></trkpt>
<trkpt lat="38.57638" lon="-109.55075000000001"><ele>1226.23</ele></trkpt>
<trkpt lat="38.57704" lon="-109.55073999999999"><ele>1225.88</ele></trkpt>
<trkpt lat="38.5777" lon="-109.55073999999999"><ele>1225.58</ele></trkpt>
<trkpt lat="38.578359999999996" lon="-109.55073999999999"><ele>1226.03</ele></trkpt>
<trkpt lat="38.57859" lon="-109.55076"><ele>1226.39</ele></trkpt>
<trkpt lat="38.57905" lon="-109.55082"><ele>1227.48</ele></trkpt>
<trkpt lat="38.57963" lon="-109.55096000000002"><ele>1228.85</ele></trkpt>
<trkpt lat="38.57983999999999" lon="-109.55102999999998"><ele>1229.35</ele></trkpt>
<trkpt lat="38.5803" lon="-109.55122"><ele>1230</ele></trkpt>
<trkpt lat="38.58058" lon="-109.55137"><ele>1230.09</ele></trkpt>
<trkpt lat="38.58099" lon="-109.5516"><ele>1230.02</ele></trkpt>
<trkpt lat="38.581179999999996" lon="-109.55174"><ele>1229.94</ele></trkpt>
<trkpt lat="38.58163" lon="-109.55207999999999"><ele>1229.8</ele></trkpt>
<trkpt lat="38.58204" lon="-109.55246"><ele>1229.75</ele></trkpt>
<trkpt lat="38.58221" lon="-109.55263999999998"><ele>1229.69</ele></trkpt>
<trkpt lat="38.58242" lon="-109.55288"><ele>1229.63</ele></trkpt>
<trkpt lat="38.58297000000001" lon="-109.55355"><ele>1229.24</ele></trkpt>
<trkpt lat="38.58351" lon="-109.55421"><ele>1229</ele></trkpt>
<trkpt lat="38.58405" lon="-109.55488"><ele>1229.04</ele></trkpt>
<trkpt lat="38.58465" lon="-109.55563000000002"><ele>1228.63</ele></trkpt>
<trkpt lat="38.58524" lon="-109.55638"><ele>1227.76</ele></trkpt>
<trkpt lat="38.58584" lon="-109.55714"><ele>1226.5</ele></trkpt>
<trkpt lat="38.58647" lon="-109.55791999999998"><ele>1225.15</ele></trkpt>
<trkpt lat="38.5871" lon="-109.55871"><ele>1224.12</ele></trkpt>
<trkpt lat="38.58773" lon="-109.55949"><ele>1223.05</ele></trkpt>
<trkpt lat="38.588350000000005" lon="-109.56028"><ele>1222.08</ele></trkpt>
<trkpt lat="38.58897999999999" lon="-109.56106000000003"><ele>1221.14</ele></trkpt>
<trkpt lat="38.58962" lon="-109.56179999999999"><ele>1220.16</ele></trkpt>
<trkpt lat="38.58986" lon="-109.56202000000002"><ele>1219.76</ele></trkpt>
<trkpt lat="38.59038" lon="-109.56252000000002"><ele>1218.86</ele></trkpt>
<trkpt lat="38.59069" lon="-109.56280000000002"><ele>1218.56</ele></trkpt>
<trkpt lat="38.591120000000004" lon="-109.56319999999998"><ele>1218.71</ele></trkpt>
<trkpt lat="38.591550000000005" lon="-109.56363000000002"><ele>1219.22</ele></trkpt>
<trkpt lat="38.59199" lon="-109.56405000000001"><ele>1219.9</ele></trkpt>
<trkpt lat="38.59241000000001" lon="-109.5645"><ele>1220.34</ele></trkpt>
<trkpt lat="38.59273" lon="-109.5649"><ele>1220.57</ele></trkpt>
<trkpt lat="38.59295" lon="-109.5652"><ele>1220.66</ele></trkpt>
<trkpt lat="38.59353" lon="-109.56602000000002"><ele>1220.84</ele></trkpt>
<trkpt lat="38.59411" lon="-109.56684"><ele>1221.1</ele></trkpt>
<trkpt lat="38.59468" lon="-109.56766"><ele>1221.25</ele></trkpt>
<trkpt lat="38.59526" lon="-109.56848000000001"><ele>1221.15</ele></trkpt>
<trkpt lat="38.59584" lon="-109.56930000000003"><ele>1220.91</ele></trkpt>
<trkpt lat="38.59642" lon="-109.57012"><ele>1220.58</ele></trkpt>
<trkpt lat="38.597" lon="-109.57094"><ele>1220.23</ele></trkpt>
<trkpt lat="38.59757" lon="-109.57177"><ele>1220.07</ele></trkpt>
<trkpt lat="38.59777" lon="-109.57203000000001"><ele>1219.98</ele></trkpt>
<trkpt lat="38.59803" lon="-109.57234000000001"><ele>1219.73</ele></trkpt>
<trkpt lat="38.59829" lon="-109.57263"><ele>1219.43</ele></trkpt>
<trkpt lat="38.59878" lon="-109.5731"><ele>1218.79</ele></trkpt>
<trkpt lat="38.59945" lon="-109.57374"><ele>1218.04</ele></trkpt>
<trkpt lat="38.60012" lon="-109.57436999999999"><ele>1217.51</ele></trkpt>
<trkpt lat="38.60035" lon="-109.57458"><ele>1217.28</ele></trkpt>
<trkpt lat="38.601040000000005" lon="-109.5753"><ele>1216.47</ele></trkpt>
<trkpt lat="38.60157" lon="-109.57578"><ele>1215.94</ele></trkpt>
<trkpt lat="38.60211999999999" lon="-109.57633000000001"><ele>1215.62</ele></trkpt>
<trkpt lat="38.60226" lon="-109.57636999999998"><ele>1215.7</ele></trkpt>
<trkpt lat="38.60278" lon="-109.57685"><ele>1215.9815279016182</ele></trkpt>
<trkpt lat="38.60335" lon="-109.57740000000001"><ele>1216.2949822613757</ele></trkpt>
<trkpt lat="38.60393" lon="-109.57796"><ele>1216.6140073961242</ele></trkpt>
<trkpt lat="38.60450999999999" lon="-109.57851"><ele>1216.930976736042</ele></trkpt>
<trkpt lat="38.60509" lon="-109.57907"><ele>1217.25</ele></trkpt>
<trkpt lat="38.60575000000001" lon="-109.57973"><ele>1216.1</ele></trkpt>
<trkpt lat="38.60588" lon="-109.57989"><ele>1216.06</ele></trkpt>
<trkpt lat="38.60593" lon="-109.58003"><ele>1215.79</ele></trkpt>
<trkpt lat="38.60614" lon="-109.58033"><ele>1216.02</ele></trkpt>
<trkpt lat="38.60628" lon="-109.58064000000003"><ele>1216.05</ele></trkpt>
<trkpt lat="38.606500000000004" lon="-109.58120999999998"><ele>1216.16</ele></trkpt>
<trkpt lat="38.606579999999994" lon="-109.58150000000002"><ele>1216.12</ele></trkpt>
<trkpt lat="38.60666" lon="-109.58198000000002"><ele>1216.05</ele></trkpt>
<trkpt lat="38.60667" lon="-109.58219"><ele>1215.95</ele></trkpt>
<trkpt lat="38.60666" lon="-109.58328"><ele>1215.23</ele></trkpt>
<trkpt lat="38.606629999999996" lon="-109.58409000000002"><ele>1214.12</ele></trkpt>
<trkpt lat="38.60661000000001" lon="-109.5848"><ele>1214.6</ele></trkpt>
<trkpt lat="38.606579999999994" lon="-109.58584"><ele>1214.2</ele></trkpt>
<trkpt lat="38.60654" lon="-109.58644"><ele>1213.9</ele></trkpt>
<trkpt lat="38.60649" lon="-109.58687999999998"><ele>1213.94</ele></trkpt>
<trkpt lat="38.60642" lon="-109.58748000000003"><ele>1214.47</ele></trkpt>
<trkpt lat="38.60633" lon="-109.58804999999998"><ele>1215.27</ele></trkpt>
<trkpt lat="38.60621" lon="-109.58882000000001"><ele>1216.38</ele></trkpt>
<trkpt lat="38.60608" lon="-109.58960000000002"><ele>1217.73</ele></trkpt>
<trkpt lat="38.60596" lon="-109.59037999999998"><ele>1219.31</ele></trkpt>
<trkpt lat="38.60588" lon="-109.59101"><ele>1220.49</ele></trkpt>
<trkpt lat="38.60576" lon="-109.59186000000003"><ele>1221.56</ele></trkpt>
<trkpt lat="38.60563" lon="-109.59271000000001"><ele>1222.17</ele></trkpt>
<trkpt lat="38.6055" lon="-109.59356"><ele>1222.25</ele></trkpt>
<trkpt lat="38.60536999999999" lon="-109.59441"><ele>1221.51</ele></trkpt>
<trkpt lat="38.60523" lon="-109.59541"><ele>1220.54</ele></trkpt>
<trkpt lat="38.60507" lon="-109.59637000000002"><ele>1220.22</ele></trkpt>
<trkpt lat="38.605019999999996" lon="-109.59681000000002"><ele>1220.29</ele></trkpt>
<trkpt lat="38.605" lon="-109.59741"><ele>1220.27</ele></trkpt>
<trkpt lat="38.605" lon="-109.59775000000003"><ele>1220.44</ele></trkpt>
<trkpt lat="38.60503" lon="-109.59839"><ele>1220.96</ele></trkpt>
<trkpt lat="38.60511" lon="-109.59918"><ele>1221.86</ele></trkpt>
<trkpt lat="38.60523" lon="-109.59974"><ele>1222.36</ele></trkpt>
<trkpt lat="38.60531" lon="-109.60004999999998"><ele>1222.7</ele></trkpt>
<trkpt lat="38.605399999999996" lon="-109.60041"><ele>1223.14</ele></trkpt>
<trkpt lat="38.60557" lon="-109.6009"><ele>1223.59</ele></trkpt>
<trkpt lat="38.60576999999999" lon="-109.60138999999998"><ele>1224.03</ele></trkpt>
<trkpt lat="38.6059" lon="-109.60167"><ele>1224.33</ele></trkpt>
<trkpt lat="38.60616" lon="-109.60216000000001"><ele>1224.84</ele></trkpt>
<trkpt lat="38.60637" lon="-109.60251000000001"><ele>1225.3</ele></trkpt>
<trkpt lat="38.60662" lon="-109.60287"><ele>1225.67</ele></trkpt>
<trkpt lat="38.60723" lon="-109.60365000000002"><ele>1226.59</ele></trkpt>
<trkpt lat="38.60785" lon="-109.60443"><ele>1227.58</ele></trkpt>
<trkpt lat="38.60819000000001" lon="-109.60481"><ele>1228.16</ele></trkpt>
<trkpt lat="38.6084" lon="-109.60507"><ele>1228.61</ele></trkpt>
<trkpt lat="38.60873999999999" lon="-109.60547000000003"><ele>1229.3</ele></trkpt>
<trkpt lat="38.60909" lon="-109.60587000000002"><ele>1229.98</ele></trkpt>
<trkpt lat="38.60964" lon="-109.60654999999998"><ele>1231.18</ele></trkpt>
<trkpt lat="38.61019" lon="-109.60721999999998"><ele>1232.53</ele></trkpt>
<trkpt lat="38.61074" lon="-109.6079"><ele>1233.61</ele></trkpt>
<trkpt lat="38.61081" lon="-109.60793"><ele>1233.64</ele></trkpt>
<trkpt lat="38.61101000000001" lon="-109.60818000000002"><ele>1234.02</ele></trkpt>
<trkpt lat="38.61106" lon="-109.60810999999998"><ele>1233.85</ele></trkpt>
<trkpt lat="38.61122" lon="-109.60793"><ele>1233.65</ele></trkpt>
<trkpt lat="38.61132" lon="-109.60784"><ele>1233.61</ele></trkpt>
<trkpt lat="38.61144000000001" lon="-109.60779000000001"><ele>1233.48</ele></trkpt>
<trkpt lat="38.61153" lon="-109.60778000000002"><ele>1233.44</ele></trkpt>
<trkpt lat="38.61167" lon="-109.6078"><ele>1233.34</ele></trkpt>
<trkpt lat="38.61178" lon="-109.60785000000001"><ele>1233.31</ele></trkpt>
<trkpt lat="38.61183" lon="-109.60788000000001"><ele>1233.29</ele></trkpt>
<trkpt lat="38.61191" lon="-109.60798"><ele>1233.32</ele></trkpt>
<trkpt lat="38.61195" lon="-109.60808"><ele>1233.4</ele></trkpt>
<trkpt lat="38.61233" lon="-109.60896"><ele>1234.36</ele></trkpt>
<trkpt lat="38.61243" lon="-109.60912"><ele>1234.6</ele></trkpt>
<trkpt lat="38.61300000000001" lon="-109.60985"><ele>1235.73</ele></trkpt>
<trkpt lat="38.61358" lon="-109.61059000000003"><ele>1236.88</ele></trkpt>
<trkpt lat="38.61382" lon="-109.61091000000003"><ele>1237.37</ele></trkpt>
<trkpt lat="38.61431" lon="-109.61151000000001"><ele>1238.28</ele></trkpt>
<trkpt lat="38.61475" lon="-109.61209000000002"><ele>1239.19</ele></trkpt>
<trkpt lat="38.61497" lon="-109.61247"><ele>1239.81</ele></trkpt>
<trkpt lat="38.61533" lon="-109.61317000000001"><ele>1240.92</ele></trkpt>
<trkpt lat="38.61575" lon="-109.61393999999999"><ele>1242.03</ele></trkpt>
<trkpt lat="38.61603" lon="-109.61447"><ele>1242.8</ele></trkpt>
<trkpt lat="38.61614" lon="-109.6147"><ele>1243.09</ele></trkpt>
<trkpt lat="38.61646999999999" lon="-109.61547000000003"><ele>1243.71</ele></trkpt>
<trkpt lat="38.61651" lon="-109.61569000000001"><ele>1243.95</ele></trkpt>
<trkpt lat="38.61653" lon="-109.61586"><ele>1244.08</ele></trkpt>
<trkpt lat="38.61654" lon="-109.61633999999998"><ele>1244.44</ele></trkpt>
<trkpt lat="38.61655" lon="-109.61658"><ele>1244.64</ele></trkpt>
<trkpt lat="38.61657" lon="-109.61686000000003"><ele>1244.89</ele></trkpt>
<trkpt lat="38.61656" lon="-109.61700999999998"><ele>1245.32</ele></trkpt>
<trkpt lat="38.61656" lon="-109.61707000000001"><ele>1245.57</ele></trkpt>
<trkpt lat="38.61657" lon="-109.61714000000003"><ele>1245.78</ele></trkpt>
<trkpt lat="38.6166" lon="-109.61724"><ele>1245.91</ele></trkpt>
<trkpt lat="38.61663" lon="-109.61731"><ele>1245.92</ele></trkpt>
<trkpt lat="38.61663" lon="-109.61738999999999"><ele>1245.91</ele></trkpt>
<trkpt lat="38.61661" lon="-109.61742"><ele>1245.91</ele></trkpt>
<trkpt lat="38.61656" lon="-109.61758"><ele>1245.93</ele></trkpt>
<trkpt lat="38.61652" lon="-109.61788999999999"><ele>1246.42</ele></trkpt>
<trkpt lat="38.61644" lon="-109.61838000000002"><ele>1247.25</ele></trkpt>
<trkpt lat="38.61635" lon="-109.61874000000002"><ele>1247.72</ele></trkpt>
<trkpt lat="38.61625" lon="-109.61906000000002"><ele>1248.1</ele></trkpt>
<trkpt lat="38.61608" lon="-109.61949999999999"><ele>1248.57</ele></trkpt>
<trkpt lat="38.61589" lon="-109.61996"><ele>1249.16</ele></trkpt>
<trkpt lat="38.615719999999996" lon="-109.62033000000002"><ele>1250.19</ele></trkpt>
<trkpt lat="38.6155" lon="-109.62083000000001"><ele>1252.49</ele></trkpt>
<trkpt lat="38.61547" lon="-109.62093"><ele>1253.01</ele></trkpt>
<trkpt lat="38.61544" lon="-109.62112"><ele>1254.01</ele></trkpt>
<trkpt lat="38.61544" lon="-109.62133000000001"><ele>1255.18</ele></trkpt>
<trkpt lat="38.61549" lon="-109.62152000000002"><ele>1256.21</ele></trkpt>
<trkpt lat="38.61556" lon="-109.62167000000001"><ele>1257.07</ele></trkpt>
<trkpt lat="38.61568" lon="-109.62182"><ele>1258.17</ele></trkpt>
<trkpt lat="38.61576" lon="-109.62188000000002"><ele>1258.75</ele></trkpt>
<trkpt lat="38.61585" lon="-109.62194"><ele>1259.47</ele></trkpt>
<trkpt lat="38.616020000000006" lon="-109.62199000000003"><ele>1260.72</ele></trkpt>
<trkpt lat="38.61611" lon="-109.62200000000001"><ele>1261.37</ele></trkpt>
<trkpt lat="38.6162" lon="-109.62201"><ele>1262.06</ele></trkpt>
<trkpt lat="38.61634" lon="-109.62200000000001"><ele>1262.98</ele></trkpt>
<trkpt lat="38.61656" lon="-109.62196"><ele>1264.51</ele></trkpt>
<trkpt lat="38.61687" lon="-109.62188000000002"><ele>1266.56</ele></trkpt>
<trkpt lat="38.61744" lon="-109.62160999999999"><ele>1270.66</ele></trkpt>
<trkpt lat="38.61773" lon="-109.62143999999999"><ele>1272.93</ele></trkpt>
<trkpt lat="38.61791" lon="-109.62131"><ele>1274.59</ele></trkpt>
<trkpt lat="38.61804" lon="-109.62119"><ele>1275.85</ele></trkpt>
<trkpt lat="38.61812" lon="-109.62109"><ele>1276.73</ele></trkpt>
<trkpt lat="38.61824" lon="-109.6209"><ele>1278.26</ele></trkpt>
<trkpt lat="38.61837" lon="-109.62067000000002"><ele>1280.12</ele></trkpt>
<trkpt lat="38.61847" lon="-109.62045000000002"><ele>1281.7</ele></trkpt>
<trkpt lat="38.61865" lon="-109.61997"><ele>1284.95</ele></trkpt>
<trkpt lat="38.61872" lon="-109.61971999999999"><ele>1286.41</ele></trkpt>
<trkpt lat="38.61875" lon="-109.61952"><ele>1287.4</ele></trkpt>
<trkpt lat="38.61877" lon="-109.61937"><ele>1288.22</ele></trkpt>
<trkpt lat="38.61877" lon="-109.61915000000002"><ele>1289.32</ele></trkpt>
<trkpt lat="38.61875" lon="-109.61902"><ele>1289.9</ele></trkpt>
<trkpt lat="38.61872" lon="-109.61892000000003"><ele>1290.31</ele></trkpt>
<trkpt lat="38.61868" lon="-109.61880000000001"><ele>1290.87</ele></trkpt>
<trkpt lat="38.61849000000001" lon="-109.61838000000002"><ele>1292.82</ele></trkpt>
<trkpt lat="38.61837" lon="-109.61795000000001"><ele>1294.97</ele></trkpt>
<trkpt lat="38.61836" lon="-109.61777"><ele>1295.83</ele></trkpt>
<trkpt lat="38.61839" lon="-109.61755"><ele>1296.85</ele></trkpt>
<trkpt lat="38.618460000000006" lon="-109.61736"><ele>1297.69</ele></trkpt>
<trkpt lat="38.61863" lon="-109.61696"><ele>1299.62</ele></trkpt>
<trkpt lat="38.61867" lon="-109.61683999999998"><ele>1300.24</ele></trkpt>
<trkpt lat="38.61869" lon="-109.61673"><ele>1300.76</ele></trkpt>
<trkpt lat="38.6187" lon="-109.61659"><ele>1301.42</ele></trkpt>
<trkpt lat="38.61865999999999" lon="-109.61573"><ele>1305.02</ele></trkpt>
<trkpt lat="38.61867" lon="-109.61566999999998"><ele>1305.26</ele></trkpt>
<trkpt lat="38.61868" lon="-109.61561000000002"><ele>1305.56</ele></trkpt>
<trkpt lat="38.61874" lon="-109.61549999999998"><ele>1306.22</ele></trkpt>
<trkpt lat="38.618790000000004" lon="-109.61546"><ele>1306.61</ele></trkpt>
<trkpt lat="38.61885" lon="-109.61544"><ele>1306.98</ele></trkpt>
<trkpt lat="38.61893" lon="-109.61543000000002"><ele>1307.53</ele></trkpt>
<trkpt lat="38.61897" lon="-109.61543000000002"><ele>1307.86</ele></trkpt>
<trkpt lat="38.61901" lon="-109.61544999999998"><ele>1308.11</ele></trkpt>
<trkpt lat="38.61905" lon="-109.61549000000002"><ele>1308.4</ele></trkpt>
<trkpt lat="38.61908999999999" lon="-109.61555000000003"><ele>1308.73</ele></trkpt>
<trkpt lat="38.61912" lon="-109.61565"><ele>1309.19</ele></trkpt>
<trkpt lat="38.61913" lon="-109.6158"><ele>1309.79</ele></trkpt>
<trkpt lat="38.61911" lon="-109.61599"><ele>1310.58</ele></trkpt>
<trkpt lat="38.61905" lon="-109.61661000000002"><ele>1313.32</ele></trkpt>
<trkpt lat="38.61899" lon="-109.61724"><ele>1316.15</ele></trkpt>
<trkpt lat="38.61898" lon="-109.61737"><ele>1316.78</ele></trkpt>
<trkpt lat="38.61899" lon="-109.61743"><ele>1317.05</ele></trkpt>
<trkpt lat="38.61902" lon="-109.61752"><ele>1317.47</ele></trkpt>
<trkpt lat="38.61907" lon="-109.61760000000002"><ele>1317.95</ele></trkpt>
<trkpt lat="38.61914" lon="-109.61765"><ele>1318.39</ele></trkpt>
<trkpt lat="38.61918" lon="-109.61767000000002"><ele>1318.67</ele></trkpt>
<trkpt lat="38.61927000000001" lon="-109.61766000000003"><ele>1319.14</ele></trkpt>
<trkpt lat="38.61931" lon="-109.61765"><ele>1319.41</ele></trkpt>
<trkpt lat="38.619369999999996" lon="-109.61760000000002"><ele>1319.81</ele></trkpt>
<trkpt lat="38.61941" lon="-109.61754000000003"><ele>1320.11</ele></trkpt>
<trkpt lat="38.61945" lon="-109.61747000000001"><ele>1320.54</ele></trkpt>
<trkpt lat="38.61947" lon="-109.61737"><ele>1320.96</ele></trkpt>
<trkpt lat="38.61945" lon="-109.61719000000001"><ele>1321.64</ele></trkpt>
<trkpt lat="38.61938" lon="-109.61694000000003"><ele>1322.79</ele></trkpt>
<trkpt lat="38.61935" lon="-109.61678"><ele>1323.54</ele></trkpt>
<trkpt lat="38.61933" lon="-109.61652"><ele>1324.78</ele></trkpt>
<trkpt lat="38.61938" lon="-109.61621000000002"><ele>1326.26</ele></trkpt>
<trkpt lat="38.61955" lon="-109.61548"><ele>1330.62</ele></trkpt>
<trkpt lat="38.61957" lon="-109.61530000000003"><ele>1331.67</ele></trkpt>
<trkpt lat="38.61957" lon="-109.61510999999999"><ele>1332.77</ele></trkpt>
<trkpt lat="38.61956" lon="-109.61486"><ele>1334.29</ele></trkpt>
<trkpt lat="38.6195" lon="-109.61453"><ele>1336.31</ele></trkpt>
<trkpt lat="38.61941" lon="-109.61426"><ele>1338.08</ele></trkpt>
<trkpt lat="38.61919" lon="-109.61375000000001"><ele>1341.41</ele></trkpt>
<trkpt lat="38.61896" lon="-109.61324"><ele>1344.96</ele></trkpt>
<trkpt lat="38.618840000000006" lon="-109.61293000000002"><ele>1347.05</ele></trkpt>
<trkpt lat="38.61876" lon="-109.61268"><ele>1348.69</ele></trkpt>
<trkpt lat="38.61867" lon="-109.61236000000001"><ele>1350.7</ele></trkpt>
<trkpt lat="38.61861" lon="-109.61209000000002"><ele>1352.32</ele></trkpt>
<trkpt lat="38.61843" lon="-109.61147"><ele>1356.08</ele></trkpt>
<trkpt lat="38.61822" lon="-109.61093999999999"><ele>1359.41</ele></trkpt>
<trkpt lat="38.618" lon="-109.61041"><ele>1362.69</ele></trkpt>
<trkpt lat="38.61781" lon="-109.60968"><ele>1365.87</ele></trkpt>
<trkpt lat="38.61777" lon="-109.60949999999998"><ele>1366.45</ele></trkpt>
<trkpt lat="38.61771000000001" lon="-109.60919000000001"><ele>1367.39</ele></trkpt>
<trkpt lat="38.61765" lon="-109.60872000000002"><ele>1368.3</ele></trkpt>
<trkpt lat="38.61762" lon="-109.60837"><ele>1368.73</ele></trkpt>
<trkpt lat="38.61759" lon="-109.60743"><ele>1370.25</ele></trkpt>
<trkpt lat="38.61756" lon="-109.60649000000001"><ele>1373.37</ele></trkpt>
<trkpt lat="38.61757" lon="-109.60625000000003"><ele>1374.44</ele></trkpt>
<trkpt lat="38.6176" lon="-109.60607"><ele>1375.23</ele></trkpt>
<trkpt lat="38.61767999999999" lon="-109.60582999999998"><ele>1376.46</ele></trkpt>
<trkpt lat="38.61775" lon="-109.60574"><ele>1376.96</ele></trkpt>
<trkpt lat="38.61779" lon="-109.60569"><ele>1377.28</ele></trkpt>
<trkpt lat="38.61792" lon="-109.60558000000003"><ele>1378.18</ele></trkpt>
<trkpt lat="38.61804" lon="-109.60553000000003"><ele>1378.82</ele></trkpt>
<trkpt lat="38.61811000000001" lon="-109.60551"><ele>1379.23</ele></trkpt>
<trkpt lat="38.61828" lon="-109.60551"><ele>1380.15</ele></trkpt>
<trkpt lat="38.61839" lon="-109.60553000000003"><ele>1380.8</ele></trkpt>
<trkpt lat="38.61854000000001" lon="-109.60562"><ele>1381.67</ele></trkpt>
<trkpt lat="38.61896" lon="-109.60599999999998"><ele>1384.46</ele></trkpt>
<trkpt lat="38.61914" lon="-109.60614"><ele>1385.74</ele></trkpt>
<trkpt lat="38.61925" lon="-109.6062"><ele>1386.44</ele></trkpt>
<trkpt lat="38.61935" lon="-109.60624"><ele>1387.08</ele></trkpt>
<trkpt lat="38.61946" lon="-109.60626000000002"><ele>1387.68</ele></trkpt>
<trkpt lat="38.61957" lon="-109.60625000000003"><ele>1388.19</ele></trkpt>
<trkpt lat="38.619670000000006" lon="-109.60622000000001"><ele>1388.65</ele></trkpt>
<trkpt lat="38.61983" lon="-109.60612"><ele>1389.47</ele></trkpt>
<trkpt lat="38.6199" lon="-109.60604"><ele>1389.85</ele></trkpt>
<trkpt lat="38.61999" lon="-109.60592000000003"><ele>1390.47</ele></trkpt>
<trkpt lat="38.62007" lon="-109.60571000000003"><ele>1391.3</ele></trkpt>
<trkpt lat="38.62011" lon="-109.60557"><ele>1391.93</ele></trkpt>
<trkpt lat="38.62012" lon="-109.60542"><ele>1392.43</ele></trkpt>
<trkpt lat="38.62011" lon="-109.60526999999999"><ele>1392.89</ele></trkpt>
<trkpt lat="38.62007" lon="-109.6051"><ele>1393.35</ele></trkpt>
<trkpt lat="38.61989" lon="-109.60448"><ele>1394.95</ele></trkpt>
<trkpt lat="38.61976" lon="-109.60395"><ele>1395.91</ele></trkpt>
<trkpt lat="38.61973" lon="-109.60374000000002"><ele>1396.13</ele></trkpt>
<trkpt lat="38.61972" lon="-109.60351"><ele>1396.26</ele></trkpt>
<trkpt lat="38.61972" lon="-109.60332999999999"><ele>1396.42</ele></trkpt>
<trkpt lat="38.61975000000001" lon="-109.60309"><ele>1396.44</ele></trkpt>
<trkpt lat="38.61985" lon="-109.60268"><ele>1396.28</ele></trkpt>
<trkpt lat="38.61991999999999" lon="-109.60249000000002"><ele>1396.14</ele></trkpt>
<trkpt lat="38.62003" lon="-109.60229000000001"><ele>1395.89</ele></trkpt>
<trkpt lat="38.62011" lon="-109.60217"><ele>1395.62</ele></trkpt>
<trkpt lat="38.62028" lon="-109.60195"><ele>1395.11</ele></trkpt>
<trkpt lat="38.62046" lon="-109.60178"><ele>1394.55</ele></trkpt>
<trkpt lat="38.620749999999994" lon="-109.60159999999999"><ele>1393.61</ele></trkpt>
<trkpt lat="38.62101" lon="-109.60151"><ele>1392.86</ele></trkpt>
<trkpt lat="38.62187" lon="-109.60133"><ele>1391.22</ele></trkpt>
<trkpt lat="38.62272" lon="-109.60116000000001"><ele>1390.46</ele></trkpt>
<trkpt lat="38.62297" lon="-109.60109999999999"><ele>1390.34</ele></trkpt>
<trkpt lat="38.62319" lon="-109.60102000000003"><ele>1390.24</ele></trkpt>
<trkpt lat="38.62344" lon="-109.60088000000002"><ele>1390.08</ele></trkpt>
<trkpt lat="38.62361" lon="-109.60070999999999"><ele>1389.75</ele></trkpt>
<trkpt lat="38.62374" lon="-109.60058"><ele>1389.56</ele></trkpt>
<trkpt lat="38.62383" lon="-109.60046"><ele>1389.37</ele></trkpt>
<trkpt lat="38.62391" lon="-109.60034000000002"><ele>1389.18</ele></trkpt>
<trkpt lat="38.62407" lon="-109.60002000000003"><ele>1388.61</ele></trkpt>
<trkpt lat="38.62418000000001" lon="-109.59963"><ele>1387.69</ele></trkpt>
<trkpt lat="38.62423" lon="-109.59922000000002"><ele>1386.65</ele></trkpt>
<trkpt lat="38.62423" lon="-109.599"><ele>1386.04</ele></trkpt>
<trkpt lat="38.62421" lon="-109.5988"><ele>1385.42</ele></trkpt>
<trkpt lat="38.62416" lon="-109.59857000000001"><ele>1384.53</ele></trkpt>
<trkpt lat="38.62412" lon="-109.59843000000002"><ele>1383.92</ele></trkpt>
<trkpt lat="38.62389999999999" lon="-109.59776000000002"><ele>1381.33</ele></trkpt>
<trkpt lat="38.62385" lon="-109.59757000000003"><ele>1380.74</ele></trkpt>
<trkpt lat="38.6238" lon="-109.59736"><ele>1380.13</ele></trkpt>
<trkpt lat="38.62377" lon="-109.59713000000004"><ele>1379.46</ele></trkpt>
<trkpt lat="38.62377" lon="-109.59689"><ele>1378.78</ele></trkpt>
<trkpt lat="38.62378" lon="-109.59671000000002"><ele>1378.34</ele></trkpt>
<trkpt lat="38.62381" lon="-109.59648000000001"><ele>1377.81</ele></trkpt>
<trkpt lat="38.62386999999999" lon="-109.5962"><ele>1377.12</ele></trkpt>
<trkpt lat="38.62407" lon="-109.59548999999998"><ele>1375.4</ele></trkpt>
<trkpt lat="38.62428" lon="-109.59479"><ele>1373.77</ele></trkpt>
<trkpt lat="38.62447" lon="-109.59425999999999"><ele>1372.51</ele></trkpt>
<trkpt lat="38.62481" lon="-109.59339"><ele>1370.38</ele></trkpt>
<trkpt lat="38.62496000000001" lon="-109.5931"><ele>1369.43</ele></trkpt>
<trkpt lat="38.62503" lon="-109.59299000000001"><ele>1368.98</ele></trkpt>
<trkpt lat="38.62512" lon="-109.59286"><ele>1368.45</ele></trkpt>
<trkpt lat="38.62525" lon="-109.59272"><ele>1367.63</ele></trkpt>
<trkpt lat="38.62544" lon="-109.59256"><ele>1366.46</ele></trkpt>
<trkpt lat="38.62554000000001" lon="-109.59248999999998"><ele>1365.86</ele></trkpt>
<trkpt lat="38.6257" lon="-109.59240000000001"><ele>1364.84</ele></trkpt>
<trkpt lat="38.62592" lon="-109.59233000000002"><ele>1363.36</ele></trkpt>
<trkpt lat="38.626039999999996" lon="-109.59231000000003"><ele>1362.54</ele></trkpt>
<trkpt lat="38.62626" lon="-109.5923"><ele>1360.96</ele></trkpt>
<trkpt lat="38.62647" lon="-109.59232000000002"><ele>1359.39</ele></trkpt>
<trkpt lat="38.62678" lon="-109.59242000000002"><ele>1356.86</ele></trkpt>
<trkpt lat="38.627" lon="-109.59252000000001"><ele>1355</ele></trkpt>
<trkpt lat="38.62725" lon="-109.59265999999998"><ele>1352.85</ele></trkpt>
<trkpt lat="38.62768" lon="-109.59294"><ele>1349.12</ele></trkpt>
<trkpt lat="38.62811" lon="-109.59325000000003"><ele>1345.42</ele></trkpt>
<trkpt lat="38.62845" lon="-109.59353"><ele>1342.57</ele></trkpt>
<trkpt lat="38.62882" lon="-109.59387999999998"><ele>1339.3</ele></trkpt>
<trkpt lat="38.62903" lon="-109.59411"><ele>1337.38</ele></trkpt>
<trkpt lat="38.62917" lon="-109.59426999999998"><ele>1336.08</ele></trkpt>
<trkpt lat="38.62933" lon="-109.59448000000002"><ele>1334.52</ele></trkpt>
<trkpt lat="38.62945" lon="-109.59471000000002"><ele>1332.96</ele></trkpt>
<trkpt lat="38.62955" lon="-109.59493999999998"><ele>1331.44</ele></trkpt>
<trkpt lat="38.62973" lon="-109.59542000000002"><ele>1328.5</ele></trkpt>
<trkpt lat="38.62981" lon="-109.59564000000003"><ele>1327.25</ele></trkpt>
<trkpt lat="38.62996" lon="-109.59593999999998"><ele>1325.33</ele></trkpt>
<trkpt lat="38.6301" lon="-109.59618"><ele>1323.87</ele></trkpt>
<trkpt lat="38.63024" lon="-109.59636"><ele>1322.69</ele></trkpt>
<trkpt lat="38.63052" lon="-109.59664000000002"><ele>1320.86</ele></trkpt>
<trkpt lat="38.63071" lon="-109.59678"><ele>1319.86</ele></trkpt>
<trkpt lat="38.63093" lon="-109.59689"><ele>1318.78</ele></trkpt>
<trkpt lat="38.63139" lon="-109.59711000000001"><ele>1316.93</ele></trkpt>
<trkpt lat="38.63184999999999" lon="-109.59733"><ele>1315.25</ele></trkpt>
<trkpt lat="38.63239000000001" lon="-109.59759"><ele>1313.21</ele></trkpt>
<trkpt lat="38.63293" lon="-109.59785"><ele>1311.07</ele></trkpt>
<trkpt lat="38.6335" lon="-109.59814999999999"><ele>1308.37</ele></trkpt>
<trkpt lat="38.633919999999996" lon="-109.5984"><ele>1306.22</ele></trkpt>
<trkpt lat="38.63435" lon="-109.59864999999999"><ele>1303.81</ele></trkpt>
<trkpt lat="38.63501" lon="-109.59909000000003"><ele>1300.2</ele></trkpt>
<trkpt lat="38.63568" lon="-109.59952"><ele>1296.84</ele></trkpt>
<trkpt lat="38.63609000000001" lon="-109.59978"><ele>1295.07</ele></trkpt>
<trkpt lat="38.63651" lon="-109.60004999999998"><ele>1293.24</ele></trkpt>
<trkpt lat="38.63694" lon="-109.60032999999999"><ele>1291.39</ele></trkpt>
<trkpt lat="38.63737" lon="-109.60062000000002"><ele>1289.55</ele></trkpt>
<trkpt lat="38.63750000000001" lon="-109.60071999999998"><ele>1288.96</ele></trkpt>
<trkpt lat="38.63773" lon="-109.60092"><ele>1287.87</ele></trkpt>
<trkpt lat="38.63801" lon="-109.60124"><ele>1286.38</ele></trkpt>
<trkpt lat="38.63815" lon="-109.60142000000002"><ele>1285.63</ele></trkpt>
<trkpt lat="38.63837" lon="-109.60176000000001"><ele>1284.24</ele></trkpt>
<trkpt lat="38.63884" lon="-109.60260000000002"><ele>1281.53</ele></trkpt>
<trkpt lat="38.638980000000004" lon="-109.60284"><ele>1280.95</ele></trkpt>
<trkpt lat="38.63907" lon="-109.60297000000003"><ele>1280.64</ele></trkpt>
<trkpt lat="38.63917" lon="-109.60309"><ele>1280.28</ele></trkpt>
<trkpt lat="38.63935" lon="-109.60326000000003"><ele>1279.71</ele></trkpt>
<trkpt lat="38.63947" lon="-109.60334000000002"><ele>1279.31</ele></trkpt>
<trkpt lat="38.63962999999999" lon="-109.60343000000003"><ele>1278.81</ele></trkpt>
<trkpt lat="38.63977" lon="-109.60349000000001"><ele>1278.41</ele></trkpt>
<trkpt lat="38.63999" lon="-109.60355000000001"><ele>1277.79</ele></trkpt>
<trkpt lat="38.64013" lon="-109.60356"><ele>1277.36</ele></trkpt>
<trkpt lat="38.64028" lon="-109.60356"><ele>1276.87</ele></trkpt>
<trkpt lat="38.6405" lon="-109.60355000000001"><ele>1276.26</ele></trkpt>
<trkpt lat="38.64075" lon="-109.60352"><ele>1275.55</ele></trkpt>
<trkpt lat="38.640969999999996" lon="-109.60347000000003"><ele>1274.95</ele></trkpt>
<trkpt lat="38.64166" lon="-109.6033"><ele>1273.48</ele></trkpt>
<trkpt lat="38.64202" lon="-109.60317"><ele>1273.01</ele></trkpt>
<trkpt lat="38.64249" lon="-109.60296"><ele>1272.45</ele></trkpt>
<trkpt lat="38.64292999999999" lon="-109.60274000000001"><ele>1271.94</ele></trkpt>
<trkpt lat="38.64317" lon="-109.60259000000003"><ele>1271.63</ele></trkpt>
<trkpt lat="38.64368" lon="-109.60225"><ele>1271</ele></trkpt>
<trkpt lat="38.644189999999995" lon="-109.60192000000002"><ele>1270.5</ele></trkpt>
<trkpt lat="38.64436" lon="-109.60181000000003"><ele>1270.32</ele></trkpt>
<trkpt lat="38.644569999999995" lon="-109.60172"><ele>1270.01</ele></trkpt>
<trkpt lat="38.64496" lon="-109.60156"><ele>1269.55</ele></trkpt>
<trkpt lat="38.64567" lon="-109.60133"><ele>1268.39</ele></trkpt>
<trkpt lat="38.64638" lon="-109.60111"><ele>1267.12</ele></trkpt>
<trkpt lat="38.64673" lon="-109.60095000000001"><ele>1266.04</ele></trkpt>
<trkpt lat="38.6469" lon="-109.60085"><ele>1265.39</ele></trkpt>
<trkpt lat="38.64707" lon="-109.60074"><ele>1264.73</ele></trkpt>
<trkpt lat="38.64723" lon="-109.60062000000002"><ele>1263.98</ele></trkpt>
<trkpt lat="38.64735999999999" lon="-109.60049000000001"><ele>1263.19</ele></trkpt>
<trkpt lat="38.64753" lon="-109.60032999999999"><ele>1262.18</ele></trkpt>
<trkpt lat="38.647740000000006" lon="-109.60009"><ele>1260.78</ele></trkpt>
<trkpt lat="38.64813" lon="-109.59959000000002"><ele>1259.2532504225492</ele></trkpt>
<trkpt lat="38.64845" lon="-109.59916000000001"><ele>1257.97</ele></trkpt>
<trkpt lat="38.64907" lon="-109.59835"><ele>1259.61</ele></trkpt>
<trkpt lat="38.64969" lon="-109.59754000000001"><ele>1264.04</ele></trkpt>
<trkpt lat="38.65006" lon="-109.59711000000001"><ele>1266.51</ele></trkpt>
<trkpt lat="38.6503" lon="-109.59687"><ele>1267.9</ele></trkpt>
<trkpt lat="38.6507" lon="-109.59648999999999"><ele>1269.98</ele></trkpt>
<trkpt lat="38.65120999999999" lon="-109.59608"><ele>1272.27</ele></trkpt>
<trkpt lat="38.65192" lon="-109.59556000000002"><ele>1275.22</ele></trkpt>
<trkpt lat="38.652499999999996" lon="-109.59514"><ele>1277.67</ele></trkpt>
<trkpt lat="38.65308" lon="-109.59472000000001"><ele>1279.97</ele></trkpt>
<trkpt lat="38.65366" lon="-109.59430000000003"><ele>1282.29</ele></trkpt>
<trkpt lat="38.65388" lon="-109.59413"><ele>1283.21</ele></trkpt>
<trkpt lat="38.65405" lon="-109.59399000000002"><ele>1283.94</ele></trkpt>
<trkpt lat="38.654160000000005" lon="-109.59389"><ele>1284.4</ele></trkpt>
<trkpt lat="38.65435999999999" lon="-109.59366"><ele>1285.21</ele></trkpt>
<trkpt lat="38.65458" lon="-109.59337"><ele>1286.47</ele></trkpt>
<trkpt lat="38.65468" lon="-109.59320999999998"><ele>1287.15</ele></trkpt>
<trkpt lat="38.65476" lon="-109.59306"><ele>1287.76</ele></trkpt>
<trkpt lat="38.65486" lon="-109.59286"><ele>1288.62</ele></trkpt>
<trkpt lat="38.654939999999996" lon="-109.59265999999998"><ele>1289.42</ele></trkpt>
<trkpt lat="38.65506" lon="-109.59226000000002"><ele>1291.01</ele></trkpt>
<trkpt lat="38.65512" lon="-109.59204000000001"><ele>1291.93</ele></trkpt>
<trkpt lat="38.65526" lon="-109.59129"><ele>1294.94</ele></trkpt>
<trkpt lat="38.65541" lon="-109.59054000000002"><ele>1298.15</ele></trkpt>
<trkpt lat="38.65546" lon="-109.59035"><ele>1298.94</ele></trkpt>
<trkpt lat="38.655570000000004" lon="-109.59000000000002"><ele>1300.32</ele></trkpt>
<trkpt lat="38.65563" lon="-109.58981999999999"><ele>1301</ele></trkpt>
<trkpt lat="38.65571" lon="-109.58965999999998"><ele>1301.5</ele></trkpt>
<trkpt lat="38.65588" lon="-109.58935000000001"><ele>1302.51</ele></trkpt>
<trkpt lat="38.65598" lon="-109.58921000000002"><ele>1302.97</ele></trkpt>
<trkpt lat="38.65606" lon="-109.58909000000003"><ele>1303.41</ele></trkpt>
<trkpt lat="38.65624" lon="-109.58887000000003"><ele>1304.31</ele></trkpt>
<trkpt lat="38.65636" lon="-109.58876000000001"><ele>1304.75</ele></trkpt>
<trkpt lat="38.656479999999995" lon="-109.58864999999999"><ele>1305.21</ele></trkpt>
<trkpt lat="38.656780000000005" lon="-109.58844"><ele>1306.33</ele></trkpt>
<trkpt lat="38.65692" lon="-109.58835"><ele>1306.9</ele></trkpt>
<trkpt lat="38.6571" lon="-109.58826999999998"><ele>1307.51</ele></trkpt>
<trkpt lat="38.6573" lon="-109.58820000000003"><ele>1308.18</ele></trkpt>
<trkpt lat="38.65748" lon="-109.58814000000002"><ele>1308.77</ele></trkpt>
<trkpt lat="38.65779" lon="-109.58806"><ele>1309.82</ele></trkpt>
<trkpt lat="38.658" lon="-109.58801000000001"><ele>1310.54</ele></trkpt>
<trkpt lat="38.65855" lon="-109.58792999999999"><ele>1312.39</ele></trkpt>
<trkpt lat="38.65909" lon="-109.5879"><ele>1314.51</ele></trkpt>
<trkpt lat="38.65953" lon="-109.58791"><ele>1316.59</ele></trkpt>
<trkpt lat="38.66022" lon="-109.58798000000002"><ele>1320.23</ele></trkpt>
<trkpt lat="38.66067" lon="-109.58807"><ele>1322.64</ele></trkpt>
<trkpt lat="38.66143" lon="-109.58828"><ele>1326.84</ele></trkpt>
<trkpt lat="38.66155" lon="-109.5883"><ele>1327.51</ele></trkpt>
<trkpt lat="38.66179" lon="-109.58833"><ele>1328.77</ele></trkpt>
<trkpt lat="38.661939999999994" lon="-109.58833"><ele>1329.54</ele></trkpt>
<trkpt lat="38.66212000000001" lon="-109.58832000000001"><ele>1330.5</ele></trkpt>
<trkpt lat="38.66228999999999" lon="-109.5883"><ele>1331.46</ele></trkpt>
<trkpt lat="38.6627" lon="-109.58818"><ele>1333.85</ele></trkpt>
<trkpt lat="38.66292" lon="-109.58809999999998"><ele>1335.22</ele></trkpt>
<trkpt lat="38.66361" lon="-109.58786000000003"><ele>1339.85</ele></trkpt>
<trkpt lat="38.66429999999999" lon="-109.58761000000001"><ele>1344</ele></trkpt>
<trkpt lat="38.66461" lon="-109.58754000000002"><ele>1345.49</ele></trkpt>
<trkpt lat="38.66489" lon="-109.58751"><ele>1346.46</ele></trkpt>
<trkpt lat="38.66529" lon="-109.58752"><ele>1347.68</ele></trkpt>
<trkpt lat="38.66593999999999" lon="-109.58765000000001"><ele>1348.6</ele></trkpt>
<trkpt lat="38.66651" lon="-109.58779"><ele>1349.3</ele></trkpt>
<trkpt lat="38.66702" lon="-109.58789"><ele>1350.16</ele></trkpt>
<trkpt lat="38.66746" lon="-109.58796"><ele>1351.3</ele></trkpt>
<trkpt lat="38.66791" lon="-109.58803000000002"><ele>1352.93</ele></trkpt>
<trkpt lat="38.6685" lon="-109.58809999999998"><ele>1355.14</ele></trkpt>
<trkpt lat="38.66885" lon="-109.58812"><ele>1356.46</ele></trkpt>
<trkpt lat="38.66941" lon="-109.58815000000001"><ele>1358.58</ele></trkpt>
<trkpt lat="38.669970000000006" lon="-109.58817"><ele>1360.68</ele></trkpt>
<trkpt lat="38.6705" lon="-109.58817"><ele>1362.39</ele></trkpt>
<trkpt lat="38.67117" lon="-109.58814000000002"><ele>1363.86</ele></trkpt>
<trkpt lat="38.67169" lon="-109.58809"><ele>1364.51</ele></trkpt>
<trkpt lat="38.67233" lon="-109.58799"><ele>1365.32</ele></trkpt>
<trkpt lat="38.67297" lon="-109.58789"><ele>1367.01</ele></trkpt>
<trkpt lat="38.67360000000001" lon="-109.58779"><ele>1369.85</ele></trkpt>
<trkpt lat="38.67442" lon="-109.58767000000002"><ele>1374.72</ele></trkpt>
<trkpt lat="38.67524" lon="-109.58756000000001"><ele>1379.8</ele></trkpt>
<trkpt lat="38.675889999999995" lon="-109.58746"><ele>1383.75</ele></trkpt>
<trkpt lat="38.67653" lon="-109.58736000000002"><ele>1387.47</ele></trkpt>
<trkpt lat="38.67701" lon="-109.58725"><ele>1389.95</ele></trkpt>
<trkpt lat="38.67738" lon="-109.58714000000003"><ele>1391.72</ele></trkpt>
<trkpt lat="38.67768" lon="-109.58703"><ele>1393.22</ele></trkpt>
<trkpt lat="38.67826" lon="-109.58678"><ele>1396.16</ele></trkpt>
<trkpt lat="38.67849" lon="-109.58665999999998"><ele>1397.3</ele></trkpt>
<trkpt lat="38.679" lon="-109.58636"><ele>1399.65</ele></trkpt>
<trkpt lat="38.67939" lon="-109.58608"><ele>1400.75</ele></trkpt>
<trkpt lat="38.67959" lon="-109.58593"><ele>1401.23</ele></trkpt>
<trkpt lat="38.680240000000005" lon="-109.58534"><ele>1403.82</ele></trkpt>
<trkpt lat="38.68064" lon="-109.58492999999999"><ele>1407.05</ele></trkpt>
<trkpt lat="38.6809" lon="-109.58463"><ele>1409.85</ele></trkpt>
<trkpt lat="38.68149" lon="-109.58389000000001"><ele>1416.33</ele></trkpt>
<trkpt lat="38.68198" lon="-109.58322"><ele>1420.5</ele></trkpt>
<trkpt lat="38.6822" lon="-109.58297999999999"><ele>1421.86</ele></trkpt>
<trkpt lat="38.68234000000001" lon="-109.58285"><ele>1422.54</ele></trkpt>
<trkpt lat="38.68247999999999" lon="-109.58274"><ele>1423.2</ele></trkpt>
<trkpt lat="38.682660000000006" lon="-109.58262"><ele>1424.01</ele></trkpt>
<trkpt lat="38.68283" lon="-109.58252"><ele>1424.79</ele></trkpt>
<trkpt lat="38.683040000000005" lon="-109.58244000000002"><ele>1425.69</ele></trkpt>
<trkpt lat="38.6833" lon="-109.58237000000003"><ele>1426.87</ele></trkpt>
<trkpt lat="38.68362" lon="-109.58230999999999"><ele>1428.57</ele></trkpt>
<trkpt lat="38.68413" lon="-109.58225999999999"><ele>1431.44</ele></trkpt>
<trkpt lat="38.68478000000001" lon="-109.58218000000001"><ele>1435.21</ele></trkpt>
<trkpt lat="38.68499" lon="-109.58214"><ele>1436.46</ele></trkpt>
<trkpt lat="38.68519" lon="-109.58208000000002"><ele>1437.65</ele></trkpt>
<trkpt lat="38.685379999999995" lon="-109.582"><ele>1438.78</ele></trkpt>
<trkpt lat="38.68557" lon="-109.58190000000003"><ele>1440.05</ele></trkpt>
<trkpt lat="38.68576" lon="-109.58179"><ele>1441.36</ele></trkpt>
<trkpt lat="38.68596000000001" lon="-109.58166"><ele>1442.81</ele></trkpt>
<trkpt lat="38.6863" lon="-109.58139"><ele>1445.35</ele></trkpt>
<trkpt lat="38.686609999999995" lon="-109.58107"><ele>1447.89</ele></trkpt>
<trkpt lat="38.68693" lon="-109.58071000000001"><ele>1450.62</ele></trkpt>
<trkpt lat="38.68728" lon="-109.58027"><ele>1453.8</ele></trkpt>
<trkpt lat="38.68746" lon="-109.58"><ele>1455.61</ele></trkpt>
<trkpt lat="38.68787" lon="-109.57937000000001"><ele>1460.52</ele></trkpt>
<trkpt lat="38.68823" lon="-109.57871"><ele>1465.92</ele></trkpt>
<trkpt lat="38.68859" lon="-109.57805000000002"><ele>1471.53</ele></trkpt>
<trkpt lat="38.68883" lon="-109.57763"><ele>1474.82</ele></trkpt>
<trkpt lat="38.68894999999999" lon="-109.57746"><ele>1476.14</ele></trkpt>
<trkpt lat="38.68927" lon="-109.57707"><ele>1478.93</ele></trkpt>
<trkpt lat="38.68944" lon="-109.57688"><ele>1480.33</ele></trkpt>
<trkpt lat="38.68962" lon="-109.57671"><ele>1481.54</ele></trkpt>
<trkpt lat="38.69002" lon="-109.57636999999998"><ele>1483.79</ele></trkpt>
<trkpt lat="38.69017" lon="-109.57627"><ele>1484.47</ele></trkpt>
<trkpt lat="38.69042" lon="-109.57613000000003"><ele>1485.52</ele></trkpt>
<trkpt lat="38.69074" lon="-109.57597999999999"><ele>1486.77</ele></trkpt>
<trkpt lat="38.6912" lon="-109.57578"><ele>1488.68</ele></trkpt>
<trkpt lat="38.69166" lon="-109.57558000000002"><ele>1490.72</ele></trkpt>
<trkpt lat="38.69202" lon="-109.57540000000003"><ele>1492.37</ele></trkpt>
<trkpt lat="38.69229" lon="-109.57525000000001"><ele>1493.77</ele></trkpt>
<trkpt lat="38.69272" lon="-109.57497"><ele>1496.12</ele></trkpt>
<trkpt lat="38.69295" lon="-109.5748"><ele>1497.46</ele></trkpt>
<trkpt lat="38.69344000000001" lon="-109.57441000000003"><ele>1500.45</ele></trkpt>
<trkpt lat="38.69393" lon="-109.57395000000001"><ele>1503.86</ele></trkpt>
<trkpt lat="38.69463" lon="-109.57329"><ele>1508.98</ele></trkpt>
<trkpt lat="38.69494" lon="-109.57301"><ele>1510.88</ele></trkpt>
<trkpt lat="38.69528" lon="-109.57274000000002"><ele>1512.79</ele></trkpt>
<trkpt lat="38.69556999999999" lon="-109.57255000000002"><ele>1514.29</ele></trkpt>
<trkpt lat="38.69587" lon="-109.57239"><ele>1515.79</ele></trkpt>
<trkpt lat="38.69621" lon="-109.57225000000001"><ele>1517.23</ele></trkpt>
<trkpt lat="38.696479999999994" lon="-109.57217"><ele>1518.26</ele></trkpt>
<trkpt lat="38.69717" lon="-109.57195000000002"><ele>1520.72</ele></trkpt>
<trkpt lat="38.69787" lon="-109.57173"><ele>1522.94</ele></trkpt>
<trkpt lat="38.69841" lon="-109.57155000000002"><ele>1524.44</ele></trkpt>
<trkpt lat="38.69862" lon="-109.57146999999999"><ele>1525.01</ele></trkpt>
<trkpt lat="38.69906" lon="-109.57124"><ele>1526.07</ele></trkpt>
<trkpt lat="38.69929" lon="-109.57109000000001"><ele>1526.67</ele></trkpt>
<trkpt lat="38.69952" lon="-109.57091999999999"><ele>1527.28</ele></trkpt>
<trkpt lat="38.69971000000001" lon="-109.57075000000002"><ele>1527.71</ele></trkpt>
<trkpt lat="38.6999" lon="-109.57055000000001"><ele>1528.07</ele></trkpt>
<trkpt lat="38.70012" lon="-109.57029"><ele>1528.37</ele></trkpt>
<trkpt lat="38.70042" lon="-109.56989"><ele>1528.78</ele></trkpt>
<trkpt lat="38.70058" lon="-109.56964000000002"><ele>1529.16</ele></trkpt>
<trkpt lat="38.70069" lon="-109.56942000000002"><ele>1529.57</ele></trkpt>
<trkpt lat="38.70087" lon="-109.56902"><ele>1530.44</ele></trkpt>
<trkpt lat="38.70099" lon="-109.56875"><ele>1531.13</ele></trkpt>
<trkpt lat="38.70132000000001" lon="-109.56780000000002"><ele>1533.24</ele></trkpt>
<trkpt lat="38.70166" lon="-109.56685"><ele>1534.49</ele></trkpt>
<trkpt lat="38.70196" lon="-109.56603000000001"><ele>1534.4</ele></trkpt>
<trkpt lat="38.70214" lon="-109.5656"><ele>1533.71</ele></trkpt>
<trkpt lat="38.70231999999999" lon="-109.56525000000002"><ele>1532.73</ele></trkpt>
<trkpt lat="38.70259" lon="-109.56474999999999"><ele>1530.89</ele></trkpt>
<trkpt lat="38.70292" lon="-109.56423"><ele>1529.11</ele></trkpt>
<trkpt lat="38.70319" lon="-109.56386000000002"><ele>1528.62</ele></trkpt>
<trkpt lat="38.7034" lon="-109.56361"><ele>1528.46</ele></trkpt>
<trkpt lat="38.70357" lon="-109.56345"><ele>1528.32</ele></trkpt>
<trkpt lat="38.70383" lon="-109.56324"><ele>1528.11</ele></trkpt>
<trkpt lat="38.70409000000001" lon="-109.56306"><ele>1527.88</ele></trkpt>
<trkpt lat="38.70425" lon="-109.56296999999999"><ele>1527.64</ele></trkpt>
<trkpt lat="38.70462" lon="-109.56283000000002"><ele>1526.79</ele></trkpt>
<trkpt lat="38.70485" lon="-109.56277"><ele>1525.98</ele></trkpt>
<trkpt lat="38.70508" lon="-109.56271"><ele>1525.07</ele></trkpt>
<trkpt lat="38.70573" lon="-109.56258000000003"><ele>1521.58</ele></trkpt>
<trkpt lat="38.70641" lon="-109.56246000000003"><ele>1516.73</ele></trkpt>
<trkpt lat="38.70684" lon="-109.56237"><ele>1513.34</ele></trkpt>
<trkpt lat="38.7074" lon="-109.56221000000001"><ele>1508.86</ele></trkpt>
<trkpt lat="38.70813" lon="-109.56196999999999"><ele>1502.99</ele></trkpt>
<trkpt lat="38.708690000000004" lon="-109.56173000000003"><ele>1498.75</ele></trkpt>
<trkpt lat="38.70909" lon="-109.56153000000002"><ele>1496.8</ele></trkpt>
<trkpt lat="38.70955000000001" lon="-109.56129"><ele>1495.9</ele></trkpt>
<trkpt lat="38.71003000000001" lon="-109.56102000000001"><ele>1496.71</ele></trkpt>
<trkpt lat="38.71026" lon="-109.56087000000001"><ele>1497.26</ele></trkpt>
<trkpt lat="38.71054999999999" lon="-109.56067"><ele>1497.67</ele></trkpt>
<trkpt lat="38.71109" lon="-109.56027000000002"><ele>1496.83</ele></trkpt>
<trkpt lat="38.71158" lon="-109.55985999999999"><ele>1494.93</ele></trkpt>
<trkpt lat="38.71221" lon="-109.55928000000003"><ele>1493.74</ele></trkpt>
<trkpt lat="38.71252" lon="-109.55895000000001"><ele>1493.94</ele></trkpt>
<trkpt lat="38.71312" lon="-109.55827"><ele>1494.45</ele></trkpt>
<trkpt lat="38.71371" lon="-109.55754000000002"><ele>1495</ele></trkpt>
<trkpt lat="38.71398000000001" lon="-109.55723"><ele>1495.42</ele></trkpt>
<trkpt lat="38.71429" lon="-109.55692"><ele>1495.84</ele></trkpt>
<trkpt lat="38.71459999999999" lon="-109.5567"><ele>1495.95</ele></trkpt>
<trkpt lat="38.7149" lon="-109.55653000000001"><ele>1495.92</ele></trkpt>
<trkpt lat="38.715059999999994" lon="-109.55646999999999"><ele>1495.75</ele></trkpt>
<trkpt lat="38.7154" lon="-109.55638"><ele>1495.22</ele></trkpt>
<trkpt lat="38.71577" lon="-109.55634"><ele>1494.42</ele></trkpt>
<trkpt lat="38.71665" lon="-109.55627"><ele>1493.27</ele></trkpt>
<trkpt lat="38.71753" lon="-109.5562"><ele>1493.99</ele></trkpt>
<trkpt lat="38.71841" lon="-109.55613"><ele>1494.32</ele></trkpt>
<trkpt lat="38.71878" lon="-109.55603000000002"><ele>1493.36</ele></trkpt>
<trkpt lat="38.719" lon="-109.55594000000004"><ele>1492.51</ele></trkpt>
<trkpt lat="38.71932000000001" lon="-109.55577000000001"><ele>1490.91</ele></trkpt>
<trkpt lat="38.71948999999999" lon="-109.55565"><ele>1489.72</ele></trkpt>
<trkpt lat="38.7198" lon="-109.55538"><ele>1487.08</ele></trkpt>
<trkpt lat="38.7202" lon="-109.55486"><ele>1482.53</ele></trkpt>
<trkpt lat="38.72068000000001" lon="-109.55415"><ele>1476.79</ele></trkpt>
<trkpt lat="38.72096" lon="-109.55376"><ele>1473.58</ele></trkpt>
<trkpt lat="38.72141" lon="-109.55312000000004"><ele>1468.44</ele></trkpt>
<trkpt lat="38.72187" lon="-109.55246999999999"><ele>1463.3</ele></trkpt>
<trkpt lat="38.72198" lon="-109.55228000000002"><ele>1461.87</ele></trkpt>
<trkpt lat="38.7222" lon="-109.55188000000001"><ele>1458.97</ele></trkpt>
<trkpt lat="38.72228" lon="-109.55167"><ele>1457.55</ele></trkpt>
<trkpt lat="38.72241" lon="-109.55129000000002"><ele>1455.16</ele></trkpt>
<trkpt lat="38.72254" lon="-109.55080000000001"><ele>1451.99</ele></trkpt>
<trkpt lat="38.7226" lon="-109.55042"><ele>1449.57</ele></trkpt>
<trkpt lat="38.72269000000001" lon="-109.54977"><ele>1445.47</ele></trkpt>
<trkpt lat="38.72279" lon="-109.54913000000002"><ele>1441.7</ele></trkpt>
<trkpt lat="38.72283" lon="-109.54891999999998"><ele>1440.42</ele></trkpt>
<trkpt lat="38.72288" lon="-109.54869000000001"><ele>1438.96</ele></trkpt>
<trkpt lat="38.72299" lon="-109.54832"><ele>1436.49</ele></trkpt>
<trkpt lat="38.72315" lon="-109.54772000000003"><ele>1432.6</ele></trkpt>
<trkpt lat="38.72331" lon="-109.54712000000004"><ele>1428.72</ele></trkpt>
<trkpt lat="38.72338" lon="-109.54673000000003"><ele>1426.25</ele></trkpt>
<trkpt lat="38.723420000000004" lon="-109.54644"><ele>1424.37</ele></trkpt>
<trkpt lat="38.72345" lon="-109.54591"><ele>1420.94</ele></trkpt>
<trkpt lat="38.72343" lon="-109.54477"><ele>1413.72</ele></trkpt>
<trkpt lat="38.72345" lon="-109.54447000000002"><ele>1411.9</ele></trkpt>
<trkpt lat="38.72350000000001" lon="-109.54399"><ele>1408.88</ele></trkpt>
<trkpt lat="38.72358" lon="-109.54358"><ele>1406.13</ele></trkpt>
<trkpt lat="38.72379" lon="-109.54287"><ele>1401.18</ele></trkpt>
<trkpt lat="38.72404" lon="-109.54216000000001"><ele>1396.16</ele></trkpt>
<trkpt lat="38.72429" lon="-109.54145"><ele>1391.24</ele></trkpt>
<trkpt lat="38.72454" lon="-109.54075"><ele>1386.37</ele></trkpt>
<trkpt lat="38.72472" lon="-109.54029000000003"><ele>1383.34</ele></trkpt>
<trkpt lat="38.72482" lon="-109.54007000000001"><ele>1381.86</ele></trkpt>
<trkpt lat="38.72491" lon="-109.53991000000002"><ele>1380.67</ele></trkpt>
<trkpt lat="38.725" lon="-109.53978000000002"><ele>1379.54</ele></trkpt>
<trkpt lat="38.72524" lon="-109.53951000000002"><ele>1376.88</ele></trkpt>
<trkpt lat="38.72554000000001" lon="-109.53928000000002"><ele>1374.09</ele></trkpt>
<trkpt lat="38.72574" lon="-109.53917000000003"><ele>1372.6</ele></trkpt>
<trkpt lat="38.72603" lon="-109.53903"><ele>1370.96</ele></trkpt>
<trkpt lat="38.72627" lon="-109.53899"><ele>1369.68</ele></trkpt>
<trkpt lat="38.7264" lon="-109.53898000000001"><ele>1369.04</ele></trkpt>
<trkpt lat="38.72657" lon="-109.53899"><ele>1368.32</ele></trkpt>
<trkpt lat="38.72688" lon="-109.53905"><ele>1367.15</ele></trkpt>
<trkpt lat="38.72701" lon="-109.53909"><ele>1366.72</ele></trkpt>
<trkpt lat="38.72728" lon="-109.53923000000003"><ele>1365.63</ele></trkpt>
<trkpt lat="38.72754" lon="-109.53942000000002"><ele>1364.59</ele></trkpt>
<trkpt lat="38.72791" lon="-109.53979000000002"><ele>1362.88</ele></trkpt>
<trkpt lat="38.72839" lon="-109.54048"><ele>1359.66</ele></trkpt>
<trkpt lat="38.72875" lon="-109.54097000000002"><ele>1356.9</ele></trkpt>
<trkpt lat="38.72904" lon="-109.54132"><ele>1354.23</ele></trkpt>
<trkpt lat="38.72935" lon="-109.54162000000002"><ele>1351.39</ele></trkpt>
<trkpt lat="38.72961" lon="-109.54185000000001"><ele>1349.18</ele></trkpt>
<trkpt lat="38.72985" lon="-109.54204"><ele>1347.07</ele></trkpt>
<trkpt lat="38.73047" lon="-109.54249"><ele>1342.07</ele></trkpt>
<trkpt lat="38.73072" lon="-109.54270000000001"><ele>1340.31</ele></trkpt>
<trkpt lat="38.73091" lon="-109.54290000000002"><ele>1339.17</ele></trkpt>
<trkpt lat="38.73108" lon="-109.5431"><ele>1338.44</ele></trkpt>
<trkpt lat="38.73121" lon="-109.54327000000004"><ele>1338.03</ele></trkpt>
<trkpt lat="38.73139" lon="-109.54358"><ele>1337.28</ele></trkpt>
<trkpt lat="38.73152" lon="-109.54384999999999"><ele>1337.06</ele></trkpt>
<trkpt lat="38.73165" lon="-109.54415000000002"><ele>1337.21</ele></trkpt>
<trkpt lat="38.73172" lon="-109.54436000000001"><ele>1337.42</ele></trkpt>
<trkpt lat="38.73181" lon="-109.54463000000003"><ele>1337.92</ele></trkpt>
<trkpt lat="38.73189" lon="-109.54501000000003"><ele>1338.85</ele></trkpt>
<trkpt lat="38.73193" lon="-109.54529"><ele>1339.7</ele></trkpt>
<trkpt lat="38.73197" lon="-109.5456"><ele>1341.06</ele></trkpt>
<trkpt lat="38.73198" lon="-109.54591999999998"><ele>1342.43</ele></trkpt>
<trkpt lat="38.73196" lon="-109.54632"><ele>1344.2</ele></trkpt>
<trkpt lat="38.7319" lon="-109.54675"><ele>1345.56</ele></trkpt>
<trkpt lat="38.73177" lon="-109.54761"><ele>1347.59</ele></trkpt>
<trkpt lat="38.73174" lon="-109.54787000000002"><ele>1348.01</ele></trkpt>
<trkpt lat="38.73173" lon="-109.54805000000003"><ele>1348.19</ele></trkpt>
<trkpt lat="38.73174" lon="-109.54828"><ele>1348.22</ele></trkpt>
<trkpt lat="38.73176" lon="-109.54852000000002"><ele>1348.18</ele></trkpt>
<trkpt lat="38.7318" lon="-109.54878"><ele>1348.01</ele></trkpt>
<trkpt lat="38.7319" lon="-109.54918000000002"><ele>1347.52</ele></trkpt>
<trkpt lat="38.73218000000001" lon="-109.55009"><ele>1346.94</ele></trkpt>
<trkpt lat="38.73231" lon="-109.55057"><ele>1347.13</ele></trkpt>
<trkpt lat="38.73236" lon="-109.55082"><ele>1347.22</ele></trkpt>
<trkpt lat="38.73243" lon="-109.55127"><ele>1347.55</ele></trkpt>
<trkpt lat="38.73247" lon="-109.55176"><ele>1347.95</ele></trkpt>
<trkpt lat="38.73248" lon="-109.55202000000001"><ele>1348.08</ele></trkpt>
<trkpt lat="38.73246" lon="-109.55284000000003"><ele>1348.52</ele></trkpt>
<trkpt lat="38.73244" lon="-109.55366"><ele>1349.3</ele></trkpt>
<trkpt lat="38.73246" lon="-109.55412"><ele>1349.76</ele></trkpt>
<trkpt lat="38.73249" lon="-109.55441999999998"><ele>1350.13</ele></trkpt>
<trkpt lat="38.73255" lon="-109.55482000000002"><ele>1350.64</ele></trkpt>
<trkpt lat="38.73261000000001" lon="-109.55511"><ele>1351.02</ele></trkpt>
<trkpt lat="38.7327" lon="-109.55544"><ele>1351.42</ele></trkpt>
<trkpt lat="38.73281" lon="-109.55578"><ele>1351.9</ele></trkpt>
<trkpt lat="38.73292" lon="-109.55604000000001"><ele>1352.3</ele></trkpt>
<trkpt lat="38.73305" lon="-109.55631000000001"><ele>1352.71</ele></trkpt>
<trkpt lat="38.7332" lon="-109.55659000000001"><ele>1353.22</ele></trkpt>
<trkpt lat="38.73339000000001" lon="-109.5569"><ele>1353.73</ele></trkpt>
<trkpt lat="38.73398" lon="-109.55778"><ele>1355.52</ele></trkpt>
<trkpt lat="38.73456" lon="-109.55865"><ele>1357.17</ele></trkpt>
<trkpt lat="38.7348" lon="-109.55901"><ele>1357.66</ele></trkpt>
<trkpt lat="38.73519999999999" lon="-109.55975000000002"><ele>1358.1</ele></trkpt>
<trkpt lat="38.73537" lon="-109.56008000000001"><ele>1358.32</ele></trkpt>
<trkpt lat="38.73573" lon="-109.56082"><ele>1359.5</ele></trkpt>
<trkpt lat="38.73589" lon="-109.56121000000002"><ele>1360.99</ele></trkpt>
<trkpt lat="38.73599999999999" lon="-109.56152000000002"><ele>1362.42</ele></trkpt>
<trkpt lat="38.73618" lon="-109.56208000000001"><ele>1365.58</ele></trkpt>
<trkpt lat="38.73641" lon="-109.56284"><ele>1369.98</ele></trkpt>
<trkpt lat="38.73652" lon="-109.56324"><ele>1372.68</ele></trkpt>
<trkpt lat="38.73658" lon="-109.5635"><ele>1374.49</ele></trkpt>
<trkpt lat="38.73669000000001" lon="-109.5641"><ele>1378.95</ele></trkpt>
<trkpt lat="38.73683" lon="-109.56491000000003"><ele>1383.45</ele></trkpt>
<trkpt lat="38.73696" lon="-109.56572000000001"><ele>1385.8</ele></trkpt>
<trkpt lat="38.73703" lon="-109.56605000000002"><ele>1386.34</ele></trkpt>
<trkpt lat="38.73712" lon="-109.56639"><ele>1386.3</ele></trkpt>
<trkpt lat="38.73723999999999" lon="-109.56678"><ele>1385.86</ele></trkpt>
<trkpt lat="38.73735" lon="-109.56704000000002"><ele>1385.58</ele></trkpt>
<trkpt lat="38.73771" lon="-109.56778000000001"><ele>1386.65</ele></trkpt>
<trkpt lat="38.737820000000006" lon="-109.56794"><ele>1387.36</ele></trkpt>
<trkpt lat="38.73813" lon="-109.56836000000003"><ele>1389.97</ele></trkpt>
<trkpt lat="38.73857" lon="-109.56891000000002"><ele>1395.11</ele></trkpt>
<trkpt lat="38.73871" lon="-109.56911000000001"><ele>1397.2</ele></trkpt>
<trkpt lat="38.73895" lon="-109.56959999999998"><ele>1401.26</ele></trkpt>
<trkpt lat="38.73902" lon="-109.56980999999999"><ele>1402.83</ele></trkpt>
<trkpt lat="38.73916" lon="-109.57031"><ele>1406.46</ele></trkpt>
<trkpt lat="38.73924" lon="-109.57082000000001"><ele>1410.03</ele></trkpt>
<trkpt lat="38.73935" lon="-109.57177"><ele>1416.72</ele></trkpt>
<trkpt lat="38.73946" lon="-109.57272"><ele>1422.93</ele></trkpt>
<trkpt lat="38.7395" lon="-109.57296"><ele>1424.4</ele></trkpt>
<trkpt lat="38.73956" lon="-109.57319999999999"><ele>1425.85</ele></trkpt>
<trkpt lat="38.73962" lon="-109.57339"><ele>1427.07</ele></trkpt>
<trkpt lat="38.7397" lon="-109.57357"><ele>1428.22</ele></trkpt>
<trkpt lat="38.7398" lon="-109.57374"><ele>1429.39</ele></trkpt>
<trkpt lat="38.73997" lon="-109.57395000000001"><ele>1431.01</ele></trkpt>
<trkpt lat="38.74014" lon="-109.5741"><ele>1432.47</ele></trkpt>
<trkpt lat="38.74036" lon="-109.57422000000001"><ele>1434.11</ele></trkpt>
<trkpt lat="38.74050999999999" lon="-109.57428000000002"><ele>1435.21</ele></trkpt>
<trkpt lat="38.74067" lon="-109.5743"><ele>1436.27</ele></trkpt>
<trkpt lat="38.74082" lon="-109.57431000000001"><ele>1437.3</ele></trkpt>
<trkpt lat="38.74098" lon="-109.57428000000002"><ele>1438.24</ele></trkpt>
<trkpt lat="38.74115" lon="-109.57423"><ele>1439.3</ele></trkpt>
<trkpt lat="38.74128" lon="-109.57418"><ele>1440.21</ele></trkpt>
<trkpt lat="38.74151" lon="-109.57400000000001"><ele>1441.58</ele></trkpt>
<trkpt lat="38.74165" lon="-109.57386999999999"><ele>1442.51</ele></trkpt>
<trkpt lat="38.74173" lon="-109.57376000000001"><ele>1443.01</ele></trkpt>
<trkpt lat="38.74191" lon="-109.57348000000002"><ele>1444.31</ele></trkpt>
<trkpt lat="38.74222" lon="-109.57291"><ele>1446.88</ele></trkpt>
<trkpt lat="38.74258" lon="-109.57219000000002"><ele>1449.99</ele></trkpt>
<trkpt lat="38.74294" lon="-109.57148000000002"><ele>1451.76</ele></trkpt>
<trkpt lat="38.7433" lon="-109.57076"><ele>1452.82</ele></trkpt>
<trkpt lat="38.74363" lon="-109.57012"><ele>1453.81</ele></trkpt>
<trkpt lat="38.74381" lon="-109.56982000000002"><ele>1454.34</ele></trkpt>
<trkpt lat="38.74399" lon="-109.56957000000003"><ele>1454.8</ele></trkpt>
<trkpt lat="38.7442" lon="-109.56935000000003"><ele>1455.53</ele></trkpt>
<trkpt lat="38.74442" lon="-109.56914999999998"><ele>1456.73</ele></trkpt>
<trkpt lat="38.74459" lon="-109.56903000000003"><ele>1457.78</ele></trkpt>
<trkpt lat="38.74475" lon="-109.56892999999998"><ele>1458.93</ele></trkpt>
<trkpt lat="38.74494" lon="-109.56884000000001"><ele>1460.31</ele></trkpt>
<trkpt lat="38.74515" lon="-109.56877000000001"><ele>1461.78</ele></trkpt>
<trkpt lat="38.74528" lon="-109.56872"><ele>1462.8</ele></trkpt>
<trkpt lat="38.74545" lon="-109.56869000000002"><ele>1463.96</ele></trkpt>
<trkpt lat="38.74562" lon="-109.56868"><ele>1465.01</ele></trkpt>
<trkpt lat="38.74578000000001" lon="-109.56868"><ele>1466.05</ele></trkpt>
<trkpt lat="38.74619" lon="-109.56871000000001"><ele>1469.04</ele></trkpt>
<trkpt lat="38.74634999999999" lon="-109.56874000000002"><ele>1470.11</ele></trkpt>
<trkpt lat="38.7465" lon="-109.56877000000001"><ele>1471.14</ele></trkpt>
<trkpt lat="38.74666" lon="-109.56883000000002"><ele>1472.1</ele></trkpt>
<trkpt lat="38.74694" lon="-109.56897000000002"><ele>1473.64</ele></trkpt>
<trkpt lat="38.74707999999999" lon="-109.56906"><ele>1474.34</ele></trkpt>
<trkpt lat="38.74722" lon="-109.56918"><ele>1475.04</ele></trkpt>
<trkpt lat="38.74748" lon="-109.56942000000002"><ele>1476.43</ele></trkpt>
<trkpt lat="38.747890000000005" lon="-109.56988"><ele>1478.79</ele></trkpt>
<trkpt lat="38.74828999999999" lon="-109.57034"><ele>1481.13</ele></trkpt>
<trkpt lat="38.74859" lon="-109.57070000000002"><ele>1483.07</ele></trkpt>
<trkpt lat="38.74884" lon="-109.57098"><ele>1484.68</ele></trkpt>
<trkpt lat="38.74903" lon="-109.57118"><ele>1485.74</ele></trkpt>
<trkpt lat="38.74916" lon="-109.57129"><ele>1486.21</ele></trkpt>
<trkpt lat="38.749249999999996" lon="-109.57135000000002"><ele>1486.47</ele></trkpt>
<trkpt lat="38.74935" lon="-109.57141000000003"><ele>1486.7</ele></trkpt>
<trkpt lat="38.749500000000005" lon="-109.57148000000002"><ele>1486.92</ele></trkpt>
<trkpt lat="38.74965" lon="-109.57154"><ele>1487.12</ele></trkpt>
<trkpt lat="38.74992" lon="-109.57161000000002"><ele>1487.27</ele></trkpt>
<trkpt lat="38.75062" lon="-109.57168000000003"><ele>1487.96</ele></trkpt>
<trkpt lat="38.75079000000001" lon="-109.5717"><ele>1488.5</ele></trkpt>
<trkpt lat="38.75098" lon="-109.57174000000003"><ele>1489.16</ele></trkpt>
<trkpt lat="38.7511" lon="-109.57179"><ele>1489.57</ele></trkpt>
<trkpt lat="38.75131" lon="-109.57191000000002"><ele>1490.53</ele></trkpt>
<trkpt lat="38.75178" lon="-109.57213"><ele>1493.63</ele></trkpt>
<trkpt lat="38.75224" lon="-109.57235"><ele>1496.85</ele></trkpt>
<trkpt lat="38.75280000000001" lon="-109.57259"><ele>1500.77</ele></trkpt>
<trkpt lat="38.75296999999999" lon="-109.57267000000002"><ele>1501.87</ele></trkpt>
<trkpt lat="38.75347" lon="-109.57293"><ele>1504.64</ele></trkpt>
<trkpt lat="38.75372" lon="-109.57308000000003"><ele>1505.6</ele></trkpt>
<trkpt lat="38.75413" lon="-109.57339"><ele>1506.87</ele></trkpt>
<trkpt lat="38.75479000000001" lon="-109.57389"><ele>1509.01</ele></trkpt>
<trkpt lat="38.75545" lon="-109.57439"><ele>1512.22</ele></trkpt>
<trkpt lat="38.75573" lon="-109.57461000000002"><ele>1514.51</ele></trkpt>
<trkpt lat="38.75588" lon="-109.57477"><ele>1515.88</ele></trkpt>
<trkpt lat="38.75606" lon="-109.57498000000001"><ele>1517.6</ele></trkpt>
<trkpt lat="38.75623" lon="-109.57523"><ele>1519.4</ele></trkpt>
<trkpt lat="38.75644" lon="-109.57555"><ele>1521.82</ele></trkpt>
<trkpt lat="38.75661" lon="-109.57587000000001"><ele>1524.05</ele></trkpt>
<trkpt lat="38.756699999999995" lon="-109.57608000000002"><ele>1525.33</ele></trkpt>
<trkpt lat="38.75679" lon="-109.57629"><ele>1526.64</ele></trkpt>
<trkpt lat="38.7569" lon="-109.57661"><ele>1528.31</ele></trkpt>
<trkpt lat="38.75699999999999" lon="-109.57695"><ele>1530.01</ele></trkpt>
<trkpt lat="38.75704" lon="-109.57714000000001"><ele>1530.83</ele></trkpt>
<trkpt lat="38.757079999999995" lon="-109.57738000000002"><ele>1531.93</ele></trkpt>
<trkpt lat="38.757099999999994" lon="-109.57762"><ele>1532.97</ele></trkpt>
<trkpt lat="38.75712" lon="-109.57772000000001"><ele>1533.46</ele></trkpt>
<trkpt lat="38.75714" lon="-109.57818000000003"><ele>1535.65</ele></trkpt>
<trkpt lat="38.75714" lon="-109.57837999999998"><ele>1536.72</ele></trkpt>
<trkpt lat="38.75712" lon="-109.57859999999998"><ele>1537.87</ele></trkpt>
<trkpt lat="38.75706" lon="-109.57906000000001"><ele>1540.63</ele></trkpt>
<trkpt lat="38.75689" lon="-109.58008"><ele>1547.47</ele></trkpt>
<trkpt lat="38.75682" lon="-109.58058000000003"><ele>1550.91</ele></trkpt>
<trkpt lat="38.7568" lon="-109.58086000000002"><ele>1552.77</ele></trkpt>
<trkpt lat="38.75681" lon="-109.58116"><ele>1554.58</ele></trkpt>
<trkpt lat="38.75683000000001" lon="-109.58137000000002"><ele>1555.85</ele></trkpt>
<trkpt lat="38.75688000000001" lon="-109.58164000000002"><ele>1557.54</ele></trkpt>
<trkpt lat="38.75696" lon="-109.58188"><ele>1559.07</ele></trkpt>
<trkpt lat="38.75701" lon="-109.58203000000003"><ele>1560.12</ele></trkpt>
<trkpt lat="38.75712" lon="-109.58227000000001"><ele>1561.84</ele></trkpt>
<trkpt lat="38.75727" lon="-109.58252999999999"><ele>1563.71</ele></trkpt>
<trkpt lat="38.75739999999999" lon="-109.58269999999999"><ele>1565.09</ele></trkpt>
<trkpt lat="38.75756" lon="-109.58289000000002"><ele>1566.82</ele></trkpt>
<trkpt lat="38.75777" lon="-109.58307"><ele>1568.61</ele></trkpt>
<trkpt lat="38.75805" lon="-109.58325000000002"><ele>1570.63</ele></trkpt>
<trkpt lat="38.75824" lon="-109.58331999999999"><ele>1571.67</ele></trkpt>
<trkpt lat="38.75841" lon="-109.58337000000002"><ele>1572.46</ele></trkpt>
<trkpt lat="38.75855" lon="-109.5834"><ele>1573.05</ele></trkpt>
<trkpt lat="38.7588" lon="-109.58344"><ele>1573.84</ele></trkpt>
<trkpt lat="38.75965" lon="-109.58351"><ele>1576.11</ele></trkpt>
<trkpt lat="38.7605" lon="-109.58359000000002"><ele>1578.35</ele></trkpt>
<trkpt lat="38.76135" lon="-109.58367"><ele>1581.13</ele></trkpt>
<trkpt lat="38.76203" lon="-109.58372"><ele>1583.24</ele></trkpt>
<trkpt lat="38.7627" lon="-109.58378"><ele>1584.11</ele></trkpt>
<trkpt lat="38.76338" lon="-109.58384000000001"><ele>1583.78</ele></trkpt>
<trkpt lat="38.76379" lon="-109.58383000000002"><ele>1582.75</ele></trkpt>
<trkpt lat="38.76415" lon="-109.58379"><ele>1581.59</ele></trkpt>
<trkpt lat="38.76475" lon="-109.58368"><ele>1579.88</ele></trkpt>
<trkpt lat="38.765359999999994" lon="-109.58358"><ele>1579.09</ele></trkpt>
<trkpt lat="38.7658" lon="-109.58351"><ele>1578.99</ele></trkpt>
<trkpt lat="38.76602" lon="-109.58352"><ele>1578.89</ele></trkpt>
<trkpt lat="38.76615" lon="-109.58353"><ele>1578.78</ele></trkpt>
<trkpt lat="38.7663" lon="-109.58357000000001"><ele>1578.57</ele></trkpt>
<trkpt lat="38.76648999999999" lon="-109.58365999999998"><ele>1578.22</ele></trkpt>
<trkpt lat="38.7666" lon="-109.58372"><ele>1578.06</ele></trkpt>
<trkpt lat="38.76674" lon="-109.58382000000002"><ele>1577.75</ele></trkpt>
<trkpt lat="38.76691" lon="-109.58399"><ele>1577.13</ele></trkpt>
<trkpt lat="38.76707" lon="-109.58417"><ele>1576.73</ele></trkpt>
<trkpt lat="38.76713000000001" lon="-109.58428000000002"><ele>1576.34</ele></trkpt>
<trkpt lat="38.76721" lon="-109.5844"><ele>1576.12</ele></trkpt>
<trkpt lat="38.76729" lon="-109.58458"><ele>1575.64</ele></trkpt>
<trkpt lat="38.76734999999999" lon="-109.58472"><ele>1575.4</ele></trkpt>
<trkpt lat="38.76742" lon="-109.58499"><ele>1574.87</ele></trkpt>
<trkpt lat="38.76747" lon="-109.58523000000001"><ele>1574.52</ele></trkpt>
<trkpt lat="38.76758000000001" lon="-109.58606"><ele>1574.04</ele></trkpt>
<trkpt lat="38.76769" lon="-109.58689000000001"><ele>1574.62</ele></trkpt>
<trkpt lat="38.767779999999995" lon="-109.58736999999999"><ele>1575.16</ele></trkpt>
<trkpt lat="38.76783" lon="-109.58759999999998"><ele>1575.48</ele></trkpt>
<trkpt lat="38.76793000000001" lon="-109.58789"><ele>1575.77</ele></trkpt>
<trkpt lat="38.768" lon="-109.58803000000002"><ele>1575.84</ele></trkpt>
<trkpt lat="38.76819" lon="-109.58837000000001"><ele>1576.04</ele></trkpt>
<trkpt lat="38.768280000000004" lon="-109.5885"><ele>1576.07</ele></trkpt>
<trkpt lat="38.76839" lon="-109.58863"><ele>1575.97</ele></trkpt>
<trkpt lat="38.76849" lon="-109.58872"><ele>1575.83</ele></trkpt>
<trkpt lat="38.7686" lon="-109.58883"><ele>1575.78</ele></trkpt>
<trkpt lat="38.7688" lon="-109.58896"><ele>1575.46</ele></trkpt>
<trkpt lat="38.76912" lon="-109.5891"><ele>1574.97</ele></trkpt>
<trkpt lat="38.76935999999999" lon="-109.58917000000001"><ele>1574.55</ele></trkpt>
<trkpt lat="38.77019" lon="-109.58936999999999"><ele>1573.54</ele></trkpt>
<trkpt lat="38.77045" lon="-109.58946000000003"><ele>1573.3</ele></trkpt>
<trkpt lat="38.77064" lon="-109.58955"><ele>1573.13</ele></trkpt>
<trkpt lat="38.77082" lon="-109.58969"><ele>1572.94</ele></trkpt>
<trkpt lat="38.77109" lon="-109.58994000000001"><ele>1573</ele></trkpt>
<trkpt lat="38.77144" lon="-109.59037"><ele>1573.64</ele></trkpt>
<trkpt lat="38.77203" lon="-109.59109999999998"><ele>1575.62</ele></trkpt>
<trkpt lat="38.77260999999999" lon="-109.59183"><ele>1577.71</ele></trkpt>
<trkpt lat="38.77279" lon="-109.59201"><ele>1578.34</ele></trkpt>
<trkpt lat="38.77292" lon="-109.59213"><ele>1578.9</ele></trkpt>
<trkpt lat="38.77305" lon="-109.59222"><ele>1579.34</ele></trkpt>
<trkpt lat="38.77318" lon="-109.59228"><ele>1579.57</ele></trkpt>
<trkpt lat="38.77338" lon="-109.59235"><ele>1579.88</ele></trkpt>
<trkpt lat="38.77394" lon="-109.59246000000003"><ele>1580.58</ele></trkpt>
<trkpt lat="38.77427" lon="-109.59258000000003"><ele>1580.48</ele></trkpt>
<trkpt lat="38.77436999999999" lon="-109.59262"><ele>1580.38</ele></trkpt>
<trkpt lat="38.77451" lon="-109.59271000000001"><ele>1579.94</ele></trkpt>
<trkpt lat="38.77464" lon="-109.59281000000001"><ele>1579.4</ele></trkpt>
<trkpt lat="38.775279999999995" lon="-109.59339"><ele>1576.03</ele></trkpt>
<trkpt lat="38.7755" lon="-109.59353999999999"><ele>1574.93</ele></trkpt>
<trkpt lat="38.77562999999999" lon="-109.59362"><ele>1574.25</ele></trkpt>
<trkpt lat="38.77577" lon="-109.59369"><ele>1573.55</ele></trkpt>
<trkpt lat="38.77594" lon="-109.59375000000003"><ele>1572.7</ele></trkpt>
<trkpt lat="38.77613" lon="-109.59379"><ele>1571.76</ele></trkpt>
<trkpt lat="38.77633" lon="-109.59382000000001"><ele>1570.93</ele></trkpt>
<trkpt lat="38.7766" lon="-109.59381000000002"><ele>1569.84</ele></trkpt>
<trkpt lat="38.7769" lon="-109.59377000000002"><ele>1569.05</ele></trkpt>
<trkpt lat="38.77756" lon="-109.59366"><ele>1569.22</ele></trkpt>
<trkpt lat="38.77823000000001" lon="-109.59354999999998"><ele>1571.31</ele></trkpt>
<trkpt lat="38.77844999999999" lon="-109.5935"><ele>1572.17</ele></trkpt>
</trkseg>
</trk></gpx>
