<?xml version="1.0" encoding="UTF-8"?>
<gpx version="1.1" creator="GPX Segmenter" xmlns="http://www.topografix.com/GPX/1/1">
  <trk>
    <name>Carmel to Pismo - Segment 4 of 6</name>
    <trkseg>
      <trkpt lat="35.711340" lon="-121.303730">
        <ele>8.3</ele>
      </trkpt>
      <trkpt lat="35.710720" lon="-121.303640">
        <ele>9.3</ele>
      </trkpt>
      <trkpt lat="35.710180" lon="-121.303620">
        <ele>10.3</ele>
      </trkpt>
      <trkpt lat="35.710020" lon="-121.303620">
        <ele>10.7</ele>
      </trkpt>
      <trkpt lat="35.709650" lon="-121.303690">
        <ele>11.4</ele>
      </trkpt>
      <trkpt lat="35.708940" lon="-121.303860">
        <ele>12.8</ele>
      </trkpt>
      <trkpt lat="35.708070" lon="-121.304070">
        <ele>14.2</ele>
      </trkpt>
      <trkpt lat="35.707190" lon="-121.304230">
        <ele>16.3</ele>
      </trkpt>
      <trkpt lat="35.706320" lon="-121.304400">
        <ele>17.8</ele>
      </trkpt>
      <trkpt lat="35.705930" lon="-121.304420">
        <ele>18.1</ele>
      </trkpt>
      <trkpt lat="35.705530" lon="-121.304440">
        <ele>18.3</ele>
      </trkpt>
      <trkpt lat="35.704670" lon="-121.304270">
        <ele>17.5</ele>
      </trkpt>
      <trkpt lat="35.704230" lon="-121.304110">
        <ele>16.9</ele>
      </trkpt>
      <trkpt lat="35.703780" lon="-121.303950">
        <ele>16.6</ele>
      </trkpt>
      <trkpt lat="35.703040" lon="-121.303530">
        <ele>16.0</ele>
      </trkpt>
      <trkpt lat="35.702400" lon="-121.302950">
        <ele>16.2</ele>
      </trkpt>
      <trkpt lat="35.701870" lon="-121.302350">
        <ele>16.6</ele>
      </trkpt>
      <trkpt lat="35.701550" lon="-121.301840">
        <ele>16.8</ele>
      </trkpt>
      <trkpt lat="35.701230" lon="-121.301330">
        <ele>17.2</ele>
      </trkpt>
      <trkpt lat="35.700910" lon="-121.300530">
        <ele>17.0</ele>
      </trkpt>
      <trkpt lat="35.700580" lon="-121.299740">
        <ele>16.8</ele>
      </trkpt>
      <trkpt lat="35.700230" lon="-121.298820">
        <ele>18.1</ele>
      </trkpt>
      <trkpt lat="35.699880" lon="-121.297910">
        <ele>21.3</ele>
      </trkpt>
      <trkpt lat="35.699530" lon="-121.297000">
        <ele>24.3</ele>
      </trkpt>
      <trkpt lat="35.699180" lon="-121.296090">
        <ele>25.7</ele>
      </trkpt>
      <trkpt lat="35.698840" lon="-121.295170">
        <ele>25.9</ele>
      </trkpt>
      <trkpt lat="35.698400" lon="-121.294320">
        <ele>24.3</ele>
      </trkpt>
      <trkpt lat="35.698100" lon="-121.293900">
        <ele>22.6</ele>
      </trkpt>
      <trkpt lat="35.697790" lon="-121.293490">
        <ele>20.7</ele>
      </trkpt>
      <trkpt lat="35.697350" lon="-121.293060">
        <ele>17.6</ele>
      </trkpt>
      <trkpt lat="35.696900" lon="-121.292630">
        <ele>14.8</ele>
      </trkpt>
      <trkpt lat="35.696390" lon="-121.292170">
        <ele>12.8</ele>
      </trkpt>
      <trkpt lat="35.695880" lon="-121.291720">
        <ele>12.1</ele>
      </trkpt>
      <trkpt lat="35.695280" lon="-121.291180">
        <ele>11.9</ele>
      </trkpt>
      <trkpt lat="35.694680" lon="-121.290640">
        <ele>11.8</ele>
      </trkpt>
      <trkpt lat="35.694080" lon="-121.290100">
        <ele>12.1</ele>
      </trkpt>
      <trkpt lat="35.693530" lon="-121.289610">
        <ele>15.2</ele>
      </trkpt>
      <trkpt lat="35.693000" lon="-121.289130">
        <ele>16.8</ele>
      </trkpt>
      <trkpt lat="35.692470" lon="-121.288650">
        <ele>17.3</ele>
      </trkpt>
      <trkpt lat="35.691800" lon="-121.288080">
        <ele>16.9</ele>
      </trkpt>
      <trkpt lat="35.691320" lon="-121.287640">
        <ele>16.1</ele>
      </trkpt>
      <trkpt lat="35.690820" lon="-121.287240">
        <ele>15.1</ele>
      </trkpt>
      <trkpt lat="35.690080" lon="-121.286930">
        <ele>13.1</ele>
      </trkpt>
      <trkpt lat="35.689520" lon="-121.286770">
        <ele>12.8</ele>
      </trkpt>
      <trkpt lat="35.688880" lon="-121.286730">
        <ele>13.2</ele>
      </trkpt>
      <trkpt lat="35.688380" lon="-121.286830">
        <ele>13.4</ele>
      </trkpt>
      <trkpt lat="35.687650" lon="-121.286940">
        <ele>13.9</ele>
      </trkpt>
      <trkpt lat="35.687140" lon="-121.286900">
        <ele>13.8</ele>
      </trkpt>
      <trkpt lat="35.686600" lon="-121.286770">
        <ele>13.4</ele>
      </trkpt>
      <trkpt lat="35.686280" lon="-121.286620">
        <ele>13.1</ele>
      </trkpt>
      <trkpt lat="35.685950" lon="-121.286440">
        <ele>13.1</ele>
      </trkpt>
      <trkpt lat="35.685290" lon="-121.285890">
        <ele>13.2</ele>
      </trkpt>
      <trkpt lat="35.684770" lon="-121.285480">
        <ele>14.1</ele>
      </trkpt>
      <trkpt lat="35.684270" lon="-121.285180">
        <ele>14.9</ele>
      </trkpt>
      <trkpt lat="35.683850" lon="-121.285040">
        <ele>14.8</ele>
      </trkpt>
      <trkpt lat="35.683420" lon="-121.284940">
        <ele>14.4</ele>
      </trkpt>
      <trkpt lat="35.683040" lon="-121.284900">
        <ele>13.8</ele>
      </trkpt>
      <trkpt lat="35.682640" lon="-121.284900">
        <ele>13.1</ele>
      </trkpt>
      <trkpt lat="35.682060" lon="-121.284930">
        <ele>12.3</ele>
      </trkpt>
      <trkpt lat="35.681290" lon="-121.284970">
        <ele>13.4</ele>
      </trkpt>
      <trkpt lat="35.680610" lon="-121.284970">
        <ele>14.8</ele>
      </trkpt>
      <trkpt lat="35.679920" lon="-121.284980">
        <ele>16.3</ele>
      </trkpt>
      <trkpt lat="35.679260" lon="-121.284990">
        <ele>17.6</ele>
      </trkpt>
      <trkpt lat="35.678600" lon="-121.285000">
        <ele>18.3</ele>
      </trkpt>
      <trkpt lat="35.677940" lon="-121.284870">
        <ele>17.8</ele>
      </trkpt>
      <trkpt lat="35.677100" lon="-121.284660">
        <ele>16.7</ele>
      </trkpt>
      <trkpt lat="35.676280" lon="-121.284320">
        <ele>15.7</ele>
      </trkpt>
      <trkpt lat="35.675830" lon="-121.284070">
        <ele>15.1</ele>
      </trkpt>
      <trkpt lat="35.675400" lon="-121.283770">
        <ele>14.4</ele>
      </trkpt>
      <trkpt lat="35.675000" lon="-121.283450">
        <ele>14.0</ele>
      </trkpt>
      <trkpt lat="35.674570" lon="-121.283070">
        <ele>14.3</ele>
      </trkpt>
      <trkpt lat="35.673960" lon="-121.282410">
        <ele>15.4</ele>
      </trkpt>
      <trkpt lat="35.673340" lon="-121.281750">
        <ele>18.3</ele>
      </trkpt>
      <trkpt lat="35.672880" lon="-121.281270">
        <ele>20.9</ele>
      </trkpt>
      <trkpt lat="35.672430" lon="-121.280800">
        <ele>23.1</ele>
      </trkpt>
      <trkpt lat="35.671980" lon="-121.280300">
        <ele>25.4</ele>
      </trkpt>
      <trkpt lat="35.671540" lon="-121.279800">
        <ele>27.1</ele>
      </trkpt>
      <trkpt lat="35.671040" lon="-121.279260">
        <ele>27.3</ele>
      </trkpt>
      <trkpt lat="35.670550" lon="-121.278720">
        <ele>26.8</ele>
      </trkpt>
      <trkpt lat="35.670210" lon="-121.278320">
        <ele>26.3</ele>
      </trkpt>
      <trkpt lat="35.670020" lon="-121.277970">
        <ele>26.4</ele>
      </trkpt>
      <trkpt lat="35.669710" lon="-121.277210">
        <ele>26.1</ele>
      </trkpt>
      <trkpt lat="35.669410" lon="-121.276400">
        <ele>26.6</ele>
      </trkpt>
      <trkpt lat="35.669100" lon="-121.275600">
        <ele>27.5</ele>
      </trkpt>
      <trkpt lat="35.668800" lon="-121.274800">
        <ele>30.4</ele>
      </trkpt>
      <trkpt lat="35.668600" lon="-121.274220">
        <ele>28.2</ele>
      </trkpt>
      <trkpt lat="35.668410" lon="-121.273640">
        <ele>24.6</ele>
      </trkpt>
      <trkpt lat="35.668190" lon="-121.273060">
        <ele>23.3</ele>
      </trkpt>
      <trkpt lat="35.667970" lon="-121.272490">
        <ele>22.1</ele>
      </trkpt>
      <trkpt lat="35.667730" lon="-121.271810">
        <ele>18.6</ele>
      </trkpt>
      <trkpt lat="35.667490" lon="-121.271120">
        <ele>17.4</ele>
      </trkpt>
      <trkpt lat="35.667350" lon="-121.270580">
        <ele>16.6</ele>
      </trkpt>
      <trkpt lat="35.667210" lon="-121.270050">
        <ele>15.6</ele>
      </trkpt>
      <trkpt lat="35.667070" lon="-121.269390">
        <ele>15.1</ele>
      </trkpt>
      <trkpt lat="35.666930" lon="-121.268740">
        <ele>16.6</ele>
      </trkpt>
      <trkpt lat="35.666820" lon="-121.268190">
        <ele>18.5</ele>
      </trkpt>
      <trkpt lat="35.666710" lon="-121.267650">
        <ele>18.0</ele>
      </trkpt>
      <trkpt lat="35.666490" lon="-121.266720">
        <ele>18.1</ele>
      </trkpt>
      <trkpt lat="35.666310" lon="-121.266190">
        <ele>20.2</ele>
      </trkpt>
      <trkpt lat="35.666020" lon="-121.265450">
        <ele>21.1</ele>
      </trkpt>
      <trkpt lat="35.665720" lon="-121.264710">
        <ele>21.6</ele>
      </trkpt>
      <trkpt lat="35.665400" lon="-121.263880">
        <ele>21.1</ele>
      </trkpt>
      <trkpt lat="35.665180" lon="-121.263340">
        <ele>20.2</ele>
      </trkpt>
      <trkpt lat="35.664940" lon="-121.262690">
        <ele>18.4</ele>
      </trkpt>
      <trkpt lat="35.664840" lon="-121.262300">
        <ele>17.1</ele>
      </trkpt>
      <trkpt lat="35.664760" lon="-121.261600">
        <ele>14.6</ele>
      </trkpt>
      <trkpt lat="35.664710" lon="-121.260980">
        <ele>13.1</ele>
      </trkpt>
      <trkpt lat="35.664630" lon="-121.260550">
        <ele>12.2</ele>
      </trkpt>
      <trkpt lat="35.664480" lon="-121.260040">
        <ele>11.5</ele>
      </trkpt>
      <trkpt lat="35.664270" lon="-121.259510">
        <ele>11.0</ele>
      </trkpt>
      <trkpt lat="35.664060" lon="-121.258980">
        <ele>10.9</ele>
      </trkpt>
      <trkpt lat="35.664020" lon="-121.258890">
        <ele>10.9</ele>
      </trkpt>
      <trkpt lat="35.663720" lon="-121.258140">
        <ele>10.8</ele>
      </trkpt>
      <trkpt lat="35.663420" lon="-121.257400">
        <ele>10.6</ele>
      </trkpt>
      <trkpt lat="35.663120" lon="-121.256660">
        <ele>10.3</ele>
      </trkpt>
      <trkpt lat="35.662820" lon="-121.256180">
        <ele>10.2</ele>
      </trkpt>
      <trkpt lat="35.662360" lon="-121.255550">
        <ele>9.8</ele>
      </trkpt>
      <trkpt lat="35.661890" lon="-121.254910">
        <ele>9.7</ele>
      </trkpt>
      <trkpt lat="35.661430" lon="-121.254280">
        <ele>9.7</ele>
      </trkpt>
      <trkpt lat="35.660960" lon="-121.253640">
        <ele>10.0</ele>
      </trkpt>
      <trkpt lat="35.660480" lon="-121.253010">
        <ele>10.5</ele>
      </trkpt>
      <trkpt lat="35.660320" lon="-121.252840">
        <ele>10.8</ele>
      </trkpt>
      <trkpt lat="35.659970" lon="-121.252570">
        <ele>10.9</ele>
      </trkpt>
      <trkpt lat="35.659620" lon="-121.252320">
        <ele>11.2</ele>
      </trkpt>
      <trkpt lat="35.659540" lon="-121.252250">
        <ele>11.2</ele>
      </trkpt>
      <trkpt lat="35.659500" lon="-121.252230">
        <ele>11.3</ele>
      </trkpt>
      <trkpt lat="35.659210" lon="-121.251990">
        <ele>11.4</ele>
      </trkpt>
      <trkpt lat="35.658990" lon="-121.251780">
        <ele>11.5</ele>
      </trkpt>
      <trkpt lat="35.658720" lon="-121.251480">
        <ele>11.8</ele>
      </trkpt>
      <trkpt lat="35.658400" lon="-121.250980">
        <ele>12.3</ele>
      </trkpt>
      <trkpt lat="35.658080" lon="-121.250340">
        <ele>12.7</ele>
      </trkpt>
      <trkpt lat="35.657660" lon="-121.249510">
        <ele>13.2</ele>
      </trkpt>
      <trkpt lat="35.657330" lon="-121.248840">
        <ele>13.3</ele>
      </trkpt>
      <trkpt lat="35.657010" lon="-121.248180">
        <ele>12.7</ele>
      </trkpt>
      <trkpt lat="35.656680" lon="-121.247540">
        <ele>12.1</ele>
      </trkpt>
      <trkpt lat="35.656360" lon="-121.246900">
        <ele>11.5</ele>
      </trkpt>
      <trkpt lat="35.656120" lon="-121.246420">
        <ele>11.0</ele>
      </trkpt>
      <trkpt lat="35.655880" lon="-121.245970">
        <ele>10.4</ele>
      </trkpt>
      <trkpt lat="35.655500" lon="-121.245380">
        <ele>10.0</ele>
      </trkpt>
      <trkpt lat="35.655250" lon="-121.245100">
        <ele>9.6</ele>
      </trkpt>
      <trkpt lat="35.654810" lon="-121.244550">
        <ele>8.9</ele>
      </trkpt>
      <trkpt lat="35.654440" lon="-121.243970">
        <ele>8.3</ele>
      </trkpt>
      <trkpt lat="35.654160" lon="-121.243430">
        <ele>8.1</ele>
      </trkpt>
      <trkpt lat="35.653960" lon="-121.242910">
        <ele>8.1</ele>
      </trkpt>
      <trkpt lat="35.653830" lon="-121.242460">
        <ele>8.2</ele>
      </trkpt>
      <trkpt lat="35.653770" lon="-121.242190">
        <ele>8.3</ele>
      </trkpt>
      <trkpt lat="35.653700" lon="-121.241800">
        <ele>8.4</ele>
      </trkpt>
      <trkpt lat="35.653670" lon="-121.241590">
        <ele>8.5</ele>
      </trkpt>
      <trkpt lat="35.653640" lon="-121.241010">
        <ele>8.5</ele>
      </trkpt>
      <trkpt lat="35.653650" lon="-121.240540">
        <ele>8.6</ele>
      </trkpt>
      <trkpt lat="35.653670" lon="-121.240170">
        <ele>8.7</ele>
      </trkpt>
      <trkpt lat="35.653760" lon="-121.239400">
        <ele>9.0</ele>
      </trkpt>
      <trkpt lat="35.653860" lon="-121.238630">
        <ele>9.3</ele>
      </trkpt>
      <trkpt lat="35.653950" lon="-121.237860">
        <ele>9.7</ele>
      </trkpt>
      <trkpt lat="35.653960" lon="-121.237730">
        <ele>9.8</ele>
      </trkpt>
      <trkpt lat="35.653960" lon="-121.237120">
        <ele>9.7</ele>
      </trkpt>
      <trkpt lat="35.653930" lon="-121.236660">
        <ele>9.5</ele>
      </trkpt>
      <trkpt lat="35.653900" lon="-121.236450">
        <ele>9.3</ele>
      </trkpt>
      <trkpt lat="35.653760" lon="-121.235780">
        <ele>8.8</ele>
      </trkpt>
      <trkpt lat="35.653600" lon="-121.235210">
        <ele>8.4</ele>
      </trkpt>
      <trkpt lat="35.653380" lon="-121.234590">
        <ele>8.0</ele>
      </trkpt>
      <trkpt lat="35.653170" lon="-121.233970">
        <ele>7.8</ele>
      </trkpt>
      <trkpt lat="35.652830" lon="-121.232970">
        <ele>7.9</ele>
      </trkpt>
      <trkpt lat="35.652610" lon="-121.232120">
        <ele>8.3</ele>
      </trkpt>
      <trkpt lat="35.652540" lon="-121.231720">
        <ele>8.4</ele>
      </trkpt>
      <trkpt lat="35.652450" lon="-121.231060">
        <ele>8.7</ele>
      </trkpt>
      <trkpt lat="35.652420" lon="-121.230560">
        <ele>8.8</ele>
      </trkpt>
      <trkpt lat="35.652410" lon="-121.230020">
        <ele>9.0</ele>
      </trkpt>
      <trkpt lat="35.652440" lon="-121.229540">
        <ele>8.9</ele>
      </trkpt>
      <trkpt lat="35.652480" lon="-121.229100">
        <ele>8.6</ele>
      </trkpt>
      <trkpt lat="35.652580" lon="-121.228290">
        <ele>8.3</ele>
      </trkpt>
      <trkpt lat="35.652680" lon="-121.227370">
        <ele>8.6</ele>
      </trkpt>
      <trkpt lat="35.652780" lon="-121.226440">
        <ele>9.1</ele>
      </trkpt>
      <trkpt lat="35.652880" lon="-121.225510">
        <ele>9.5</ele>
      </trkpt>
      <trkpt lat="35.652980" lon="-121.224590">
        <ele>10.1</ele>
      </trkpt>
      <trkpt lat="35.653080" lon="-121.223660">
        <ele>9.9</ele>
      </trkpt>
      <trkpt lat="35.653180" lon="-121.222730">
        <ele>9.3</ele>
      </trkpt>
      <trkpt lat="35.653230" lon="-121.222190">
        <ele>9.0</ele>
      </trkpt>
      <trkpt lat="35.653270" lon="-121.221660">
        <ele>8.9</ele>
      </trkpt>
      <trkpt lat="35.653260" lon="-121.220800">
        <ele>8.5</ele>
      </trkpt>
      <trkpt lat="35.653230" lon="-121.220230">
        <ele>8.7</ele>
      </trkpt>
      <trkpt lat="35.653210" lon="-121.219670">
        <ele>9.3</ele>
      </trkpt>
      <trkpt lat="35.653200" lon="-121.219290">
        <ele>9.0</ele>
      </trkpt>
      <trkpt lat="35.653180" lon="-121.218670">
        <ele>12.0</ele>
      </trkpt>
      <trkpt lat="35.653170" lon="-121.218050">
        <ele>13.4</ele>
      </trkpt>
      <trkpt lat="35.653130" lon="-121.217270">
        <ele>15.1</ele>
      </trkpt>
      <trkpt lat="35.653070" lon="-121.216640">
        <ele>16.5</ele>
      </trkpt>
      <trkpt lat="35.653010" lon="-121.216010">
        <ele>17.8</ele>
      </trkpt>
      <trkpt lat="35.652940" lon="-121.215090">
        <ele>19.9</ele>
      </trkpt>
      <trkpt lat="35.652880" lon="-121.214660">
        <ele>20.8</ele>
      </trkpt>
      <trkpt lat="35.652740" lon="-121.213900">
        <ele>22.4</ele>
      </trkpt>
      <trkpt lat="35.652660" lon="-121.213610">
        <ele>22.9</ele>
      </trkpt>
      <trkpt lat="35.652410" lon="-121.212860">
        <ele>23.7</ele>
      </trkpt>
      <trkpt lat="35.652140" lon="-121.212230">
        <ele>23.8</ele>
      </trkpt>
      <trkpt lat="35.651820" lon="-121.211580">
        <ele>23.7</ele>
      </trkpt>
      <trkpt lat="35.651460" lon="-121.210750">
        <ele>24.7</ele>
      </trkpt>
      <trkpt lat="35.651360" lon="-121.210460">
        <ele>25.1</ele>
      </trkpt>
      <trkpt lat="35.651310" lon="-121.210230">
        <ele>25.2</ele>
      </trkpt>
      <trkpt lat="35.651240" lon="-121.209810">
        <ele>25.2</ele>
      </trkpt>
      <trkpt lat="35.651230" lon="-121.209470">
        <ele>24.9</ele>
      </trkpt>
      <trkpt lat="35.651250" lon="-121.209180">
        <ele>24.4</ele>
      </trkpt>
      <trkpt lat="35.651280" lon="-121.208900">
        <ele>23.9</ele>
      </trkpt>
      <trkpt lat="35.651340" lon="-121.208610">
        <ele>23.2</ele>
      </trkpt>
      <trkpt lat="35.651540" lon="-121.207960">
        <ele>21.3</ele>
      </trkpt>
      <trkpt lat="35.651740" lon="-121.207310">
        <ele>19.8</ele>
      </trkpt>
      <trkpt lat="35.651820" lon="-121.206950">
        <ele>19.4</ele>
      </trkpt>
      <trkpt lat="35.651880" lon="-121.206610">
        <ele>19.3</ele>
      </trkpt>
      <trkpt lat="35.651920" lon="-121.206250">
        <ele>19.9</ele>
      </trkpt>
      <trkpt lat="35.651940" lon="-121.205830">
        <ele>21.0</ele>
      </trkpt>
      <trkpt lat="35.651920" lon="-121.205490">
        <ele>21.9</ele>
      </trkpt>
      <trkpt lat="35.651890" lon="-121.205220">
        <ele>22.4</ele>
      </trkpt>
      <trkpt lat="35.651810" lon="-121.204800">
        <ele>23.1</ele>
      </trkpt>
      <trkpt lat="35.651730" lon="-121.204500">
        <ele>23.4</ele>
      </trkpt>
      <trkpt lat="35.651600" lon="-121.204130">
        <ele>23.6</ele>
      </trkpt>
      <trkpt lat="35.651200" lon="-121.203180">
        <ele>23.3</ele>
      </trkpt>
      <trkpt lat="35.650800" lon="-121.202240">
        <ele>22.5</ele>
      </trkpt>
      <trkpt lat="35.650400" lon="-121.201300">
        <ele>22.3</ele>
      </trkpt>
      <trkpt lat="35.650000" lon="-121.200350">
        <ele>23.2</ele>
      </trkpt>
      <trkpt lat="35.649600" lon="-121.199410">
        <ele>24.3</ele>
      </trkpt>
      <trkpt lat="35.649200" lon="-121.198460">
        <ele>25.4</ele>
      </trkpt>
      <trkpt lat="35.648800" lon="-121.197520">
        <ele>26.3</ele>
      </trkpt>
      <trkpt lat="35.648400" lon="-121.196570">
        <ele>26.0</ele>
      </trkpt>
      <trkpt lat="35.648000" lon="-121.195630">
        <ele>24.4</ele>
      </trkpt>
      <trkpt lat="35.647600" lon="-121.194680">
        <ele>21.5</ele>
      </trkpt>
      <trkpt lat="35.647200" lon="-121.193740">
        <ele>20.1</ele>
      </trkpt>
      <trkpt lat="35.646800" lon="-121.192800">
        <ele>19.5</ele>
      </trkpt>
      <trkpt lat="35.646550" lon="-121.192240">
        <ele>19.2</ele>
      </trkpt>
      <trkpt lat="35.646230" lon="-121.191430">
        <ele>18.6</ele>
      </trkpt>
      <trkpt lat="35.645900" lon="-121.190610">
        <ele>17.4</ele>
      </trkpt>
      <trkpt lat="35.645580" lon="-121.189800">
        <ele>15.8</ele>
      </trkpt>
      <trkpt lat="35.645260" lon="-121.188980">
        <ele>14.2</ele>
      </trkpt>
      <trkpt lat="35.645080" lon="-121.188510">
        <ele>13.6</ele>
      </trkpt>
      <trkpt lat="35.644760" lon="-121.187680">
        <ele>13.9</ele>
      </trkpt>
      <trkpt lat="35.644430" lon="-121.186840">
        <ele>14.4</ele>
      </trkpt>
      <trkpt lat="35.644100" lon="-121.186000">
        <ele>14.8</ele>
      </trkpt>
      <trkpt lat="35.643770" lon="-121.185170">
        <ele>14.7</ele>
      </trkpt>
      <trkpt lat="35.643450" lon="-121.184330">
        <ele>14.2</ele>
      </trkpt>
      <trkpt lat="35.643120" lon="-121.183500">
        <ele>13.5</ele>
      </trkpt>
      <trkpt lat="35.642840" lon="-121.182870">
        <ele>12.9</ele>
      </trkpt>
      <trkpt lat="35.642520" lon="-121.182060">
        <ele>12.9</ele>
      </trkpt>
      <trkpt lat="35.642210" lon="-121.181240">
        <ele>13.4</ele>
      </trkpt>
      <trkpt lat="35.642100" lon="-121.180940">
        <ele>13.6</ele>
      </trkpt>
      <trkpt lat="35.641850" lon="-121.180200">
        <ele>14.0</ele>
      </trkpt>
      <trkpt lat="35.641600" lon="-121.179320">
        <ele>14.5</ele>
      </trkpt>
      <trkpt lat="35.641370" lon="-121.178370">
        <ele>14.8</ele>
      </trkpt>
      <trkpt lat="35.641130" lon="-121.177410">
        <ele>15.0</ele>
      </trkpt>
      <trkpt lat="35.640900" lon="-121.176460">
        <ele>15.3</ele>
      </trkpt>
      <trkpt lat="35.640670" lon="-121.175510">
        <ele>15.5</ele>
      </trkpt>
      <trkpt lat="35.640500" lon="-121.174910">
        <ele>15.6</ele>
      </trkpt>
      <trkpt lat="35.640400" lon="-121.174600">
        <ele>15.7</ele>
      </trkpt>
      <trkpt lat="35.640140" lon="-121.173920">
        <ele>15.9</ele>
      </trkpt>
      <trkpt lat="35.639760" lon="-121.173080">
        <ele>16.1</ele>
      </trkpt>
      <trkpt lat="35.639380" lon="-121.172250">
        <ele>16.4</ele>
      </trkpt>
      <trkpt lat="35.639020" lon="-121.171460">
        <ele>16.9</ele>
      </trkpt>
      <trkpt lat="35.638660" lon="-121.170680">
        <ele>17.9</ele>
      </trkpt>
      <trkpt lat="35.638300" lon="-121.169900">
        <ele>18.9</ele>
      </trkpt>
      <trkpt lat="35.638030" lon="-121.169310">
        <ele>19.5</ele>
      </trkpt>
      <trkpt lat="35.637650" lon="-121.168530">
        <ele>20.0</ele>
      </trkpt>
      <trkpt lat="35.637280" lon="-121.167740">
        <ele>20.5</ele>
      </trkpt>
      <trkpt lat="35.636920" lon="-121.166950">
        <ele>20.8</ele>
      </trkpt>
      <trkpt lat="35.636690" lon="-121.166510">
        <ele>20.5</ele>
      </trkpt>
      <trkpt lat="35.636440" lon="-121.166090">
        <ele>19.9</ele>
      </trkpt>
      <trkpt lat="35.636180" lon="-121.165710">
        <ele>19.1</ele>
      </trkpt>
      <trkpt lat="35.635840" lon="-121.165300">
        <ele>18.2</ele>
      </trkpt>
      <trkpt lat="35.635580" lon="-121.165020">
        <ele>17.6</ele>
      </trkpt>
      <trkpt lat="35.635180" lon="-121.164660">
        <ele>16.6</ele>
      </trkpt>
      <trkpt lat="35.634430" lon="-121.164070">
        <ele>15.5</ele>
      </trkpt>
      <trkpt lat="35.633850" lon="-121.163630">
        <ele>14.9</ele>
      </trkpt>
      <trkpt lat="35.633280" lon="-121.163200">
        <ele>14.4</ele>
      </trkpt>
      <trkpt lat="35.632710" lon="-121.162720">
        <ele>14.1</ele>
      </trkpt>
      <trkpt lat="35.632300" lon="-121.162410">
        <ele>14.0</ele>
      </trkpt>
      <trkpt lat="35.631690" lon="-121.161980">
        <ele>14.0</ele>
      </trkpt>
      <trkpt lat="35.631080" lon="-121.161550">
        <ele>13.9</ele>
      </trkpt>
      <trkpt lat="35.630470" lon="-121.161130">
        <ele>13.8</ele>
      </trkpt>
      <trkpt lat="35.629870" lon="-121.160700">
        <ele>13.6</ele>
      </trkpt>
      <trkpt lat="35.629350" lon="-121.160300">
        <ele>13.3</ele>
      </trkpt>
      <trkpt lat="35.628840" lon="-121.159900">
        <ele>13.0</ele>
      </trkpt>
      <trkpt lat="35.628380" lon="-121.159550">
        <ele>12.8</ele>
      </trkpt>
      <trkpt lat="35.627920" lon="-121.159190">
        <ele>12.6</ele>
      </trkpt>
      <trkpt lat="35.627590" lon="-121.158950">
        <ele>12.4</ele>
      </trkpt>
      <trkpt lat="35.627150" lon="-121.158570">
        <ele>12.2</ele>
      </trkpt>
      <trkpt lat="35.626710" lon="-121.158180">
        <ele>12.3</ele>
      </trkpt>
      <trkpt lat="35.626100" lon="-121.157620">
        <ele>13.2</ele>
      </trkpt>
      <trkpt lat="35.625710" lon="-121.157210">
        <ele>14.1</ele>
      </trkpt>
      <trkpt lat="35.625260" lon="-121.156760">
        <ele>15.1</ele>
      </trkpt>
      <trkpt lat="35.624890" lon="-121.156420">
        <ele>15.9</ele>
      </trkpt>
      <trkpt lat="35.624520" lon="-121.156090">
        <ele>16.8</ele>
      </trkpt>
      <trkpt lat="35.623920" lon="-121.155670">
        <ele>18.1</ele>
      </trkpt>
      <trkpt lat="35.623310" lon="-121.155250">
        <ele>19.1</ele>
      </trkpt>
      <trkpt lat="35.622880" lon="-121.154960">
        <ele>19.6</ele>
      </trkpt>
      <trkpt lat="35.622450" lon="-121.154670">
        <ele>19.9</ele>
      </trkpt>
      <trkpt lat="35.621840" lon="-121.154200">
        <ele>20.0</ele>
      </trkpt>
      <trkpt lat="35.621560" lon="-121.154000">
        <ele>20.1</ele>
      </trkpt>
      <trkpt lat="35.620890" lon="-121.153420">
        <ele>20.3</ele>
      </trkpt>
      <trkpt lat="35.620590" lon="-121.153130">
        <ele>20.4</ele>
      </trkpt>
      <trkpt lat="35.620110" lon="-121.152620">
        <ele>20.9</ele>
      </trkpt>
      <trkpt lat="35.619640" lon="-121.152120">
        <ele>21.5</ele>
      </trkpt>
      <trkpt lat="35.619230" lon="-121.151600">
        <ele>21.9</ele>
      </trkpt>
      <trkpt lat="35.618820" lon="-121.151080">
        <ele>21.9</ele>
      </trkpt>
      <trkpt lat="35.618320" lon="-121.150380">
        <ele>21.0</ele>
      </trkpt>
      <trkpt lat="35.617890" lon="-121.149830">
        <ele>19.7</ele>
      </trkpt>
      <trkpt lat="35.617470" lon="-121.149340">
        <ele>18.4</ele>
      </trkpt>
      <trkpt lat="35.617050" lon="-121.148850">
        <ele>17.6</ele>
      </trkpt>
      <trkpt lat="35.616700" lon="-121.148460">
        <ele>17.5</ele>
      </trkpt>
      <trkpt lat="35.616350" lon="-121.148060">
        <ele>17.3</ele>
      </trkpt>
      <trkpt lat="35.615900" lon="-121.147520">
        <ele>17.1</ele>
      </trkpt>
      <trkpt lat="35.615450" lon="-121.146980">
        <ele>16.8</ele>
      </trkpt>
      <trkpt lat="35.615070" lon="-121.146530">
        <ele>16.7</ele>
      </trkpt>
      <trkpt lat="35.614690" lon="-121.146080">
        <ele>16.5</ele>
      </trkpt>
      <trkpt lat="35.614340" lon="-121.145680">
        <ele>16.3</ele>
      </trkpt>
      <trkpt lat="35.614060" lon="-121.145410">
        <ele>16.1</ele>
      </trkpt>
      <trkpt lat="35.613660" lon="-121.144990">
        <ele>15.9</ele>
      </trkpt>
      <trkpt lat="35.613250" lon="-121.144570">
        <ele>15.5</ele>
      </trkpt>
      <trkpt lat="35.612720" lon="-121.143940">
        <ele>15.0</ele>
      </trkpt>
      <trkpt lat="35.612180" lon="-121.143320">
        <ele>14.9</ele>
      </trkpt>
      <trkpt lat="35.611640" lon="-121.142690">
        <ele>15.9</ele>
      </trkpt>
      <trkpt lat="35.611100" lon="-121.142040">
        <ele>17.2</ele>
      </trkpt>
      <trkpt lat="35.610560" lon="-121.141390">
        <ele>18.5</ele>
      </trkpt>
      <trkpt lat="35.610000" lon="-121.140730">
        <ele>19.7</ele>
      </trkpt>
      <trkpt lat="35.609450" lon="-121.140070">
        <ele>20.4</ele>
      </trkpt>
      <trkpt lat="35.609030" lon="-121.139570">
        <ele>20.7</ele>
      </trkpt>
      <trkpt lat="35.608450" lon="-121.138870">
        <ele>21.2</ele>
      </trkpt>
      <trkpt lat="35.607860" lon="-121.138180">
        <ele>21.6</ele>
      </trkpt>
      <trkpt lat="35.607270" lon="-121.137490">
        <ele>22.1</ele>
      </trkpt>
      <trkpt lat="35.606690" lon="-121.136800">
        <ele>22.5</ele>
      </trkpt>
      <trkpt lat="35.606100" lon="-121.136110">
        <ele>23.0</ele>
      </trkpt>
      <trkpt lat="35.605740" lon="-121.135670">
        <ele>23.2</ele>
      </trkpt>
      <trkpt lat="35.605380" lon="-121.135230">
        <ele>23.3</ele>
      </trkpt>
      <trkpt lat="35.604940" lon="-121.134710">
        <ele>23.1</ele>
      </trkpt>
      <trkpt lat="35.604490" lon="-121.134190">
        <ele>22.5</ele>
      </trkpt>
      <trkpt lat="35.604050" lon="-121.133670">
        <ele>21.6</ele>
      </trkpt>
      <trkpt lat="35.603440" lon="-121.132970">
        <ele>19.8</ele>
      </trkpt>
      <trkpt lat="35.602830" lon="-121.132270">
        <ele>18.2</ele>
      </trkpt>
      <trkpt lat="35.602300" lon="-121.131640">
        <ele>17.7</ele>
      </trkpt>
      <trkpt lat="35.601760" lon="-121.131000">
        <ele>17.5</ele>
      </trkpt>
      <trkpt lat="35.601230" lon="-121.130370">
        <ele>17.4</ele>
      </trkpt>
      <trkpt lat="35.600750" lon="-121.129840">
        <ele>17.2</ele>
      </trkpt>
      <trkpt lat="35.600410" lon="-121.129440">
        <ele>17.1</ele>
      </trkpt>
      <trkpt lat="35.599810" lon="-121.128710">
        <ele>17.0</ele>
      </trkpt>
      <trkpt lat="35.599480" lon="-121.128330">
        <ele>16.9</ele>
      </trkpt>
      <trkpt lat="35.599160" lon="-121.127950">
        <ele>16.8</ele>
      </trkpt>
      <trkpt lat="35.598860" lon="-121.127640">
        <ele>16.5</ele>
      </trkpt>
      <trkpt lat="35.598210" lon="-121.127050">
        <ele>15.0</ele>
      </trkpt>
      <trkpt lat="35.597950" lon="-121.126850">
        <ele>14.1</ele>
      </trkpt>
      <trkpt lat="35.597550" lon="-121.126590">
        <ele>12.4</ele>
      </trkpt>
      <trkpt lat="35.597140" lon="-121.126350">
        <ele>10.7</ele>
      </trkpt>
      <trkpt lat="35.596830" lon="-121.126200">
        <ele>9.6</ele>
      </trkpt>
      <trkpt lat="35.596000" lon="-121.125840">
        <ele>8.5</ele>
      </trkpt>
      <trkpt lat="35.595430" lon="-121.125600">
        <ele>8.4</ele>
      </trkpt>
      <trkpt lat="35.594860" lon="-121.125350">
        <ele>8.4</ele>
      </trkpt>
      <trkpt lat="35.594250" lon="-121.125100">
        <ele>8.6</ele>
      </trkpt>
      <trkpt lat="35.593570" lon="-121.124860">
        <ele>9.0</ele>
      </trkpt>
      <trkpt lat="35.593150" lon="-121.124730">
        <ele>9.3</ele>
      </trkpt>
      <trkpt lat="35.592350" lon="-121.124460">
        <ele>10.8</ele>
      </trkpt>
      <trkpt lat="35.591890" lon="-121.124300">
        <ele>12.5</ele>
      </trkpt>
      <trkpt lat="35.591530" lon="-121.124160">
        <ele>13.8</ele>
      </trkpt>
      <trkpt lat="35.590950" lon="-121.123910">
        <ele>15.7</ele>
      </trkpt>
      <trkpt lat="35.590190" lon="-121.123610">
        <ele>17.6</ele>
      </trkpt>
      <trkpt lat="35.589430" lon="-121.123300">
        <ele>19.0</ele>
      </trkpt>
      <trkpt lat="35.588830" lon="-121.123030">
        <ele>19.6</ele>
      </trkpt>
      <trkpt lat="35.588230" lon="-121.122790">
        <ele>20.1</ele>
      </trkpt>
      <trkpt lat="35.587460" lon="-121.122460">
        <ele>19.7</ele>
      </trkpt>
      <trkpt lat="35.587040" lon="-121.122240">
        <ele>19.4</ele>
      </trkpt>
      <trkpt lat="35.586490" lon="-121.121900">
        <ele>19.1</ele>
      </trkpt>
      <trkpt lat="35.585950" lon="-121.121520">
        <ele>18.7</ele>
      </trkpt>
      <trkpt lat="35.585510" lon="-121.121130">
        <ele>18.3</ele>
      </trkpt>
      <trkpt lat="35.584940" lon="-121.120580">
        <ele>17.3</ele>
      </trkpt>
      <trkpt lat="35.584370" lon="-121.120030">
        <ele>16.0</ele>
      </trkpt>
      <trkpt lat="35.583800" lon="-121.119490">
        <ele>14.8</ele>
      </trkpt>
      <trkpt lat="35.583240" lon="-121.118970">
        <ele>13.6</ele>
      </trkpt>
      <trkpt lat="35.582670" lon="-121.118460">
        <ele>12.3</ele>
      </trkpt>
      <trkpt lat="35.582160" lon="-121.117970">
        <ele>11.4</ele>
      </trkpt>
      <trkpt lat="35.581640" lon="-121.117480">
        <ele>11.4</ele>
      </trkpt>
      <trkpt lat="35.580970" lon="-121.116820">
        <ele>12.2</ele>
      </trkpt>
      <trkpt lat="35.580290" lon="-121.116170">
        <ele>12.9</ele>
      </trkpt>
      <trkpt lat="35.579620" lon="-121.115510">
        <ele>13.6</ele>
      </trkpt>
      <trkpt lat="35.578950" lon="-121.114860">
        <ele>14.3</ele>
      </trkpt>
      <trkpt lat="35.578270" lon="-121.114200">
        <ele>15.1</ele>
      </trkpt>
      <trkpt lat="35.577590" lon="-121.113550">
        <ele>15.9</ele>
      </trkpt>
      <trkpt lat="35.576910" lon="-121.112900">
        <ele>16.8</ele>
      </trkpt>
      <trkpt lat="35.576620" lon="-121.112640">
        <ele>17.2</ele>
      </trkpt>
      <trkpt lat="35.576350" lon="-121.112440">
        <ele>17.4</ele>
      </trkpt>
      <trkpt lat="35.576030" lon="-121.112230">
        <ele>17.7</ele>
      </trkpt>
      <trkpt lat="35.575700" lon="-121.112040">
        <ele>17.9</ele>
      </trkpt>
      <trkpt lat="35.575360" lon="-121.111880">
        <ele>18.1</ele>
      </trkpt>
      <trkpt lat="35.574990" lon="-121.111750">
        <ele>18.2</ele>
      </trkpt>
      <trkpt lat="35.574140" lon="-121.111500">
        <ele>18.5</ele>
      </trkpt>
      <trkpt lat="35.573530" lon="-121.111310">
        <ele>18.8</ele>
      </trkpt>
      <trkpt lat="35.573100" lon="-121.111130">
        <ele>19.0</ele>
      </trkpt>
      <trkpt lat="35.572850" lon="-121.111010">
        <ele>19.1</ele>
      </trkpt>
      <trkpt lat="35.572630" lon="-121.110880">
        <ele>19.2</ele>
      </trkpt>
      <trkpt lat="35.572340" lon="-121.110700">
        <ele>19.3</ele>
      </trkpt>
      <trkpt lat="35.572090" lon="-121.110520">
        <ele>19.5</ele>
      </trkpt>
      <trkpt lat="35.571820" lon="-121.110300">
        <ele>19.7</ele>
      </trkpt>
      <trkpt lat="35.571290" lon="-121.109760">
        <ele>19.7</ele>
      </trkpt>
      <trkpt lat="35.571110" lon="-121.109540">
        <ele>19.6</ele>
      </trkpt>
      <trkpt lat="35.570730" lon="-121.109040">
        <ele>19.5</ele>
      </trkpt>
      <trkpt lat="35.570460" lon="-121.108590">
        <ele>19.4</ele>
      </trkpt>
      <trkpt lat="35.570230" lon="-121.108120">
        <ele>18.9</ele>
      </trkpt>
      <trkpt lat="35.569950" lon="-121.107390">
        <ele>17.9</ele>
      </trkpt>
      <trkpt lat="35.569860" lon="-121.107110">
        <ele>17.5</ele>
      </trkpt>
      <trkpt lat="35.569700" lon="-121.106550">
        <ele>16.3</ele>
      </trkpt>
      <trkpt lat="35.569540" lon="-121.106000">
        <ele>15.0</ele>
      </trkpt>
      <trkpt lat="35.569330" lon="-121.105250">
        <ele>13.3</ele>
      </trkpt>
      <trkpt lat="35.569120" lon="-121.104510">
        <ele>11.8</ele>
      </trkpt>
      <trkpt lat="35.568930" lon="-121.103930">
        <ele>10.5</ele>
      </trkpt>
      <trkpt lat="35.568560" lon="-121.103110">
        <ele>8.3</ele>
      </trkpt>
      <trkpt lat="35.568400" lon="-121.102780">
        <ele>8.1</ele>
      </trkpt>
      <trkpt lat="35.568120" lon="-121.102310">
        <ele>8.2</ele>
      </trkpt>
      <trkpt lat="35.567850" lon="-121.101850">
        <ele>8.4</ele>
      </trkpt>
      <trkpt lat="35.567280" lon="-121.101050">
        <ele>8.8</ele>
      </trkpt>
      <trkpt lat="35.566850" lon="-121.100510">
        <ele>9.0</ele>
      </trkpt>
      <trkpt lat="35.566420" lon="-121.099980">
        <ele>9.3</ele>
      </trkpt>
      <trkpt lat="35.565990" lon="-121.099440">
        <ele>9.5</ele>
      </trkpt>
      <trkpt lat="35.565660" lon="-121.099010">
        <ele>9.8</ele>
      </trkpt>
      <trkpt lat="35.565160" lon="-121.098390">
        <ele>10.1</ele>
      </trkpt>
      <trkpt lat="35.564660" lon="-121.097770">
        <ele>10.7</ele>
      </trkpt>
      <trkpt lat="35.564420" lon="-121.097490">
        <ele>10.9</ele>
      </trkpt>
      <trkpt lat="35.564180" lon="-121.097240">
        <ele>11.0</ele>
      </trkpt>
      <trkpt lat="35.564030" lon="-121.097100">
        <ele>11.1</ele>
      </trkpt>
      <trkpt lat="35.563710" lon="-121.096770">
        <ele>11.4</ele>
      </trkpt>
      <trkpt lat="35.563470" lon="-121.096560">
        <ele>10.7</ele>
      </trkpt>
      <trkpt lat="35.563270" lon="-121.096400">
        <ele>11.6</ele>
      </trkpt>
      <trkpt lat="35.562540" lon="-121.095910">
        <ele>12.0</ele>
      </trkpt>
      <trkpt lat="35.561750" lon="-121.095460">
        <ele>12.3</ele>
      </trkpt>
      <trkpt lat="35.560960" lon="-121.095010">
        <ele>12.1</ele>
      </trkpt>
      <trkpt lat="35.560640" lon="-121.094810">
        <ele>13.1</ele>
      </trkpt>
      <trkpt lat="35.560150" lon="-121.094510">
        <ele>13.5</ele>
      </trkpt>
      <trkpt lat="35.559640" lon="-121.094220">
        <ele>14.4</ele>
      </trkpt>
      <trkpt lat="35.559140" lon="-121.093930">
        <ele>15.7</ele>
      </trkpt>
      <trkpt lat="35.558740" lon="-121.093670">
        <ele>16.8</ele>
      </trkpt>
      <trkpt lat="35.558040" lon="-121.093260">
        <ele>18.8</ele>
      </trkpt>
      <trkpt lat="35.557650" lon="-121.093010">
        <ele>19.8</ele>
      </trkpt>
      <trkpt lat="35.557250" lon="-121.092720">
        <ele>21.0</ele>
      </trkpt>
      <trkpt lat="35.556980" lon="-121.092490">
        <ele>21.8</ele>
      </trkpt>
      <trkpt lat="35.556790" lon="-121.092290">
        <ele>22.3</ele>
      </trkpt>
      <trkpt lat="35.556550" lon="-121.092020">
        <ele>23.1</ele>
      </trkpt>
      <trkpt lat="35.556330" lon="-121.091760">
        <ele>23.9</ele>
      </trkpt>
      <trkpt lat="35.556150" lon="-121.091520">
        <ele>24.6</ele>
      </trkpt>
      <trkpt lat="35.555880" lon="-121.091100">
        <ele>26.3</ele>
      </trkpt>
      <trkpt lat="35.555610" lon="-121.090630">
        <ele>28.7</ele>
      </trkpt>
      <trkpt lat="35.555410" lon="-121.090250">
        <ele>31.1</ele>
      </trkpt>
      <trkpt lat="35.555280" lon="-121.089910">
        <ele>33.1</ele>
      </trkpt>
      <trkpt lat="35.555120" lon="-121.089440">
        <ele>35.8</ele>
      </trkpt>
      <trkpt lat="35.554960" lon="-121.088850">
        <ele>39.1</ele>
      </trkpt>
      <trkpt lat="35.554860" lon="-121.088310">
        <ele>42.2</ele>
      </trkpt>
      <trkpt lat="35.554800" lon="-121.087840">
        <ele>44.8</ele>
      </trkpt>
      <trkpt lat="35.554770" lon="-121.087350">
        <ele>47.5</ele>
      </trkpt>
      <trkpt lat="35.554770" lon="-121.086910">
        <ele>49.9</ele>
      </trkpt>
      <trkpt lat="35.554790" lon="-121.086450">
        <ele>52.4</ele>
      </trkpt>
      <trkpt lat="35.554850" lon="-121.085890">
        <ele>55.5</ele>
      </trkpt>
      <trkpt lat="35.554920" lon="-121.085330">
        <ele>58.8</ele>
      </trkpt>
      <trkpt lat="35.555020" lon="-121.084530">
        <ele>63.3</ele>
      </trkpt>
      <trkpt lat="35.555170" lon="-121.083610">
        <ele>68.3</ele>
      </trkpt>
      <trkpt lat="35.555320" lon="-121.082690">
        <ele>73.0</ele>
      </trkpt>
      <trkpt lat="35.555440" lon="-121.081810">
        <ele>76.5</ele>
      </trkpt>
      <trkpt lat="35.555540" lon="-121.081100">
        <ele>78.8</ele>
      </trkpt>
      <trkpt lat="35.555650" lon="-121.080390">
        <ele>80.7</ele>
      </trkpt>
      <trkpt lat="35.555700" lon="-121.079980">
        <ele>81.6</ele>
      </trkpt>
      <trkpt lat="35.555720" lon="-121.079580">
        <ele>82.1</ele>
      </trkpt>
      <trkpt lat="35.555720" lon="-121.079310">
        <ele>82.4</ele>
      </trkpt>
      <trkpt lat="35.555710" lon="-121.078910">
        <ele>82.6</ele>
      </trkpt>
      <trkpt lat="35.555670" lon="-121.078550">
        <ele>82.6</ele>
      </trkpt>
      <trkpt lat="35.555600" lon="-121.078130">
        <ele>82.5</ele>
      </trkpt>
      <trkpt lat="35.555440" lon="-121.077420">
        <ele>82.3</ele>
      </trkpt>
      <trkpt lat="35.555330" lon="-121.077030">
        <ele>82.2</ele>
      </trkpt>
      <trkpt lat="35.555220" lon="-121.076700">
        <ele>82.2</ele>
      </trkpt>
      <trkpt lat="35.555080" lon="-121.076330">
        <ele>82.1</ele>
      </trkpt>
      <trkpt lat="35.554840" lon="-121.075820">
        <ele>82.0</ele>
      </trkpt>
      <trkpt lat="35.554670" lon="-121.075490">
        <ele>82.0</ele>
      </trkpt>
      <trkpt lat="35.554410" lon="-121.075030">
        <ele>82.1</ele>
      </trkpt>
      <trkpt lat="35.553910" lon="-121.074430">
        <ele>81.7</ele>
      </trkpt>
      <trkpt lat="35.553450" lon="-121.073930">
        <ele>81.3</ele>
      </trkpt>
      <trkpt lat="35.552990" lon="-121.073430">
        <ele>81.2</ele>
      </trkpt>
      <trkpt lat="35.552530" lon="-121.072930">
        <ele>81.0</ele>
      </trkpt>
      <trkpt lat="35.552380" lon="-121.072790">
        <ele>81.0</ele>
      </trkpt>
      <trkpt lat="35.551840" lon="-121.072180">
        <ele>80.9</ele>
      </trkpt>
      <trkpt lat="35.551310" lon="-121.071570">
        <ele>80.7</ele>
      </trkpt>
      <trkpt lat="35.550880" lon="-121.071120">
        <ele>80.2</ele>
      </trkpt>
      <trkpt lat="35.550450" lon="-121.070670">
        <ele>79.1</ele>
      </trkpt>
      <trkpt lat="35.550130" lon="-121.070310">
        <ele>78.1</ele>
      </trkpt>
      <trkpt lat="35.549580" lon="-121.069690">
        <ele>75.8</ele>
      </trkpt>
      <trkpt lat="35.549040" lon="-121.069060">
        <ele>72.7</ele>
      </trkpt>
      <trkpt lat="35.548470" lon="-121.068480">
        <ele>68.8</ele>
      </trkpt>
      <trkpt lat="35.547890" lon="-121.067830">
        <ele>63.7</ele>
      </trkpt>
      <trkpt lat="35.547300" lon="-121.067180">
        <ele>58.4</ele>
      </trkpt>
      <trkpt lat="35.546710" lon="-121.066530">
        <ele>53.1</ele>
      </trkpt>
      <trkpt lat="35.546120" lon="-121.065890">
        <ele>47.9</ele>
      </trkpt>
      <trkpt lat="35.545520" lon="-121.065260">
        <ele>43.2</ele>
      </trkpt>
      <trkpt lat="35.545020" lon="-121.064680">
        <ele>40.7</ele>
      </trkpt>
      <trkpt lat="35.544520" lon="-121.064100">
        <ele>39.3</ele>
      </trkpt>
      <trkpt lat="35.544250" lon="-121.063750">
        <ele>38.6</ele>
      </trkpt>
      <trkpt lat="35.543900" lon="-121.063240">
        <ele>37.7</ele>
      </trkpt>
      <trkpt lat="35.543530" lon="-121.062610">
        <ele>36.7</ele>
      </trkpt>
      <trkpt lat="35.543370" lon="-121.062310">
        <ele>36.2</ele>
      </trkpt>
      <trkpt lat="35.543130" lon="-121.061820">
        <ele>35.4</ele>
      </trkpt>
      <trkpt lat="35.542910" lon="-121.061420">
        <ele>34.7</ele>
      </trkpt>
      <trkpt lat="35.542400" lon="-121.060510">
        <ele>33.8</ele>
      </trkpt>
      <trkpt lat="35.541920" lon="-121.059610">
        <ele>33.6</ele>
      </trkpt>
      <trkpt lat="35.541490" lon="-121.058890">
        <ele>33.5</ele>
      </trkpt>
      <trkpt lat="35.541150" lon="-121.058420">
        <ele>33.4</ele>
      </trkpt>
      <trkpt lat="35.540750" lon="-121.057910">
        <ele>33.1</ele>
      </trkpt>
      <trkpt lat="35.540340" lon="-121.057390">
        <ele>32.9</ele>
      </trkpt>
      <trkpt lat="35.539900" lon="-121.056850">
        <ele>32.7</ele>
      </trkpt>
      <trkpt lat="35.539450" lon="-121.056310">
        <ele>32.5</ele>
      </trkpt>
      <trkpt lat="35.538930" lon="-121.055660">
        <ele>32.2</ele>
      </trkpt>
      <trkpt lat="35.538410" lon="-121.055010">
        <ele>32.0</ele>
      </trkpt>
      <trkpt lat="35.537890" lon="-121.054350">
        <ele>32.0</ele>
      </trkpt>
      <trkpt lat="35.537360" lon="-121.053710">
        <ele>32.3</ele>
      </trkpt>
      <trkpt lat="35.537000" lon="-121.053260">
        <ele>32.7</ele>
      </trkpt>
      <trkpt lat="35.536600" lon="-121.052860">
        <ele>32.9</ele>
      </trkpt>
      <trkpt lat="35.536250" lon="-121.052540">
        <ele>33.0</ele>
      </trkpt>
      <trkpt lat="35.536000" lon="-121.052340">
        <ele>33.1</ele>
      </trkpt>
      <trkpt lat="35.535350" lon="-121.051860">
        <ele>33.4</ele>
      </trkpt>
      <trkpt lat="35.534640" lon="-121.051390">
        <ele>33.6</ele>
      </trkpt>
      <trkpt lat="35.533940" lon="-121.050920">
        <ele>33.8</ele>
      </trkpt>
      <trkpt lat="35.533230" lon="-121.050450">
        <ele>34.1</ele>
      </trkpt>
      <trkpt lat="35.532530" lon="-121.049980">
        <ele>34.4</ele>
      </trkpt>
      <trkpt lat="35.532340" lon="-121.049840">
        <ele>34.5</ele>
      </trkpt>
      <trkpt lat="35.531840" lon="-121.049410">
        <ele>34.6</ele>
      </trkpt>
      <trkpt lat="35.531320" lon="-121.048910">
        <ele>35.0</ele>
      </trkpt>
      <trkpt lat="35.530980" lon="-121.048560">
        <ele>35.1</ele>
      </trkpt>
      <trkpt lat="35.530700" lon="-121.048310">
        <ele>35.3</ele>
      </trkpt>
      <trkpt lat="35.530120" lon="-121.047740">
        <ele>35.5</ele>
      </trkpt>
      <trkpt lat="35.529540" lon="-121.047180">
        <ele>35.7</ele>
      </trkpt>
      <trkpt lat="35.529080" lon="-121.046700">
        <ele>35.8</ele>
      </trkpt>
      <trkpt lat="35.528450" lon="-121.046070">
        <ele>36.0</ele>
      </trkpt>
      <trkpt lat="35.527820" lon="-121.045440">
        <ele>36.1</ele>
      </trkpt>
      <trkpt lat="35.527190" lon="-121.044810">
        <ele>36.7</ele>
      </trkpt>
      <trkpt lat="35.526850" lon="-121.044540">
        <ele>36.8</ele>
      </trkpt>
      <trkpt lat="35.526470" lon="-121.044270">
        <ele>36.8</ele>
      </trkpt>
      <trkpt lat="35.526020" lon="-121.044020">
        <ele>36.9</ele>
      </trkpt>
      <trkpt lat="35.525510" lon="-121.043770">
        <ele>36.9</ele>
      </trkpt>
      <trkpt lat="35.524780" lon="-121.043390">
        <ele>36.9</ele>
      </trkpt>
      <trkpt lat="35.524060" lon="-121.043020">
        <ele>37.0</ele>
      </trkpt>
      <trkpt lat="35.523780" lon="-121.042840">
        <ele>37.1</ele>
      </trkpt>
      <trkpt lat="35.523600" lon="-121.042700">
        <ele>37.1</ele>
      </trkpt>
      <trkpt lat="35.523310" lon="-121.042450">
        <ele>37.2</ele>
      </trkpt>
      <trkpt lat="35.523080" lon="-121.042230">
        <ele>37.3</ele>
      </trkpt>
      <trkpt lat="35.522800" lon="-121.041920">
        <ele>37.4</ele>
      </trkpt>
      <trkpt lat="35.522310" lon="-121.041260">
        <ele>37.8</ele>
      </trkpt>
      <trkpt lat="35.522130" lon="-121.040990">
        <ele>38.1</ele>
      </trkpt>
      <trkpt lat="35.521610" lon="-121.040130">
        <ele>38.7</ele>
      </trkpt>
      <trkpt lat="35.521100" lon="-121.039280">
        <ele>39.2</ele>
      </trkpt>
      <trkpt lat="35.520720" lon="-121.038650">
        <ele>39.6</ele>
      </trkpt>
      <trkpt lat="35.520330" lon="-121.038020">
        <ele>40.0</ele>
      </trkpt>
      <trkpt lat="35.519950" lon="-121.037390">
        <ele>40.4</ele>
      </trkpt>
      <trkpt lat="35.519620" lon="-121.036870">
        <ele>40.8</ele>
      </trkpt>
      <trkpt lat="35.519290" lon="-121.036350">
        <ele>41.2</ele>
      </trkpt>
      <trkpt lat="35.518870" lon="-121.035740">
        <ele>41.8</ele>
      </trkpt>
      <trkpt lat="35.518750" lon="-121.035590">
        <ele>41.9</ele>
      </trkpt>
      <trkpt lat="35.518380" lon="-121.035230">
        <ele>42.0</ele>
      </trkpt>
      <trkpt lat="35.518010" lon="-121.034860">
        <ele>42.3</ele>
      </trkpt>
      <trkpt lat="35.517450" lon="-121.034340">
        <ele>42.6</ele>
      </trkpt>
      <trkpt lat="35.516890" lon="-121.033810">
        <ele>43.0</ele>
      </trkpt>
      <trkpt lat="35.516330" lon="-121.033290">
        <ele>43.8</ele>
      </trkpt>
      <trkpt lat="35.515910" lon="-121.032910">
        <ele>44.5</ele>
      </trkpt>
      <trkpt lat="35.515500" lon="-121.032530">
        <ele>45.2</ele>
      </trkpt>
      <trkpt lat="35.515110" lon="-121.032170">
        <ele>45.8</ele>
      </trkpt>
      <trkpt lat="35.514730" lon="-121.031810">
        <ele>46.5</ele>
      </trkpt>
      <trkpt lat="35.514130" lon="-121.031260">
        <ele>47.5</ele>
      </trkpt>
      <trkpt lat="35.513540" lon="-121.030710">
        <ele>48.4</ele>
      </trkpt>
      <trkpt lat="35.512950" lon="-121.030160">
        <ele>49.4</ele>
      </trkpt>
      <trkpt lat="35.512450" lon="-121.029680">
        <ele>50.2</ele>
      </trkpt>
      <trkpt lat="35.511960" lon="-121.029200">
        <ele>51.1</ele>
      </trkpt>
      <trkpt lat="35.511370" lon="-121.028530">
        <ele>52.0</ele>
      </trkpt>
      <trkpt lat="35.511040" lon="-121.028100">
        <ele>52.6</ele>
      </trkpt>
      <trkpt lat="35.510710" lon="-121.027670">
        <ele>53.1</ele>
      </trkpt>
      <trkpt lat="35.510240" lon="-121.026970">
        <ele>54.0</ele>
      </trkpt>
      <trkpt lat="35.509860" lon="-121.026370">
        <ele>54.8</ele>
      </trkpt>
      <trkpt lat="35.509480" lon="-121.025770">
        <ele>55.5</ele>
      </trkpt>
      <trkpt lat="35.509320" lon="-121.025500">
        <ele>55.9</ele>
      </trkpt>
      <trkpt lat="35.508840" lon="-121.024700">
        <ele>56.8</ele>
      </trkpt>
      <trkpt lat="35.508540" lon="-121.024260">
        <ele>57.8</ele>
      </trkpt>
      <trkpt lat="35.508250" lon="-121.023820">
        <ele>59.3</ele>
      </trkpt>
      <trkpt lat="35.507830" lon="-121.023120">
        <ele>62.6</ele>
      </trkpt>
      <trkpt lat="35.507400" lon="-121.022420">
        <ele>66.3</ele>
      </trkpt>
      <trkpt lat="35.507220" lon="-121.022090">
        <ele>67.9</ele>
      </trkpt>
      <trkpt lat="35.507000" lon="-121.021750">
        <ele>69.7</ele>
      </trkpt>
      <trkpt lat="35.506480" lon="-121.020900">
        <ele>74.2</ele>
      </trkpt>
      <trkpt lat="35.505950" lon="-121.020050">
        <ele>78.5</ele>
      </trkpt>
      <trkpt lat="35.505610" lon="-121.019470">
        <ele>80.6</ele>
      </trkpt>
      <trkpt lat="35.505270" lon="-121.018890">
        <ele>82.4</ele>
      </trkpt>
      <trkpt lat="35.504990" lon="-121.018440">
        <ele>83.5</ele>
      </trkpt>
      <trkpt lat="35.504720" lon="-121.017990">
        <ele>84.2</ele>
      </trkpt>
      <trkpt lat="35.504240" lon="-121.017260">
        <ele>84.7</ele>
      </trkpt>
      <trkpt lat="35.503770" lon="-121.016530">
        <ele>84.5</ele>
      </trkpt>
      <trkpt lat="35.503500" lon="-121.016100">
        <ele>83.9</ele>
      </trkpt>
      <trkpt lat="35.502970" lon="-121.015270">
        <ele>81.9</ele>
      </trkpt>
      <trkpt lat="35.502510" lon="-121.014660">
        <ele>79.9</ele>
      </trkpt>
      <trkpt lat="35.502060" lon="-121.014130">
        <ele>78.0</ele>
      </trkpt>
    </trkseg>
  </trk>
</gpx>