<?xml version='1.0' encoding='UTF-8'?>
<gpx version="1.1"
  creator="GPXmagic"
  xmlns="http://www.topografix.com/GPX/1/1"
  xmlns:rgt="http://www.rgtcycling.com/XML/GpxExtensions/v1"
  xmlns:xsi="http://www.w3.org/2001/XMLSchema-instance" xsi:schemaLocation="http://www.topografix.com/GPX/1/1
  http://www.topografix.com/GPX/1/1/gpx.xsd">
  <metadata>
    <name>Smoothed with GPXmagic</name>
    <author>
      <link href="https://www.stepwiserefinement.co.uk">
        <text>GPXmagic v3</text>
        <type>text/html</type>
      </link>
    </author>
  </metadata>
<trk>  <name>Kountoura&#32;Climbs</name>
<trkseg>
<trkpt lat="35.23696000000001" lon="23.623059000000005"><ele>21.15</ele></trkpt>
<trkpt lat="35.236796" lon="23.623324000000004"><ele>20.6</ele></trkpt>
<trkpt lat="35.2361585" lon="23.6240613"><ele>19.64</ele></trkpt>
<trkpt lat="35.235946" lon="23.624307"><ele>19.24</ele></trkpt>
<trkpt lat="35.235639" lon="23.62491"><ele>18.15</ele></trkpt>
<trkpt lat="35.23553400000001" lon="23.625045000000004"><ele>17.8</ele></trkpt>
<trkpt lat="35.235173" lon="23.625054"><ele>16.79</ele></trkpt>
<trkpt lat="35.234749" lon="23.624951"><ele>15.51</ele></trkpt>
<trkpt lat="35.234563" lon="23.62505"><ele>14.96</ele></trkpt>
<trkpt lat="35.234563" lon="23.625247999999996"><ele>14.61</ele></trkpt>
<trkpt lat="35.23468999999999" lon="23.625557"><ele>14.13</ele></trkpt>
<trkpt lat="35.234766" lon="23.625956"><ele>13.72</ele></trkpt>
<trkpt lat="35.234782" lon="23.626262000000008"><ele>13.49</ele></trkpt>
<trkpt lat="35.23473" lon="23.626442999999995"><ele>13.39</ele></trkpt>
<trkpt lat="35.234666" lon="23.626541"><ele>13.33</ele></trkpt>
<trkpt lat="35.234254" lon="23.627016999999995"><ele>13.14</ele></trkpt>
<trkpt lat="35.233943" lon="23.627613"><ele>13.05</ele></trkpt>
<trkpt lat="35.233774" lon="23.627743"><ele>13.04</ele></trkpt>
<trkpt lat="35.233526" lon="23.627758"><ele>13.06</ele></trkpt>
<trkpt lat="35.233329" lon="23.627849999999995"><ele>13.09</ele></trkpt>
<trkpt lat="35.233189" lon="23.628084"><ele>13.13</ele></trkpt>
<trkpt lat="35.23312" lon="23.628279"><ele>13.17</ele></trkpt>
<trkpt lat="35.232996" lon="23.628738"><ele>13.26</ele></trkpt>
<trkpt lat="35.232938" lon="23.629085999999997"><ele>13.31</ele></trkpt>
<trkpt lat="35.23295" lon="23.629441"><ele>13.33</ele></trkpt>
<trkpt lat="35.232992" lon="23.629666000000007"><ele>13.33</ele></trkpt>
<trkpt lat="35.233095" lon="23.629958000000006"><ele>13.28</ele></trkpt>
<trkpt lat="35.233323" lon="23.630282"><ele>13.17</ele></trkpt>
<trkpt lat="35.233552" lon="23.630569"><ele>13</ele></trkpt>
<trkpt lat="35.233686" lon="23.630700999999995"><ele>12.88</ele></trkpt>
<trkpt lat="35.233815" lon="23.630733"><ele>12.77</ele></trkpt>
<trkpt lat="35.234014" lon="23.630512999999997"><ele>12.47</ele></trkpt>
<trkpt lat="35.234153" lon="23.630444"><ele>12.27</ele></trkpt>
<trkpt lat="35.234396" lon="23.630511"><ele>11.9</ele></trkpt>
<trkpt lat="35.234585" lon="23.630681999999997"><ele>11.51</ele></trkpt>
<trkpt lat="35.23464" lon="23.630779"><ele>11.33</ele></trkpt>
<trkpt lat="35.234671" lon="23.631057000000002"><ele>10.91</ele></trkpt>
<trkpt lat="35.234604" lon="23.631980000000002"><ele>9.47</ele></trkpt>
<trkpt lat="35.234588" lon="23.632773999999998"><ele>8.31</ele></trkpt>
<trkpt lat="35.234515" lon="23.633300000000002"><ele>7.62</ele></trkpt>
<trkpt lat="35.234414" lon="23.633807000000004"><ele>7.07</ele></trkpt>
<trkpt lat="35.23438800000001" lon="23.634033"><ele>6.89</ele></trkpt>
<trkpt lat="35.234429" lon="23.634215000000008"><ele>6.78</ele></trkpt>
<trkpt lat="35.234698" lon="23.634741999999996"><ele>6.58</ele></trkpt>
<trkpt lat="35.234999" lon="23.63527"><ele>6.59</ele></trkpt>
<trkpt lat="35.2355" lon="23.636235"><ele>6.84</ele></trkpt>
<trkpt lat="35.235579" lon="23.636428999999996"><ele>6.86</ele></trkpt>
<trkpt lat="35.235682" lon="23.636828"><ele>6.84</ele></trkpt>
<trkpt lat="35.235716" lon="23.637028999999995"><ele>6.82</ele></trkpt>
<trkpt lat="35.235805" lon="23.637348000000003"><ele>6.78</ele></trkpt>
<trkpt lat="35.235902" lon="23.637626000000008"><ele>6.75</ele></trkpt>
<trkpt lat="35.2366614" lon="23.6394169"><ele>6.68</ele></trkpt>
<trkpt lat="35.237231" lon="23.640759999999997"><ele>6.53</ele></trkpt>
<trkpt lat="35.23731299999999" lon="23.641064000000007"><ele>6.48</ele></trkpt>
<trkpt lat="35.237571" lon="23.642316"><ele>6.3</ele></trkpt>
<trkpt lat="35.237585" lon="23.642586"><ele>6.27</ele></trkpt>
<trkpt lat="35.237548" lon="23.643068999999997"><ele>6.23</ele></trkpt>
<trkpt lat="35.237466" lon="23.645315"><ele>6.09</ele></trkpt>
<trkpt lat="35.237367" lon="23.647505"><ele>4.89</ele></trkpt>
<trkpt lat="35.237381" lon="23.64783"><ele>4.71</ele></trkpt>
<trkpt lat="35.23745660000001" lon="23.648525999999997"><ele>4.43</ele></trkpt>
<trkpt lat="35.2376456" lon="23.650265999999995"><ele>4.16</ele></trkpt>
<trkpt lat="35.237759" lon="23.651309999999995"><ele>4.42</ele></trkpt>
<trkpt lat="35.237772" lon="23.651552999999993"><ele>4.56</ele></trkpt>
<trkpt lat="35.237726" lon="23.653579"><ele>6.1</ele></trkpt>
<trkpt lat="35.237767" lon="23.654665"><ele>7</ele></trkpt>
<trkpt lat="35.237792" lon="23.65501"><ele>7.31</ele></trkpt>
<trkpt lat="35.237834" lon="23.655331999999998"><ele>7.63</ele></trkpt>
<trkpt lat="35.237949" lon="23.655955000000002"><ele>8.33</ele></trkpt>
<trkpt lat="35.23798" lon="23.656204000000002"><ele>8.64</ele></trkpt>
<trkpt lat="35.237956" lon="23.656764"><ele>9.39</ele></trkpt>
<trkpt lat="35.237959999999994" lon="23.657018999999995"><ele>9.68</ele></trkpt>
<trkpt lat="35.238003" lon="23.657297999999997"><ele>9.91</ele></trkpt>
<trkpt lat="35.238202" lon="23.658096999999998"><ele>10.25</ele></trkpt>
<trkpt lat="35.238233" lon="23.658350999999996"><ele>10.26</ele></trkpt>
<trkpt lat="35.238241" lon="23.658653"><ele>10.19</ele></trkpt>
<trkpt lat="35.238214" lon="23.659521"><ele>9.72</ele></trkpt>
<trkpt lat="35.238228" lon="23.659684000000002"><ele>9.6</ele></trkpt>
<trkpt lat="35.238345" lon="23.660095"><ele>9.2</ele></trkpt>
<trkpt lat="35.238478" lon="23.660449000000007"><ele>8.76</ele></trkpt>
<trkpt lat="35.23860500000001" lon="23.660852"><ele>8.21</ele></trkpt>
<trkpt lat="35.238754" lon="23.662015"><ele>6.67</ele></trkpt>
<trkpt lat="35.238919" lon="23.662876"><ele>5.8</ele></trkpt>
<trkpt lat="35.238917" lon="23.663301"><ele>5.52</ele></trkpt>
<trkpt lat="35.238851" lon="23.66388"><ele>5.29</ele></trkpt>
<trkpt lat="35.238804" lon="23.664044"><ele>5.25</ele></trkpt>
<trkpt lat="35.238331" lon="23.665254"><ele>5.09</ele></trkpt>
<trkpt lat="35.237818" lon="23.667225"><ele>4.99</ele></trkpt>
<trkpt lat="35.237334" lon="23.668931"><ele>4.16</ele></trkpt>
<trkpt lat="35.236895499999996" lon="23.670539999999995"><ele>4.09</ele></trkpt>
<trkpt lat="35.236457" lon="23.672149"><ele>4.78</ele></trkpt>
<trkpt lat="35.23594700000001" lon="23.673943999999995"><ele>6.26</ele></trkpt>
<trkpt lat="35.235763" lon="23.674513"><ele>7.32</ele></trkpt>
<trkpt lat="35.235183" lon="23.675863999999997"><ele>11.25</ele></trkpt>
<trkpt lat="35.23508" lon="23.676218"><ele>12.19</ele></trkpt>
<trkpt lat="35.234941" lon="23.676987"><ele>14.14</ele></trkpt>
<trkpt lat="35.23508999999999" lon="23.677000000000003"><ele>14.66</ele></trkpt>
<trkpt lat="35.235179" lon="23.676894"><ele>15.18</ele></trkpt>
<trkpt lat="35.235263" lon="23.676241"><ele>17.62</ele></trkpt>
<trkpt lat="35.235347" lon="23.676047000000004"><ele>18.55</ele></trkpt>
<trkpt lat="35.235485999999995" lon="23.675900999999996"><ele>19.6</ele></trkpt>
<trkpt lat="35.235651" lon="23.675805000000004"><ele>20.73</ele></trkpt>
<trkpt lat="35.23594" lon="23.675700999999997"><ele>22.77</ele></trkpt>
<trkpt lat="35.236494" lon="23.675536000000008"><ele>26.92</ele></trkpt>
<trkpt lat="35.236636" lon="23.675543"><ele>27.99</ele></trkpt>
<trkpt lat="35.236748000000006" lon="23.675610000000002"><ele>28.96</ele></trkpt>
<trkpt lat="35.236852" lon="23.675753000000004"><ele>30.19</ele></trkpt>
<trkpt lat="35.23696000000001" lon="23.676035999999996"><ele>32.23</ele></trkpt>
<trkpt lat="35.237035" lon="23.676418000000005"><ele>34.84</ele></trkpt>
<trkpt lat="35.237095999999994" lon="23.6769"><ele>38.11</ele></trkpt>
<trkpt lat="35.237122" lon="23.678042000000005"><ele>45.84</ele></trkpt>
<trkpt lat="35.237159999999996" lon="23.678395"><ele>48.28</ele></trkpt>
<trkpt lat="35.237216" lon="23.678657"><ele>50.13</ele></trkpt>
<trkpt lat="35.237382" lon="23.679062000000005"><ele>53.22</ele></trkpt>
<trkpt lat="35.237448" lon="23.67911700000001"><ele>53.88</ele></trkpt>
<trkpt lat="35.237599" lon="23.679117999999995"><ele>55.14</ele></trkpt>
<trkpt lat="35.23768900000001" lon="23.679029000000007"><ele>56.08</ele></trkpt>
<trkpt lat="35.238032" lon="23.678539"><ele>60.3</ele></trkpt>
<trkpt lat="35.238132" lon="23.678439"><ele>61.31</ele></trkpt>
<trkpt lat="35.238329" lon="23.678377999999995"><ele>62.91</ele></trkpt>
<trkpt lat="35.238787" lon="23.678348"><ele>66.36</ele></trkpt>
<trkpt lat="35.238911" lon="23.678280000000004"><ele>67.33</ele></trkpt>
<trkpt lat="35.238999" lon="23.678135"><ele>68.36</ele></trkpt>
<trkpt lat="35.23918" lon="23.677227"><ele>73.2</ele></trkpt>
<trkpt lat="35.239322" lon="23.676630000000003"><ele>76.26</ele></trkpt>
<trkpt lat="35.239412" lon="23.676423999999994"><ele>77.43</ele></trkpt>
<trkpt lat="35.239616" lon="23.676212999999994"><ele>79.09</ele></trkpt>
<trkpt lat="35.24006599999999" lon="23.676112"><ele>81.81</ele></trkpt>
<trkpt lat="35.240196" lon="23.675937000000005"><ele>82.86</ele></trkpt>
<trkpt lat="35.240238" lon="23.675771"><ele>83.56</ele></trkpt>
<trkpt lat="35.240238" lon="23.675602000000005"><ele>84.2</ele></trkpt>
<trkpt lat="35.240136" lon="23.674970999999996"><ele>86.41</ele></trkpt>
<trkpt lat="35.240145999999996" lon="23.674678"><ele>87.37</ele></trkpt>
<trkpt lat="35.24027600000001" lon="23.674448999999996"><ele>88.26</ele></trkpt>
<trkpt lat="35.240571" lon="23.674141999999996"><ele>89.78</ele></trkpt>
<trkpt lat="35.240615" lon="23.673966"><ele>90.41</ele></trkpt>
<trkpt lat="35.240596999999994" lon="23.673578"><ele>91.78</ele></trkpt>
<trkpt lat="35.240641" lon="23.673451999999997"><ele>92.29</ele></trkpt>
<trkpt lat="35.240872" lon="23.673016999999998"><ele>94.37</ele></trkpt>
<trkpt lat="35.240879" lon="23.672775999999995"><ele>95.4</ele></trkpt>
<trkpt lat="35.2408" lon="23.672532000000004"><ele>96.55</ele></trkpt>
<trkpt lat="35.240155" lon="23.671043000000004"><ele>103.63</ele></trkpt>
<trkpt lat="35.239916" lon="23.670314"><ele>106.41</ele></trkpt>
<trkpt lat="35.239835" lon="23.669885999999995"><ele>107.95</ele></trkpt>
<trkpt lat="35.23973699999999" lon="23.669466000000003"><ele>109.49</ele></trkpt>
<trkpt lat="35.23966" lon="23.668821999999995"><ele>111.81</ele></trkpt>
<trkpt lat="35.239542" lon="23.668456000000003"><ele>113.23</ele></trkpt>
<trkpt lat="35.239537" lon="23.668225"><ele>114.09</ele></trkpt>
<trkpt lat="35.239678" lon="23.667982999999996"><ele>115.21</ele></trkpt>
<trkpt lat="35.239914" lon="23.667686000000003"><ele>116.78</ele></trkpt>
<trkpt lat="35.240158" lon="23.667326000000003"><ele>118.54</ele></trkpt>
<trkpt lat="35.240484" lon="23.666950999999997"><ele>120.54</ele></trkpt>
<trkpt lat="35.24054799999999" lon="23.666802"><ele>121.14</ele></trkpt>
<trkpt lat="35.240685" lon="23.666346999999995"><ele>122.89</ele></trkpt>
<trkpt lat="35.240771" lon="23.666157000000002"><ele>123.74</ele></trkpt>
<trkpt lat="35.241134" lon="23.665507"><ele>127.14</ele></trkpt>
<trkpt lat="35.241398" lon="23.664953"><ele>130.21</ele></trkpt>
<trkpt lat="35.241467" lon="23.664756000000004"><ele>131.28</ele></trkpt>
<trkpt lat="35.241721" lon="23.663556"><ele>138.26</ele></trkpt>
<trkpt lat="35.241783" lon="23.663371"><ele>139.56</ele></trkpt>
<trkpt lat="35.241915" lon="23.663184"><ele>141.28</ele></trkpt>
<trkpt lat="35.241986" lon="23.663148999999997"><ele>141.95</ele></trkpt>
<trkpt lat="35.242344" lon="23.663077"><ele>145.29</ele></trkpt>
<trkpt lat="35.242673" lon="23.663051000000003"><ele>148.44</ele></trkpt>
<trkpt lat="35.242795" lon="23.663064999999996"><ele>149.62</ele></trkpt>
<trkpt lat="35.24296400000001" lon="23.663156000000004"><ele>151.41</ele></trkpt>
<trkpt lat="35.243089" lon="23.663317"><ele>153.13</ele></trkpt>
<trkpt lat="35.243189" lon="23.66356"><ele>155.21</ele></trkpt>
<trkpt lat="35.243283000000005" lon="23.664312999999996"><ele>160.9</ele></trkpt>
<trkpt lat="35.24349900000001" lon="23.665295999999998"><ele>167.91</ele></trkpt>
<trkpt lat="35.243595" lon="23.665396"><ele>168.91</ele></trkpt>
<trkpt lat="35.243748000000004" lon="23.665393"><ele>170.08</ele></trkpt>
<trkpt lat="35.243871" lon="23.665334"><ele>171.08</ele></trkpt>
<trkpt lat="35.244182" lon="23.665126"><ele>173.76</ele></trkpt>
<trkpt lat="35.244351" lon="23.664983"><ele>175.34</ele></trkpt>
<trkpt lat="35.24454599999999" lon="23.664640999999996"><ele>178.02</ele></trkpt>
<trkpt lat="35.244699" lon="23.664509"><ele>179.49</ele></trkpt>
<trkpt lat="35.244806" lon="23.664468"><ele>180.33</ele></trkpt>
<trkpt lat="35.245022" lon="23.664480999999995"><ele>181.87</ele></trkpt>
<trkpt lat="35.245368" lon="23.664729"><ele>184.3</ele></trkpt>
<trkpt lat="35.245483" lon="23.664773"><ele>184.86</ele></trkpt>
<trkpt lat="35.245819999999995" lon="23.664774999999995"><ele>185.75</ele></trkpt>
<trkpt lat="35.246125" lon="23.664713"><ele>185.64</ele></trkpt>
<trkpt lat="35.247125" lon="23.664752000000004"><ele>182.42</ele></trkpt>
<trkpt lat="35.24794" lon="23.664694000000004"><ele>177.78</ele></trkpt>
<trkpt lat="35.24837" lon="23.664571"><ele>174.6</ele></trkpt>
<trkpt lat="35.248596" lon="23.664554999999993"><ele>172.9</ele></trkpt>
<trkpt lat="35.249067" lon="23.664645"><ele>169.24</ele></trkpt>
<trkpt lat="35.249333" lon="23.664771000000002"><ele>167.03</ele></trkpt>
<trkpt lat="35.2495" lon="23.664914000000003"><ele>165.42</ele></trkpt>
<trkpt lat="35.249949" lon="23.665177"><ele>161.43</ele></trkpt>
<trkpt lat="35.250359" lon="23.665500000000005"><ele>157.37</ele></trkpt>
<trkpt lat="35.250547999999995" lon="23.665696999999998"><ele>155.22</ele></trkpt>
<trkpt lat="35.250743" lon="23.665722999999993"><ele>153.46</ele></trkpt>
<trkpt lat="35.250858" lon="23.665704000000005"><ele>152.42</ele></trkpt>
<trkpt lat="35.251665" lon="23.665462"><ele>144.74</ele></trkpt>
<trkpt lat="35.251838" lon="23.665438"><ele>143.15</ele></trkpt>
<trkpt lat="35.252039253046185" lon="23.665472016922273"><ele>141.29625786438913</ele></trkpt>
<trkpt lat="35.25220893320779" lon="23.66540456506999"><ele>139.70198982922975</ele></trkpt>
<trkpt lat="35.25220659918713" lon="23.665328900014508"><ele>139.21</ele></trkpt>
<trkpt lat="35.25202523194427" lon="23.665298207076386"><ele>137.64761738279958</ele></trkpt>
<trkpt lat="35.251666" lon="23.665171999999995"><ele>134.37</ele></trkpt>
<trkpt lat="35.251103" lon="23.665124999999993"><ele>129.55</ele></trkpt>
<trkpt lat="35.251078" lon="23.664978"><ele>128.31</ele></trkpt>
<trkpt lat="35.251394" lon="23.664654"><ele>125</ele></trkpt>
<trkpt lat="35.251611" lon="23.664578"><ele>123.29</ele></trkpt>
<trkpt lat="35.251773" lon="23.664610000000003"><ele>122.12</ele></trkpt>
<trkpt lat="35.251998" lon="23.664733"><ele>120.42</ele></trkpt>
<trkpt lat="35.252091" lon="23.664738999999997"><ele>119.78</ele></trkpt>
<trkpt lat="35.252388" lon="23.664692"><ele>117.71</ele></trkpt>
<trkpt lat="35.252743" lon="23.664658"><ele>115.21</ele></trkpt>
<trkpt lat="35.25298600000001" lon="23.664541"><ele>113.46</ele></trkpt>
<trkpt lat="35.253216" lon="23.66452"><ele>112.08</ele></trkpt>
<trkpt lat="35.25342299999999" lon="23.664590000000004"><ele>110.98</ele></trkpt>
<trkpt lat="35.253813" lon="23.664843"><ele>109.12</ele></trkpt>
<trkpt lat="35.254153" lon="23.664971"><ele>107.82</ele></trkpt>
<trkpt lat="35.254322" lon="23.665130000000005"><ele>107.06</ele></trkpt>
<trkpt lat="35.254404" lon="23.665305"><ele>106.47</ele></trkpt>
<trkpt lat="35.254482" lon="23.665393"><ele>106.09</ele></trkpt>
<trkpt lat="35.254672" lon="23.665443000000003"><ele>105.37</ele></trkpt>
<trkpt lat="35.254941" lon="23.665566"><ele>104.3</ele></trkpt>
<trkpt lat="35.255371" lon="23.665884"><ele>102.52</ele></trkpt>
<trkpt lat="35.255790999999995" lon="23.666108"><ele>101.11</ele></trkpt>
<trkpt lat="35.255952" lon="23.666300000000003"><ele>100.6</ele></trkpt>
<trkpt lat="35.256044" lon="23.666545"><ele>100.27</ele></trkpt>
<trkpt lat="35.256164" lon="23.666618000000003"><ele>100.17</ele></trkpt>
<trkpt lat="35.256319" lon="23.666566"><ele>100.16</ele></trkpt>
<trkpt lat="35.256561" lon="23.666371"><ele>100.37</ele></trkpt>
<trkpt lat="35.256727" lon="23.666289000000003"><ele>100.64</ele></trkpt>
<trkpt lat="35.257" lon="23.666225"><ele>101.25</ele></trkpt>
<trkpt lat="35.257667000000005" lon="23.666332"><ele>103.11</ele></trkpt>
<trkpt lat="35.257897" lon="23.666302"><ele>103.72</ele></trkpt>
<trkpt lat="35.258135" lon="23.666237999999996"><ele>104.29</ele></trkpt>
<trkpt lat="35.258417" lon="23.666189999999997"><ele>104.85</ele></trkpt>
<trkpt lat="35.258863" lon="23.666018"><ele>105.51</ele></trkpt>
<trkpt lat="35.259213" lon="23.665825000000005"><ele>106.05</ele></trkpt>
<trkpt lat="35.259374" lon="23.665663"><ele>106.47</ele></trkpt>
<trkpt lat="35.259665" lon="23.66511"><ele>108.03</ele></trkpt>
<trkpt lat="35.259973" lon="23.664759000000004"><ele>109.76</ele></trkpt>
<trkpt lat="35.260491" lon="23.664287"><ele>113.19</ele></trkpt>
<trkpt lat="35.260569" lon="23.664143"><ele>114.04</ele></trkpt>
<trkpt lat="35.260563" lon="23.663816999999998"><ele>115.8</ele></trkpt>
<trkpt lat="35.26064" lon="23.663638000000002"><ele>116.96</ele></trkpt>
<trkpt lat="35.260827" lon="23.663579"><ele>118.31</ele></trkpt>
<trkpt lat="35.261293" lon="23.663576000000003"><ele>121.62</ele></trkpt>
<trkpt lat="35.261686" lon="23.663688"><ele>124.66</ele></trkpt>
<trkpt lat="35.26255999999999" lon="23.663734000000005"><ele>131.86</ele></trkpt>
<trkpt lat="35.26303" lon="23.663843999999997"><ele>136.24</ele></trkpt>
<trkpt lat="35.263312" lon="23.663953"><ele>139.16</ele></trkpt>
<trkpt lat="35.263436" lon="23.66397"><ele>140.43</ele></trkpt>
<trkpt lat="35.264134" lon="23.663961"><ele>147.49</ele></trkpt>
<trkpt lat="35.264372" lon="23.663898"><ele>149.61</ele></trkpt>
<trkpt lat="35.264614" lon="23.663926"><ele>151.31</ele></trkpt>
<trkpt lat="35.26496" lon="23.664195"><ele>153.42</ele></trkpt>
<trkpt lat="35.265184" lon="23.664225"><ele>154.4</ele></trkpt>
<trkpt lat="35.265341" lon="23.66421"><ele>155.02</ele></trkpt>
<trkpt lat="35.265554" lon="23.664262"><ele>155.84</ele></trkpt>
<trkpt lat="35.26611299999999" lon="23.664516"><ele>158</ele></trkpt>
<trkpt lat="35.26645800000001" lon="23.664578"><ele>159.45</ele></trkpt>
<trkpt lat="35.266814" lon="23.664828"><ele>161.59</ele></trkpt>
<trkpt lat="35.26699" lon="23.664873"><ele>162.74</ele></trkpt>
<trkpt lat="35.267259" lon="23.664861000000002"><ele>164.8</ele></trkpt>
<trkpt lat="35.267443" lon="23.664803999999993"><ele>166.45</ele></trkpt>
<trkpt lat="35.267726" lon="23.664638000000007"><ele>169.37</ele></trkpt>
<trkpt lat="35.268002" lon="23.664552"><ele>171.98</ele></trkpt>
<trkpt lat="35.268412" lon="23.664457"><ele>175.47</ele></trkpt>
<trkpt lat="35.26874600000001" lon="23.664405000000002"><ele>177.79</ele></trkpt>
<trkpt lat="35.26893199999999" lon="23.664413999999997"><ele>178.83</ele></trkpt>
<trkpt lat="35.269078" lon="23.664467"><ele>179.57</ele></trkpt>
<trkpt lat="35.26952" lon="23.664676"><ele>181.5</ele></trkpt>
<trkpt lat="35.269677" lon="23.664805"><ele>182.23</ele></trkpt>
<trkpt lat="35.269952" lon="23.665126"><ele>183.7</ele></trkpt>
<trkpt lat="35.27017" lon="23.665409999999998"><ele>184.95</ele></trkpt>
<trkpt lat="35.270655999999995" lon="23.665858000000007"><ele>187.36</ele></trkpt>
<trkpt lat="35.27077" lon="23.665986"><ele>187.98</ele></trkpt>
<trkpt lat="35.270906" lon="23.666214999999998"><ele>188.9</ele></trkpt>
<trkpt lat="35.27105" lon="23.666377000000004"><ele>189.69</ele></trkpt>
<trkpt lat="35.271170000000005" lon="23.666438000000003"><ele>190.21</ele></trkpt>
<trkpt lat="35.271804" lon="23.666666999999997"><ele>192.9</ele></trkpt>
<trkpt lat="35.271935" lon="23.666701000000003"><ele>193.43</ele></trkpt>
<trkpt lat="35.272152" lon="23.666693"><ele>194.28</ele></trkpt>
<trkpt lat="35.272464" lon="23.666557000000005"><ele>195.54</ele></trkpt>
<trkpt lat="35.272614999999995" lon="23.666455000000003"><ele>196.17</ele></trkpt>
<trkpt lat="35.273011" lon="23.666103"><ele>197.91</ele></trkpt>
<trkpt lat="35.273123" lon="23.666048"><ele>198.34</ele></trkpt>
<trkpt lat="35.27328" lon="23.666064"><ele>198.92</ele></trkpt>
<trkpt lat="35.273503" lon="23.666176"><ele>199.83</ele></trkpt>
<trkpt lat="35.274014" lon="23.66653"><ele>202.26</ele></trkpt>
<trkpt lat="35.274804" lon="23.667299000000007"><ele>207</ele></trkpt>
<trkpt lat="35.27506999999999" lon="23.667489"><ele>208.62</ele></trkpt>
<trkpt lat="35.275183" lon="23.667615"><ele>209.49</ele></trkpt>
<trkpt lat="35.275429" lon="23.667992"><ele>211.88</ele></trkpt>
<trkpt lat="35.27555" lon="23.668208"><ele>213.25</ele></trkpt>
<trkpt lat="35.275738" lon="23.668461000000008"><ele>215.09</ele></trkpt>
<trkpt lat="35.276074" lon="23.668877"><ele>218.33</ele></trkpt>
<trkpt lat="35.27617" lon="23.668946"><ele>219.08</ele></trkpt>
<trkpt lat="35.276304" lon="23.66897"><ele>220</ele></trkpt>
<trkpt lat="35.276622" lon="23.668902999999997"><ele>222.12</ele></trkpt>
<trkpt lat="35.276755" lon="23.668849"><ele>223.02</ele></trkpt>
<trkpt lat="35.277671999999995" lon="23.668331"><ele>228.96</ele></trkpt>
<trkpt lat="35.278147" lon="23.668144"><ele>231.75</ele></trkpt>
<trkpt lat="35.278576" lon="23.667888000000005"><ele>234.44</ele></trkpt>
<trkpt lat="35.278632" lon="23.667754999999996"><ele>235.15</ele></trkpt>
<trkpt lat="35.278621" lon="23.667551999999997"><ele>236.04</ele></trkpt>
<trkpt lat="35.27853000000001" lon="23.66742"><ele>236.77</ele></trkpt>
<trkpt lat="35.278381" lon="23.667436"><ele>237.49</ele></trkpt>
<trkpt lat="35.27801800000001" lon="23.667594000000005"><ele>239.2</ele></trkpt>
<trkpt lat="35.27747300000001" lon="23.667771000000002"><ele>241.64</ele></trkpt>
<trkpt lat="35.277262" lon="23.667759"><ele>242.64</ele></trkpt>
<trkpt lat="35.27714" lon="23.667682"><ele>243.33</ele></trkpt>
<trkpt lat="35.276861000000004" lon="23.667310999999998"><ele>245.52</ele></trkpt>
<trkpt lat="35.276588" lon="23.666894"><ele>247.98</ele></trkpt>
<trkpt lat="35.275834" lon="23.666214"><ele>253.48</ele></trkpt>
<trkpt lat="35.275566999999995" lon="23.665902"><ele>255.85</ele></trkpt>
<trkpt lat="35.275349999999996" lon="23.665703"><ele>257.78</ele></trkpt>
<trkpt lat="35.274471000000005" lon="23.664786"><ele>267.24</ele></trkpt>
<trkpt lat="35.274268" lon="23.664645"><ele>269.1</ele></trkpt>
<trkpt lat="35.274055" lon="23.664563"><ele>270.81</ele></trkpt>
<trkpt lat="35.273610000000005" lon="23.664446000000005"><ele>274.13</ele></trkpt>
<trkpt lat="35.273458" lon="23.664336999999996"><ele>275.34</ele></trkpt>
<trkpt lat="35.2733" lon="23.664123000000004"><ele>276.86</ele></trkpt>
<trkpt lat="35.273247" lon="23.664009000000004"><ele>277.49</ele></trkpt>
<trkpt lat="35.273258" lon="23.663784999999997"><ele>278.49</ele></trkpt>
<trkpt lat="35.273443" lon="23.663534"><ele>279.75</ele></trkpt>
<trkpt lat="35.273663" lon="23.663368"><ele>280.73</ele></trkpt>
<trkpt lat="35.274118" lon="23.663202"><ele>282.27</ele></trkpt>
<trkpt lat="35.274404" lon="23.663075999999993"><ele>283.17</ele></trkpt>
<trkpt lat="35.274674" lon="23.662810999999994"><ele>284.14</ele></trkpt>
<trkpt lat="35.274857" lon="23.662563"><ele>284.92</ele></trkpt>
<trkpt lat="35.275034999999995" lon="23.662248999999996"><ele>285.86</ele></trkpt>
<trkpt lat="35.275392" lon="23.661931"><ele>287.3</ele></trkpt>
<trkpt lat="35.275556" lon="23.661744999999996"><ele>288.09</ele></trkpt>
<trkpt lat="35.275814" lon="23.661541"><ele>289.27</ele></trkpt>
<trkpt lat="35.275932" lon="23.661497999999998"><ele>289.77</ele></trkpt>
<trkpt lat="35.276317" lon="23.661467"><ele>291.42</ele></trkpt>
<trkpt lat="35.276918" lon="23.661247999999997"><ele>294.23</ele></trkpt>
<trkpt lat="35.277190999999995" lon="23.661222"><ele>295.47</ele></trkpt>
<trkpt lat="35.277319" lon="23.661169"><ele>296.08</ele></trkpt>
<trkpt lat="35.27758800000001" lon="23.660962"><ele>297.47</ele></trkpt>
<trkpt lat="35.277753999999995" lon="23.660721"><ele>298.54</ele></trkpt>
<trkpt lat="35.277792" lon="23.660521"><ele>299.21</ele></trkpt>
<trkpt lat="35.277788" lon="23.66018"><ele>300.31</ele></trkpt>
<trkpt lat="35.2779" lon="23.65997"><ele>301.15</ele></trkpt>
<trkpt lat="35.278714" lon="23.659642"><ele>305.33</ele></trkpt>
<trkpt lat="35.279113" lon="23.659523"><ele>307.67</ele></trkpt>
<trkpt lat="35.279521" lon="23.659343"><ele>310.08</ele></trkpt>
<trkpt lat="35.279804" lon="23.659242999999996"><ele>311.53</ele></trkpt>
<trkpt lat="35.280061999999994" lon="23.659042000000003"><ele>312.72</ele></trkpt>
<trkpt lat="35.280188" lon="23.658835999999994"><ele>313.32</ele></trkpt>
<trkpt lat="35.280237" lon="23.658669999999997"><ele>313.65</ele></trkpt>
<trkpt lat="35.280247" lon="23.658475999999997"><ele>313.96</ele></trkpt>
<trkpt lat="35.280233" lon="23.658082000000004"><ele>314.47</ele></trkpt>
<trkpt lat="35.28027500000001" lon="23.658023000000004"><ele>314.56</ele></trkpt>
<trkpt lat="35.280419" lon="23.657991999999997"><ele>314.75</ele></trkpt>
<trkpt lat="35.280485" lon="23.658028000000005"><ele>314.84</ele></trkpt>
<trkpt lat="35.280803" lon="23.658411"><ele>315.28</ele></trkpt>
<trkpt lat="35.281367" lon="23.658622000000005"><ele>315.7</ele></trkpt>
<trkpt lat="35.281481" lon="23.65865"><ele>315.82</ele></trkpt>
<trkpt lat="35.281827" lon="23.658665"><ele>316.41</ele></trkpt>
<trkpt lat="35.281984" lon="23.658804000000003"><ele>316.88</ele></trkpt>
<trkpt lat="35.282097" lon="23.658827"><ele>317.21</ele></trkpt>
<trkpt lat="35.282548" lon="23.658449"><ele>318.99</ele></trkpt>
<trkpt lat="35.282807" lon="23.658295999999996"><ele>320.01</ele></trkpt>
<trkpt lat="35.283028" lon="23.658116"><ele>320.98</ele></trkpt>
<trkpt lat="35.283124" lon="23.657935"><ele>321.66</ele></trkpt>
<trkpt lat="35.283118" lon="23.657823"><ele>322.01</ele></trkpt>
<trkpt lat="35.283022" lon="23.657627000000005"><ele>322.74</ele></trkpt>
<trkpt lat="35.282632" lon="23.657232"><ele>324.79</ele></trkpt>
<trkpt lat="35.282369" lon="23.656870000000005"><ele>326.46</ele></trkpt>
<trkpt lat="35.282292" lon="23.656666000000005"><ele>327.26</ele></trkpt>
<trkpt lat="35.282282" lon="23.65652"><ele>327.8</ele></trkpt>
<trkpt lat="35.282374" lon="23.656412"><ele>328.4</ele></trkpt>
<trkpt lat="35.282582" lon="23.656456"><ele>329.34</ele></trkpt>
<trkpt lat="35.28271999999999" lon="23.656438000000005"><ele>329.93</ele></trkpt>
<trkpt lat="35.283016999999994" lon="23.656214999999996"><ele>331.27</ele></trkpt>
<trkpt lat="35.283338" lon="23.655942000000003"><ele>332.46</ele></trkpt>
<trkpt lat="35.28344400000001" lon="23.655785000000005"><ele>332.81</ele></trkpt>
<trkpt lat="35.283608" lon="23.65539"><ele>333.21</ele></trkpt>
<trkpt lat="35.28379400000001" lon="23.654746"><ele>333.14</ele></trkpt>
<trkpt lat="35.283908" lon="23.654539"><ele>332.95</ele></trkpt>
<trkpt lat="35.284282" lon="23.654073"><ele>332.06</ele></trkpt>
<trkpt lat="35.284516" lon="23.653823000000003"><ele>331.28</ele></trkpt>
<trkpt lat="35.284681" lon="23.653456999999996"><ele>330.14</ele></trkpt>
<trkpt lat="35.284937" lon="23.653252"><ele>328.93</ele></trkpt>
<trkpt lat="35.285713" lon="23.652324000000004"><ele>324.16</ele></trkpt>
<trkpt lat="35.286078" lon="23.652001000000002"><ele>321.91</ele></trkpt>
<trkpt lat="35.286191" lon="23.651789"><ele>320.76</ele></trkpt>
<trkpt lat="35.286338" lon="23.651294"><ele>318.17</ele></trkpt>
<trkpt lat="35.286417" lon="23.651151"><ele>317.3</ele></trkpt>
<trkpt lat="35.28656200000001" lon="23.651081000000005"><ele>316.31</ele></trkpt>
<trkpt lat="35.286882" lon="23.651165"><ele>314.33</ele></trkpt>
<trkpt lat="35.287341" lon="23.651098"><ele>311.6</ele></trkpt>
<trkpt lat="35.28748199999999" lon="23.650951000000003"><ele>310.52</ele></trkpt>
<trkpt lat="35.28756299999999" lon="23.650743"><ele>309.47</ele></trkpt>
<trkpt lat="35.287717" lon="23.650615000000002"><ele>308.45</ele></trkpt>
<trkpt lat="35.288306" lon="23.650373"><ele>305.18</ele></trkpt>
<trkpt lat="35.288515" lon="23.650213000000004"><ele>303.82</ele></trkpt>
<trkpt lat="35.288782" lon="23.649815"><ele>301.4</ele></trkpt>
<trkpt lat="35.289216" lon="23.649368000000003"><ele>298.06</ele></trkpt>
<trkpt lat="35.28944" lon="23.649176"><ele>296.43</ele></trkpt>
<trkpt lat="35.28971899999999" lon="23.648903000000008"><ele>294.29</ele></trkpt>
<trkpt lat="35.289826" lon="23.648857000000003"><ele>293.62</ele></trkpt>
<trkpt lat="35.290361" lon="23.64881799999999"><ele>290.48</ele></trkpt>
<trkpt lat="35.290475" lon="23.648738"><ele>289.7</ele></trkpt>
<trkpt lat="35.29062700000001" lon="23.648429"><ele>288.01</ele></trkpt>
<trkpt lat="35.290666" lon="23.648303"><ele>287.39</ele></trkpt>
<trkpt lat="35.290674" lon="23.648039000000008"><ele>286.21</ele></trkpt>
<trkpt lat="35.290592" lon="23.647348"><ele>283.3</ele></trkpt>
<trkpt lat="35.290624" lon="23.647053"><ele>282.25</ele></trkpt>
<trkpt lat="35.290737" lon="23.646802"><ele>281.44</ele></trkpt>
<trkpt lat="35.290945" lon="23.646503999999997"><ele>280.57</ele></trkpt>
<trkpt lat="35.291" lon="23.646366"><ele>280.29</ele></trkpt>
<trkpt lat="35.291063" lon="23.645844"><ele>279.57</ele></trkpt>
<trkpt lat="35.291139" lon="23.645631"><ele>279.39</ele></trkpt>
<trkpt lat="35.291345" lon="23.645299"><ele>279.15</ele></trkpt>
<trkpt lat="35.29154599999999" lon="23.645225"><ele>278.96</ele></trkpt>
<trkpt lat="35.29183" lon="23.645179"><ele>278.44</ele></trkpt>
<trkpt lat="35.291897" lon="23.645076999999993"><ele>278.1</ele></trkpt>
<trkpt lat="35.291817" lon="23.644776"><ele>276.87</ele></trkpt>
<trkpt lat="35.291679" lon="23.644552"><ele>275.31</ele></trkpt>
<trkpt lat="35.291267" lon="23.644421"><ele>271.81</ele></trkpt>
<trkpt lat="35.291237" lon="23.644313000000004"><ele>270.95</ele></trkpt>
<trkpt lat="35.291433" lon="23.643760000000007"><ele>267.07</ele></trkpt>
<trkpt lat="35.291634" lon="23.643329"><ele>264.63</ele></trkpt>
<trkpt lat="35.2917" lon="23.643088000000006"><ele>263.83</ele></trkpt>
<trkpt lat="35.29167799999999" lon="23.642961"><ele>263.58</ele></trkpt>
<trkpt lat="35.291591999999994" lon="23.642857000000003"><ele>263.43</ele></trkpt>
<trkpt lat="35.291434" lon="23.642774"><ele>263.43</ele></trkpt>
<trkpt lat="35.291232" lon="23.642726"><ele>263.7</ele></trkpt>
<trkpt lat="35.29100600000001" lon="23.642718"><ele>264.27</ele></trkpt>
<trkpt lat="35.290936" lon="23.642622"><ele>264.62</ele></trkpt>
<trkpt lat="35.290987" lon="23.642514"><ele>265.01</ele></trkpt>
<trkpt lat="35.291136" lon="23.642433000000004"><ele>265.69</ele></trkpt>
<trkpt lat="35.29092899999999" lon="23.641693999999998"><ele>268.9</ele></trkpt>
<trkpt lat="35.290899" lon="23.64145"><ele>270.01</ele></trkpt>
<trkpt lat="35.290943" lon="23.640962999999996"><ele>272.23</ele></trkpt>
<trkpt lat="35.290919" lon="23.640839"><ele>272.77</ele></trkpt>
<trkpt lat="35.29072800000001" lon="23.640459000000003"><ele>274.53</ele></trkpt>
<trkpt lat="35.290645" lon="23.64018"><ele>275.51</ele></trkpt>
<trkpt lat="35.290564" lon="23.640102"><ele>275.86</ele></trkpt>
<trkpt lat="35.290466" lon="23.640125000000005"><ele>276.17</ele></trkpt>
<trkpt lat="35.290445" lon="23.640198"><ele>276.34</ele></trkpt>
<trkpt lat="35.29044699999999" lon="23.64067800000001"><ele>277.19</ele></trkpt>
<trkpt lat="35.290427" lon="23.640858"><ele>277.49</ele></trkpt>
<trkpt lat="35.290313" lon="23.641258500000003"><ele>278.29</ele></trkpt>
<trkpt lat="35.290123" lon="23.641925999999998"><ele>280.05</ele></trkpt>
<trkpt lat="35.290011" lon="23.642078"><ele>280.6</ele></trkpt>
<trkpt lat="35.289838" lon="23.642196"><ele>281.22</ele></trkpt>
<trkpt lat="35.28981" lon="23.642336"><ele>281.59</ele></trkpt>
<trkpt lat="35.289904" lon="23.642707"><ele>282.47</ele></trkpt>
<trkpt lat="35.289895" lon="23.642916999999997"><ele>282.92</ele></trkpt>
<trkpt lat="35.289645" lon="23.643597"><ele>284.48</ele></trkpt>
<trkpt lat="35.289523" lon="23.643981000000004"><ele>285.33</ele></trkpt>
<trkpt lat="35.289313" lon="23.644835"><ele>287.68</ele></trkpt>
<trkpt lat="35.28927" lon="23.64490899999999"><ele>288.02</ele></trkpt>
<trkpt lat="35.288882" lon="23.645283000000003"><ele>290.61</ele></trkpt>
<trkpt lat="35.288629" lon="23.645414"><ele>292.29</ele></trkpt>
<trkpt lat="35.28847499999999" lon="23.645417"><ele>293.34</ele></trkpt>
<trkpt lat="35.288204" lon="23.645229"><ele>295.55</ele></trkpt>
<trkpt lat="35.288089" lon="23.645236000000004"><ele>296.4</ele></trkpt>
<trkpt lat="35.287846" lon="23.645479"><ele>298.66</ele></trkpt>
<trkpt lat="35.287764" lon="23.64562"><ele>299.67</ele></trkpt>
<trkpt lat="35.287605" lon="23.64601"><ele>302.21</ele></trkpt>
<trkpt lat="35.287517" lon="23.646047999999997"><ele>302.93</ele></trkpt>
<trkpt lat="35.287468" lon="23.645873"><ele>304.18</ele></trkpt>
<trkpt lat="35.287592999999994" lon="23.645658999999995"><ele>305.86</ele></trkpt>
<trkpt lat="35.287618" lon="23.645557"><ele>306.57</ele></trkpt>
<trkpt lat="35.287626" lon="23.645135999999997"><ele>309.48</ele></trkpt>
<trkpt lat="35.287647" lon="23.645018000000004"><ele>310.34</ele></trkpt>
<trkpt lat="35.28779230000001" lon="23.6446"><ele>313.64</ele></trkpt>
<trkpt lat="35.2878802" lon="23.644396"><ele>315.28</ele></trkpt>
<trkpt lat="35.288056" lon="23.643988"><ele>318.33</ele></trkpt>
<trkpt lat="35.288124999999994" lon="23.643642"><ele>320.42</ele></trkpt>
<trkpt lat="35.288167" lon="23.643583"><ele>320.85</ele></trkpt>
<trkpt lat="35.288281" lon="23.64358"><ele>321.62</ele></trkpt>
<trkpt lat="35.288468" lon="23.643797"><ele>323.22</ele></trkpt>
<trkpt lat="35.28858999999999" lon="23.644019"><ele>324.53</ele></trkpt>
<trkpt lat="35.288736" lon="23.643998"><ele>325.53</ele></trkpt>
<trkpt lat="35.288744" lon="23.643786999999996"><ele>326.59</ele></trkpt>
<trkpt lat="35.288654" lon="23.643584000000004"><ele>327.74</ele></trkpt>
<trkpt lat="35.288452" lon="23.64324299999999"><ele>329.87</ele></trkpt>
<trkpt lat="35.288289999999996" lon="23.643148000000004"><ele>330.97</ele></trkpt>
<trkpt lat="35.28807799999999" lon="23.643076"><ele>332.29</ele></trkpt>
<trkpt lat="35.287874" lon="23.64306"><ele>333.49</ele></trkpt>
<trkpt lat="35.287787" lon="23.643130000000003"><ele>334.11</ele></trkpt>
<trkpt lat="35.287741" lon="23.64349"><ele>335.79</ele></trkpt>
<trkpt lat="35.287654" lon="23.643646"><ele>336.65</ele></trkpt>
<trkpt lat="35.28711299999999" lon="23.64408999999999"><ele>340.17</ele></trkpt>
<trkpt lat="35.28678299999999" lon="23.644576"><ele>342.93</ele></trkpt>
<trkpt lat="35.286359" lon="23.644855"><ele>345.51</ele></trkpt>
<trkpt lat="35.286293" lon="23.64494"><ele>346.04</ele></trkpt>
<trkpt lat="35.286158" lon="23.645431999999996"><ele>348.47</ele></trkpt>
<trkpt lat="35.286107" lon="23.645474000000004"><ele>348.84</ele></trkpt>
<trkpt lat="35.286067" lon="23.645360000000004"><ele>349.55</ele></trkpt>
<trkpt lat="35.286199999999994" lon="23.644775"><ele>352.84</ele></trkpt>
<trkpt lat="35.286246" lon="23.644641"><ele>353.65</ele></trkpt>
<trkpt lat="35.286505" lon="23.644382000000004"><ele>355.96</ele></trkpt>
<trkpt lat="35.286595999999996" lon="23.644163"><ele>357.37</ele></trkpt>
<trkpt lat="35.286604" lon="23.643839"><ele>359.18</ele></trkpt>
<trkpt lat="35.286688" lon="23.643525000000004"><ele>360.96</ele></trkpt>
<trkpt lat="35.286747" lon="23.643213000000003"><ele>362.52</ele></trkpt>
<trkpt lat="35.286832000000004" lon="23.642557000000007"><ele>365.3</ele></trkpt>
<trkpt lat="35.287018" lon="23.642289999999996"><ele>366.53</ele></trkpt>
<trkpt lat="35.287063" lon="23.642177"><ele>366.94</ele></trkpt>
<trkpt lat="35.287035" lon="23.641906"><ele>367.84</ele></trkpt>
<trkpt lat="35.28681100000001" lon="23.641609999999996"><ele>369.28</ele></trkpt>
<trkpt lat="35.286758" lon="23.641438000000004"><ele>369.99</ele></trkpt>
<trkpt lat="35.286754" lon="23.641308"><ele>370.52</ele></trkpt>
<trkpt lat="35.286801" lon="23.641225"><ele>370.95</ele></trkpt>
<trkpt lat="35.286975" lon="23.641037"><ele>372.22</ele></trkpt>
<trkpt lat="35.287141" lon="23.64064"><ele>374.36</ele></trkpt>
<trkpt lat="35.287416" lon="23.640211"><ele>377.08</ele></trkpt>
<trkpt lat="35.287734" lon="23.639856"><ele>379.7</ele></trkpt>
<trkpt lat="35.288006" lon="23.639598"><ele>381.78</ele></trkpt>
<trkpt lat="35.288227" lon="23.639456"><ele>383.36</ele></trkpt>
<trkpt lat="35.28825" lon="23.639309"><ele>384.18</ele></trkpt>
<trkpt lat="35.288102" lon="23.63891"><ele>386.68</ele></trkpt>
<trkpt lat="35.287933" lon="23.638229"><ele>391.09</ele></trkpt>
<trkpt lat="35.287894" lon="23.637843"><ele>393.68</ele></trkpt>
<trkpt lat="35.28781099999999" lon="23.63785"><ele>394.5</ele></trkpt>
<trkpt lat="35.287804" lon="23.638359999999995"><ele>398.08</ele></trkpt>
<trkpt lat="35.287714" lon="23.63845"><ele>399.26</ele></trkpt>
<trkpt lat="35.28767899999999" lon="23.63837"><ele>399.9</ele></trkpt>
<trkpt lat="35.28767799999999" lon="23.637937000000004"><ele>402.9</ele></trkpt>
<trkpt lat="35.287605" lon="23.637722999999998"><ele>404.47</ele></trkpt>
<trkpt lat="35.287266" lon="23.637481"><ele>407.38</ele></trkpt>
<trkpt lat="35.287173" lon="23.637343"><ele>408.27</ele></trkpt>
<trkpt lat="35.286995999999995" lon="23.636958000000003"><ele>409.82</ele></trkpt>
<trkpt lat="35.286891" lon="23.636807000000005"><ele>410.15</ele></trkpt>
<trkpt lat="35.28686499999999" lon="23.636558"><ele>410.16</ele></trkpt>
<trkpt lat="35.286924" lon="23.636189000000005"><ele>409.58</ele></trkpt>
<trkpt lat="35.286894" lon="23.636042999999997"><ele>409.25</ele></trkpt>
<trkpt lat="35.286753" lon="23.635713"><ele>408.36</ele></trkpt>
<trkpt lat="35.286728" lon="23.635411"><ele>407.72</ele></trkpt>
<trkpt lat="35.286637" lon="23.635263999999992"><ele>407.42</ele></trkpt>
<trkpt lat="35.286414" lon="23.635285000000003"><ele>407.15</ele></trkpt>
<trkpt lat="35.286255" lon="23.635382"><ele>407.07</ele></trkpt>
<trkpt lat="35.28611600000001" lon="23.635577999999995"><ele>407.12</ele></trkpt>
<trkpt lat="35.286041" lon="23.635605999999992"><ele>407.17</ele></trkpt>
<trkpt lat="35.285815" lon="23.635584"><ele>407.41</ele></trkpt>
<trkpt lat="35.28554" lon="23.635726"><ele>407.88</ele></trkpt>
<trkpt lat="35.285481" lon="23.635736"><ele>407.99</ele></trkpt>
<trkpt lat="35.285381" lon="23.635625999999995"><ele>408.28</ele></trkpt>
<trkpt lat="35.285358" lon="23.635488999999993"><ele>408.55</ele></trkpt>
<trkpt lat="35.28535599999999" lon="23.634910999999995"><ele>410.08</ele></trkpt>
<trkpt lat="35.285433" lon="23.634507"><ele>411.62</ele></trkpt>
<trkpt lat="35.28533300000001" lon="23.634528000000007"><ele>412.3</ele></trkpt>
<trkpt lat="35.28525" lon="23.634713"><ele>413.31</ele></trkpt>
<trkpt lat="35.285132" lon="23.63557"><ele>418.26</ele></trkpt>
<trkpt lat="35.285196" lon="23.635833999999996"><ele>419.93</ele></trkpt>
<trkpt lat="35.285121999999994" lon="23.635879"><ele>420.64</ele></trkpt>
<trkpt lat="35.28503800000001" lon="23.635694"><ele>421.88</ele></trkpt>
<trkpt lat="35.285019" lon="23.635406"><ele>423.47</ele></trkpt>
<trkpt lat="35.285016" lon="23.634958000000005"><ele>425.88</ele></trkpt>
<trkpt lat="35.284981" lon="23.634758"><ele>427.02</ele></trkpt>
<trkpt lat="35.284801" lon="23.634334"><ele>430.02</ele></trkpt>
<trkpt lat="35.284625" lon="23.634118"><ele>432.2</ele></trkpt>
<trkpt lat="35.284447" lon="23.633959"><ele>434.29</ele></trkpt>
<trkpt lat="35.284151" lon="23.633789000000004"><ele>437.57</ele></trkpt>
<trkpt lat="35.283934" lon="23.633763"><ele>439.74</ele></trkpt>
<trkpt lat="35.283699" lon="23.633612"><ele>442.21</ele></trkpt>
<trkpt lat="35.283637" lon="23.633483"><ele>443.24</ele></trkpt>
<trkpt lat="35.283632" lon="23.633312"><ele>444.33</ele></trkpt>
<trkpt lat="35.283717" lon="23.632865"><ele>446.99</ele></trkpt>
<trkpt lat="35.283713" lon="23.632701000000004"><ele>447.9</ele></trkpt>
<trkpt lat="35.283643" lon="23.632521"><ele>448.99</ele></trkpt>
<trkpt lat="35.283278" lon="23.632092"><ele>452.38</ele></trkpt>
<trkpt lat="35.283145" lon="23.631853"><ele>453.97</ele></trkpt>
<trkpt lat="35.28301799999999" lon="23.631392"><ele>456.68</ele></trkpt>
<trkpt lat="35.282945" lon="23.631206"><ele>457.82</ele></trkpt>
<trkpt lat="35.282709" lon="23.630715000000002"><ele>460.96</ele></trkpt>
<trkpt lat="35.282579" lon="23.630626"><ele>461.97</ele></trkpt>
<trkpt lat="35.282282" lon="23.630583"><ele>463.92</ele></trkpt>
<trkpt lat="35.28194" lon="23.630421000000002"><ele>466.24</ele></trkpt>
<trkpt lat="35.281866" lon="23.630316"><ele>466.95</ele></trkpt>
<trkpt lat="35.281932" lon="23.63008"><ele>468.22</ele></trkpt>
<trkpt lat="35.281908" lon="23.629974"><ele>468.8</ele></trkpt>
<trkpt lat="35.28144" lon="23.629602"><ele>472.22</ele></trkpt>
<trkpt lat="35.281379" lon="23.629384"><ele>473.35</ele></trkpt>
<trkpt lat="35.281493" lon="23.629128"><ele>474.77</ele></trkpt>
<trkpt lat="35.28145899999999" lon="23.629022000000003"><ele>475.29</ele></trkpt>
<trkpt lat="35.281349" lon="23.628814"><ele>476.41</ele></trkpt>
<trkpt lat="35.281299" lon="23.628471"><ele>477.93</ele></trkpt>
<trkpt lat="35.281228" lon="23.628267000000005"><ele>478.87</ele></trkpt>
<trkpt lat="35.281198" lon="23.627863"><ele>480.59</ele></trkpt>
<trkpt lat="35.281173" lon="23.627735"><ele>481.15</ele></trkpt>
<trkpt lat="35.281032" lon="23.627489"><ele>482.45</ele></trkpt>
<trkpt lat="35.280891999999994" lon="23.627341"><ele>483.42</ele></trkpt>
<trkpt lat="35.28087" lon="23.627219000000004"><ele>483.97</ele></trkpt>
<trkpt lat="35.280957" lon="23.627118999999997"><ele>484.59</ele></trkpt>
<trkpt lat="35.281176" lon="23.627032"><ele>485.79</ele></trkpt>
<trkpt lat="35.281377" lon="23.627141999999992"><ele>486.95</ele></trkpt>
<trkpt lat="35.281469" lon="23.627173"><ele>487.45</ele></trkpt>
<trkpt lat="35.281673000000005" lon="23.627105"><ele>488.59</ele></trkpt>
<trkpt lat="35.281744" lon="23.627008"><ele>489.15</ele></trkpt>
<trkpt lat="35.281845" lon="23.626677"><ele>490.63</ele></trkpt>
<trkpt lat="35.281957" lon="23.626614999999997"><ele>491.28</ele></trkpt>
<trkpt lat="35.28239700000001" lon="23.626851000000002"><ele>493.45</ele></trkpt>
<trkpt lat="35.282489" lon="23.626879"><ele>493.87</ele></trkpt>
<trkpt lat="35.282719" lon="23.626840000000005"><ele>494.95</ele></trkpt>
<trkpt lat="35.282824" lon="23.626745"><ele>495.58</ele></trkpt>
<trkpt lat="35.282982" lon="23.626529"><ele>496.76</ele></trkpt>
<trkpt lat="35.28307900000001" lon="23.626315"><ele>497.76</ele></trkpt>
<trkpt lat="35.283345999999995" lon="23.625974000000003"><ele>499.62</ele></trkpt>
<trkpt lat="35.283437" lon="23.625906999999998"><ele>500.08</ele></trkpt>
<trkpt lat="35.2836" lon="23.625948"><ele>500.76</ele></trkpt>
<trkpt lat="35.283739" lon="23.626103999999998"><ele>501.41</ele></trkpt>
<trkpt lat="35.284078" lon="23.626532"><ele>502.92</ele></trkpt>
<trkpt lat="35.284252" lon="23.626666"><ele>503.57</ele></trkpt>
<trkpt lat="35.284541" lon="23.626775"><ele>504.6</ele></trkpt>
<trkpt lat="35.28483" lon="23.627096000000005"><ele>506.07</ele></trkpt>
<trkpt lat="35.284901" lon="23.627137999999995"><ele>506.4</ele></trkpt>
<trkpt lat="35.285054" lon="23.627081999999998"><ele>507.1</ele></trkpt>
<trkpt lat="35.285429" lon="23.625954000000004"><ele>512.56</ele></trkpt>
<trkpt lat="35.285378" lon="23.625948"><ele>512.92</ele></trkpt>
<trkpt lat="35.284997" lon="23.626639"><ele>517.06</ele></trkpt>
<trkpt lat="35.284846" lon="23.626674000000005"><ele>518.08</ele></trkpt>
<trkpt lat="35.284625" lon="23.626512000000005"><ele>519.7</ele></trkpt>
<trkpt lat="35.284431" lon="23.626225999999996"><ele>521.59</ele></trkpt>
<trkpt lat="35.284282" lon="23.625749"><ele>524.01</ele></trkpt>
<trkpt lat="35.284088" lon="23.625380999999994"><ele>525.82</ele></trkpt>
<trkpt lat="35.283998" lon="23.625243000000005"><ele>526.43</ele></trkpt>
<trkpt lat="35.28382799999999" lon="23.625066999999998"><ele>527.2</ele></trkpt>
<trkpt lat="35.283738" lon="23.625015000000005"><ele>527.47</ele></trkpt>
<trkpt lat="35.283546" lon="23.624979000000003"><ele>527.87</ele></trkpt>
<trkpt lat="35.28345" lon="23.624893"><ele>528.03</ele></trkpt>
<trkpt lat="35.283128" lon="23.624951"><ele>528.18</ele></trkpt>
<trkpt lat="35.282633" lon="23.625104000000004"><ele>527.82</ele></trkpt>
<trkpt lat="35.282359" lon="23.625118"><ele>527.24</ele></trkpt>
<trkpt lat="35.281996" lon="23.624964"><ele>525.99</ele></trkpt>
<trkpt lat="35.28165" lon="23.624987"><ele>524.7</ele></trkpt>
<trkpt lat="35.281535" lon="23.624967000000005"><ele>524.23</ele></trkpt>
<trkpt lat="35.281066" lon="23.62477"><ele>522.05</ele></trkpt>
<trkpt lat="35.281027" lon="23.624597"><ele>521.21</ele></trkpt>
<trkpt lat="35.281078" lon="23.624467"><ele>520.49</ele></trkpt>
<trkpt lat="35.281286" lon="23.624102999999998"><ele>518.01</ele></trkpt>
<trkpt lat="35.28135" lon="23.623871"><ele>516.57</ele></trkpt>
<trkpt lat="35.281351" lon="23.623626000000005"><ele>515.12</ele></trkpt>
<trkpt lat="35.281291" lon="23.623348999999997"><ele>513.46</ele></trkpt>
<trkpt lat="35.280975000000005" lon="23.622367999999998"><ele>507.43</ele></trkpt>
<trkpt lat="35.280829" lon="23.622109"><ele>505.53</ele></trkpt>
<trkpt lat="35.280572" lon="23.621731"><ele>502.4</ele></trkpt>
<trkpt lat="35.280345" lon="23.621452000000005"><ele>499.85</ele></trkpt>
<trkpt lat="35.28019799999999" lon="23.621326"><ele>498.46</ele></trkpt>
<trkpt lat="35.280082" lon="23.621299"><ele>497.57</ele></trkpt>
<trkpt lat="35.27998199999999" lon="23.621353"><ele>496.77</ele></trkpt>
<trkpt lat="35.279762999999996" lon="23.621633000000003"><ele>494.53</ele></trkpt>
<trkpt lat="35.27966599999999" lon="23.621691999999996"><ele>493.79</ele></trkpt>
<trkpt lat="35.27949600000001" lon="23.621615000000002"><ele>492.53</ele></trkpt>
<trkpt lat="35.279399" lon="23.621414000000005"><ele>491.25</ele></trkpt>
<trkpt lat="35.279276" lon="23.621275"><ele>490.13</ele></trkpt>
<trkpt lat="35.279102" lon="23.621167000000003"><ele>488.83</ele></trkpt>
<trkpt lat="35.27877099999999" lon="23.621023"><ele>486.45</ele></trkpt>
<trkpt lat="35.27863899999999" lon="23.620911"><ele>485.36</ele></trkpt>
<trkpt lat="35.278541" lon="23.620737000000002"><ele>484.17</ele></trkpt>
<trkpt lat="35.278445" lon="23.620316"><ele>481.7</ele></trkpt>
<trkpt lat="35.278385" lon="23.620135"><ele>480.59</ele></trkpt>
<trkpt lat="35.278272" lon="23.619956"><ele>479.31</ele></trkpt>
<trkpt lat="35.27810000000001" lon="23.619781"><ele>477.76</ele></trkpt>
<trkpt lat="35.277543" lon="23.619419999999995"><ele>473.39</ele></trkpt>
<trkpt lat="35.276493" lon="23.619000000000003"><ele>465.9</ele></trkpt>
<trkpt lat="35.276457" lon="23.618866"><ele>465.15</ele></trkpt>
<trkpt lat="35.27662899999999" lon="23.618833"><ele>464.1</ele></trkpt>
<trkpt lat="35.276895" lon="23.618900999999997"><ele>462.66</ele></trkpt>
<trkpt lat="35.277343" lon="23.618945000000007"><ele>460.37</ele></trkpt>
<trkpt lat="35.277505" lon="23.618978999999996"><ele>459.49</ele></trkpt>
<trkpt lat="35.277837999999996" lon="23.61912"><ele>457.49</ele></trkpt>
<trkpt lat="35.278353" lon="23.61926800000001"><ele>454.28</ele></trkpt>
<trkpt lat="35.278532" lon="23.619374"><ele>453.03</ele></trkpt>
<trkpt lat="35.278681" lon="23.619553000000003"><ele>451.7</ele></trkpt>
<trkpt lat="35.27896" lon="23.620158"><ele>448.01</ele></trkpt>
<trkpt lat="35.27906999999999" lon="23.620213999999997"><ele>447.18</ele></trkpt>
<trkpt lat="35.279127" lon="23.620179"><ele>446.75</ele></trkpt>
<trkpt lat="35.279113" lon="23.620007000000008"><ele>445.74</ele></trkpt>
<trkpt lat="35.278982" lon="23.619796999999995"><ele>444.22</ele></trkpt>
<trkpt lat="35.278774" lon="23.619305999999995"><ele>441.01</ele></trkpt>
<trkpt lat="35.278652" lon="23.619102"><ele>439.52</ele></trkpt>
<trkpt lat="35.278508" lon="23.618922"><ele>438.02</ele></trkpt>
<trkpt lat="35.27823600000001" lon="23.618683999999995"><ele>435.5</ele></trkpt>
<trkpt lat="35.278032" lon="23.618315"><ele>432.54</ele></trkpt>
<trkpt lat="35.277807" lon="23.617528"><ele>426.59</ele></trkpt>
<trkpt lat="35.277585" lon="23.617072"><ele>422.71</ele></trkpt>
<trkpt lat="35.277423999999996" lon="23.616683"><ele>419.49</ele></trkpt>
<trkpt lat="35.277154" lon="23.615901"><ele>413.21</ele></trkpt>
<trkpt lat="35.276949" lon="23.615552"><ele>410.18</ele></trkpt>
<trkpt lat="35.276743" lon="23.615351"><ele>408.05</ele></trkpt>
<trkpt lat="35.27648" lon="23.615140999999998"><ele>405.66</ele></trkpt>
<trkpt lat="35.275958" lon="23.61477"><ele>401.38</ele></trkpt>
<trkpt lat="35.275402" lon="23.614438"><ele>397.31</ele></trkpt>
<trkpt lat="35.275266" lon="23.61421"><ele>395.82</ele></trkpt>
<trkpt lat="35.275204" lon="23.613900999999995"><ele>394.17</ele></trkpt>
<trkpt lat="35.275155" lon="23.613822"><ele>393.65</ele></trkpt>
<trkpt lat="35.27495499999999" lon="23.613718999999996"><ele>392.22</ele></trkpt>
<trkpt lat="35.274754" lon="23.61369"><ele>390.83</ele></trkpt>
<trkpt lat="35.274581" lon="23.613500000000002"><ele>389.09</ele></trkpt>
<trkpt lat="35.274538" lon="23.613287999999997"><ele>387.66</ele></trkpt>
<trkpt lat="35.274533" lon="23.613075"><ele>386.18</ele></trkpt>
<trkpt lat="35.274682" lon="23.612406"><ele>381.07</ele></trkpt>
<trkpt lat="35.274671" lon="23.612163"><ele>379.23</ele></trkpt>
<trkpt lat="35.27461" lon="23.612043"><ele>378.15</ele></trkpt>
<trkpt lat="35.274234" lon="23.611513"><ele>372.79</ele></trkpt>
<trkpt lat="35.273911" lon="23.611242999999995"><ele>369.02</ele></trkpt>
<trkpt lat="35.273802" lon="23.611115"><ele>367.53</ele></trkpt>
<trkpt lat="35.273617" lon="23.610613000000004"><ele>362.97</ele></trkpt>
<trkpt lat="35.273272" lon="23.609435"><ele>352.41</ele></trkpt>
<trkpt lat="35.273136" lon="23.609108"><ele>349.38</ele></trkpt>
<trkpt lat="35.272792" lon="23.60856"><ele>343.88</ele></trkpt>
<trkpt lat="35.272601" lon="23.608351"><ele>341.57</ele></trkpt>
<trkpt lat="35.272368" lon="23.608211999999998"><ele>339.42</ele></trkpt>
<trkpt lat="35.272141" lon="23.608163"><ele>337.63</ele></trkpt>
<trkpt lat="35.27191" lon="23.608195000000002"><ele>335.93</ele></trkpt>
<trkpt lat="35.27135499999999" lon="23.608428"><ele>331.79</ele></trkpt>
<trkpt lat="35.271153" lon="23.608495000000005"><ele>330.33</ele></trkpt>
<trkpt lat="35.270928" lon="23.608498"><ele>328.8</ele></trkpt>
<trkpt lat="35.270699" lon="23.608419"><ele>327.22</ele></trkpt>
<trkpt lat="35.270496" lon="23.608256999999995"><ele>325.68</ele></trkpt>
<trkpt lat="35.270332" lon="23.608011"><ele>324.11</ele></trkpt>
<trkpt lat="35.270266" lon="23.607844"><ele>323.23</ele></trkpt>
<trkpt lat="35.270175" lon="23.607748000000008"><ele>322.55</ele></trkpt>
<trkpt lat="35.270084" lon="23.60772"><ele>322.03</ele></trkpt>
<trkpt lat="35.269611000000005" lon="23.607777000000002"><ele>319.47</ele></trkpt>
<trkpt lat="35.26924" lon="23.607770999999996"><ele>317.53</ele></trkpt>
<trkpt lat="35.26857900000001" lon="23.607648"><ele>314.08</ele></trkpt>
<trkpt lat="35.268138" lon="23.607658"><ele>311.85</ele></trkpt>
<trkpt lat="35.267923" lon="23.607782000000004"><ele>310.64</ele></trkpt>
<trkpt lat="35.267717" lon="23.608275000000003"><ele>308.36</ele></trkpt>
<trkpt lat="35.26761700000001" lon="23.608438000000003"><ele>307.52</ele></trkpt>
<trkpt lat="35.267441" lon="23.608612"><ele>306.37</ele></trkpt>
<trkpt lat="35.266924" lon="23.609054000000004"><ele>303.12</ele></trkpt>
<trkpt lat="35.266653" lon="23.609175"><ele>301.62</ele></trkpt>
<trkpt lat="35.266395" lon="23.609186000000005"><ele>300.27</ele></trkpt>
<trkpt lat="35.266045" lon="23.609114"><ele>298.4</ele></trkpt>
<trkpt lat="35.265272" lon="23.608854999999995"><ele>294.13</ele></trkpt>
<trkpt lat="35.26512" lon="23.608828999999997"><ele>293.3</ele></trkpt>
<trkpt lat="35.264967" lon="23.608874000000004"><ele>292.44</ele></trkpt>
<trkpt lat="35.264889" lon="23.608945"><ele>291.9</ele></trkpt>
<trkpt lat="35.264568" lon="23.609399999999997"><ele>289.15</ele></trkpt>
<trkpt lat="35.264299" lon="23.609618"><ele>287.31</ele></trkpt>
<trkpt lat="35.264057" lon="23.609788"><ele>285.69</ele></trkpt>
<trkpt lat="35.263999" lon="23.610005999999995"><ele>284.55</ele></trkpt>
<trkpt lat="35.26416" lon="23.610468"><ele>282.1</ele></trkpt>
<trkpt lat="35.264112" lon="23.610706999999998"><ele>280.82</ele></trkpt>
<trkpt lat="35.263755" lon="23.610891"><ele>278.42</ele></trkpt>
<trkpt lat="35.263271" lon="23.611311999999998"><ele>274.71</ele></trkpt>
<trkpt lat="35.263115" lon="23.611414"><ele>273.6</ele></trkpt>
<trkpt lat="35.262849" lon="23.611446"><ele>271.91</ele></trkpt>
<trkpt lat="35.262447" lon="23.611155"><ele>268.94</ele></trkpt>
<trkpt lat="35.26224599999999" lon="23.611153000000005"><ele>267.61</ele></trkpt>
<trkpt lat="35.261452" lon="23.611483"><ele>261.83</ele></trkpt>
<trkpt lat="35.261246" lon="23.611535999999997"><ele>260.34</ele></trkpt>
<trkpt lat="35.261089" lon="23.611508"><ele>259.22</ele></trkpt>
<trkpt lat="35.260944" lon="23.611426"><ele>258.08</ele></trkpt>
<trkpt lat="35.26086899999999" lon="23.611223999999996"><ele>256.77</ele></trkpt>
<trkpt lat="35.26094" lon="23.610827"><ele>254.39</ele></trkpt>
<trkpt lat="35.260891" lon="23.610697999999996"><ele>253.56</ele></trkpt>
<trkpt lat="35.260789" lon="23.610662"><ele>252.78</ele></trkpt>
<trkpt lat="35.260642" lon="23.610689"><ele>251.72</ele></trkpt>
<trkpt lat="35.260483" lon="23.61057200000001"><ele>250.39</ele></trkpt>
<trkpt lat="35.26026900000001" lon="23.610188"><ele>247.78</ele></trkpt>
<trkpt lat="35.260222000000006" lon="23.610064"><ele>247.04</ele></trkpt>
<trkpt lat="35.260207" lon="23.609835000000004"><ele>245.85</ele></trkpt>
<trkpt lat="35.260234" lon="23.609495999999996"><ele>244.17</ele></trkpt>
<trkpt lat="35.260324" lon="23.609228999999992"><ele>242.83</ele></trkpt>
<trkpt lat="35.26070699999999" lon="23.608780000000003"><ele>239.9</ele></trkpt>
<trkpt lat="35.260739" lon="23.60862"><ele>239.13</ele></trkpt>
<trkpt lat="35.26072" lon="23.608507000000003"><ele>238.58</ele></trkpt>
<trkpt lat="35.260536" lon="23.608258"><ele>236.91</ele></trkpt>
<trkpt lat="35.260399" lon="23.608127"><ele>235.79</ele></trkpt>
<trkpt lat="35.260295" lon="23.608107"><ele>235.09</ele></trkpt>
<trkpt lat="35.259899" lon="23.608230999999996"><ele>232.29</ele></trkpt>
<trkpt lat="35.259711" lon="23.608262"><ele>230.98</ele></trkpt>
<trkpt lat="35.25947" lon="23.60821"><ele>229.31</ele></trkpt>
<trkpt lat="35.25887" lon="23.607851999999998"><ele>224.98</ele></trkpt>
<trkpt lat="35.258734" lon="23.607645"><ele>223.61</ele></trkpt>
<trkpt lat="35.258755" lon="23.607403999999995"><ele>222.38</ele></trkpt>
<trkpt lat="35.258921" lon="23.607029000000004"><ele>220.25</ele></trkpt>
<trkpt lat="35.258859" lon="23.606905"><ele>219.46</ele></trkpt>
<trkpt lat="35.258793" lon="23.606939999999998"><ele>219</ele></trkpt>
<trkpt lat="35.25867" lon="23.607142000000003"><ele>217.75</ele></trkpt>
<trkpt lat="35.25842500000001" lon="23.607649999999992"><ele>214.84</ele></trkpt>
<trkpt lat="35.258383" lon="23.607800999999995"><ele>214.06</ele></trkpt>
<trkpt lat="35.258407" lon="23.607981999999993"><ele>213.17</ele></trkpt>
<trkpt lat="35.258484" lon="23.608156000000008"><ele>212.2</ele></trkpt>
<trkpt lat="35.258616" lon="23.608277"><ele>211.21</ele></trkpt>
<trkpt lat="35.25904599999999" lon="23.608412"><ele>208.46</ele></trkpt>
<trkpt lat="35.259119" lon="23.608527"><ele>207.64</ele></trkpt>
<trkpt lat="35.259064" lon="23.608655"><ele>206.75</ele></trkpt>
<trkpt lat="35.258773" lon="23.608641999999996"><ele>204.63</ele></trkpt>
<trkpt lat="35.258335" lon="23.608539000000004"><ele>201.24</ele></trkpt>
<trkpt lat="35.258043" lon="23.608292999999996"><ele>198.51</ele></trkpt>
<trkpt lat="35.257912999999995" lon="23.608098"><ele>196.95</ele></trkpt>
<trkpt lat="35.257824" lon="23.607901"><ele>195.56</ele></trkpt>
<trkpt lat="35.257845" lon="23.607325999999997"><ele>192.06</ele></trkpt>
<trkpt lat="35.257947" lon="23.606794"><ele>188.77</ele></trkpt>
<trkpt lat="35.257838" lon="23.606665"><ele>187.63</ele></trkpt>
<trkpt lat="35.257723" lon="23.606668000000003"><ele>186.78</ele></trkpt>
<trkpt lat="35.257634" lon="23.606732"><ele>186.05</ele></trkpt>
<trkpt lat="35.257302" lon="23.607147"><ele>182.76</ele></trkpt>
<trkpt lat="35.2568091" lon="23.607720599999997"><ele>178.52</ele></trkpt>
<trkpt lat="35.2565134" lon="23.608064700000003"><ele>176.26</ele></trkpt>
<trkpt lat="35.255922" lon="23.608752999999997"><ele>172.22</ele></trkpt>
<trkpt lat="35.255834" lon="23.608877999999997"><ele>171.61</ele></trkpt>
<trkpt lat="35.255790999999995" lon="23.609025000000003"><ele>171.04</ele></trkpt>
<trkpt lat="35.255790999999995" lon="23.609181999999997"><ele>170.48</ele></trkpt>
<trkpt lat="35.255919" lon="23.609641000000003"><ele>168.78</ele></trkpt>
<trkpt lat="35.255932" lon="23.609792"><ele>168.26</ele></trkpt>
<trkpt lat="35.255854" lon="23.610004"><ele>167.46</ele></trkpt>
<trkpt lat="35.255672" lon="23.610148"><ele>166.55</ele></trkpt>
<trkpt lat="35.255296" lon="23.610539"><ele>164.48</ele></trkpt>
<trkpt lat="35.25449919999999" lon="23.611562600000003"><ele>159.34</ele></trkpt>
<trkpt lat="35.253968" lon="23.61224500000001"><ele>155.46</ele></trkpt>
<trkpt lat="35.253807" lon="23.612403"><ele>154.33</ele></trkpt>
<trkpt lat="35.253619" lon="23.612521000000005"><ele>153.14</ele></trkpt>
<trkpt lat="35.253102000000005" lon="23.612732"><ele>149.94</ele></trkpt>
<trkpt lat="35.2527174" lon="23.6128586"><ele>147.49</ele></trkpt>
<trkpt lat="35.251756" lon="23.613175"><ele>140.68</ele></trkpt>
<trkpt lat="35.251584" lon="23.613186"><ele>139.43</ele></trkpt>
<trkpt lat="35.251399" lon="23.61314"><ele>138.04</ele></trkpt>
<trkpt lat="35.25123" lon="23.612962999999997"><ele>136.4</ele></trkpt>
<trkpt lat="35.25084300000001" lon="23.612421"><ele>132.1</ele></trkpt>
<trkpt lat="35.250808" lon="23.612299"><ele>131.35</ele></trkpt>
<trkpt lat="35.250872" lon="23.612164"><ele>130.47</ele></trkpt>
<trkpt lat="35.251018" lon="23.612002"><ele>129.17</ele></trkpt>
<trkpt lat="35.25166" lon="23.61157"><ele>124.55</ele></trkpt>
<trkpt lat="35.251659" lon="23.611429000000005"><ele>123.74</ele></trkpt>
<trkpt lat="35.25159200000001" lon="23.611413"><ele>123.31</ele></trkpt>
<trkpt lat="35.2513021" lon="23.6115668"><ele>121.3</ele></trkpt>
<trkpt lat="35.250819" lon="23.611822999999998"><ele>117.87</ele></trkpt>
<trkpt lat="35.2502514" lon="23.6121866"><ele>113.53</ele></trkpt>
<trkpt lat="35.249873" lon="23.612429"><ele>110.73</ele></trkpt>
<trkpt lat="35.249581" lon="23.612637"><ele>108.67</ele></trkpt>
<trkpt lat="35.24935" lon="23.612725"><ele>107.31</ele></trkpt>
<trkpt lat="35.248736" lon="23.612811999999998"><ele>104.45</ele></trkpt>
<trkpt lat="35.248501" lon="23.612907999999997"><ele>103.52</ele></trkpt>
<trkpt lat="35.248417" lon="23.613049"><ele>103.02</ele></trkpt>
<trkpt lat="35.24841" lon="23.613152"><ele>102.74</ele></trkpt>
<trkpt lat="35.24852500000001" lon="23.613330999999995"><ele>102.14</ele></trkpt>
<trkpt lat="35.248806" lon="23.613482"><ele>101.21</ele></trkpt>
<trkpt lat="35.249255000000005" lon="23.613669"><ele>99.84</ele></trkpt>
<trkpt lat="35.249342" lon="23.613795"><ele>99.48</ele></trkpt>
<trkpt lat="35.249345" lon="23.613940999999997"><ele>99.17</ele></trkpt>
<trkpt lat="35.249224000000005" lon="23.614050999999996"><ele>98.82</ele></trkpt>
<trkpt lat="35.249038000000006" lon="23.614073999999995"><ele>98.44</ele></trkpt>
<trkpt lat="35.248583" lon="23.614072"><ele>97.62</ele></trkpt>
<trkpt lat="35.247539" lon="23.614238"><ele>94.88</ele></trkpt>
<trkpt lat="35.247313" lon="23.614298"><ele>93.95</ele></trkpt>
<trkpt lat="35.247094" lon="23.614406"><ele>92.88</ele></trkpt>
<trkpt lat="35.246700999999995" lon="23.614681"><ele>90.67</ele></trkpt>
<trkpt lat="35.246373" lon="23.614992000000004"><ele>88.58</ele></trkpt>
<trkpt lat="35.24626" lon="23.615075999999995"><ele>87.9</ele></trkpt>
<trkpt lat="35.245695" lon="23.615284000000003"><ele>84.88</ele></trkpt>
<trkpt lat="35.24539099999999" lon="23.615443999999997"><ele>83.24</ele></trkpt>
<trkpt lat="35.245262" lon="23.615367999999997"><ele>82.54</ele></trkpt>
<trkpt lat="35.244996" lon="23.614642999999994"><ele>79.56</ele></trkpt>
<trkpt lat="35.24482" lon="23.614542"><ele>78.65</ele></trkpt>
<trkpt lat="35.244089" lon="23.614678"><ele>75.23</ele></trkpt>
<trkpt lat="35.2430787" lon="23.614896899999998"><ele>70.83</ele></trkpt>
<trkpt lat="35.242321000000004" lon="23.615061"><ele>68.54</ele></trkpt>
<trkpt lat="35.241597" lon="23.615128999999996"><ele>67.18</ele></trkpt>
<trkpt lat="35.242795" lon="23.617325"><ele>65.03</ele></trkpt>
<trkpt lat="35.243465" lon="23.618139"><ele>64.19</ele></trkpt>
<trkpt lat="35.24358399999999" lon="23.618349999999996"><ele>63.9</ele></trkpt>
<trkpt lat="35.243616" lon="23.61863"><ele>63.45</ele></trkpt>
<trkpt lat="35.24355" lon="23.619168"><ele>62.29</ele></trkpt>
<trkpt lat="35.243486" lon="23.620501"><ele>58.59</ele></trkpt>
<trkpt lat="35.243446999999996" lon="23.620687"><ele>57.88</ele></trkpt>
<trkpt lat="35.243002" lon="23.620789"><ele>55.38</ele></trkpt>
<trkpt lat="35.24188" lon="23.620937"><ele>48.45</ele></trkpt>
<trkpt lat="35.23966" lon="23.621293999999995"><ele>36.02</ele></trkpt>
<trkpt lat="35.237581" lon="23.621972"><ele>24.95</ele></trkpt>
<trkpt lat="35.237532" lon="23.622132999999994"><ele>24.34</ele></trkpt>
<trkpt lat="35.23696000000001" lon="23.623059000000005"><ele>21.15</ele></trkpt>
</trkseg>
</trk></gpx>
