<?xml version="1.0" encoding="utf-8"?>
<gpx xmlns:xsd="http://www.w3.org/2001/XMLSchema" xmlns:xsi="http://www.w3.org/2001/XMLSchema-instance" version="1.1" creator="Geo::Gpx" xsi:schemaLocation="http://www.topografix.com/GPX/1/1 http://www.topografix.com/GPX/1/1/gpx.xsd" xmlns="http://www.topografix.com/GPX/1/1">
<metadata>
<name>Cadel Evans Road Race Finishing Circuit - 21k 323m</name>
<time>2026-08-21T17:00:11Z</time>
<keywords>processGPX</keywords>
<bounds maxlat="-38.1298795084162" maxlon="144.384221122667" minlat="-38.1691096191988" minlon="144.310992094187" />
</metadata>
<trk>
<extensions></extensions>
<name>Cadel Evans Road Race Finishing Circuit - 21k 323m</name>
<trkseg>
<trkpt lat="-38.1444185478063" lon="144.362868473056">
<ele>2.23620725530973</ele>
</trkpt>
<trkpt lat="-38.1446005945419" lon="144.363309487707">
<ele>2.24268169519802</ele>
</trkpt>
<trkpt lat="-38.1448147420609" lon="144.3638245145">
<ele>2.58950238867246</ele>
</trkpt>
<trkpt lat="-38.1449989899713" lon="144.36427781913">
<ele>3.18096848530745</ele>
</trkpt>
<trkpt lat="-38.1450669644424" lon="144.364426627584">
<ele>3.51080184938578</ele>
</trkpt>
<trkpt lat="-38.1451128374326" lon="144.36449237712">
<ele>3.7196385130166</ele>
</trkpt>
<trkpt lat="-38.1451816254233" lon="144.364517057835">
<ele>3.97113610546546</ele>
</trkpt>
<trkpt lat="-38.1452589877456" lon="144.364497036516">
<ele>4.28181009998528</ele>
</trkpt>
<trkpt lat="-38.1457198402902" lon="144.364295477543">
<ele>6.67052077622201</ele>
</trkpt>
<trkpt lat="-38.1458893059621" lon="144.364227213674">
<ele>7.40818518671446</ele>
</trkpt>
<trkpt lat="-38.1459571995908" lon="144.364246223672">
<ele>7.64177907963185</ele>
</trkpt>
<trkpt lat="-38.1460136764491" lon="144.364352051881">
<ele>7.88838090892243</ele>
</trkpt>
<trkpt lat="-38.146112189325" lon="144.364664059142">
<ele>8.09751665935591</ele>
</trkpt>
<trkpt lat="-38.1461889146739" lon="144.364924278745">
<ele>7.93138825023269</ele>
</trkpt>
<trkpt lat="-38.1464081519586" lon="144.365679262497">
<ele>6.82599595209101</ele>
</trkpt>
<trkpt lat="-38.1465317113291" lon="144.366152754058">
<ele>6.21204560775019</ele>
</trkpt>
<trkpt lat="-38.1466050536214" lon="144.366433627712">
<ele>6.12782362623786</ele>
</trkpt>
<trkpt lat="-38.1466718260936" lon="144.366675795546">
<ele>6.34743450848542</ele>
</trkpt>
<trkpt lat="-38.1467422906795" lon="144.366899991364">
<ele>6.84510910369036</ele>
</trkpt>
<trkpt lat="-38.1468341278638" lon="144.367162525898">
<ele>7.72434968682867</ele>
</trkpt>
<trkpt lat="-38.1471792531613" lon="144.368397546114">
<ele>12.9246875773514</ele>
</trkpt>
<trkpt lat="-38.1473049640638" lon="144.368835163782">
<ele>14.4494342372559</ele>
</trkpt>
<trkpt lat="-38.1473997290605" lon="144.369171972825">
<ele>15.2009961815509</ele>
</trkpt>
<trkpt lat="-38.1475736115066" lon="144.369860712588">
<ele>15.8813203259474</ele>
</trkpt>
<trkpt lat="-38.1476431250912" lon="144.370141936534">
<ele>16.3694085260703</ele>
</trkpt>
<trkpt lat="-38.1477239693921" lon="144.370519428812">
<ele>17.531180320248</ele>
</trkpt>
<trkpt lat="-38.1478302008148" lon="144.371131684634">
<ele>19.8925229876919</ele>
</trkpt>
<trkpt lat="-38.1478827798069" lon="144.37144624421">
<ele>20.8846755396431</ele>
</trkpt>
<trkpt lat="-38.1479278227848" lon="144.371745340742">
<ele>21.4565033526902</ele>
</trkpt>
<trkpt lat="-38.1479491644965" lon="144.372018583206">
<ele>21.6888786048693</ele>
</trkpt>
<trkpt lat="-38.1479909450631" lon="144.372657294505">
<ele>21.7725128318022</ele>
</trkpt>
<trkpt lat="-38.1480163632206" lon="144.373078767127">
<ele>21.5935069508978</ele>
</trkpt>
<trkpt lat="-38.1480064983482" lon="144.374284791756">
<ele>19.9697767021382</ele>
</trkpt>
<trkpt lat="-38.1479969195798" lon="144.374434561896">
<ele>19.7249649485114</ele>
</trkpt>
<trkpt lat="-38.1479731109485" lon="144.374518294469">
<ele>19.5634264604457</ele>
</trkpt>
<trkpt lat="-38.1478697887882" lon="144.374608662254">
<ele>19.233537223652</ele>
</trkpt>
<trkpt lat="-38.1474355913089" lon="144.374836262574">
<ele>17.5303879811899</ele>
</trkpt>
<trkpt lat="-38.1473009773529" lon="144.374935607284">
<ele>16.8483941314531</ele>
</trkpt>
<trkpt lat="-38.1472069120913" lon="144.375031171079">
<ele>16.2993293460735</ele>
</trkpt>
<trkpt lat="-38.1470794399246" lon="144.375230311138">
<ele>15.3861091190708</ele>
</trkpt>
<trkpt lat="-38.1465485150574" lon="144.376208235367">
<ele>10.9866645089405</ele>
</trkpt>
<trkpt lat="-38.1464064205889" lon="144.376499935642">
<ele>10.0156664705435</ele>
</trkpt>
<trkpt lat="-38.1463101351322" lon="144.37673708076">
<ele>9.4960289972438</ele>
</trkpt>
<trkpt lat="-38.1462061858384" lon="144.377038600402">
<ele>9.18396179100463</ele>
</trkpt>
<trkpt lat="-38.1460225018691" lon="144.37760911056">
<ele>9.03417913503583</ele>
</trkpt>
<trkpt lat="-38.1459183857825" lon="144.377902589919">
<ele>8.69112248050041</ele>
</trkpt>
<trkpt lat="-38.1457074818344" lon="144.378384416792">
<ele>7.65898770450355</ele>
</trkpt>
<trkpt lat="-38.145519224159" lon="144.378777503022">
<ele>7.10841157027435</ele>
</trkpt>
<trkpt lat="-38.145005340786" lon="144.379970320525">
<ele>6.19412411585205</ele>
</trkpt>
<trkpt lat="-38.1447659507424" lon="144.380633069648">
<ele>5.91525205411787</ele>
</trkpt>
<trkpt lat="-38.1444839136756" lon="144.381508519194">
<ele>5.94858144700221</ele>
</trkpt>
<trkpt lat="-38.144364836538" lon="144.381914055516">
<ele>6.24410133747627</ele>
</trkpt>
<trkpt lat="-38.1443404263685" lon="144.382045901671">
<ele>6.45786265377147</ele>
</trkpt>
<trkpt lat="-38.1443341216031" lon="144.382177374543">
<ele>6.73158204914019</ele>
</trkpt>
<trkpt lat="-38.1443666191061" lon="144.382546341407">
<ele>7.7712533405597</ele>
</trkpt>
<trkpt lat="-38.1444099174223" lon="144.382746671617">
<ele>8.45727398420824</ele>
</trkpt>
<trkpt lat="-38.1444693843524" lon="144.382907443781">
<ele>9.09540838146409</ele>
</trkpt>
<trkpt lat="-38.1445537173061" lon="144.38305901101">
<ele>9.85151404531046</ele>
</trkpt>
<trkpt lat="-38.1446623606779" lon="144.383195792324">
<ele>10.7774203951515</ele>
</trkpt>
<trkpt lat="-38.1448360437566" lon="144.383334746784">
<ele>12.3435435423415</ele>
</trkpt>
<trkpt lat="-38.1450275136079" lon="144.383442572112">
<ele>14.2453636379812</ele>
</trkpt>
<trkpt lat="-38.1452305603168" lon="144.383520155892">
<ele>16.3105338078501</ele>
</trkpt>
<trkpt lat="-38.1454147097636" lon="144.383536783336">
<ele>17.9843226788468</ele>
</trkpt>
<trkpt lat="-38.145524541375" lon="144.383584336397">
<ele>18.9014574153107</ele>
</trkpt>
<trkpt lat="-38.1456036659279" lon="144.383678981634">
<ele>19.6479123721002</ele>
</trkpt>
<trkpt lat="-38.1457039473335" lon="144.383876417573">
<ele>20.7163234144308</ele>
</trkpt>
<trkpt lat="-38.145807127206" lon="144.384026745354">
<ele>21.3845665097722</ele>
</trkpt>
<trkpt lat="-38.1459626303136" lon="144.384141489303">
<ele>21.9729081724859</ele>
</trkpt>
<trkpt lat="-38.1461602110781" lon="144.384208125998">
<ele>22.4835430945727</ele>
</trkpt>
<trkpt lat="-38.146321306603" lon="144.384221122667">
<ele>22.8175469907065</ele>
</trkpt>
<trkpt lat="-38.1465921807984" lon="144.384175141652">
<ele>23.2952991320319</ele>
</trkpt>
<trkpt lat="-38.1468531756382" lon="144.384112401068">
<ele>23.5702528831615</ele>
</trkpt>
<trkpt lat="-38.1471069862078" lon="144.384031985476">
<ele>23.4909340568834</ele>
</trkpt>
<trkpt lat="-38.1474236348202" lon="144.383904333614">
<ele>22.7923992427335</ele>
</trkpt>
<trkpt lat="-38.1479577377456" lon="144.383715950138">
<ele>20.8079789930532</ele>
</trkpt>
<trkpt lat="-38.1482250901674" lon="144.383629694997">
<ele>19.9674201845211</ele>
</trkpt>
<trkpt lat="-38.1487268171427" lon="144.383406842139">
<ele>19.0806401078038</ele>
</trkpt>
<trkpt lat="-38.1488901985057" lon="144.383297489393">
<ele>18.7052411371641</ele>
</trkpt>
<trkpt lat="-38.1490481664877" lon="144.383163819963">
<ele>18.1143426814637</ele>
</trkpt>
<trkpt lat="-38.1496806049995" lon="144.382529607172">
<ele>14.5046186650046</ele>
</trkpt>
<trkpt lat="-38.1500572277498" lon="144.382148261824">
<ele>12.9532478948688</ele>
</trkpt>
<trkpt lat="-38.1503318124081" lon="144.381867848197">
<ele>12.1801088049019</ele>
</trkpt>
<trkpt lat="-38.1506150527761" lon="144.381579950299">
<ele>11.6742040132326</ele>
</trkpt>
<trkpt lat="-38.1509873034626" lon="144.381226428024">
<ele>11.4543410528986</ele>
</trkpt>
<trkpt lat="-38.1511505177746" lon="144.381026417664">
<ele>11.4753971268491</ele>
</trkpt>
<trkpt lat="-38.1512445403176" lon="144.380859109174">
<ele>11.5133561552701</ele>
</trkpt>
<trkpt lat="-38.1513873874138" lon="144.380526762817">
<ele>11.6061193561816</ele>
</trkpt>
<trkpt lat="-38.1515008648031" lon="144.380169560468">
<ele>11.7567596897588</ele>
</trkpt>
<trkpt lat="-38.151558750903" lon="144.379891703583">
<ele>11.9599951320741</ele>
</trkpt>
<trkpt lat="-38.1516095297313" lon="144.379539165154">
<ele>12.3975032948486</ele>
</trkpt>
<trkpt lat="-38.1516385626638" lon="144.379241552558">
<ele>12.969884647617</ele>
</trkpt>
<trkpt lat="-38.1516495387792" lon="144.378879751878">
<ele>13.929658238938</ele>
</trkpt>
<trkpt lat="-38.1516492129312" lon="144.378456190671">
<ele>15.3420546241838</ele>
</trkpt>
<trkpt lat="-38.1516247547751" lon="144.37800845599">
<ele>16.9826596845383</ele>
</trkpt>
<trkpt lat="-38.1515891329674" lon="144.377762099903">
<ele>17.9267584235367</ele>
</trkpt>
<trkpt lat="-38.1515171442536" lon="144.377449719397">
<ele>19.1717854321462</ele>
</trkpt>
<trkpt lat="-38.1513447002654" lon="144.37682552515">
<ele>21.7728817258383</ele>
</trkpt>
<trkpt lat="-38.1512307606132" lon="144.376442464336">
<ele>23.2743838614994</ele>
</trkpt>
<trkpt lat="-38.1510798403867" lon="144.375910620861">
<ele>25.0550080803455</ele>
</trkpt>
<trkpt lat="-38.1509535337289" lon="144.375485751988">
<ele>26.1762523036273</ele>
</trkpt>
<trkpt lat="-38.1508263569868" lon="144.375055538165">
<ele>26.9771443619145</ele>
</trkpt>
<trkpt lat="-38.1507756559399" lon="144.374796287855">
<ele>27.2586893425562</ele>
</trkpt>
<trkpt lat="-38.1507525524532" lon="144.374458123271">
<ele>27.4239240642187</ele>
</trkpt>
<trkpt lat="-38.1508050773396" lon="144.37392142827">
<ele>27.3134595496828</ele>
</trkpt>
<trkpt lat="-38.1508461237525" lon="144.373359255363">
<ele>26.8471268135791</ele>
</trkpt>
<trkpt lat="-38.1508231255372" lon="144.373263414044">
<ele>26.7342307255373</ele>
</trkpt>
<trkpt lat="-38.1507227116911" lon="144.373132045669">
<ele>26.5095464018287</ele>
</trkpt>
<trkpt lat="-38.1506746078955" lon="144.373016773486">
<ele>26.3380007343463</ele>
</trkpt>
<trkpt lat="-38.1505434615181" lon="144.372518751673">
<ele>25.5791782889722</ele>
</trkpt>
<trkpt lat="-38.1503697195454" lon="144.371944939543">
<ele>24.4105928350714</ele>
</trkpt>
<trkpt lat="-38.1502383419264" lon="144.371467276357">
<ele>23.1169011668303</ele>
</trkpt>
<trkpt lat="-38.149927264179" lon="144.370383002278">
<ele>19.8386304584009</ele>
</trkpt>
<trkpt lat="-38.1497787152626" lon="144.369797114157">
<ele>18.4761877650535</ele>
</trkpt>
<trkpt lat="-38.1494383056897" lon="144.368595609579">
<ele>16.605438732132</ele>
</trkpt>
<trkpt lat="-38.1493064258885" lon="144.368288880766">
<ele>16.1049748102479</ele>
</trkpt>
<trkpt lat="-38.14928668579" lon="144.368109901558">
<ele>15.8344470453063</ele>
</trkpt>
<trkpt lat="-38.1492210812992" lon="144.367847489321">
<ele>15.4271089823196</ele>
</trkpt>
<trkpt lat="-38.1489700389924" lon="144.366970128768">
<ele>14.2263091223868</ele>
</trkpt>
<trkpt lat="-38.1485598005842" lon="144.365544072745">
<ele>12.636123306753</ele>
</trkpt>
<trkpt lat="-38.148324418721" lon="144.364654730882">
<ele>11.9779886197415</ele>
</trkpt>
<trkpt lat="-38.1480563030994" lon="144.363758471746">
<ele>11.4724032314171</ele>
</trkpt>
<trkpt lat="-38.1479588990686" lon="144.363430882948">
<ele>11.4698621316732</ele>
</trkpt>
<trkpt lat="-38.1479516596703" lon="144.363372268044">
<ele>11.4862309887251</ele>
</trkpt>
<trkpt lat="-38.1479628780715" lon="144.363333052277">
<ele>11.4997411349041</ele>
</trkpt>
<trkpt lat="-38.1480148302678" lon="144.363289097623">
<ele>11.5334254694287</ele>
</trkpt>
<trkpt lat="-38.1485710972414" lon="144.363047231628">
<ele>12.2778724049775</ele>
</trkpt>
<trkpt lat="-38.1488851298911" lon="144.362904282379">
<ele>13.0836630598097</ele>
</trkpt>
<trkpt lat="-38.1491994281114" lon="144.362751352739">
<ele>14.2010254538617</ele>
</trkpt>
<trkpt lat="-38.14963434938" lon="144.36255515597">
<ele>16.1793280177342</ele>
</trkpt>
<trkpt lat="-38.1500959672875" lon="144.36234868371">
<ele>18.5946471601897</ele>
</trkpt>
<trkpt lat="-38.1503534719268" lon="144.362204703362">
<ele>20.0295000976706</ele>
</trkpt>
<trkpt lat="-38.1505541473091" lon="144.362057953995">
<ele>21.1991292373366</ele>
</trkpt>
<trkpt lat="-38.1510621884154" lon="144.361846439573">
<ele>23.9623251675564</ele>
</trkpt>
<trkpt lat="-38.1520834838131" lon="144.361374835752">
<ele>29.7812985344073</ele>
</trkpt>
<trkpt lat="-38.1526013523771" lon="144.361134725796">
<ele>32.3806941216373</ele>
</trkpt>
<trkpt lat="-38.1530465731212" lon="144.360929185543">
<ele>34.1908019022921</ele>
</trkpt>
<trkpt lat="-38.1533226052954" lon="144.360800903325">
<ele>34.9959950629652</ele>
</trkpt>
<trkpt lat="-38.1536330081778" lon="144.360656713634">
<ele>35.5690785922096</ele>
</trkpt>
<trkpt lat="-38.1539569544623" lon="144.360507410637">
<ele>35.6414475860604</ele>
</trkpt>
<trkpt lat="-38.1541068671159" lon="144.3604362446">
<ele>35.4257068814915</ele>
</trkpt>
<trkpt lat="-38.1542876483965" lon="144.360355988838">
<ele>34.9213135094202</ele>
</trkpt>
<trkpt lat="-38.1545995132283" lon="144.360217079697">
<ele>33.4592581512647</ele>
</trkpt>
<trkpt lat="-38.1551704221695" lon="144.359948277828">
<ele>29.8821496132641</ele>
</trkpt>
<trkpt lat="-38.155858852033" lon="144.359629267581">
<ele>25.1964441338671</ele>
</trkpt>
<trkpt lat="-38.1562566343034" lon="144.359584667571">
<ele>23.0698864459059</ele>
</trkpt>
<trkpt lat="-38.1564577710706" lon="144.359374992772">
<ele>21.9711133475849</ele>
</trkpt>
<trkpt lat="-38.1567318078876" lon="144.359225531491">
<ele>20.8693300684733</ele>
</trkpt>
<trkpt lat="-38.1570543512397" lon="144.359076065522">
<ele>19.861652177772</ele>
</trkpt>
<trkpt lat="-38.1573335937015" lon="144.358948780048">
<ele>19.2135403532766</ele>
</trkpt>
<trkpt lat="-38.1576641399251" lon="144.358794262884">
<ele>18.7312132536137</ele>
</trkpt>
<trkpt lat="-38.1577980664371" lon="144.358697481197">
<ele>18.5992542332156</ele>
</trkpt>
<trkpt lat="-38.1578156684363" lon="144.358640228867">
<ele>18.5655173211228</ele>
</trkpt>
<trkpt lat="-38.1578017825592" lon="144.35857645374">
<ele>18.5347218719342</ele>
</trkpt>
<trkpt lat="-38.1574686353418" lon="144.358023391283">
<ele>18.4840465266309</ele>
</trkpt>
<trkpt lat="-38.1572150184172" lon="144.357621256063">
<ele>18.6002253001652</ele>
</trkpt>
<trkpt lat="-38.1569807802567" lon="144.357286718302">
<ele>18.6758819170632</ele>
</trkpt>
<trkpt lat="-38.1565298180942" lon="144.356646034224">
<ele>18.3279442937777</ele>
</trkpt>
<trkpt lat="-38.1565005683371" lon="144.356561981646">
<ele>18.2835562563766</ele>
</trkpt>
<trkpt lat="-38.1565315568229" lon="144.356492493182">
<ele>18.2528123849207</ele>
</trkpt>
<trkpt lat="-38.1574852919656" lon="144.35604049398">
<ele>18.0325191739077</ele>
</trkpt>
<trkpt lat="-38.1594859192791" lon="144.355131170159">
<ele>16.4728193757623</ele>
</trkpt>
<trkpt lat="-38.1602365370795" lon="144.354782276412">
<ele>15.6838120375604</ele>
</trkpt>
<trkpt lat="-38.161522674079" lon="144.354195984668">
<ele>13.7763110674682</ele>
</trkpt>
<trkpt lat="-38.1626966464592" lon="144.353666867448">
<ele>10.7744363236565</ele>
</trkpt>
<trkpt lat="-38.1631117348433" lon="144.353467322529">
<ele>9.9631774501794</ele>
</trkpt>
<trkpt lat="-38.1634450067216" lon="144.353317235831">
<ele>9.49605073565388</ele>
</trkpt>
<trkpt lat="-38.1657826746947" lon="144.35225298572">
<ele>8.61027307490907</ele>
</trkpt>
<trkpt lat="-38.1660508704476" lon="144.352121110412">
<ele>8.40017028839254</ele>
</trkpt>
<trkpt lat="-38.1663672496755" lon="144.35192597556">
<ele>7.85175451681584</ele>
</trkpt>
<trkpt lat="-38.166691442492" lon="144.351650907205">
<ele>7.09899385246737</ele>
</trkpt>
<trkpt lat="-38.1671271850212" lon="144.3512024521">
<ele>6.22357615436967</ele>
</trkpt>
<trkpt lat="-38.1674033491457" lon="144.350864720551">
<ele>5.63460631049894</ele>
</trkpt>
<trkpt lat="-38.1674453170154" lon="144.350784716221">
<ele>5.4908253922623</ele>
</trkpt>
<trkpt lat="-38.1674426611019" lon="144.350673328454">
<ele>5.30928412847173</ele>
</trkpt>
<trkpt lat="-38.1674110885439" lon="144.350620269266">
<ele>5.19865115976234</ele>
</trkpt>
<trkpt lat="-38.1673628905113" lon="144.350586477749">
<ele>5.0816057859507</ele>
</trkpt>
<trkpt lat="-38.1671286597043" lon="144.350518304043">
<ele>4.60767664775567</ele>
</trkpt>
<trkpt lat="-38.1668674570447" lon="144.35046110625">
<ele>4.24623734154507</ele>
</trkpt>
<trkpt lat="-38.1664135549866" lon="144.350363598178">
<ele>3.98289541650687</ele>
</trkpt>
<trkpt lat="-38.1661798163967" lon="144.350283860108">
<ele>3.8767907566923</ele>
</trkpt>
<trkpt lat="-38.1657480206074" lon="144.350094829634">
<ele>3.82567362467329</ele>
</trkpt>
<trkpt lat="-38.1651325016471" lon="144.349787662274">
<ele>4.49429053828219</ele>
</trkpt>
<trkpt lat="-38.1648930295891" lon="144.349658145026">
<ele>4.25629157222046</ele>
</trkpt>
<trkpt lat="-38.1647846541654" lon="144.349550526186">
<ele>4.00386134865593</ele>
</trkpt>
<trkpt lat="-38.1647152023975" lon="144.349375920616">
<ele>3.74083036048635</ele>
</trkpt>
<trkpt lat="-38.1646846208329" lon="144.349038245164">
<ele>3.58934843200331</ele>
</trkpt>
<trkpt lat="-38.1646392176383" lon="144.348252188315">
<ele>3.99798698219255</ele>
</trkpt>
<trkpt lat="-38.1645951006001" lon="144.347466124842">
<ele>3.707579564314</ele>
</trkpt>
<trkpt lat="-38.1645752393163" lon="144.346978343841">
<ele>3.73037489414358</ele>
</trkpt>
<trkpt lat="-38.1645968300795" lon="144.346366146327">
<ele>3.91292048809878</ele>
</trkpt>
<trkpt lat="-38.1646302360392" lon="144.346117303437">
<ele>4.07019902878283</ele>
</trkpt>
<trkpt lat="-38.1646881001234" lon="144.345841991109">
<ele>4.1583974236687</ele>
</trkpt>
<trkpt lat="-38.164767794503" lon="144.345619978664">
<ele>4.05157038590675</ele>
</trkpt>
<trkpt lat="-38.1648806927659" lon="144.345358732771">
<ele>3.71150887712093</ele>
</trkpt>
<trkpt lat="-38.1650783329627" lon="144.345003395277">
<ele>3.22543613654422</ele>
</trkpt>
<trkpt lat="-38.1652267586885" lon="144.344742667388">
<ele>3.15583879521414</ele>
</trkpt>
<trkpt lat="-38.1656506905677" lon="144.34398692399">
<ele>3.94774953958225</ele>
</trkpt>
<trkpt lat="-38.1658568748407" lon="144.343579439555">
<ele>4.21325846226538</ele>
</trkpt>
<trkpt lat="-38.1664957029693" lon="144.34153725655">
<ele>4.58560496773653</ele>
</trkpt>
<trkpt lat="-38.1665738736928" lon="144.34125390431">
<ele>4.50166801489394</ele>
</trkpt>
<trkpt lat="-38.1666203579456" lon="144.340984237742">
<ele>4.39337210390616</ele>
</trkpt>
<trkpt lat="-38.1666143140899" lon="144.340654596172">
<ele>4.27744700668288</ele>
</trkpt>
<trkpt lat="-38.1665487696195" lon="144.339994047267">
<ele>4.22067711608872</ele>
</trkpt>
<trkpt lat="-38.1664701173993" lon="144.339138120817">
<ele>4.50610641856591</ele>
</trkpt>
<trkpt lat="-38.1664008158359" lon="144.338627505302">
<ele>4.78492603979909</ele>
</trkpt>
<trkpt lat="-38.1663267654711" lon="144.338282352544">
<ele>4.97355033569592</ele>
</trkpt>
<trkpt lat="-38.1660074721691" lon="144.337115791919">
<ele>5.73744223754477</ele>
</trkpt>
<trkpt lat="-38.1658223858969" lon="144.336490803238">
<ele>6.23165777537516</ele>
</trkpt>
<trkpt lat="-38.1656986589244" lon="144.336039903641">
<ele>6.83364014607357</ele>
</trkpt>
<trkpt lat="-38.1655902665122" lon="144.335613499438">
<ele>7.90088654316074</ele>
</trkpt>
<trkpt lat="-38.1655336421129" lon="144.335265921291">
<ele>9.248258138105</ele>
</trkpt>
<trkpt lat="-38.1655323874489" lon="144.335094009287">
<ele>10.0514505726843</ele>
</trkpt>
<trkpt lat="-38.1655495808482" lon="144.334930389788">
<ele>10.8871687524547</ele>
</trkpt>
<trkpt lat="-38.1656344309722" lon="144.334625170727">
<ele>12.607607381332</ele>
</trkpt>
<trkpt lat="-38.1657805795302" lon="144.334356586099">
<ele>14.2540199884568</ele>
</trkpt>
<trkpt lat="-38.1659367446255" lon="144.334154958221">
<ele>15.4967010414019</ele>
</trkpt>
<trkpt lat="-38.1663535228479" lon="144.333753291414">
<ele>17.7301810079417</ele>
</trkpt>
<trkpt lat="-38.1666591138023" lon="144.333453367603">
<ele>18.8308203866288</ele>
</trkpt>
<trkpt lat="-38.1668483868817" lon="144.333247080618">
<ele>19.2395741540017</ele>
</trkpt>
<trkpt lat="-38.1670823906753" lon="144.332947682297">
<ele>19.3818344956065</ele>
</trkpt>
<trkpt lat="-38.1673310638476" lon="144.332634092668">
<ele>19.1696017432869</ele>
</trkpt>
<trkpt lat="-38.1675577898102" lon="144.332348860374">
<ele>18.574416947777</ele>
</trkpt>
<trkpt lat="-38.167825091523" lon="144.332000444278">
<ele>17.1271972825317</ele>
</trkpt>
<trkpt lat="-38.1680383791592" lon="144.331746151585">
<ele>15.6028219587018</ele>
</trkpt>
<trkpt lat="-38.1681190798106" lon="144.331616448945">
<ele>14.8897762938504</ele>
</trkpt>
<trkpt lat="-38.1682063990468" lon="144.331395283469">
<ele>13.8720787364049</ele>
</trkpt>
<trkpt lat="-38.1683208267658" lon="144.331006733591">
<ele>12.5064368256853</ele>
</trkpt>
<trkpt lat="-38.168597219306" lon="144.330365982143">
<ele>10.7700083564816</ele>
</trkpt>
<trkpt lat="-38.1686439631577" lon="144.330176066111">
<ele>10.3159329897852</ele>
</trkpt>
<trkpt lat="-38.1686943279769" lon="144.329836272726">
<ele>9.58574916865635</ele>
</trkpt>
<trkpt lat="-38.1687403590004" lon="144.329508170934">
<ele>9.11589642510501</ele>
</trkpt>
<trkpt lat="-38.1687813848257" lon="144.32923882589">
<ele>8.90909423956898</ele>
</trkpt>
<trkpt lat="-38.1688354934322" lon="144.328939480497">
<ele>8.85367051889356</ele>
</trkpt>
<trkpt lat="-38.1688821744429" lon="144.328755444487">
<ele>8.89689202263824</ele>
</trkpt>
<trkpt lat="-38.1691008116083" lon="144.328238579746">
<ele>9.20132758991499</ele>
</trkpt>
<trkpt lat="-38.1691096191988" lon="144.328152431532">
<ele>9.24148150146987</ele>
</trkpt>
<trkpt lat="-38.1690818019839" lon="144.328028781218">
<ele>9.28617898675501</ele>
</trkpt>
<trkpt lat="-38.1689950598584" lon="144.327876999969">
<ele>9.31137578838961</ele>
</trkpt>
<trkpt lat="-38.1689282848527" lon="144.327797316651">
<ele>9.3026892151738</ele>
</trkpt>
<trkpt lat="-38.1688356886571" lon="144.327719047668">
<ele>9.27212019229937</ele>
</trkpt>
<trkpt lat="-38.1687346801139" lon="144.327664490693">
<ele>9.23044636945357</ele>
</trkpt>
<trkpt lat="-38.1685546949643" lon="144.327627830101">
<ele>9.17686181932233</ele>
</trkpt>
<trkpt lat="-38.1682402999907" lon="144.327637561283">
<ele>9.2808456725015</ele>
</trkpt>
<trkpt lat="-38.1681386229267" lon="144.327617765581">
<ele>9.39646028415266</ele>
</trkpt>
<trkpt lat="-38.1680312995719" lon="144.327571257911">
<ele>9.58057158860272</ele>
</trkpt>
<trkpt lat="-38.1678862017771" lon="144.327455132273">
<ele>9.95577628101411</ele>
</trkpt>
<trkpt lat="-38.1676255501192" lon="144.327152866686">
<ele>11.007699647281</ele>
</trkpt>
<trkpt lat="-38.1674297851293" lon="144.326983553058">
<ele>11.8266826949246</ele>
</trkpt>
<trkpt lat="-38.1672873592517" lon="144.326908054915">
<ele>12.3538408852485</ele>
</trkpt>
<trkpt lat="-38.1669466220149" lon="144.326814827094">
<ele>13.4565670311961</ele>
</trkpt>
<trkpt lat="-38.1668346400179" lon="144.326758723785">
<ele>13.820439168013</ele>
</trkpt>
<trkpt lat="-38.1667468289767" lon="144.326672346639">
<ele>14.1582338350099</ele>
</trkpt>
<trkpt lat="-38.1658802314224" lon="144.325553319722">
<ele>18.1994518829929</ele>
</trkpt>
<trkpt lat="-38.1655208478581" lon="144.325166091267">
<ele>19.659174163116</ele>
</trkpt>
<trkpt lat="-38.1652464634715" lon="144.324886813446">
<ele>20.2856265929102</ele>
</trkpt>
<trkpt lat="-38.1650466910211" lon="144.324714115425">
<ele>20.3739030316289</ele>
</trkpt>
<trkpt lat="-38.164757176453" lon="144.324495221323">
<ele>20.0408260275547</ele>
</trkpt>
<trkpt lat="-38.1639715253235" lon="144.32402495848">
<ele>18.3809080441512</ele>
</trkpt>
<trkpt lat="-38.1637144035699" lon="144.323901928497">
<ele>17.9907007040845</ele>
</trkpt>
<trkpt lat="-38.1635997708059" lon="144.32383580286">
<ele>17.9305856782528</ele>
</trkpt>
<trkpt lat="-38.1634441661469" lon="144.323692101862">
<ele>17.9969025406219</ele>
</trkpt>
<trkpt lat="-38.1629656202188" lon="144.323165218244">
<ele>18.459159496137</ele>
</trkpt>
<trkpt lat="-38.1627685945262" lon="144.322945471425">
<ele>18.2472225930286</ele>
</trkpt>
<trkpt lat="-38.1623610354576" lon="144.322516561374">
<ele>17.3940776244414</ele>
</trkpt>
<trkpt lat="-38.1622521540016" lon="144.322412180526">
<ele>17.3913922791525</ele>
</trkpt>
<trkpt lat="-38.1621248094016" lon="144.3223047975">
<ele>17.6409383674936</ele>
</trkpt>
<trkpt lat="-38.1619705774108" lon="144.322175783122">
<ele>18.3294876979518</ele>
</trkpt>
<trkpt lat="-38.161831504698" lon="144.322062182574">
<ele>19.2830255080122</ele>
</trkpt>
<trkpt lat="-38.1616604781442" lon="144.321923280351">
<ele>20.8338671686536</ele>
</trkpt>
<trkpt lat="-38.1614892073116" lon="144.321783249405">
<ele>22.7124067681068</ele>
</trkpt>
<trkpt lat="-38.1613342308195" lon="144.32165264339">
<ele>24.6329815430235</ele>
</trkpt>
<trkpt lat="-38.1612026201575" lon="144.321521508938">
<ele>26.5149324626764</ele>
</trkpt>
<trkpt lat="-38.1610170916087" lon="144.32128824397">
<ele>29.5305323431668</ele>
</trkpt>
<trkpt lat="-38.1608673930447" lon="144.32108162488">
<ele>31.8993721758695</ele>
</trkpt>
<trkpt lat="-38.1606014306297" lon="144.320697361611">
<ele>35.8530817468025</ele>
</trkpt>
<trkpt lat="-38.1604047136533" lon="144.320507475101">
<ele>37.9548058722335</ele>
</trkpt>
<trkpt lat="-38.1603092336323" lon="144.320373723393">
<ele>39.1105465020543</ele>
</trkpt>
<trkpt lat="-38.1600838936813" lon="144.319922439082">
<ele>42.7973517769438</ele>
</trkpt>
<trkpt lat="-38.1599388501835" lon="144.319688096024">
<ele>45.1648224459158</ele>
</trkpt>
<trkpt lat="-38.1597441669851" lon="144.319381478563">
<ele>48.7904860311536</ele>
</trkpt>
<trkpt lat="-38.159525328795" lon="144.319043396974">
<ele>53.1740273860588</ele>
</trkpt>
<trkpt lat="-38.1593603088783" lon="144.318724433276">
<ele>56.8576392454263</ele>
</trkpt>
<trkpt lat="-38.1592725175498" lon="144.318524736797">
<ele>58.8923118945649</ele>
</trkpt>
<trkpt lat="-38.1592339235798" lon="144.318337834793">
<ele>60.519372168356</ele>
</trkpt>
<trkpt lat="-38.1592036303443" lon="144.317853777567">
<ele>64.5902328861273</ele>
</trkpt>
<trkpt lat="-38.1592054777713" lon="144.317312234139">
<ele>69.3385089219249</ele>
</trkpt>
<trkpt lat="-38.1592206095289" lon="144.317035767373">
<ele>71.5267632891266</ele>
</trkpt>
<trkpt lat="-38.1592412484963" lon="144.31687830889">
<ele>72.6118606420158</ele>
</trkpt>
<trkpt lat="-38.1592841374711" lon="144.316689867447">
<ele>73.7952973414361</ele>
</trkpt>
<trkpt lat="-38.159435014104" lon="144.316054417454">
<ele>77.3078484877465</ele>
</trkpt>
<trkpt lat="-38.1594937170777" lon="144.315793506348">
<ele>79.0255361453376</ele>
</trkpt>
<trkpt lat="-38.1595518820476" lon="144.315575135688">
<ele>80.6994671085434</ele>
</trkpt>
<trkpt lat="-38.1596303301286" lon="144.315398610161">
<ele>82.3572123101419</ele>
</trkpt>
<trkpt lat="-38.159749152535" lon="144.315224006367">
<ele>84.4449913437252</ele>
</trkpt>
<trkpt lat="-38.1597965696249" lon="144.315041099571">
<ele>86.2065197058714</ele>
</trkpt>
<trkpt lat="-38.1599406186489" lon="144.314623378811">
<ele>90.2558714350572</ele>
</trkpt>
<trkpt lat="-38.1602787429766" lon="144.313700609207">
<ele>98.8367976156492</ele>
</trkpt>
<trkpt lat="-38.1603618145723" lon="144.313492550932">
<ele>100.887416684545</ele>
</trkpt>
<trkpt lat="-38.1604455695514" lon="144.313323444623">
<ele>102.771913985407</ele>
</trkpt>
<trkpt lat="-38.1605792411553" lon="144.313144252467">
<ele>105.379080108211</ele>
</trkpt>
<trkpt lat="-38.1607370963074" lon="144.313024816273">
<ele>108.127899037305</ele>
</trkpt>
<trkpt lat="-38.1608797506257" lon="144.312967683257">
<ele>110.5326994343</ele>
</trkpt>
<trkpt lat="-38.1611466282607" lon="144.312927752521">
<ele>114.838020786578</ele>
</trkpt>
<trkpt lat="-38.1612806423854" lon="144.31290830661">
<ele>116.778397004519</ele>
</trkpt>
<trkpt lat="-38.1614441585991" lon="144.312883107251">
<ele>118.806996667735</ele>
</trkpt>
<trkpt lat="-38.1615939790281" lon="144.312867193929">
<ele>120.179361412199</ele>
</trkpt>
<trkpt lat="-38.1616938298951" lon="144.312828017185">
<ele>120.860143905041</ele>
</trkpt>
<trkpt lat="-38.1617415854501" lon="144.312762129869">
<ele>121.193126386675</ele>
</trkpt>
<trkpt lat="-38.1617635811867" lon="144.312681776849">
<ele>121.425167105962</ele>
</trkpt>
<trkpt lat="-38.1617545928572" lon="144.31250997128">
<ele>121.678067915773</ele>
</trkpt>
<trkpt lat="-38.1617346943635" lon="144.312318827389">
<ele>121.667169492961</ele>
</trkpt>
<trkpt lat="-38.1617112392804" lon="144.312107415117">
<ele>121.39027993583</ele>
</trkpt>
<trkpt lat="-38.1616785601025" lon="144.311861108357">
<ele>120.819287460408</ele>
</trkpt>
<trkpt lat="-38.1615907014166" lon="144.311394706594">
<ele>119.16513466941</ele>
</trkpt>
<trkpt lat="-38.1615465243128" lon="144.31130522512">
<ele>118.734797754751</ele>
</trkpt>
<trkpt lat="-38.1614940811693" lon="144.311248689903">
<ele>118.369375170933</ele>
</trkpt>
<trkpt lat="-38.1614316017121" lon="144.311213642344">
<ele>118.000027896241</ele>
</trkpt>
<trkpt lat="-38.1613467269326" lon="144.311203409834">
<ele>117.536230220328</ele>
</trkpt>
<trkpt lat="-38.1611542094583" lon="144.311262302286">
<ele>116.51781979142</ele>
</trkpt>
<trkpt lat="-38.1608041018185" lon="144.311321040658">
<ele>114.972060776827</ele>
</trkpt>
<trkpt lat="-38.1600610763117" lon="144.311451701917">
<ele>112.70008870513</ele>
</trkpt>
<trkpt lat="-38.1597387566362" lon="144.311512196676">
<ele>111.315326420844</ele>
</trkpt>
<trkpt lat="-38.1595524186525" lon="144.311546526605">
<ele>110.16574877157</ele>
</trkpt>
<trkpt lat="-38.159347629809" lon="144.311581964315">
<ele>108.640050931713</ele>
</trkpt>
<trkpt lat="-38.1583807919667" lon="144.311745748821">
<ele>99.8525063918855</ele>
</trkpt>
<trkpt lat="-38.158064764495" lon="144.311799217771">
<ele>97.5481117784748</ele>
</trkpt>
<trkpt lat="-38.1578157896043" lon="144.31184311346">
<ele>96.1544685453696</ele>
</trkpt>
<trkpt lat="-38.1575785061539" lon="144.311884557852">
<ele>95.2230787289471</ele>
</trkpt>
<trkpt lat="-38.1572719158165" lon="144.311930847097">
<ele>94.3847974195361</ele>
</trkpt>
<trkpt lat="-38.1569350807961" lon="144.311922503132">
<ele>93.6564560782844</ele>
</trkpt>
<trkpt lat="-38.1568091283179" lon="144.311893586884">
<ele>93.3512666173373</ele>
</trkpt>
<trkpt lat="-38.1566872602875" lon="144.311839745806">
<ele>92.9915345873247</ele>
</trkpt>
<trkpt lat="-38.1563904640557" lon="144.311650623309">
<ele>91.6505920073532</ele>
</trkpt>
<trkpt lat="-38.1561127117745" lon="144.311478728761">
<ele>89.7558048943476</ele>
</trkpt>
<trkpt lat="-38.155798368289" lon="144.311304079851">
<ele>87.1706289548356</ele>
</trkpt>
<trkpt lat="-38.1554197753753" lon="144.31116292234">
<ele>84.2039949140104</ele>
</trkpt>
<trkpt lat="-38.1549162416928" lon="144.311026970031">
<ele>80.7802576021104</ele>
</trkpt>
<trkpt lat="-38.1545850219589" lon="144.310992094187">
<ele>78.6777843992995</ele>
</trkpt>
<trkpt lat="-38.1543598244777" lon="144.311026555045">
<ele>77.2184935795715</ele>
</trkpt>
<trkpt lat="-38.154201097559" lon="144.311092333897">
<ele>76.1262468306667</ele>
</trkpt>
<trkpt lat="-38.1540462592169" lon="144.311181707627">
<ele>75.0094830703677</ele>
</trkpt>
<trkpt lat="-38.1538767213393" lon="144.311307043869">
<ele>73.7415777105319</ele>
</trkpt>
<trkpt lat="-38.1537677313282" lon="144.31141649289">
<ele>72.8667483944221</ele>
</trkpt>
<trkpt lat="-38.1536550171994" lon="144.311570741432">
<ele>71.8648034560609</ele>
</trkpt>
<trkpt lat="-38.153473467449" lon="144.311874852264">
<ele>70.1281414795593</ele>
</trkpt>
<trkpt lat="-38.1532893458615" lon="144.312124900221">
<ele>68.6454697042219</ele>
</trkpt>
<trkpt lat="-38.15300287016" lon="144.312665564984">
<ele>65.7920202937532</ele>
</trkpt>
<trkpt lat="-38.152861078809" lon="144.312842109254">
<ele>64.570878598302</ele>
</trkpt>
<trkpt lat="-38.152738312468" lon="144.312954510503">
<ele>63.5767028890934</ele>
</trkpt>
<trkpt lat="-38.1525345745485" lon="144.313083366615">
<ele>61.9342518624749</ele>
</trkpt>
<trkpt lat="-38.152264956436" lon="144.313219054151">
<ele>59.6489238074379</ele>
</trkpt>
<trkpt lat="-38.1512968415908" lon="144.313622679669">
<ele>51.1229347322962</ele>
</trkpt>
<trkpt lat="-38.1506680877466" lon="144.313910520364">
<ele>45.9539030364583</ele>
</trkpt>
<trkpt lat="-38.1504928330433" lon="144.314056238219">
<ele>44.3305145506338</ele>
</trkpt>
<trkpt lat="-38.1502421398267" lon="144.314301679078">
<ele>41.6292504407634</ele>
</trkpt>
<trkpt lat="-38.1497501056983" lon="144.314809166094">
<ele>35.6378700750593</ele>
</trkpt>
<trkpt lat="-38.1496424303664" lon="144.314951865576">
<ele>34.2427957007359</ele>
</trkpt>
<trkpt lat="-38.1495205794127" lon="144.315167154476">
<ele>32.5132141388623</ele>
</trkpt>
<trkpt lat="-38.1494278713422" lon="144.315355778014">
<ele>31.2354854819267</ele>
</trkpt>
<trkpt lat="-38.1493462937345" lon="144.31555150175">
<ele>30.080005822933</ele>
</trkpt>
<trkpt lat="-38.14927885557" lon="144.315765535276">
<ele>28.9572417041907</ele>
</trkpt>
<trkpt lat="-38.1492107651397" lon="144.316172752767">
<ele>26.9800074599997</ele>
</trkpt>
<trkpt lat="-38.149210154547" lon="144.316395628198">
<ele>25.8750014026429</ele>
</trkpt>
<trkpt lat="-38.1492313247658" lon="144.316616667053">
<ele>24.739710201295</ele>
</trkpt>
<trkpt lat="-38.1493152203404" lon="144.317135664085">
<ele>22.0707538130321</ele>
</trkpt>
<trkpt lat="-38.1493638883511" lon="144.317501032462">
<ele>20.4541412492819</ele>
</trkpt>
<trkpt lat="-38.1493930359581" lon="144.31782319647">
<ele>19.2748006529411</ele>
</trkpt>
<trkpt lat="-38.1493997810314" lon="144.318203765051">
<ele>18.1346206825957</ele>
</trkpt>
<trkpt lat="-38.1494000829608" lon="144.318527823712">
<ele>17.356453864726</ele>
</trkpt>
<trkpt lat="-38.1494046413761" lon="144.318960989068">
<ele>16.5763809024649</ele>
</trkpt>
<trkpt lat="-38.1494136073791" lon="144.3204120311">
<ele>14.7610731843728</ele>
</trkpt>
<trkpt lat="-38.1494197886766" lon="144.320817157976">
<ele>13.9451965487981</ele>
</trkpt>
<trkpt lat="-38.1494264453166" lon="144.321125712993">
<ele>13.0539757528845</ele>
</trkpt>
<trkpt lat="-38.1494485591149" lon="144.321355607812">
<ele>12.1871441819726</ele>
</trkpt>
<trkpt lat="-38.1494821588155" lon="144.321577602612">
<ele>11.1818449395538</ele>
</trkpt>
<trkpt lat="-38.1496235166014" lon="144.322251133643">
<ele>7.85327830524644</ele>
</trkpt>
<trkpt lat="-38.149687502462" lon="144.322509185117">
<ele>7.00146895478245</ele>
</trkpt>
<trkpt lat="-38.1497724286231" lon="144.322871615984">
<ele>6.3917626670201</ele>
</trkpt>
<trkpt lat="-38.1498329769786" lon="144.323139929278">
<ele>6.31890795399256</ele>
</trkpt>
<trkpt lat="-38.1498581366079" lon="144.323325348132">
<ele>6.50112919900033</ele>
</trkpt>
<trkpt lat="-38.1498649984933" lon="144.323512361639">
<ele>6.85858615337186</ele>
</trkpt>
<trkpt lat="-38.149848702934" lon="144.323778760737">
<ele>7.55051887628036</ele>
</trkpt>
<trkpt lat="-38.1497287099624" lon="144.324670365387">
<ele>10.1204553024094</ele>
</trkpt>
<trkpt lat="-38.149623419955" lon="144.32521797573">
<ele>11.7669676190283</ele>
</trkpt>
<trkpt lat="-38.1495432785474" lon="144.325828147248">
<ele>13.856314692614</ele>
</trkpt>
<trkpt lat="-38.1495160415504" lon="144.326083879037">
<ele>14.9298532819741</ele>
</trkpt>
<trkpt lat="-38.1495020015423" lon="144.326373867387">
<ele>16.3673246315415</ele>
</trkpt>
<trkpt lat="-38.1495066996059" lon="144.326532336587">
<ele>17.2682155766099</ele>
</trkpt>
<trkpt lat="-38.1495300339852" lon="144.326762458555">
<ele>18.763442235982</ele>
</trkpt>
<trkpt lat="-38.1495693226179" lon="144.327172807408">
<ele>21.9102347844672</ele>
</trkpt>
<trkpt lat="-38.1496219392583" lon="144.327526765161">
<ele>25.0808735102364</ele>
</trkpt>
<trkpt lat="-38.1496469358866" lon="144.327760482506">
<ele>27.3247652860095</ele>
</trkpt>
<trkpt lat="-38.1496711693384" lon="144.328042550246">
<ele>30.3119969017143</ele>
</trkpt>
<trkpt lat="-38.1496862113443" lon="144.328236499509">
<ele>32.5348776994632</ele>
</trkpt>
<trkpt lat="-38.1496828998497" lon="144.328337315456">
<ele>33.7582431834218</ele>
</trkpt>
<trkpt lat="-38.1496532793607" lon="144.328398399884">
<ele>34.6765548594808</ele>
</trkpt>
<trkpt lat="-38.1495543536165" lon="144.328442607328">
<ele>36.4283096776244</ele>
</trkpt>
<trkpt lat="-38.1493406161393" lon="144.328462089546">
<ele>39.99299873061</ele>
</trkpt>
<trkpt lat="-38.1491790086144" lon="144.328462489359">
<ele>42.5132601811955</ele>
</trkpt>
<trkpt lat="-38.1490728961111" lon="144.328444793631">
<ele>43.9720966550096</ele>
</trkpt>
<trkpt lat="-38.1489935149216" lon="144.328399044349">
<ele>44.998897821807</ele>
</trkpt>
<trkpt lat="-38.1489173777748" lon="144.328312799423">
<ele>45.9839863439002</ele>
</trkpt>
<trkpt lat="-38.1488513213348" lon="144.32820230005">
<ele>46.7743688624099</ele>
</trkpt>
<trkpt lat="-38.1487849499739" lon="144.328074149286">
<ele>47.356248214041</ele>
</trkpt>
<trkpt lat="-38.1486874683269" lon="144.327888125869">
<ele>47.80318074937</ele>
</trkpt>
<trkpt lat="-38.1482912668021" lon="144.327115039742">
<ele>48.4401408089381</ele>
</trkpt>
<trkpt lat="-38.1482328059701" lon="144.327056405811">
<ele>48.5253707130031</ele>
</trkpt>
<trkpt lat="-38.1481562361608" lon="144.327015462545">
<ele>48.6229775807075</ele>
</trkpt>
<trkpt lat="-38.1480665806412" lon="144.326997451142">
<ele>48.7263522698548</ele>
</trkpt>
<trkpt lat="-38.1479903539505" lon="144.32700346829">
<ele>48.8024604981818</ele>
</trkpt>
<trkpt lat="-38.1478675708094" lon="144.327054394776">
<ele>48.8884782669816</ele>
</trkpt>
<trkpt lat="-38.1477703609695" lon="144.327158378556">
<ele>48.897303456304</ele>
</trkpt>
<trkpt lat="-38.1476618223326" lon="144.327466601101">
<ele>48.6033294273399</ele>
</trkpt>
<trkpt lat="-38.1475851152848" lon="144.327646803687">
<ele>48.2147747664957</ele>
</trkpt>
<trkpt lat="-38.1475175965408" lon="144.327701458306">
<ele>47.9707530053143</ele>
</trkpt>
<trkpt lat="-38.1473219504906" lon="144.327759656189">
<ele>47.2563927855237</ele>
</trkpt>
<trkpt lat="-38.1472400756403" lon="144.327824527022">
<ele>46.877451899383</ele>
</trkpt>
<trkpt lat="-38.1471855064615" lon="144.32790988828">
<ele>46.5275032896515</ele>
</trkpt>
<trkpt lat="-38.1470285319253" lon="144.328245239577">
<ele>45.2461842256577</ele>
</trkpt>
<trkpt lat="-38.146923563419" lon="144.328381940153">
<ele>44.62557751711</ele>
</trkpt>
<trkpt lat="-38.1468163484146" lon="144.328483817972">
<ele>44.0863470192021</ele>
</trkpt>
<trkpt lat="-38.1465024429393" lon="144.328672899859">
<ele>42.8342528578414</ele>
</trkpt>
<trkpt lat="-38.1461476559946" lon="144.32875995965">
<ele>41.8750431699523</ele>
</trkpt>
<trkpt lat="-38.1458004237482" lon="144.328824511517">
<ele>41.3403175954032</ele>
</trkpt>
<trkpt lat="-38.1451862574489" lon="144.328920344324">
<ele>40.9257718104691</ele>
</trkpt>
<trkpt lat="-38.144677378297" lon="144.32902262227">
<ele>40.9194874892158</ele>
</trkpt>
<trkpt lat="-38.143919407533" lon="144.329179971372">
<ele>41.5135775926165</ele>
</trkpt>
<trkpt lat="-38.1432978917301" lon="144.329297035992">
<ele>42.4172122053183</ele>
</trkpt>
<trkpt lat="-38.1428562891432" lon="144.329384268863">
<ele>43.447859711218</ele>
</trkpt>
<trkpt lat="-38.1421220787625" lon="144.329555133667">
<ele>45.584256833953</ele>
</trkpt>
<trkpt lat="-38.1413289334442" lon="144.329708862548">
<ele>48.2755094960426</ele>
</trkpt>
<trkpt lat="-38.1409845085864" lon="144.329716480367">
<ele>49.486736089188</ele>
</trkpt>
<trkpt lat="-38.1406666353695" lon="144.32983311435">
<ele>50.5436177626023</ele>
</trkpt>
<trkpt lat="-38.1404111657449" lon="144.329876748297">
<ele>51.2839899468421</ele>
</trkpt>
<trkpt lat="-38.1397891827927" lon="144.329991037566">
<ele>52.893355712217</ele>
</trkpt>
<trkpt lat="-38.1392219578582" lon="144.330118503355">
<ele>53.9382974987988</ele>
</trkpt>
<trkpt lat="-38.1387313816169" lon="144.330212605551">
<ele>54.403236046864</ele>
</trkpt>
<trkpt lat="-38.1382548641708" lon="144.330294056361">
<ele>54.5288357150595</ele>
</trkpt>
<trkpt lat="-38.1366714862321" lon="144.33060090145">
<ele>54.1607047751017</ele>
</trkpt>
<trkpt lat="-38.1360502229148" lon="144.330713260765">
<ele>53.8573528517174</ele>
</trkpt>
<trkpt lat="-38.1350933504215" lon="144.330884381698">
<ele>53.0303818358786</ele>
</trkpt>
<trkpt lat="-38.1340694602409" lon="144.331099910125">
<ele>51.7639347489432</ele>
</trkpt>
<trkpt lat="-38.1334150874848" lon="144.331227719885">
<ele>50.6786016312888</ele>
</trkpt>
<trkpt lat="-38.1329083222751" lon="144.331324086376">
<ele>49.5677676446408</ele>
</trkpt>
<trkpt lat="-38.1324517026689" lon="144.33141468129">
<ele>48.3123327375967</ele>
</trkpt>
<trkpt lat="-38.1310083583605" lon="144.33170684467">
<ele>43.3466498172987</ele>
</trkpt>
<trkpt lat="-38.1300523273468" lon="144.331878483672">
<ele>40.6584005177079</ele>
</trkpt>
<trkpt lat="-38.129938375988" lon="144.331920532245">
<ele>40.328728763566</ele>
</trkpt>
<trkpt lat="-38.1298860050716" lon="144.331996909347">
<ele>40.0983338564628</ele>
</trkpt>
<trkpt lat="-38.1298795084162" lon="144.332141210971">
<ele>39.7687679976566</ele>
</trkpt>
<trkpt lat="-38.1299044672093" lon="144.332396567609">
<ele>39.1972214296523</ele>
</trkpt>
<trkpt lat="-38.1300093560707" lon="144.333201636885">
<ele>37.5516494770811</ele>
</trkpt>
<trkpt lat="-38.1301415577308" lon="144.334190239349">
<ele>35.7909394493483</ele>
</trkpt>
<trkpt lat="-38.1304039454386" lon="144.336175814701">
<ele>32.5802634807626</ele>
</trkpt>
<trkpt lat="-38.130572450447" lon="144.337566322776">
<ele>30.3931057986286</ele>
</trkpt>
<trkpt lat="-38.1308964538039" lon="144.339958481223">
<ele>27.0502020688802</ele>
</trkpt>
<trkpt lat="-38.1310081631393" lon="144.340800659017">
<ele>25.5507016205038</ele>
</trkpt>
<trkpt lat="-38.1312086059943" lon="144.342289866831">
<ele>22.5832610726856</ele>
</trkpt>
<trkpt lat="-38.1312223654431" lon="144.34269723158">
<ele>21.7965942917775</ele>
</trkpt>
<trkpt lat="-38.131187832608" lon="144.342832573601">
<ele>21.5503823870748</ele>
</trkpt>
<trkpt lat="-38.1311094700005" lon="144.342991785431">
<ele>21.2787853943021</ele>
</trkpt>
<trkpt lat="-38.1310991687237" lon="144.343078274166">
<ele>21.1802123597104</ele>
</trkpt>
<trkpt lat="-38.1312037249741" lon="144.343395117066">
<ele>21.0249469606218</ele>
</trkpt>
<trkpt lat="-38.131255515817" lon="144.343628211378">
<ele>21.1358320576813</ele>
</trkpt>
<trkpt lat="-38.1313919540174" lon="144.344674271517">
<ele>22.5032512000385</ele>
</trkpt>
<trkpt lat="-38.1314480821083" lon="144.345152921582">
<ele>22.6891009460707</ele>
</trkpt>
<trkpt lat="-38.1315061188374" lon="144.345645850931">
<ele>22.1859426914249</ele>
</trkpt>
<trkpt lat="-38.1316373143275" lon="144.346737393118">
<ele>20.1475197187373</ele>
</trkpt>
<trkpt lat="-38.131702118132" lon="144.34727097704">
<ele>19.6604331663039</ele>
</trkpt>
<trkpt lat="-38.131814827814" lon="144.348199093877">
<ele>19.8153946443263</ele>
</trkpt>
<trkpt lat="-38.1319951247361" lon="144.34971767312">
<ele>20.8017267623314</ele>
</trkpt>
<trkpt lat="-38.1320801059996" lon="144.350173720173">
<ele>20.5762632571924</ele>
</trkpt>
<trkpt lat="-38.1323040129711" lon="144.351190373035">
<ele>19.5402647876644</ele>
</trkpt>
<trkpt lat="-38.1323718988505" lon="144.351747309717">
<ele>18.9313258911082</ele>
</trkpt>
<trkpt lat="-38.1323712005161" lon="144.352429726906">
<ele>17.912520304852</ele>
</trkpt>
<trkpt lat="-38.1323973773892" lon="144.352614953507">
<ele>17.6709913670765</ele>
</trkpt>
<trkpt lat="-38.1324840800593" lon="144.353029452906">
<ele>17.2389537053944</ele>
</trkpt>
<trkpt lat="-38.1326877240452" lon="144.354810605906">
<ele>15.6950601712773</ele>
</trkpt>
<trkpt lat="-38.1327134167079" lon="144.355240339383">
<ele>15.3549238646147</ele>
</trkpt>
<trkpt lat="-38.1326700228683" lon="144.35550814972">
<ele>15.1888899636045</ele>
</trkpt>
<trkpt lat="-38.1326872150581" lon="144.355611782151">
<ele>15.1395961167832</ele>
</trkpt>
<trkpt lat="-38.1327434713023" lon="144.355676239226">
<ele>15.1066580864816</ele>
</trkpt>
<trkpt lat="-38.1328211301902" lon="144.355687264278">
<ele>15.0857079915601</ele>
</trkpt>
<trkpt lat="-38.1330246694109" lon="144.355541304103">
<ele>15.1020604308094</ele>
</trkpt>
<trkpt lat="-38.1331592388128" lon="144.355488255226">
<ele>15.1598131194647</ele>
</trkpt>
<trkpt lat="-38.1342097261643" lon="144.355273539887">
<ele>15.8365600521556</ele>
</trkpt>
<trkpt lat="-38.1345593881332" lon="144.355206650591">
<ele>15.8582377979743</ele>
</trkpt>
<trkpt lat="-38.1348267254956" lon="144.355155698642">
<ele>15.6513036440876</ele>
</trkpt>
<trkpt lat="-38.1351416870063" lon="144.355095832645">
<ele>15.0274863413356</ele>
</trkpt>
<trkpt lat="-38.1355426581669" lon="144.355016465142">
<ele>13.4901942155591</ele>
</trkpt>
<trkpt lat="-38.1359479257691" lon="144.354992168561">
<ele>11.573445302378</ele>
</trkpt>
<trkpt lat="-38.1360832420045" lon="144.355006118854">
<ele>11.0398666222676</ele>
</trkpt>
<trkpt lat="-38.1362607512847" lon="144.355041732979">
<ele>10.551588224409</ele>
</trkpt>
<trkpt lat="-38.1364469756835" lon="144.355084379292">
<ele>10.3784302605505</ele>
</trkpt>
<trkpt lat="-38.1366587805772" lon="144.355122120625">
<ele>10.5976583942349</ele>
</trkpt>
<trkpt lat="-38.1374413053218" lon="144.355306662061">
<ele>12.6890890590628</ele>
</trkpt>
<trkpt lat="-38.1376179689926" lon="144.355351535606">
<ele>12.9865090285338</ele>
</trkpt>
<trkpt lat="-38.1377772430021" lon="144.355413061017">
<ele>13.1397320275351</ele>
</trkpt>
<trkpt lat="-38.1380641908306" lon="144.355545532699">
<ele>13.0892475375391</ele>
</trkpt>
<trkpt lat="-38.1388120319888" lon="144.35590376901">
<ele>12.337101293382</ele>
</trkpt>
<trkpt lat="-38.1390711595499" lon="144.356034986015">
<ele>12.3683787803925</ele>
</trkpt>
<trkpt lat="-38.1395035111633" lon="144.356283579299">
<ele>12.548209096917</ele>
</trkpt>
<trkpt lat="-38.140121595144" lon="144.356631054727">
<ele>12.4040670012721</ele>
</trkpt>
<trkpt lat="-38.1402997438704" lon="144.356771886557">
<ele>12.4297321786108</ele>
</trkpt>
<trkpt lat="-38.140931726465" lon="144.357402400646">
<ele>12.8215895224193</ele>
</trkpt>
<trkpt lat="-38.1414817591214" lon="144.357947632036">
<ele>12.7783161112687</ele>
</trkpt>
<trkpt lat="-38.1416118487886" lon="144.35811737529">
<ele>12.7028210259143</ele>
</trkpt>
<trkpt lat="-38.1419831309438" lon="144.358700789947">
<ele>12.2508756379767</ele>
</trkpt>
<trkpt lat="-38.1423213484078" lon="144.359231984997">
<ele>11.3782818888866</ele>
</trkpt>
<trkpt lat="-38.1426761107567" lon="144.359804819876">
<ele>9.92067391705599</ele>
</trkpt>
<trkpt lat="-38.14288540056" lon="144.360140111677">
<ele>8.80036490951257</ele>
</trkpt>
<trkpt lat="-38.1433809030029" lon="144.360912044475">
<ele>5.83673118114126</ele>
</trkpt>
<trkpt lat="-38.1437258038685" lon="144.36148422837">
<ele>4.00316745669515</ele>
</trkpt>
<trkpt lat="-38.1438825203451" lon="144.361779694276">
<ele>3.33124182812708</ele>
</trkpt>
<trkpt lat="-38.1440649523148" lon="144.362113551342">
<ele>2.79965727626184</ele>
</trkpt>
<trkpt lat="-38.1442230220403" lon="144.36243096693">
<ele>2.48021397388481</ele>
</trkpt>
<trkpt lat="-38.1443974379873" lon="144.362819999037">
<ele>2.25150440303193</ele>
</trkpt>
</trkseg>
</trk>
</gpx>
