<?xml version='1.0' encoding='UTF-8'?>
<gpx version="1.1"
  creator="GPXmagic"
  xmlns="http://www.topografix.com/GPX/1/1"
  xmlns:rgt="http://www.rgtcycling.com/XML/GpxExtensions/v1"
  xmlns:xsi="http://www.w3.org/2001/XMLSchema-instance" xsi:schemaLocation="http://www.topografix.com/GPX/1/1
  http://www.topografix.com/GPX/1/1/gpx.xsd">
  <metadata>
    <name>Smoothed with GPXmagic</name>
    <author>
      <link href="https://www.stepwiserefinement.co.uk">
        <text>GPXmagic v3</text>
        <type>text/html</type>
      </link>
    </author>
  </metadata>
<trk>  <name>Wallonie&#32;Stage&#32;4&#32;2026</name>
<trkseg>
<trkpt lat="50.6266404" lon="6.0436881"><ele>315.89</ele></trkpt>
<trkpt lat="50.626924" lon="6.043341099999999"><ele>314.5</ele></trkpt>
<trkpt lat="50.6273216" lon="6.042853400000001"><ele>312.47</ele></trkpt>
<trkpt lat="50.6276259" lon="6.042367499999999"><ele>311.42</ele></trkpt>
<trkpt lat="50.6280023" lon="6.0419409"><ele>310.42</ele></trkpt>
<trkpt lat="50.6281998" lon="6.041797500000002"><ele>309.78</ele></trkpt>
<trkpt lat="50.6283251" lon="6.0417635"><ele>309.32</ele></trkpt>
<trkpt lat="50.628590800000005" lon="6.0417828"><ele>308.09</ele></trkpt>
<trkpt lat="50.6293989" lon="6.042055000000001"><ele>302.62</ele></trkpt>
<trkpt lat="50.62954030000001" lon="6.042073200000002"><ele>301.5</ele></trkpt>
<trkpt lat="50.62975" lon="6.042075"><ele>299.76</ele></trkpt>
<trkpt lat="50.6299688" lon="6.041994700000002"><ele>297.78</ele></trkpt>
<trkpt lat="50.6301257" lon="6.0418664"><ele>296.19</ele></trkpt>
<trkpt lat="50.6302414" lon="6.0417443"><ele>294.91</ele></trkpt>
<trkpt lat="50.6306603" lon="6.041228900000001"><ele>289.74</ele></trkpt>
<trkpt lat="50.63115830000001" lon="6.040579299999999"><ele>283.13</ele></trkpt>
<trkpt lat="50.6315546" lon="6.039930100000001"><ele>278.15</ele></trkpt>
<trkpt lat="50.6318605" lon="6.039429100000001"><ele>274.98</ele></trkpt>
<trkpt lat="50.6322915" lon="6.0387234"><ele>271.52</ele></trkpt>
<trkpt lat="50.6325003" lon="6.038490499999999"><ele>270.5</ele></trkpt>
<trkpt lat="50.632776299999996" lon="6.0382962000000004"><ele>269.67</ele></trkpt>
<trkpt lat="50.63281369999999" lon="6.0381288"><ele>269.43</ele></trkpt>
<trkpt lat="50.632794" lon="6.038014999999999"><ele>269.3</ele></trkpt>
<trkpt lat="50.63270609999999" lon="6.037694199999999"><ele>268.98</ele></trkpt>
<trkpt lat="50.6326637" lon="6.0372788"><ele>268.66</ele></trkpt>
<trkpt lat="50.632664199999994" lon="6.036941"><ele>268.42</ele></trkpt>
<trkpt lat="50.632621" lon="6.036731600000001"><ele>268.28</ele></trkpt>
<trkpt lat="50.6325332" lon="6.0364644"><ele>268.13</ele></trkpt>
<trkpt lat="50.63230010000001" lon="6.035965199999998"><ele>267.89</ele></trkpt>
<trkpt lat="50.632140400000004" lon="6.0355634"><ele>267.69</ele></trkpt>
<trkpt lat="50.6320032" lon="6.0351897"><ele>267.43</ele></trkpt>
<trkpt lat="50.6319298" lon="6.035013699999999"><ele>267.28</ele></trkpt>
<trkpt lat="50.6318272" lon="6.0348189"><ele>267.12</ele></trkpt>
<trkpt lat="50.6316931" lon="6.0346166"><ele>267.02</ele></trkpt>
<trkpt lat="50.6315778" lon="6.034488"><ele>266.99</ele></trkpt>
<trkpt lat="50.6314108" lon="6.0344117"><ele>266.95</ele></trkpt>
<trkpt lat="50.63085300000001" lon="6.0342205"><ele>266.4</ele></trkpt>
<trkpt lat="50.63075189999999" lon="6.0341549"><ele>266.31</ele></trkpt>
<trkpt lat="50.6305913" lon="6.033970899999999"><ele>266.2</ele></trkpt>
<trkpt lat="50.6303619" lon="6.0336501"><ele>266.11</ele></trkpt>
<trkpt lat="50.6301183" lon="6.0332087"><ele>266.19</ele></trkpt>
<trkpt lat="50.6300698" lon="6.0331468"><ele>266.21</ele></trkpt>
<trkpt lat="50.6299993" lon="6.033164400000001"><ele>266.24</ele></trkpt>
<trkpt lat="50.6298305" lon="6.0333673"><ele>266.36</ele></trkpt>
<trkpt lat="50.6295738" lon="6.0334319"><ele>266.61</ele></trkpt>
<trkpt lat="50.62925700000001" lon="6.0333829"><ele>267.21</ele></trkpt>
<trkpt lat="50.6288451" lon="6.033424000000001"><ele>268.85</ele></trkpt>
<trkpt lat="50.6287735" lon="6.0334182"><ele>269.22</ele></trkpt>
<trkpt lat="50.6284384" lon="6.033287500000001"><ele>271.28</ele></trkpt>
<trkpt lat="50.6282574" lon="6.0331858"><ele>272.64</ele></trkpt>
<trkpt lat="50.6281921" lon="6.0331737"><ele>273.15</ele></trkpt>
<trkpt lat="50.6279985" lon="6.033292100000001"><ele>274.86</ele></trkpt>
<trkpt lat="50.6277545" lon="6.0334741"><ele>277.27</ele></trkpt>
<trkpt lat="50.6275883" lon="6.0335574"><ele>278.89</ele></trkpt>
<trkpt lat="50.62735570000001" lon="6.033609300000002"><ele>281.16</ele></trkpt>
<trkpt lat="50.6269402" lon="6.033664"><ele>285.16</ele></trkpt>
<trkpt lat="50.62671499999999" lon="6.0337564"><ele>287.07</ele></trkpt>
<trkpt lat="50.626255" lon="6.0340714"><ele>290.63</ele></trkpt>
<trkpt lat="50.6259905" lon="6.0342388"><ele>292.47</ele></trkpt>
<trkpt lat="50.62568949999999" lon="6.034406700000002"><ele>294.17</ele></trkpt>
<trkpt lat="50.62550989999999" lon="6.0344552"><ele>295.04</ele></trkpt>
<trkpt lat="50.6253894" lon="6.0344383"><ele>295.57</ele></trkpt>
<trkpt lat="50.6250072" lon="6.034344299999999"><ele>296.77</ele></trkpt>
<trkpt lat="50.6249061" lon="6.0343057999999985"><ele>296.92</ele></trkpt>
<trkpt lat="50.6248333" lon="6.0342298"><ele>296.97</ele></trkpt>
<trkpt lat="50.6246627" lon="6.033846199999999"><ele>296.57</ele></trkpt>
<trkpt lat="50.6244803" lon="6.033447599999999"><ele>295.26</ele></trkpt>
<trkpt lat="50.62440079999999" lon="6.033229500000002"><ele>294.28</ele></trkpt>
<trkpt lat="50.624198699999994" lon="6.032615599999999"><ele>290.98</ele></trkpt>
<trkpt lat="50.6240074" lon="6.0320426"><ele>288.94</ele></trkpt>
<trkpt lat="50.62394520000001" lon="6.0318708999999995"><ele>288.68</ele></trkpt>
<trkpt lat="50.6239223" lon="6.0317426"><ele>288.61</ele></trkpt>
<trkpt lat="50.6239364" lon="6.0310164"><ele>288.71</ele></trkpt>
<trkpt lat="50.6239502" lon="6.030884400000001"><ele>288.6</ele></trkpt>
<trkpt lat="50.62401229999999" lon="6.030673999999999"><ele>288.2</ele></trkpt>
<trkpt lat="50.624223400000005" lon="6.030216199999999"><ele>286.33</ele></trkpt>
<trkpt lat="50.6244227" lon="6.029793700000001"><ele>283.61</ele></trkpt>
<trkpt lat="50.6245818" lon="6.0295433"><ele>281.56</ele></trkpt>
<trkpt lat="50.6246708" lon="6.0294631"><ele>280.63</ele></trkpt>
<trkpt lat="50.62510859999999" lon="6.029339500000001"><ele>276.69</ele></trkpt>
<trkpt lat="50.6253954" lon="6.029206"><ele>274.13</ele></trkpt>
<trkpt lat="50.62549870000001" lon="6.0291003"><ele>273.09</ele></trkpt>
<trkpt lat="50.625700800000004" lon="6.028838199999999"><ele>270.97</ele></trkpt>
<trkpt lat="50.6259352" lon="6.0285183"><ele>268.93</ele></trkpt>
<trkpt lat="50.62615529999999" lon="6.0282351"><ele>267.62</ele></trkpt>
<trkpt lat="50.6265896" lon="6.027682000000001"><ele>266.24</ele></trkpt>
<trkpt lat="50.6268068" lon="6.0274054"><ele>266.16</ele></trkpt>
<trkpt lat="50.6270856" lon="6.026864000000001"><ele>267.11</ele></trkpt>
<trkpt lat="50.6274319" lon="6.026209899999999"><ele>269.03</ele></trkpt>
<trkpt lat="50.627537000000004" lon="6.0260287"><ele>269.58</ele></trkpt>
<trkpt lat="50.627583" lon="6.0257379"><ele>270.25</ele></trkpt>
<trkpt lat="50.6275859" lon="6.025522699999999"><ele>270.74</ele></trkpt>
<trkpt lat="50.6275351" lon="6.0253047"><ele>271.31</ele></trkpt>
<trkpt lat="50.6275484" lon="6.025104299999999"><ele>271.82</ele></trkpt>
<trkpt lat="50.6277691" lon="6.023891199999998"><ele>275.03</ele></trkpt>
<trkpt lat="50.627841399999994" lon="6.0234093"><ele>276.3</ele></trkpt>
<trkpt lat="50.6279406" lon="6.0229525"><ele>277.53</ele></trkpt>
<trkpt lat="50.6280128" lon="6.022672199999998"><ele>278.42</ele></trkpt>
<trkpt lat="50.6281521" lon="6.0222295"><ele>279.95</ele></trkpt>
<trkpt lat="50.628309900000005" lon="6.0218529"><ele>281.33</ele></trkpt>
<trkpt lat="50.6284586" lon="6.0215504"><ele>282.35</ele></trkpt>
<trkpt lat="50.6286001" lon="6.0212072"><ele>283.32</ele></trkpt>
<trkpt lat="50.628751599999994" lon="6.0207775"><ele>284.49</ele></trkpt>
<trkpt lat="50.6289114" lon="6.0203713"><ele>285.61</ele></trkpt>
<trkpt lat="50.6289794" lon="6.0202337"><ele>285.96</ele></trkpt>
<trkpt lat="50.629241" lon="6.0197783000000005"><ele>286.71</ele></trkpt>
<trkpt lat="50.6293486" lon="6.0195017"><ele>286.67</ele></trkpt>
<trkpt lat="50.62952990000001" lon="6.018848099999999"><ele>285.71</ele></trkpt>
<trkpt lat="50.629665700000004" lon="6.0182929"><ele>284.39</ele></trkpt>
<trkpt lat="50.6297815" lon="6.017802"><ele>282.71</ele></trkpt>
<trkpt lat="50.6298541" lon="6.017584800000002"><ele>281.75</ele></trkpt>
<trkpt lat="50.6301004" lon="6.0171814"><ele>279.66</ele></trkpt>
<trkpt lat="50.6304409" lon="6.0167131"><ele>277.39</ele></trkpt>
<trkpt lat="50.6309629" lon="6.0162063"><ele>275.83</ele></trkpt>
<trkpt lat="50.6312153" lon="6.0159202999999986"><ele>276</ele></trkpt>
<trkpt lat="50.6312891" lon="6.015763"><ele>276.3</ele></trkpt>
<trkpt lat="50.6313367" lon="6.0154883"><ele>276.97</ele></trkpt>
<trkpt lat="50.6313996" lon="6.0147869"><ele>279.37</ele></trkpt>
<trkpt lat="50.6314651" lon="6.013964199999999"><ele>282.82</ele></trkpt>
<trkpt lat="50.6314608" lon="6.013536399999999"><ele>284.82</ele></trkpt>
<trkpt lat="50.63141190000001" lon="6.013194099999999"><ele>286.33</ele></trkpt>
<trkpt lat="50.6313787" lon="6.0128416"><ele>287.55</ele></trkpt>
<trkpt lat="50.6312823" lon="6.012274399999999"><ele>289.71</ele></trkpt>
<trkpt lat="50.6313127" lon="6.0121766"><ele>290.21</ele></trkpt>
<trkpt lat="50.631675" lon="6.011815"><ele>293.44</ele></trkpt>
<trkpt lat="50.63179830000001" lon="6.01167"><ele>294.71</ele></trkpt>
<trkpt lat="50.6320891" lon="6.0112697"><ele>297.98</ele></trkpt>
<trkpt lat="50.63225599999999" lon="6.011015799999999"><ele>299.45</ele></trkpt>
<trkpt lat="50.6323529" lon="6.0109095"><ele>299.98</ele></trkpt>
<trkpt lat="50.6323879" lon="6.010766800000001"><ele>300.35</ele></trkpt>
<trkpt lat="50.63244449999999" lon="6.0095122"><ele>302.49</ele></trkpt>
<trkpt lat="50.632470100000006" lon="6.0088787"><ele>302.61</ele></trkpt>
<trkpt lat="50.632525" lon="6.007587599999999"><ele>300.38</ele></trkpt>
<trkpt lat="50.6325402" lon="6.0071195"><ele>299.34</ele></trkpt>
<trkpt lat="50.6325933" lon="6.00576"><ele>296.31</ele></trkpt>
<trkpt lat="50.63266" lon="6.0040608"><ele>293.94</ele></trkpt>
<trkpt lat="50.63276019999999" lon="6.0014491"><ele>291.46</ele></trkpt>
<trkpt lat="50.6328391" lon="5.999631499999998"><ele>289.38</ele></trkpt>
<trkpt lat="50.63284" lon="5.998893600000001"><ele>288.59</ele></trkpt>
<trkpt lat="50.6328193" lon="5.997892600000001"><ele>287.7</ele></trkpt>
<trkpt lat="50.6327794" lon="5.9972684"><ele>287.34</ele></trkpt>
<trkpt lat="50.63268920000001" lon="5.996240499999999"><ele>287.1</ele></trkpt>
<trkpt lat="50.6324937" lon="5.9947437"><ele>286.99</ele></trkpt>
<trkpt lat="50.6322661" lon="5.993123799999999"><ele>286.88</ele></trkpt>
<trkpt lat="50.6320683" lon="5.9915985"><ele>286.6</ele></trkpt>
<trkpt lat="50.6318899" lon="5.9903001"><ele>285.93</ele></trkpt>
<trkpt lat="50.63171739999999" lon="5.9891098"><ele>285.27</ele></trkpt>
<trkpt lat="50.6316097" lon="5.9882402"><ele>284.69</ele></trkpt>
<trkpt lat="50.6315101" lon="5.9874914"><ele>283.85</ele></trkpt>
<trkpt lat="50.6312598" lon="5.9856489"><ele>280.95</ele></trkpt>
<trkpt lat="50.63114039999999" lon="5.9847912999999995"><ele>279.41</ele></trkpt>
<trkpt lat="50.6309602" lon="5.983419"><ele>276.9</ele></trkpt>
<trkpt lat="50.6308598" lon="5.982592899999999"><ele>275.2</ele></trkpt>
<trkpt lat="50.6307551" lon="5.9818879"><ele>273.62</ele></trkpt>
<trkpt lat="50.630335" lon="5.978736600000001"><ele>266.49</ele></trkpt>
<trkpt lat="50.6301699" lon="5.9774901"><ele>264.67</ele></trkpt>
<trkpt lat="50.629980200000006" lon="5.9761302"><ele>262.98</ele></trkpt>
<trkpt lat="50.629875" lon="5.9753303"><ele>261.9</ele></trkpt>
<trkpt lat="50.6295897" lon="5.9732506"><ele>258.99</ele></trkpt>
<trkpt lat="50.6295142" lon="5.972747299999999"><ele>258.7</ele></trkpt>
<trkpt lat="50.62942840716122" lon="5.972586871086399"><ele>258.9205097159122</ele></trkpt>
<trkpt lat="50.6293493" lon="5.9726554"><ele>259.06</ele></trkpt>
<trkpt lat="50.62900009999999" lon="5.973421400000001"><ele>261.33</ele></trkpt>
<trkpt lat="50.6287108" lon="5.9741104"><ele>263.42</ele></trkpt>
<trkpt lat="50.6285211" lon="5.974631400000001"><ele>264.89</ele></trkpt>
<trkpt lat="50.6282502" lon="5.9756005000000005"><ele>267.49</ele></trkpt>
<trkpt lat="50.6279698" lon="5.976669900000001"><ele>270.39</ele></trkpt>
<trkpt lat="50.627709100000004" lon="5.9776235"><ele>272.65</ele></trkpt>
<trkpt lat="50.6275693" lon="5.9781198"><ele>274.01</ele></trkpt>
<trkpt lat="50.6274782" lon="5.9783981"><ele>274.88</ele></trkpt>
<trkpt lat="50.62732720000001" lon="5.9787284"><ele>276.07</ele></trkpt>
<trkpt lat="50.6272185" lon="5.978895699999999"><ele>276.78</ele></trkpt>
<trkpt lat="50.62696510000001" lon="5.9791647"><ele>278.24</ele></trkpt>
<trkpt lat="50.62686039999999" lon="5.979250399999998"><ele>278.81</ele></trkpt>
<trkpt lat="50.626590500000006" lon="5.9793704"><ele>280.2</ele></trkpt>
<trkpt lat="50.6260121" lon="5.979587099999999"><ele>283.75</ele></trkpt>
<trkpt lat="50.6258258" lon="5.9796171000000005"><ele>284.9</ele></trkpt>
<trkpt lat="50.6253457" lon="5.979572000000001"><ele>287.61</ele></trkpt>
<trkpt lat="50.624680299999994" lon="5.979499900000001"><ele>290.76</ele></trkpt>
<trkpt lat="50.623972800000004" lon="5.9794188"><ele>292.92</ele></trkpt>
<trkpt lat="50.6238904" lon="5.9794492"><ele>293.15</ele></trkpt>
<trkpt lat="50.623733" lon="5.979568999999999"><ele>293.6</ele></trkpt>
<trkpt lat="50.6235971" lon="5.979758000000001"><ele>293.99</ele></trkpt>
<trkpt lat="50.6235547" lon="5.9798939"><ele>294.15</ele></trkpt>
<trkpt lat="50.623280199999996" lon="5.981009299999999"><ele>294.81</ele></trkpt>
<trkpt lat="50.62311110000001" lon="5.9817377"><ele>293.85</ele></trkpt>
<trkpt lat="50.6229525" lon="5.982562499999999"><ele>290.98</ele></trkpt>
<trkpt lat="50.622760299999996" lon="5.9836211"><ele>286.53</ele></trkpt>
<trkpt lat="50.6226356" lon="5.9844133"><ele>283.07</ele></trkpt>
<trkpt lat="50.622464" lon="5.985519999999998"><ele>277.96</ele></trkpt>
<trkpt lat="50.62239399999999" lon="5.985960000000001"><ele>276.85</ele></trkpt>
<trkpt lat="50.6222492" lon="5.9868353"><ele>275.5</ele></trkpt>
<trkpt lat="50.62206710000001" lon="5.9875176"><ele>274.93</ele></trkpt>
<trkpt lat="50.6218077" lon="5.988130500000001"><ele>274</ele></trkpt>
<trkpt lat="50.62145019999999" lon="5.98876"><ele>272.24</ele></trkpt>
<trkpt lat="50.62109079999999" lon="5.989400000000001"><ele>269.91</ele></trkpt>
<trkpt lat="50.62079000000001" lon="5.9899929"><ele>267.65</ele></trkpt>
<trkpt lat="50.6203595" lon="5.9910012"><ele>263.25</ele></trkpt>
<trkpt lat="50.6196989" lon="5.992562700000001"><ele>255.31</ele></trkpt>
<trkpt lat="50.6196329" lon="5.992732499999998"><ele>254.31</ele></trkpt>
<trkpt lat="50.619553100000005" lon="5.9930998"><ele>252.28</ele></trkpt>
<trkpt lat="50.619534" lon="5.9933812"><ele>250.91</ele></trkpt>
<trkpt lat="50.61952719999999" lon="5.9936696000000005"><ele>249.65</ele></trkpt>
<trkpt lat="50.6195101" lon="5.993810600000001"><ele>249.04</ele></trkpt>
<trkpt lat="50.61943769999999" lon="5.9940723"><ele>247.83</ele></trkpt>
<trkpt lat="50.619226100000006" lon="5.9946018"><ele>244.98</ele></trkpt>
<trkpt lat="50.61914" lon="5.994794999999999"><ele>243.96</ele></trkpt>
<trkpt lat="50.6190294" lon="5.995099400000001"><ele>242.68</ele></trkpt>
<trkpt lat="50.6188772" lon="5.995490299999999"><ele>241.44</ele></trkpt>
<trkpt lat="50.618748" lon="5.995729200000001"><ele>240.87</ele></trkpt>
<trkpt lat="50.6183693" lon="5.996299400000001"><ele>240.26</ele></trkpt>
<trkpt lat="50.618159799999994" lon="5.9965763"><ele>240.58</ele></trkpt>
<trkpt lat="50.61803830000001" lon="5.9967148"><ele>241.02</ele></trkpt>
<trkpt lat="50.6178796" lon="5.996835599999999"><ele>241.85</ele></trkpt>
<trkpt lat="50.6176867" lon="5.9969401"><ele>243.1</ele></trkpt>
<trkpt lat="50.6175009" lon="5.9970166"><ele>244.37</ele></trkpt>
<trkpt lat="50.6168423" lon="5.9971439"><ele>248.67</ele></trkpt>
<trkpt lat="50.616335" lon="5.997250000000001"><ele>250.16</ele></trkpt>
<trkpt lat="50.6161001" lon="5.9973002"><ele>250.41</ele></trkpt>
<trkpt lat="50.6157086" lon="5.997391600000001"><ele>249.92</ele></trkpt>
<trkpt lat="50.6154814" lon="5.9974414"><ele>248.84</ele></trkpt>
<trkpt lat="50.615014" lon="5.9975356"><ele>245.63</ele></trkpt>
<trkpt lat="50.6147892" lon="5.9976118"><ele>244.12</ele></trkpt>
<trkpt lat="50.61457070000001" lon="5.997720499999999"><ele>242.6</ele></trkpt>
<trkpt lat="50.6141199" lon="5.9979799"><ele>239.67</ele></trkpt>
<trkpt lat="50.6135827" lon="5.998284199999999"><ele>237.58</ele></trkpt>
<trkpt lat="50.6134231" lon="5.9983814"><ele>237.17</ele></trkpt>
<trkpt lat="50.6132316" lon="5.9985734"><ele>236.79</ele></trkpt>
<trkpt lat="50.61285370000001" lon="5.999125099999999"><ele>236.37</ele></trkpt>
<trkpt lat="50.6125086" lon="5.999651099999999"><ele>236.3</ele></trkpt>
<trkpt lat="50.612143800000005" lon="6.000172599999998"><ele>236.39</ele></trkpt>
<trkpt lat="50.6120396" lon="6.000301300000001"><ele>236.45</ele></trkpt>
<trkpt lat="50.6118809" lon="6.0004359"><ele>236.56</ele></trkpt>
<trkpt lat="50.6117396" lon="6.000513500000001"><ele>236.7</ele></trkpt>
<trkpt lat="50.6112778" lon="6.0007024"><ele>237.47</ele></trkpt>
<trkpt lat="50.6110726" lon="6.000801"><ele>237.97</ele></trkpt>
<trkpt lat="50.6110015" lon="6.0009113"><ele>238.21</ele></trkpt>
<trkpt lat="50.6110547" lon="6.001230800000001"><ele>238.6</ele></trkpt>
<trkpt lat="50.61109780000001" lon="6.0015604"><ele>238.9</ele></trkpt>
<trkpt lat="50.6110984" lon="6.0020084"><ele>239.2</ele></trkpt>
<trkpt lat="50.6110101" lon="6.0028268"><ele>239.61</ele></trkpt>
<trkpt lat="50.6109822" lon="6.0031497"><ele>239.75</ele></trkpt>
<trkpt lat="50.610989800000006" lon="6.0041598"><ele>240.19</ele></trkpt>
<trkpt lat="50.6109902" lon="6.0051784999999995"><ele>240.42</ele></trkpt>
<trkpt lat="50.6109998" lon="6.006400199999998"><ele>240.9</ele></trkpt>
<trkpt lat="50.6110006" lon="6.0079835"><ele>241.57</ele></trkpt>
<trkpt lat="50.611032300000005" lon="6.0083233"><ele>241.66</ele></trkpt>
<trkpt lat="50.6111023" lon="6.0086509"><ele>241.71</ele></trkpt>
<trkpt lat="50.61118220000001" lon="6.008871999999998"><ele>241.75</ele></trkpt>
<trkpt lat="50.6112669" lon="6.009053699999999"><ele>241.78</ele></trkpt>
<trkpt lat="50.6117417" lon="6.009995"><ele>241.99</ele></trkpt>
<trkpt lat="50.6123729" lon="6.0112143"><ele>242.53</ele></trkpt>
<trkpt lat="50.6129698" lon="6.012379900000001"><ele>243.31</ele></trkpt>
<trkpt lat="50.6132904" lon="6.013021700000001"><ele>244.03</ele></trkpt>
<trkpt lat="50.613848000000004" lon="6.014151999999999"><ele>245.73</ele></trkpt>
<trkpt lat="50.6139169" lon="6.014322999999999"><ele>246.01</ele></trkpt>
<trkpt lat="50.6139686" lon="6.0145052"><ele>246.28</ele></trkpt>
<trkpt lat="50.614110499999995" lon="6.015123999999998"><ele>246.99</ele></trkpt>
<trkpt lat="50.6143058" lon="6.0159402"><ele>247.73</ele></trkpt>
<trkpt lat="50.61453980000001" lon="6.0169393"><ele>248.58</ele></trkpt>
<trkpt lat="50.61488820000001" lon="6.018431700000001"><ele>249.54</ele></trkpt>
<trkpt lat="50.615141699999995" lon="6.0194374999999996"><ele>249.98</ele></trkpt>
<trkpt lat="50.61527400000001" lon="6.0199498"><ele>250.26</ele></trkpt>
<trkpt lat="50.61536009999999" lon="6.0202369"><ele>250.46</ele></trkpt>
<trkpt lat="50.61550549999999" lon="6.020614699999999"><ele>250.73</ele></trkpt>
<trkpt lat="50.6155923" lon="6.020776200000002"><ele>250.86</ele></trkpt>
<trkpt lat="50.6157771" lon="6.021005799999999"><ele>251.11</ele></trkpt>
<trkpt lat="50.616066499999995" lon="6.0213265"><ele>251.55</ele></trkpt>
<trkpt lat="50.616812" lon="6.022039399999999"><ele>252.63</ele></trkpt>
<trkpt lat="50.617110499999995" lon="6.0222603"><ele>253.02</ele></trkpt>
<trkpt lat="50.6177608" lon="6.022714700000001"><ele>253.73</ele></trkpt>
<trkpt lat="50.617878600000004" lon="6.022834"><ele>253.82</ele></trkpt>
<trkpt lat="50.6180923" lon="6.023166999999999"><ele>253.94</ele></trkpt>
<trkpt lat="50.6183067" lon="6.0236017"><ele>254</ele></trkpt>
<trkpt lat="50.6185894" lon="6.0241082"><ele>254.05</ele></trkpt>
<trkpt lat="50.6189709" lon="6.0247439"><ele>254.15</ele></trkpt>
<trkpt lat="50.6191338" lon="6.025072799999999"><ele>254.18</ele></trkpt>
<trkpt lat="50.6193921" lon="6.0256617"><ele>254.44</ele></trkpt>
<trkpt lat="50.619605099999994" lon="6.0260701"><ele>254.91</ele></trkpt>
<trkpt lat="50.6199513" lon="6.026713700000001"><ele>255.59</ele></trkpt>
<trkpt lat="50.62002749999999" lon="6.026869199999999"><ele>255.69</ele></trkpt>
<trkpt lat="50.6200986" lon="6.0270841"><ele>255.8</ele></trkpt>
<trkpt lat="50.6201667" lon="6.0274905"><ele>256.05</ele></trkpt>
<trkpt lat="50.62020019999999" lon="6.0282993"><ele>256.57</ele></trkpt>
<trkpt lat="50.6202501" lon="6.0292338"><ele>257.27</ele></trkpt>
<trkpt lat="50.62027220000001" lon="6.029401999999999"><ele>257.42</ele></trkpt>
<trkpt lat="50.6203131" lon="6.0295402"><ele>257.55</ele></trkpt>
<trkpt lat="50.6203809" lon="6.0296758"><ele>257.68</ele></trkpt>
<trkpt lat="50.6204611" lon="6.0297686000000015"><ele>257.78</ele></trkpt>
<trkpt lat="50.6209528" lon="6.030234600000001"><ele>258.43</ele></trkpt>
<trkpt lat="50.6215807" lon="6.0308792"><ele>259.27</ele></trkpt>
<trkpt lat="50.62177" lon="6.031049099999999"><ele>259.55</ele></trkpt>
<trkpt lat="50.6220981" lon="6.031320100000001"><ele>260.07</ele></trkpt>
<trkpt lat="50.622392" lon="6.0316329"><ele>260.57</ele></trkpt>
<trkpt lat="50.62293679999999" lon="6.032298199999999"><ele>261.68</ele></trkpt>
<trkpt lat="50.623097" lon="6.0325047"><ele>262.02</ele></trkpt>
<trkpt lat="50.6232756" lon="6.0328593"><ele>262.49</ele></trkpt>
<trkpt lat="50.62351030000001" lon="6.0333855"><ele>263.17</ele></trkpt>
<trkpt lat="50.623594999999995" lon="6.0336505"><ele>263.48</ele></trkpt>
<trkpt lat="50.623637499999994" lon="6.033846900000001"><ele>263.72</ele></trkpt>
<trkpt lat="50.6237607" lon="6.034587599999998"><ele>264.73</ele></trkpt>
<trkpt lat="50.6239641" lon="6.0355043"><ele>265.9</ele></trkpt>
<trkpt lat="50.6239998" lon="6.0357141"><ele>266.1</ele></trkpt>
<trkpt lat="50.6240149" lon="6.035914900000001"><ele>266.24</ele></trkpt>
<trkpt lat="50.6240193" lon="6.0361959"><ele>266.34</ele></trkpt>
<trkpt lat="50.624006" lon="6.0363757"><ele>266.37</ele></trkpt>
<trkpt lat="50.6239547" lon="6.0366599"><ele>266.35</ele></trkpt>
<trkpt lat="50.62394989999999" lon="6.0368580000000005"><ele>266.23</ele></trkpt>
<trkpt lat="50.623917799999994" lon="6.0369523"><ele>266.12</ele></trkpt>
<trkpt lat="50.62375080000001" lon="6.0372333000000005"><ele>265.48</ele></trkpt>
<trkpt lat="50.6234224" lon="6.037922"><ele>264.11</ele></trkpt>
<trkpt lat="50.6233496" lon="6.0380383"><ele>263.94</ele></trkpt>
<trkpt lat="50.6230966" lon="6.038305199999999"><ele>263.59</ele></trkpt>
<trkpt lat="50.6226897" lon="6.0388062"><ele>263.37</ele></trkpt>
<trkpt lat="50.6224997" lon="6.0389740000000005"><ele>263.43</ele></trkpt>
<trkpt lat="50.622346199999996" lon="6.0391490999999995"><ele>263.6</ele></trkpt>
<trkpt lat="50.62228519999999" lon="6.0392803"><ele>263.75</ele></trkpt>
<trkpt lat="50.62230340000001" lon="6.0395685"><ele>264.13</ele></trkpt>
<trkpt lat="50.62254649999999" lon="6.0403229"><ele>266.94</ele></trkpt>
<trkpt lat="50.622617000000005" lon="6.040563400000001"><ele>268.46</ele></trkpt>
<trkpt lat="50.6226956" lon="6.040645099999999"><ele>269.39</ele></trkpt>
<trkpt lat="50.62280520000001" lon="6.0406985"><ele>270.57</ele></trkpt>
<trkpt lat="50.6229192" lon="6.040715999999999"><ele>271.8</ele></trkpt>
<trkpt lat="50.62306879999999" lon="6.0406655"><ele>273.5</ele></trkpt>
<trkpt lat="50.62345" lon="6.040329200000002"><ele>278.37</ele></trkpt>
<trkpt lat="50.6236211" lon="6.040236999999999"><ele>280.38</ele></trkpt>
<trkpt lat="50.6237761" lon="6.040235999999999"><ele>282.16</ele></trkpt>
<trkpt lat="50.62388930000001" lon="6.0402941"><ele>283.56</ele></trkpt>
<trkpt lat="50.6239682" lon="6.0403672"><ele>284.64</ele></trkpt>
<trkpt lat="50.62408009999999" lon="6.0405937"><ele>286.81</ele></trkpt>
<trkpt lat="50.6243468" lon="6.0414904"><ele>294.17</ele></trkpt>
<trkpt lat="50.62465079999999" lon="6.042491600000001"><ele>302.53</ele></trkpt>
<trkpt lat="50.6248028" lon="6.042957200000002"><ele>306.27</ele></trkpt>
<trkpt lat="50.62499510000001" lon="6.043346299999999"><ele>309.61</ele></trkpt>
<trkpt lat="50.62515090000001" lon="6.0435894"><ele>311.81</ele></trkpt>
<trkpt lat="50.6252616" lon="6.0437403"><ele>313.17</ele></trkpt>
<trkpt lat="50.6255787" lon="6.0440952"><ele>316.22</ele></trkpt>
<trkpt lat="50.6257148" lon="6.044197100000001"><ele>317.02</ele></trkpt>
<trkpt lat="50.6258509" lon="6.0442373"><ele>317.48</ele></trkpt>
<trkpt lat="50.62605640000001" lon="6.0441879"><ele>317.7</ele></trkpt>
<trkpt lat="50.6261448" lon="6.044139300000001"><ele>317.63</ele></trkpt>
<trkpt lat="50.6263528" lon="6.043956199999999"><ele>317.08</ele></trkpt>
<trkpt lat="50.6266404" lon="6.0436881"><ele>315.89</ele></trkpt>
</trkseg>
</trk></gpx>
