<?xml version="1.0" encoding="UTF-8"?>
<gpx version="1.1" creator="GPX Segmenter" xmlns="http://www.topografix.com/GPX/1/1">
  <trk>
    <name>Kyoto to Kanazawa - Segment 5 of 8</name>
    <trkseg>
      <trkpt lat="35.774850" lon="136.199290">
        <ele>124.2</ele>
      </trkpt>
      <trkpt lat="35.775490" lon="136.198610">
        <ele>123.6</ele>
      </trkpt>
      <trkpt lat="35.777010" lon="136.197340">
        <ele>122.1</ele>
      </trkpt>
      <trkpt lat="35.777560" lon="136.196980">
        <ele>122.8</ele>
      </trkpt>
      <trkpt lat="35.778010" lon="136.196710">
        <ele>123.9</ele>
      </trkpt>
      <trkpt lat="35.778410" lon="136.196540">
        <ele>123.8</ele>
      </trkpt>
      <trkpt lat="35.778720" lon="136.196490">
        <ele>123.5</ele>
      </trkpt>
      <trkpt lat="35.779060" lon="136.196500">
        <ele>123.1</ele>
      </trkpt>
      <trkpt lat="35.779320" lon="136.196550">
        <ele>122.0</ele>
      </trkpt>
      <trkpt lat="35.779650" lon="136.196670">
        <ele>120.9</ele>
      </trkpt>
      <trkpt lat="35.782960" lon="136.198020">
        <ele>120.7</ele>
      </trkpt>
      <trkpt lat="35.783270" lon="136.198220">
        <ele>120.6</ele>
      </trkpt>
      <trkpt lat="35.783310" lon="136.198280">
        <ele>120.6</ele>
      </trkpt>
      <trkpt lat="35.783480" lon="136.198420">
        <ele>120.4</ele>
      </trkpt>
      <trkpt lat="35.783650" lon="136.198640">
        <ele>120.0</ele>
      </trkpt>
      <trkpt lat="35.783750" lon="136.198800">
        <ele>119.8</ele>
      </trkpt>
      <trkpt lat="35.783910" lon="136.199150">
        <ele>118.8</ele>
      </trkpt>
      <trkpt lat="35.783980" lon="136.199400">
        <ele>118.0</ele>
      </trkpt>
      <trkpt lat="35.784060" lon="136.199810">
        <ele>116.8</ele>
      </trkpt>
      <trkpt lat="35.784190" lon="136.202250">
        <ele>114.9</ele>
      </trkpt>
      <trkpt lat="35.784270" lon="136.202660">
        <ele>114.9</ele>
      </trkpt>
      <trkpt lat="35.784340" lon="136.202890">
        <ele>114.9</ele>
      </trkpt>
      <trkpt lat="35.784450" lon="136.203180">
        <ele>114.8</ele>
      </trkpt>
      <trkpt lat="35.784830" lon="136.203900">
        <ele>114.6</ele>
      </trkpt>
      <trkpt lat="35.785020" lon="136.204200">
        <ele>114.6</ele>
      </trkpt>
      <trkpt lat="35.786360" lon="136.206600">
        <ele>110.5</ele>
      </trkpt>
      <trkpt lat="35.786510" lon="136.206800">
        <ele>109.8</ele>
      </trkpt>
      <trkpt lat="35.786640" lon="136.206930">
        <ele>109.7</ele>
      </trkpt>
      <trkpt lat="35.786780" lon="136.207030">
        <ele>109.5</ele>
      </trkpt>
      <trkpt lat="35.787010" lon="136.207140">
        <ele>109.3</ele>
      </trkpt>
      <trkpt lat="35.787400" lon="136.207230">
        <ele>108.4</ele>
      </trkpt>
      <trkpt lat="35.787740" lon="136.207250">
        <ele>107.9</ele>
      </trkpt>
      <trkpt lat="35.788060" lon="136.207240">
        <ele>107.6</ele>
      </trkpt>
      <trkpt lat="35.788360" lon="136.207150">
        <ele>107.6</ele>
      </trkpt>
      <trkpt lat="35.788790" lon="136.206850">
        <ele>107.5</ele>
      </trkpt>
      <trkpt lat="35.789050" lon="136.206620">
        <ele>107.4</ele>
      </trkpt>
      <trkpt lat="35.789180" lon="136.206440">
        <ele>107.3</ele>
      </trkpt>
      <trkpt lat="35.789380" lon="136.206110">
        <ele>107.0</ele>
      </trkpt>
      <trkpt lat="35.790400" lon="136.203650">
        <ele>105.8</ele>
      </trkpt>
      <trkpt lat="35.790670" lon="136.203150">
        <ele>105.4</ele>
      </trkpt>
      <trkpt lat="35.791980" lon="136.200530">
        <ele>103.8</ele>
      </trkpt>
      <trkpt lat="35.793000" lon="136.198250">
        <ele>103.4</ele>
      </trkpt>
      <trkpt lat="35.793270" lon="136.197710">
        <ele>103.3</ele>
      </trkpt>
      <trkpt lat="35.793670" lon="136.197120">
        <ele>102.8</ele>
      </trkpt>
      <trkpt lat="35.793990" lon="136.196830">
        <ele>102.8</ele>
      </trkpt>
      <trkpt lat="35.794230" lon="136.196690">
        <ele>102.3</ele>
      </trkpt>
      <trkpt lat="35.796440" lon="136.195640">
        <ele>100.3</ele>
      </trkpt>
      <trkpt lat="35.796750" lon="136.195480">
        <ele>99.7</ele>
      </trkpt>
      <trkpt lat="35.800580" lon="136.193640">
        <ele>96.6</ele>
      </trkpt>
      <trkpt lat="35.801090" lon="136.193540">
        <ele>96.1</ele>
      </trkpt>
      <trkpt lat="35.801620" lon="136.193530">
        <ele>95.9</ele>
      </trkpt>
      <trkpt lat="35.802190" lon="136.193670">
        <ele>95.7</ele>
      </trkpt>
      <trkpt lat="35.804110" lon="136.194330">
        <ele>94.9</ele>
      </trkpt>
      <trkpt lat="35.806810" lon="136.195220">
        <ele>93.4</ele>
      </trkpt>
      <trkpt lat="35.807440" lon="136.195340">
        <ele>93.1</ele>
      </trkpt>
      <trkpt lat="35.812780" lon="136.196510">
        <ele>88.8</ele>
      </trkpt>
      <trkpt lat="35.813080" lon="136.196630">
        <ele>88.6</ele>
      </trkpt>
      <trkpt lat="35.813440" lon="136.196800">
        <ele>88.4</ele>
      </trkpt>
      <trkpt lat="35.816740" lon="136.198630">
        <ele>85.9</ele>
      </trkpt>
      <trkpt lat="35.817820" lon="136.199380">
        <ele>85.3</ele>
      </trkpt>
      <trkpt lat="35.818090" lon="136.199540">
        <ele>84.7</ele>
      </trkpt>
      <trkpt lat="35.818710" lon="136.199790">
        <ele>84.2</ele>
      </trkpt>
      <trkpt lat="35.819650" lon="136.199970">
        <ele>83.8</ele>
      </trkpt>
      <trkpt lat="35.821220" lon="136.200410">
        <ele>83.2</ele>
      </trkpt>
      <trkpt lat="35.821540" lon="136.200460">
        <ele>82.8</ele>
      </trkpt>
      <trkpt lat="35.821850" lon="136.200470">
        <ele>82.4</ele>
      </trkpt>
      <trkpt lat="35.822120" lon="136.200440">
        <ele>82.3</ele>
      </trkpt>
      <trkpt lat="35.823720" lon="136.200210">
        <ele>80.5</ele>
      </trkpt>
      <trkpt lat="35.824790" lon="136.199890">
        <ele>79.2</ele>
      </trkpt>
      <trkpt lat="35.825460" lon="136.199730">
        <ele>78.8</ele>
      </trkpt>
      <trkpt lat="35.826920" lon="136.199180">
        <ele>78.4</ele>
      </trkpt>
      <trkpt lat="35.830470" lon="136.196800">
        <ele>74.7</ele>
      </trkpt>
      <trkpt lat="35.833090" lon="136.195120">
        <ele>74.6</ele>
      </trkpt>
      <trkpt lat="35.833450" lon="136.195910">
        <ele>76.2</ele>
      </trkpt>
      <trkpt lat="35.833830" lon="136.198040">
        <ele>76.8</ele>
      </trkpt>
      <trkpt lat="35.833880" lon="136.198480">
        <ele>76.5</ele>
      </trkpt>
      <trkpt lat="35.833900" lon="136.199090">
        <ele>74.9</ele>
      </trkpt>
      <trkpt lat="35.833810" lon="136.199290">
        <ele>74.0</ele>
      </trkpt>
      <trkpt lat="35.833690" lon="136.199730">
        <ele>73.4</ele>
      </trkpt>
      <trkpt lat="35.833520" lon="136.200790">
        <ele>73.4</ele>
      </trkpt>
      <trkpt lat="35.837070" lon="136.201610">
        <ele>71.1</ele>
      </trkpt>
      <trkpt lat="35.837400" lon="136.201670">
        <ele>71.2</ele>
      </trkpt>
      <trkpt lat="35.837750" lon="136.201650">
        <ele>71.4</ele>
      </trkpt>
      <trkpt lat="35.838010" lon="136.201610">
        <ele>71.4</ele>
      </trkpt>
      <trkpt lat="35.838510" lon="136.201430">
        <ele>71.8</ele>
      </trkpt>
      <trkpt lat="35.838700" lon="136.201320">
        <ele>71.8</ele>
      </trkpt>
      <trkpt lat="35.839240" lon="136.200910">
        <ele>71.2</ele>
      </trkpt>
      <trkpt lat="35.842650" lon="136.197320">
        <ele>67.5</ele>
      </trkpt>
      <trkpt lat="35.842880" lon="136.197000">
        <ele>67.2</ele>
      </trkpt>
      <trkpt lat="35.843060" lon="136.196660">
        <ele>67.0</ele>
      </trkpt>
      <trkpt lat="35.843150" lon="136.196310">
        <ele>66.8</ele>
      </trkpt>
      <trkpt lat="35.843390" lon="136.194900">
        <ele>66.6</ele>
      </trkpt>
      <trkpt lat="35.843450" lon="136.194760">
        <ele>66.7</ele>
      </trkpt>
      <trkpt lat="35.843530" lon="136.194640">
        <ele>66.9</ele>
      </trkpt>
      <trkpt lat="35.843750" lon="136.194510">
        <ele>67.7</ele>
      </trkpt>
      <trkpt lat="35.844200" lon="136.194350">
        <ele>68.8</ele>
      </trkpt>
      <trkpt lat="35.844690" lon="136.194150">
        <ele>69.4</ele>
      </trkpt>
      <trkpt lat="35.845140" lon="136.193920">
        <ele>69.4</ele>
      </trkpt>
      <trkpt lat="35.845480" lon="136.193690">
        <ele>69.1</ele>
      </trkpt>
      <trkpt lat="35.845790" lon="136.193550">
        <ele>68.2</ele>
      </trkpt>
      <trkpt lat="35.846670" lon="136.193280">
        <ele>64.8</ele>
      </trkpt>
      <trkpt lat="35.847410" lon="136.192980">
        <ele>63.9</ele>
      </trkpt>
      <trkpt lat="35.848150" lon="136.192650">
        <ele>63.6</ele>
      </trkpt>
      <trkpt lat="35.848860" lon="136.192250">
        <ele>63.3</ele>
      </trkpt>
      <trkpt lat="35.849460" lon="136.191830">
        <ele>63.0</ele>
      </trkpt>
      <trkpt lat="35.849820" lon="136.191560">
        <ele>63.0</ele>
      </trkpt>
      <trkpt lat="35.850160" lon="136.191240">
        <ele>63.4</ele>
      </trkpt>
      <trkpt lat="35.850290" lon="136.191080">
        <ele>63.4</ele>
      </trkpt>
      <trkpt lat="35.850440" lon="136.190840">
        <ele>63.8</ele>
      </trkpt>
      <trkpt lat="35.850550" lon="136.190560">
        <ele>63.8</ele>
      </trkpt>
      <trkpt lat="35.850830" lon="136.189710">
        <ele>64.7</ele>
      </trkpt>
      <trkpt lat="35.851190" lon="136.189040">
        <ele>64.5</ele>
      </trkpt>
      <trkpt lat="35.851860" lon="136.187980">
        <ele>63.9</ele>
      </trkpt>
      <trkpt lat="35.852610" lon="136.187000">
        <ele>63.1</ele>
      </trkpt>
      <trkpt lat="35.853110" lon="136.186410">
        <ele>63.3</ele>
      </trkpt>
      <trkpt lat="35.854870" lon="136.185070">
        <ele>58.3</ele>
      </trkpt>
      <trkpt lat="35.857060" lon="136.184110">
        <ele>57.7</ele>
      </trkpt>
      <trkpt lat="35.860010" lon="136.183190">
        <ele>56.6</ele>
      </trkpt>
      <trkpt lat="35.862370" lon="136.182540">
        <ele>57.0</ele>
      </trkpt>
      <trkpt lat="35.862570" lon="136.182460">
        <ele>56.9</ele>
      </trkpt>
      <trkpt lat="35.862630" lon="136.182680">
        <ele>56.7</ele>
      </trkpt>
      <trkpt lat="35.862570" lon="136.183270">
        <ele>55.3</ele>
      </trkpt>
      <trkpt lat="35.862710" lon="136.184110">
        <ele>55.9</ele>
      </trkpt>
      <trkpt lat="35.865500" lon="136.183030">
        <ele>54.1</ele>
      </trkpt>
      <trkpt lat="35.865690" lon="136.182930">
        <ele>54.1</ele>
      </trkpt>
      <trkpt lat="35.865890" lon="136.182780">
        <ele>54.0</ele>
      </trkpt>
      <trkpt lat="35.866060" lon="136.182600">
        <ele>54.0</ele>
      </trkpt>
      <trkpt lat="35.867350" lon="136.181040">
        <ele>54.6</ele>
      </trkpt>
      <trkpt lat="35.867450" lon="136.180950">
        <ele>54.6</ele>
      </trkpt>
      <trkpt lat="35.868410" lon="136.180190">
        <ele>53.5</ele>
      </trkpt>
      <trkpt lat="35.870220" lon="136.178680">
        <ele>52.5</ele>
      </trkpt>
      <trkpt lat="35.870780" lon="136.178290">
        <ele>51.8</ele>
      </trkpt>
      <trkpt lat="35.871630" lon="136.177980">
        <ele>54.0</ele>
      </trkpt>
      <trkpt lat="35.872060" lon="136.177690">
        <ele>55.7</ele>
      </trkpt>
      <trkpt lat="35.872210" lon="136.177560">
        <ele>56.0</ele>
      </trkpt>
      <trkpt lat="35.872800" lon="136.176920">
        <ele>56.7</ele>
      </trkpt>
      <trkpt lat="35.873160" lon="136.176430">
        <ele>56.2</ele>
      </trkpt>
      <trkpt lat="35.873490" lon="136.175790">
        <ele>53.9</ele>
      </trkpt>
      <trkpt lat="35.873810" lon="136.175040">
        <ele>53.8</ele>
      </trkpt>
      <trkpt lat="35.874110" lon="136.174190">
        <ele>55.0</ele>
      </trkpt>
      <trkpt lat="35.874360" lon="136.173270">
        <ele>51.8</ele>
      </trkpt>
      <trkpt lat="35.874550" lon="136.172660">
        <ele>50.3</ele>
      </trkpt>
      <trkpt lat="35.874630" lon="136.172510">
        <ele>48.9</ele>
      </trkpt>
      <trkpt lat="35.874790" lon="136.172310">
        <ele>47.9</ele>
      </trkpt>
      <trkpt lat="35.874970" lon="136.172150">
        <ele>47.0</ele>
      </trkpt>
      <trkpt lat="35.875140" lon="136.172050">
        <ele>47.5</ele>
      </trkpt>
      <trkpt lat="35.875010" lon="136.171840">
        <ele>47.9</ele>
      </trkpt>
      <trkpt lat="35.874840" lon="136.171670">
        <ele>47.5</ele>
      </trkpt>
      <trkpt lat="35.875020" lon="136.171290">
        <ele>47.3</ele>
      </trkpt>
      <trkpt lat="35.875660" lon="136.170490">
        <ele>46.8</ele>
      </trkpt>
      <trkpt lat="35.875950" lon="136.170150">
        <ele>46.7</ele>
      </trkpt>
      <trkpt lat="35.876200" lon="136.169890">
        <ele>46.7</ele>
      </trkpt>
      <trkpt lat="35.876700" lon="136.169570">
        <ele>46.5</ele>
      </trkpt>
      <trkpt lat="35.877150" lon="136.169350">
        <ele>46.4</ele>
      </trkpt>
      <trkpt lat="35.877300" lon="136.169300">
        <ele>46.3</ele>
      </trkpt>
      <trkpt lat="35.877430" lon="136.169280">
        <ele>46.2</ele>
      </trkpt>
      <trkpt lat="35.877960" lon="136.169310">
        <ele>44.8</ele>
      </trkpt>
      <trkpt lat="35.878080" lon="136.169290">
        <ele>44.8</ele>
      </trkpt>
      <trkpt lat="35.878380" lon="136.169210">
        <ele>44.9</ele>
      </trkpt>
      <trkpt lat="35.878450" lon="136.169180">
        <ele>45.2</ele>
      </trkpt>
      <trkpt lat="35.878780" lon="136.168970">
        <ele>45.9</ele>
      </trkpt>
      <trkpt lat="35.878930" lon="136.168900">
        <ele>45.8</ele>
      </trkpt>
      <trkpt lat="35.879360" lon="136.168830">
        <ele>45.5</ele>
      </trkpt>
      <trkpt lat="35.879450" lon="136.168840">
        <ele>45.1</ele>
      </trkpt>
      <trkpt lat="35.879870" lon="136.168980">
        <ele>45.0</ele>
      </trkpt>
      <trkpt lat="35.879950" lon="136.168980">
        <ele>45.0</ele>
      </trkpt>
      <trkpt lat="35.880210" lon="136.168930">
        <ele>45.0</ele>
      </trkpt>
      <trkpt lat="35.880720" lon="136.168890">
        <ele>45.0</ele>
      </trkpt>
      <trkpt lat="35.880980" lon="136.168890">
        <ele>45.0</ele>
      </trkpt>
      <trkpt lat="35.881330" lon="136.168920">
        <ele>44.8</ele>
      </trkpt>
      <trkpt lat="35.881920" lon="136.169000">
        <ele>44.4</ele>
      </trkpt>
      <trkpt lat="35.883030" lon="136.169240">
        <ele>43.1</ele>
      </trkpt>
      <trkpt lat="35.884100" lon="136.169520">
        <ele>45.3</ele>
      </trkpt>
      <trkpt lat="35.886260" lon="136.170160">
        <ele>42.3</ele>
      </trkpt>
      <trkpt lat="35.888960" lon="136.171050">
        <ele>41.1</ele>
      </trkpt>
      <trkpt lat="35.889430" lon="136.171240">
        <ele>40.9</ele>
      </trkpt>
      <trkpt lat="35.893600" lon="136.173390">
        <ele>39.3</ele>
      </trkpt>
      <trkpt lat="35.896200" lon="136.174570">
        <ele>39.1</ele>
      </trkpt>
      <trkpt lat="35.896800" lon="136.172220">
        <ele>36.9</ele>
      </trkpt>
      <trkpt lat="35.897190" lon="136.171120">
        <ele>36.6</ele>
      </trkpt>
      <trkpt lat="35.897570" lon="136.170180">
        <ele>36.0</ele>
      </trkpt>
      <trkpt lat="35.897710" lon="136.169780">
        <ele>36.1</ele>
      </trkpt>
      <trkpt lat="35.897780" lon="136.168480">
        <ele>36.9</ele>
      </trkpt>
      <trkpt lat="35.897820" lon="136.165510">
        <ele>36.6</ele>
      </trkpt>
      <trkpt lat="35.897810" lon="136.165160">
        <ele>36.4</ele>
      </trkpt>
      <trkpt lat="35.897710" lon="136.164460">
        <ele>36.4</ele>
      </trkpt>
      <trkpt lat="35.897680" lon="136.163040">
        <ele>36.7</ele>
      </trkpt>
      <trkpt lat="35.897760" lon="136.159810">
        <ele>37.9</ele>
      </trkpt>
      <trkpt lat="35.897680" lon="136.159000">
        <ele>37.9</ele>
      </trkpt>
      <trkpt lat="35.897670" lon="136.158490">
        <ele>37.8</ele>
      </trkpt>
      <trkpt lat="35.897540" lon="136.154990">
        <ele>38.3</ele>
      </trkpt>
      <trkpt lat="35.898900" lon="136.154890">
        <ele>37.5</ele>
      </trkpt>
      <trkpt lat="35.905010" lon="136.154230">
        <ele>35.2</ele>
      </trkpt>
      <trkpt lat="35.905760" lon="136.154190">
        <ele>35.4</ele>
      </trkpt>
      <trkpt lat="35.906050" lon="136.152800">
        <ele>36.0</ele>
      </trkpt>
      <trkpt lat="35.906170" lon="136.152100">
        <ele>36.0</ele>
      </trkpt>
      <trkpt lat="35.906170" lon="136.151870">
        <ele>35.8</ele>
      </trkpt>
      <trkpt lat="35.906110" lon="136.150250">
        <ele>36.4</ele>
      </trkpt>
      <trkpt lat="35.906120" lon="136.149740">
        <ele>35.9</ele>
      </trkpt>
      <trkpt lat="35.906130" lon="136.149530">
        <ele>35.7</ele>
      </trkpt>
      <trkpt lat="35.906240" lon="136.149150">
        <ele>35.7</ele>
      </trkpt>
      <trkpt lat="35.906510" lon="136.148630">
        <ele>35.5</ele>
      </trkpt>
      <trkpt lat="35.907300" lon="136.147550">
        <ele>35.5</ele>
      </trkpt>
      <trkpt lat="35.907920" lon="136.146750">
        <ele>35.2</ele>
      </trkpt>
      <trkpt lat="35.914350" lon="136.146660">
        <ele>32.7</ele>
      </trkpt>
      <trkpt lat="35.916360" lon="136.146620">
        <ele>32.2</ele>
      </trkpt>
      <trkpt lat="35.919990" lon="136.146590">
        <ele>32.0</ele>
      </trkpt>
      <trkpt lat="35.920410" lon="136.146600">
        <ele>32.1</ele>
      </trkpt>
      <trkpt lat="35.920750" lon="136.146540">
        <ele>32.1</ele>
      </trkpt>
      <trkpt lat="35.920940" lon="136.146460">
        <ele>32.2</ele>
      </trkpt>
      <trkpt lat="35.921170" lon="136.146330">
        <ele>32.3</ele>
      </trkpt>
      <trkpt lat="35.921450" lon="136.146100">
        <ele>32.3</ele>
      </trkpt>
      <trkpt lat="35.922570" lon="136.144950">
        <ele>32.7</ele>
      </trkpt>
      <trkpt lat="35.923110" lon="136.144430">
        <ele>32.8</ele>
      </trkpt>
      <trkpt lat="35.923460" lon="136.144190">
        <ele>32.7</ele>
      </trkpt>
      <trkpt lat="35.923810" lon="136.144150">
        <ele>32.6</ele>
      </trkpt>
      <trkpt lat="35.924950" lon="136.144110">
        <ele>31.6</ele>
      </trkpt>
      <trkpt lat="35.925720" lon="136.144110">
        <ele>30.1</ele>
      </trkpt>
      <trkpt lat="35.927210" lon="136.144080">
        <ele>28.8</ele>
      </trkpt>
      <trkpt lat="35.927600" lon="136.144120">
        <ele>28.3</ele>
      </trkpt>
      <trkpt lat="35.927900" lon="136.144190">
        <ele>28.1</ele>
      </trkpt>
      <trkpt lat="35.928610" lon="136.144470">
        <ele>26.4</ele>
      </trkpt>
      <trkpt lat="35.930060" lon="136.144940">
        <ele>25.8</ele>
      </trkpt>
      <trkpt lat="35.931330" lon="136.145320">
        <ele>25.1</ele>
      </trkpt>
      <trkpt lat="35.933010" lon="136.146190">
        <ele>24.4</ele>
      </trkpt>
      <trkpt lat="35.933330" lon="136.146240">
        <ele>24.4</ele>
      </trkpt>
      <trkpt lat="35.934300" lon="136.146220">
        <ele>24.8</ele>
      </trkpt>
      <trkpt lat="35.934620" lon="136.146280">
        <ele>24.9</ele>
      </trkpt>
      <trkpt lat="35.935990" lon="136.146660">
        <ele>28.8</ele>
      </trkpt>
      <trkpt lat="35.937580" lon="136.146760">
        <ele>28.9</ele>
      </trkpt>
      <trkpt lat="35.937910" lon="136.146900">
        <ele>26.4</ele>
      </trkpt>
      <trkpt lat="35.938140" lon="136.147130">
        <ele>23.3</ele>
      </trkpt>
      <trkpt lat="35.938300" lon="136.147410">
        <ele>22.4</ele>
      </trkpt>
      <trkpt lat="35.938480" lon="136.147680">
        <ele>20.8</ele>
      </trkpt>
      <trkpt lat="35.938660" lon="136.147900">
        <ele>20.3</ele>
      </trkpt>
      <trkpt lat="35.938990" lon="136.148040">
        <ele>20.3</ele>
      </trkpt>
      <trkpt lat="35.939070" lon="136.148050">
        <ele>20.3</ele>
      </trkpt>
      <trkpt lat="35.940250" lon="136.148020">
        <ele>21.1</ele>
      </trkpt>
      <trkpt lat="35.942010" lon="136.148040">
        <ele>21.1</ele>
      </trkpt>
      <trkpt lat="35.942690" lon="136.148110">
        <ele>21.0</ele>
      </trkpt>
      <trkpt lat="35.942950" lon="136.148080">
        <ele>21.0</ele>
      </trkpt>
      <trkpt lat="35.943150" lon="136.148010">
        <ele>21.0</ele>
      </trkpt>
      <trkpt lat="35.943320" lon="136.147910">
        <ele>20.7</ele>
      </trkpt>
      <trkpt lat="35.944050" lon="136.147300">
        <ele>20.8</ele>
      </trkpt>
      <trkpt lat="35.944700" lon="136.147060">
        <ele>20.2</ele>
      </trkpt>
      <trkpt lat="35.946370" lon="136.147220">
        <ele>20.0</ele>
      </trkpt>
      <trkpt lat="35.946960" lon="136.147230">
        <ele>19.7</ele>
      </trkpt>
      <trkpt lat="35.947170" lon="136.147260">
        <ele>19.6</ele>
      </trkpt>
      <trkpt lat="35.948870" lon="136.147260">
        <ele>19.2</ele>
      </trkpt>
      <trkpt lat="35.951250" lon="136.147200">
        <ele>18.4</ele>
      </trkpt>
      <trkpt lat="35.952080" lon="136.147150">
        <ele>18.3</ele>
      </trkpt>
      <trkpt lat="35.952900" lon="136.147140">
        <ele>17.9</ele>
      </trkpt>
      <trkpt lat="35.953070" lon="136.147140">
        <ele>17.7</ele>
      </trkpt>
      <trkpt lat="35.953780" lon="136.147200">
        <ele>17.4</ele>
      </trkpt>
      <trkpt lat="35.957980" lon="136.147090">
        <ele>16.5</ele>
      </trkpt>
      <trkpt lat="35.958260" lon="136.147060">
        <ele>16.3</ele>
      </trkpt>
      <trkpt lat="35.958480" lon="136.146990">
        <ele>16.3</ele>
      </trkpt>
      <trkpt lat="35.958830" lon="136.146820">
        <ele>16.1</ele>
      </trkpt>
      <trkpt lat="35.959820" lon="136.146400">
        <ele>15.7</ele>
      </trkpt>
      <trkpt lat="35.960260" lon="136.146190">
        <ele>15.5</ele>
      </trkpt>
      <trkpt lat="35.961080" lon="136.145850">
        <ele>15.3</ele>
      </trkpt>
      <trkpt lat="35.961720" lon="136.145790">
        <ele>15.4</ele>
      </trkpt>
      <trkpt lat="35.963000" lon="136.145750">
        <ele>15.4</ele>
      </trkpt>
      <trkpt lat="35.963090" lon="136.145730">
        <ele>15.1</ele>
      </trkpt>
      <trkpt lat="35.964810" lon="136.145660">
        <ele>14.1</ele>
      </trkpt>
      <trkpt lat="35.965470" lon="136.145660">
        <ele>14.2</ele>
      </trkpt>
      <trkpt lat="35.966830" lon="136.145610">
        <ele>13.5</ele>
      </trkpt>
      <trkpt lat="35.975350" lon="136.145240">
        <ele>16.2</ele>
      </trkpt>
      <trkpt lat="35.978240" lon="136.145150">
        <ele>12.2</ele>
      </trkpt>
      <trkpt lat="35.978430" lon="136.145160">
        <ele>12.3</ele>
      </trkpt>
      <trkpt lat="35.978760" lon="136.145220">
        <ele>12.5</ele>
      </trkpt>
      <trkpt lat="35.979220" lon="136.145410">
        <ele>12.6</ele>
      </trkpt>
      <trkpt lat="35.979670" lon="136.145710">
        <ele>12.5</ele>
      </trkpt>
      <trkpt lat="35.979880" lon="136.145930">
        <ele>12.6</ele>
      </trkpt>
      <trkpt lat="35.980220" lon="136.146360">
        <ele>12.6</ele>
      </trkpt>
      <trkpt lat="35.980470" lon="136.146710">
        <ele>12.6</ele>
      </trkpt>
      <trkpt lat="35.980510" lon="136.146740">
        <ele>12.6</ele>
      </trkpt>
      <trkpt lat="35.980660" lon="136.146980">
        <ele>12.6</ele>
      </trkpt>
      <trkpt lat="35.981140" lon="136.147450">
        <ele>12.3</ele>
      </trkpt>
      <trkpt lat="35.981350" lon="136.147620">
        <ele>12.1</ele>
      </trkpt>
      <trkpt lat="35.981540" lon="136.147750">
        <ele>12.1</ele>
      </trkpt>
      <trkpt lat="35.981690" lon="136.147880">
        <ele>12.1</ele>
      </trkpt>
      <trkpt lat="35.982430" lon="136.148200">
        <ele>12.2</ele>
      </trkpt>
      <trkpt lat="35.982660" lon="136.148260">
        <ele>12.2</ele>
      </trkpt>
      <trkpt lat="35.983490" lon="136.148330">
        <ele>12.4</ele>
      </trkpt>
      <trkpt lat="35.984080" lon="136.148310">
        <ele>12.4</ele>
      </trkpt>
      <trkpt lat="35.987470" lon="136.148110">
        <ele>12.5</ele>
      </trkpt>
      <trkpt lat="35.990390" lon="136.148010">
        <ele>11.8</ele>
      </trkpt>
      <trkpt lat="35.992090" lon="136.147970">
        <ele>12.0</ele>
      </trkpt>
      <trkpt lat="35.993270" lon="136.147990">
        <ele>11.7</ele>
      </trkpt>
      <trkpt lat="35.994830" lon="136.147960">
        <ele>11.7</ele>
      </trkpt>
      <trkpt lat="35.995380" lon="136.148070">
        <ele>11.5</ele>
      </trkpt>
      <trkpt lat="35.995590" lon="136.148150">
        <ele>11.6</ele>
      </trkpt>
      <trkpt lat="35.995900" lon="136.148300">
        <ele>11.6</ele>
      </trkpt>
      <trkpt lat="35.996320" lon="136.148610">
        <ele>11.7</ele>
      </trkpt>
      <trkpt lat="35.996590" lon="136.148890">
        <ele>11.6</ele>
      </trkpt>
      <trkpt lat="35.997910" lon="136.150480">
        <ele>11.4</ele>
      </trkpt>
      <trkpt lat="35.998320" lon="136.150930">
        <ele>11.6</ele>
      </trkpt>
      <trkpt lat="35.998920" lon="136.151440">
        <ele>11.4</ele>
      </trkpt>
      <trkpt lat="35.999080" lon="136.151550">
        <ele>11.4</ele>
      </trkpt>
      <trkpt lat="35.999530" lon="136.151760">
        <ele>11.1</ele>
      </trkpt>
      <trkpt lat="36.000100" lon="136.151910">
        <ele>11.0</ele>
      </trkpt>
      <trkpt lat="36.000410" lon="136.151940">
        <ele>11.0</ele>
      </trkpt>
      <trkpt lat="36.003780" lon="136.151880">
        <ele>10.9</ele>
      </trkpt>
      <trkpt lat="36.005570" lon="136.151940">
        <ele>10.9</ele>
      </trkpt>
      <trkpt lat="36.007130" lon="136.152060">
        <ele>10.8</ele>
      </trkpt>
      <trkpt lat="36.007810" lon="136.152090">
        <ele>10.8</ele>
      </trkpt>
      <trkpt lat="36.008590" lon="136.152090">
        <ele>10.5</ele>
      </trkpt>
      <trkpt lat="36.009140" lon="136.152060">
        <ele>10.6</ele>
      </trkpt>
      <trkpt lat="36.011730" lon="136.151650">
        <ele>10.4</ele>
      </trkpt>
      <trkpt lat="36.013620" lon="136.151330">
        <ele>10.2</ele>
      </trkpt>
      <trkpt lat="36.015540" lon="136.151060">
        <ele>10.1</ele>
      </trkpt>
      <trkpt lat="36.016530" lon="136.150980">
        <ele>9.9</ele>
      </trkpt>
      <trkpt lat="36.020800" lon="136.150740">
        <ele>9.7</ele>
      </trkpt>
      <trkpt lat="36.023830" lon="136.150460">
        <ele>9.7</ele>
      </trkpt>
      <trkpt lat="36.024780" lon="136.150400">
        <ele>9.8</ele>
      </trkpt>
      <trkpt lat="36.025770" lon="136.150290">
        <ele>9.6</ele>
      </trkpt>
      <trkpt lat="36.025830" lon="136.151050">
        <ele>9.3</ele>
      </trkpt>
      <trkpt lat="36.025930" lon="136.151350">
        <ele>9.3</ele>
      </trkpt>
      <trkpt lat="36.026050" lon="136.151630">
        <ele>9.3</ele>
      </trkpt>
      <trkpt lat="36.026190" lon="136.151830">
        <ele>9.4</ele>
      </trkpt>
      <trkpt lat="36.027560" lon="136.153590">
        <ele>9.3</ele>
      </trkpt>
      <trkpt lat="36.028300" lon="136.154570">
        <ele>9.5</ele>
      </trkpt>
      <trkpt lat="36.030440" lon="136.157310">
        <ele>9.4</ele>
      </trkpt>
    </trkseg>
  </trk>
</gpx>