<?xml version="1.0" encoding="UTF-8"?>
<gpx version="1.1" creator="GPX Segmenter" xmlns="http://www.topografix.com/GPX/1/1">
  <trk>
    <name>Kyoto to Kanazawa - Segment 1 of 8</name>
    <trkseg>
      <trkpt lat="34.994920" lon="135.768000">
        <ele>34.4</ele>
      </trkpt>
      <trkpt lat="34.995850" lon="135.768290">
        <ele>35.4</ele>
      </trkpt>
      <trkpt lat="34.996670" lon="135.768610">
        <ele>35.6</ele>
      </trkpt>
      <trkpt lat="34.996780" lon="135.768690">
        <ele>35.6</ele>
      </trkpt>
      <trkpt lat="34.997280" lon="135.768890">
        <ele>35.8</ele>
      </trkpt>
      <trkpt lat="34.997790" lon="135.769130">
        <ele>36.0</ele>
      </trkpt>
      <trkpt lat="34.998530" lon="135.769430">
        <ele>36.2</ele>
      </trkpt>
      <trkpt lat="34.998810" lon="135.769530">
        <ele>36.3</ele>
      </trkpt>
      <trkpt lat="35.000390" lon="135.770320">
        <ele>37.0</ele>
      </trkpt>
      <trkpt lat="35.001820" lon="135.770990">
        <ele>38.1</ele>
      </trkpt>
      <trkpt lat="35.002050" lon="135.771120">
        <ele>38.1</ele>
      </trkpt>
      <trkpt lat="35.002160" lon="135.771200">
        <ele>38.0</ele>
      </trkpt>
      <trkpt lat="35.002500" lon="135.771370">
        <ele>37.4</ele>
      </trkpt>
      <trkpt lat="35.003230" lon="135.771650">
        <ele>38.3</ele>
      </trkpt>
      <trkpt lat="35.003700" lon="135.771780">
        <ele>38.9</ele>
      </trkpt>
      <trkpt lat="35.004030" lon="135.771850">
        <ele>38.9</ele>
      </trkpt>
      <trkpt lat="35.004600" lon="135.771910">
        <ele>39.0</ele>
      </trkpt>
      <trkpt lat="35.004640" lon="135.771970">
        <ele>39.4</ele>
      </trkpt>
      <trkpt lat="35.004960" lon="135.772040">
        <ele>40.8</ele>
      </trkpt>
      <trkpt lat="35.005070" lon="135.772040">
        <ele>40.9</ele>
      </trkpt>
      <trkpt lat="35.005080" lon="135.772070">
        <ele>40.9</ele>
      </trkpt>
      <trkpt lat="35.005490" lon="135.772090">
        <ele>41.0</ele>
      </trkpt>
      <trkpt lat="35.006450" lon="135.772170">
        <ele>42.1</ele>
      </trkpt>
      <trkpt lat="35.007840" lon="135.772180">
        <ele>43.8</ele>
      </trkpt>
      <trkpt lat="35.008740" lon="135.772150">
        <ele>45.1</ele>
      </trkpt>
      <trkpt lat="35.008790" lon="135.772130">
        <ele>45.2</ele>
      </trkpt>
      <trkpt lat="35.008920" lon="135.772130">
        <ele>45.3</ele>
      </trkpt>
      <trkpt lat="35.008970" lon="135.772180">
        <ele>45.3</ele>
      </trkpt>
      <trkpt lat="35.009030" lon="135.772150">
        <ele>45.4</ele>
      </trkpt>
      <trkpt lat="35.009080" lon="135.772150">
        <ele>45.3</ele>
      </trkpt>
      <trkpt lat="35.009160" lon="135.773210">
        <ele>45.4</ele>
      </trkpt>
      <trkpt lat="35.009210" lon="135.773510">
        <ele>45.4</ele>
      </trkpt>
      <trkpt lat="35.009380" lon="135.775430">
        <ele>45.7</ele>
      </trkpt>
      <trkpt lat="35.009440" lon="135.776640">
        <ele>46.5</ele>
      </trkpt>
      <trkpt lat="35.009450" lon="135.778090">
        <ele>47.2</ele>
      </trkpt>
      <trkpt lat="35.009500" lon="135.778160">
        <ele>47.1</ele>
      </trkpt>
      <trkpt lat="35.009520" lon="135.778770">
        <ele>47.1</ele>
      </trkpt>
      <trkpt lat="35.009510" lon="135.779400">
        <ele>47.1</ele>
      </trkpt>
      <trkpt lat="35.009330" lon="135.781020">
        <ele>47.7</ele>
      </trkpt>
      <trkpt lat="35.009300" lon="135.781630">
        <ele>48.1</ele>
      </trkpt>
      <trkpt lat="35.009280" lon="135.782440">
        <ele>49.5</ele>
      </trkpt>
      <trkpt lat="35.009300" lon="135.782680">
        <ele>50.0</ele>
      </trkpt>
      <trkpt lat="35.009390" lon="135.782910">
        <ele>49.7</ele>
      </trkpt>
      <trkpt lat="35.009630" lon="135.785580">
        <ele>56.5</ele>
      </trkpt>
      <trkpt lat="35.009620" lon="135.785900">
        <ele>57.6</ele>
      </trkpt>
      <trkpt lat="35.009360" lon="135.788810">
        <ele>63.8</ele>
      </trkpt>
      <trkpt lat="35.009240" lon="135.789330">
        <ele>64.3</ele>
      </trkpt>
      <trkpt lat="35.009270" lon="135.789420">
        <ele>63.8</ele>
      </trkpt>
      <trkpt lat="35.009320" lon="135.789440">
        <ele>63.7</ele>
      </trkpt>
      <trkpt lat="35.009370" lon="135.789550">
        <ele>63.1</ele>
      </trkpt>
      <trkpt lat="35.008940" lon="135.789840">
        <ele>65.6</ele>
      </trkpt>
      <trkpt lat="35.008780" lon="135.789920">
        <ele>66.2</ele>
      </trkpt>
      <trkpt lat="35.008310" lon="135.790250">
        <ele>68.7</ele>
      </trkpt>
      <trkpt lat="35.008150" lon="135.790320">
        <ele>69.2</ele>
      </trkpt>
      <trkpt lat="35.007360" lon="135.790420">
        <ele>74.4</ele>
      </trkpt>
      <trkpt lat="35.007130" lon="135.790470">
        <ele>76.1</ele>
      </trkpt>
      <trkpt lat="35.006720" lon="135.790670">
        <ele>76.7</ele>
      </trkpt>
      <trkpt lat="35.006060" lon="135.791080">
        <ele>81.9</ele>
      </trkpt>
      <trkpt lat="35.005700" lon="135.791210">
        <ele>83.5</ele>
      </trkpt>
      <trkpt lat="35.005360" lon="135.791230">
        <ele>85.8</ele>
      </trkpt>
      <trkpt lat="35.005200" lon="135.791200">
        <ele>85.8</ele>
      </trkpt>
      <trkpt lat="35.004730" lon="135.791070">
        <ele>88.4</ele>
      </trkpt>
      <trkpt lat="35.004600" lon="135.791000">
        <ele>89.3</ele>
      </trkpt>
      <trkpt lat="35.004380" lon="135.790920">
        <ele>89.3</ele>
      </trkpt>
      <trkpt lat="35.004160" lon="135.790910">
        <ele>91.9</ele>
      </trkpt>
      <trkpt lat="35.004010" lon="135.790940">
        <ele>92.8</ele>
      </trkpt>
      <trkpt lat="35.003770" lon="135.791110">
        <ele>95.3</ele>
      </trkpt>
      <trkpt lat="35.003280" lon="135.791680">
        <ele>97.9</ele>
      </trkpt>
      <trkpt lat="35.003050" lon="135.791890">
        <ele>98.7</ele>
      </trkpt>
      <trkpt lat="35.002120" lon="135.792310">
        <ele>98.2</ele>
      </trkpt>
      <trkpt lat="35.001840" lon="135.792470">
        <ele>97.8</ele>
      </trkpt>
      <trkpt lat="35.001170" lon="135.792930">
        <ele>95.9</ele>
      </trkpt>
      <trkpt lat="35.000790" lon="135.793260">
        <ele>95.2</ele>
      </trkpt>
      <trkpt lat="35.000540" lon="135.793430">
        <ele>94.5</ele>
      </trkpt>
      <trkpt lat="35.000340" lon="135.793490">
        <ele>93.9</ele>
      </trkpt>
      <trkpt lat="34.999790" lon="135.793510">
        <ele>89.7</ele>
      </trkpt>
      <trkpt lat="34.999660" lon="135.793540">
        <ele>89.0</ele>
      </trkpt>
      <trkpt lat="34.999540" lon="135.793600">
        <ele>88.5</ele>
      </trkpt>
      <trkpt lat="34.999340" lon="135.793790">
        <ele>88.2</ele>
      </trkpt>
      <trkpt lat="34.999220" lon="135.793950">
        <ele>87.5</ele>
      </trkpt>
      <trkpt lat="34.998400" lon="135.795510">
        <ele>81.4</ele>
      </trkpt>
      <trkpt lat="34.998240" lon="135.796020">
        <ele>79.7</ele>
      </trkpt>
      <trkpt lat="34.997960" lon="135.797650">
        <ele>72.1</ele>
      </trkpt>
      <trkpt lat="34.997870" lon="135.797920">
        <ele>71.6</ele>
      </trkpt>
      <trkpt lat="34.997840" lon="135.798080">
        <ele>70.9</ele>
      </trkpt>
      <trkpt lat="34.997490" lon="135.798750">
        <ele>68.0</ele>
      </trkpt>
      <trkpt lat="34.997430" lon="135.798700">
        <ele>68.0</ele>
      </trkpt>
      <trkpt lat="34.996000" lon="135.801890">
        <ele>60.8</ele>
      </trkpt>
      <trkpt lat="34.995000" lon="135.803890">
        <ele>58.2</ele>
      </trkpt>
      <trkpt lat="34.995040" lon="135.803970">
        <ele>57.9</ele>
      </trkpt>
      <trkpt lat="34.994760" lon="135.804510">
        <ele>57.3</ele>
      </trkpt>
      <trkpt lat="34.992990" lon="135.806530">
        <ele>53.6</ele>
      </trkpt>
      <trkpt lat="34.992870" lon="135.806610">
        <ele>53.4</ele>
      </trkpt>
      <trkpt lat="34.991810" lon="135.807870">
        <ele>52.6</ele>
      </trkpt>
      <trkpt lat="34.991730" lon="135.808240">
        <ele>52.8</ele>
      </trkpt>
      <trkpt lat="34.991640" lon="135.809110">
        <ele>54.0</ele>
      </trkpt>
      <trkpt lat="34.991620" lon="135.809800">
        <ele>56.3</ele>
      </trkpt>
      <trkpt lat="34.991580" lon="135.809940">
        <ele>57.2</ele>
      </trkpt>
      <trkpt lat="34.991510" lon="135.810070">
        <ele>57.5</ele>
      </trkpt>
      <trkpt lat="34.991370" lon="135.810270">
        <ele>57.7</ele>
      </trkpt>
      <trkpt lat="34.991300" lon="135.810470">
        <ele>57.7</ele>
      </trkpt>
      <trkpt lat="34.991210" lon="135.811290">
        <ele>58.1</ele>
      </trkpt>
      <trkpt lat="34.991240" lon="135.813350">
        <ele>60.6</ele>
      </trkpt>
      <trkpt lat="34.991230" lon="135.813980">
        <ele>61.5</ele>
      </trkpt>
      <trkpt lat="34.991200" lon="135.814480">
        <ele>61.9</ele>
      </trkpt>
      <trkpt lat="34.991190" lon="135.815410">
        <ele>62.7</ele>
      </trkpt>
      <trkpt lat="34.991210" lon="135.815680">
        <ele>63.1</ele>
      </trkpt>
      <trkpt lat="34.991210" lon="135.816230">
        <ele>64.0</ele>
      </trkpt>
      <trkpt lat="34.991250" lon="135.818050">
        <ele>65.7</ele>
      </trkpt>
      <trkpt lat="34.991230" lon="135.818670">
        <ele>65.8</ele>
      </trkpt>
      <trkpt lat="34.991300" lon="135.819580">
        <ele>65.5</ele>
      </trkpt>
      <trkpt lat="34.991330" lon="135.821210">
        <ele>66.4</ele>
      </trkpt>
      <trkpt lat="34.991270" lon="135.822610">
        <ele>68.1</ele>
      </trkpt>
      <trkpt lat="34.991260" lon="135.823730">
        <ele>69.0</ele>
      </trkpt>
      <trkpt lat="34.991290" lon="135.824140">
        <ele>69.4</ele>
      </trkpt>
      <trkpt lat="34.991440" lon="135.825430">
        <ele>71.2</ele>
      </trkpt>
      <trkpt lat="34.991490" lon="135.825980">
        <ele>72.1</ele>
      </trkpt>
      <trkpt lat="34.991500" lon="135.826380">
        <ele>72.8</ele>
      </trkpt>
      <trkpt lat="34.991470" lon="135.826760">
        <ele>73.4</ele>
      </trkpt>
      <trkpt lat="34.991440" lon="135.826860">
        <ele>73.6</ele>
      </trkpt>
      <trkpt lat="34.991400" lon="135.827680">
        <ele>77.1</ele>
      </trkpt>
      <trkpt lat="34.991410" lon="135.828520">
        <ele>79.8</ele>
      </trkpt>
      <trkpt lat="34.991270" lon="135.830150">
        <ele>83.5</ele>
      </trkpt>
      <trkpt lat="34.991270" lon="135.830240">
        <ele>84.0</ele>
      </trkpt>
      <trkpt lat="34.991710" lon="135.831480">
        <ele>87.3</ele>
      </trkpt>
      <trkpt lat="34.992010" lon="135.832060">
        <ele>86.2</ele>
      </trkpt>
      <trkpt lat="34.992130" lon="135.832440">
        <ele>84.7</ele>
      </trkpt>
      <trkpt lat="34.992150" lon="135.832630">
        <ele>85.8</ele>
      </trkpt>
      <trkpt lat="34.992140" lon="135.833820">
        <ele>90.8</ele>
      </trkpt>
      <trkpt lat="34.992090" lon="135.834030">
        <ele>92.2</ele>
      </trkpt>
      <trkpt lat="34.992110" lon="135.834310">
        <ele>93.1</ele>
      </trkpt>
      <trkpt lat="34.992070" lon="135.834620">
        <ele>94.1</ele>
      </trkpt>
      <trkpt lat="34.991920" lon="135.835060">
        <ele>95.5</ele>
      </trkpt>
      <trkpt lat="34.991860" lon="135.835140">
        <ele>96.6</ele>
      </trkpt>
      <trkpt lat="34.991500" lon="135.836880">
        <ele>101.9</ele>
      </trkpt>
      <trkpt lat="34.991320" lon="135.837570">
        <ele>103.1</ele>
      </trkpt>
      <trkpt lat="34.991080" lon="135.838380">
        <ele>106.4</ele>
      </trkpt>
      <trkpt lat="34.990770" lon="135.839660">
        <ele>110.1</ele>
      </trkpt>
      <trkpt lat="34.990490" lon="135.840510">
        <ele>112.4</ele>
      </trkpt>
      <trkpt lat="34.990400" lon="135.840900">
        <ele>113.9</ele>
      </trkpt>
      <trkpt lat="34.990370" lon="135.840940">
        <ele>113.9</ele>
      </trkpt>
      <trkpt lat="34.990290" lon="135.841410">
        <ele>116.8</ele>
      </trkpt>
      <trkpt lat="34.990280" lon="135.841580">
        <ele>117.9</ele>
      </trkpt>
      <trkpt lat="34.990290" lon="135.842020">
        <ele>118.9</ele>
      </trkpt>
      <trkpt lat="34.991080" lon="135.845350">
        <ele>130.3</ele>
      </trkpt>
      <trkpt lat="34.991880" lon="135.848300">
        <ele>141.2</ele>
      </trkpt>
      <trkpt lat="34.991980" lon="135.848600">
        <ele>141.8</ele>
      </trkpt>
      <trkpt lat="34.992160" lon="135.849050">
        <ele>142.7</ele>
      </trkpt>
      <trkpt lat="34.992510" lon="135.849720">
        <ele>144.3</ele>
      </trkpt>
      <trkpt lat="34.993880" lon="135.851730">
        <ele>153.4</ele>
      </trkpt>
      <trkpt lat="34.993970" lon="135.851900">
        <ele>154.4</ele>
      </trkpt>
      <trkpt lat="34.994110" lon="135.852250">
        <ele>156.2</ele>
      </trkpt>
      <trkpt lat="34.994170" lon="135.852550">
        <ele>157.3</ele>
      </trkpt>
      <trkpt lat="34.994190" lon="135.852740">
        <ele>157.3</ele>
      </trkpt>
      <trkpt lat="34.994180" lon="135.853100">
        <ele>159.1</ele>
      </trkpt>
      <trkpt lat="34.993870" lon="135.854350">
        <ele>165.5</ele>
      </trkpt>
      <trkpt lat="34.993860" lon="135.854620">
        <ele>166.9</ele>
      </trkpt>
      <trkpt lat="34.993890" lon="135.854790">
        <ele>167.5</ele>
      </trkpt>
      <trkpt lat="34.994110" lon="135.855450">
        <ele>168.4</ele>
      </trkpt>
      <trkpt lat="34.994130" lon="135.855600">
        <ele>168.2</ele>
      </trkpt>
      <trkpt lat="34.994120" lon="135.856000">
        <ele>167.3</ele>
      </trkpt>
      <trkpt lat="34.994060" lon="135.856460">
        <ele>164.5</ele>
      </trkpt>
      <trkpt lat="34.994090" lon="135.856790">
        <ele>163.1</ele>
      </trkpt>
      <trkpt lat="34.994190" lon="135.857070">
        <ele>161.9</ele>
      </trkpt>
      <trkpt lat="34.994290" lon="135.857250">
        <ele>161.4</ele>
      </trkpt>
      <trkpt lat="34.994520" lon="135.857510">
        <ele>160.1</ele>
      </trkpt>
      <trkpt lat="34.994750" lon="135.857660">
        <ele>158.5</ele>
      </trkpt>
      <trkpt lat="34.995010" lon="135.857750">
        <ele>157.7</ele>
      </trkpt>
      <trkpt lat="34.995270" lon="135.857780">
        <ele>156.9</ele>
      </trkpt>
      <trkpt lat="34.996960" lon="135.857440">
        <ele>147.0</ele>
      </trkpt>
      <trkpt lat="34.997220" lon="135.857430">
        <ele>145.9</ele>
      </trkpt>
      <trkpt lat="34.997750" lon="135.857540">
        <ele>142.6</ele>
      </trkpt>
      <trkpt lat="34.998820" lon="135.857890">
        <ele>137.9</ele>
      </trkpt>
      <trkpt lat="34.999000" lon="135.857910">
        <ele>136.4</ele>
      </trkpt>
      <trkpt lat="34.999640" lon="135.858140">
        <ele>133.8</ele>
      </trkpt>
      <trkpt lat="34.999790" lon="135.858210">
        <ele>133.4</ele>
      </trkpt>
      <trkpt lat="34.999820" lon="135.858260">
        <ele>133.4</ele>
      </trkpt>
      <trkpt lat="35.000490" lon="135.858600">
        <ele>128.4</ele>
      </trkpt>
      <trkpt lat="35.000970" lon="135.858700">
        <ele>127.1</ele>
      </trkpt>
      <trkpt lat="35.001190" lon="135.858790">
        <ele>125.9</ele>
      </trkpt>
      <trkpt lat="35.002180" lon="135.859480">
        <ele>120.1</ele>
      </trkpt>
      <trkpt lat="35.003080" lon="135.860040">
        <ele>116.1</ele>
      </trkpt>
      <trkpt lat="35.004100" lon="135.860640">
        <ele>111.9</ele>
      </trkpt>
      <trkpt lat="35.004280" lon="135.860720">
        <ele>110.9</ele>
      </trkpt>
      <trkpt lat="35.004870" lon="135.861060">
        <ele>108.9</ele>
      </trkpt>
      <trkpt lat="35.006060" lon="135.861450">
        <ele>105.1</ele>
      </trkpt>
      <trkpt lat="35.006450" lon="135.861510">
        <ele>104.3</ele>
      </trkpt>
      <trkpt lat="35.008760" lon="135.862250">
        <ele>96.1</ele>
      </trkpt>
      <trkpt lat="35.010410" lon="135.862760">
        <ele>90.9</ele>
      </trkpt>
      <trkpt lat="35.011400" lon="135.863250">
        <ele>89.8</ele>
      </trkpt>
      <trkpt lat="35.011500" lon="135.863370">
        <ele>89.8</ele>
      </trkpt>
      <trkpt lat="35.011930" lon="135.863720">
        <ele>89.3</ele>
      </trkpt>
      <trkpt lat="35.012100" lon="135.863840">
        <ele>89.3</ele>
      </trkpt>
      <trkpt lat="35.013300" lon="135.861840">
        <ele>88.7</ele>
      </trkpt>
      <trkpt lat="35.013550" lon="135.861460">
        <ele>89.1</ele>
      </trkpt>
      <trkpt lat="35.014020" lon="135.861000">
        <ele>89.3</ele>
      </trkpt>
      <trkpt lat="35.014450" lon="135.860650">
        <ele>89.2</ele>
      </trkpt>
      <trkpt lat="35.014710" lon="135.860500">
        <ele>89.2</ele>
      </trkpt>
      <trkpt lat="35.014820" lon="135.860470">
        <ele>89.2</ele>
      </trkpt>
      <trkpt lat="35.015160" lon="135.860440">
        <ele>88.9</ele>
      </trkpt>
      <trkpt lat="35.015490" lon="135.860500">
        <ele>88.4</ele>
      </trkpt>
      <trkpt lat="35.016380" lon="135.860620">
        <ele>87.4</ele>
      </trkpt>
      <trkpt lat="35.018100" lon="135.860900">
        <ele>87.6</ele>
      </trkpt>
      <trkpt lat="35.018480" lon="135.860940">
        <ele>87.6</ele>
      </trkpt>
      <trkpt lat="35.021730" lon="135.861460">
        <ele>88.8</ele>
      </trkpt>
      <trkpt lat="35.023030" lon="135.861640">
        <ele>87.3</ele>
      </trkpt>
      <trkpt lat="35.024070" lon="135.861820">
        <ele>87.9</ele>
      </trkpt>
      <trkpt lat="35.024370" lon="135.861920">
        <ele>87.9</ele>
      </trkpt>
      <trkpt lat="35.024530" lon="135.862010">
        <ele>87.9</ele>
      </trkpt>
      <trkpt lat="35.024740" lon="135.862180">
        <ele>87.9</ele>
      </trkpt>
      <trkpt lat="35.026560" lon="135.864220">
        <ele>89.3</ele>
      </trkpt>
      <trkpt lat="35.027170" lon="135.864860">
        <ele>89.8</ele>
      </trkpt>
      <trkpt lat="35.027360" lon="135.865020">
        <ele>90.0</ele>
      </trkpt>
      <trkpt lat="35.028060" lon="135.865490">
        <ele>90.5</ele>
      </trkpt>
      <trkpt lat="35.029070" lon="135.866070">
        <ele>89.1</ele>
      </trkpt>
      <trkpt lat="35.029240" lon="135.866150">
        <ele>89.0</ele>
      </trkpt>
      <trkpt lat="35.029790" lon="135.866330">
        <ele>89.0</ele>
      </trkpt>
      <trkpt lat="35.030070" lon="135.866400">
        <ele>89.1</ele>
      </trkpt>
      <trkpt lat="35.030770" lon="135.866510">
        <ele>89.6</ele>
      </trkpt>
      <trkpt lat="35.031970" lon="135.866650">
        <ele>89.3</ele>
      </trkpt>
      <trkpt lat="35.032270" lon="135.866660">
        <ele>89.2</ele>
      </trkpt>
      <trkpt lat="35.032470" lon="135.866650">
        <ele>88.9</ele>
      </trkpt>
      <trkpt lat="35.032870" lon="135.866540">
        <ele>88.6</ele>
      </trkpt>
      <trkpt lat="35.033100" lon="135.866430">
        <ele>88.4</ele>
      </trkpt>
      <trkpt lat="35.033570" lon="135.866130">
        <ele>88.5</ele>
      </trkpt>
      <trkpt lat="35.034600" lon="135.865380">
        <ele>88.4</ele>
      </trkpt>
      <trkpt lat="35.034770" lon="135.865290">
        <ele>88.4</ele>
      </trkpt>
      <trkpt lat="35.035000" lon="135.865210">
        <ele>88.4</ele>
      </trkpt>
      <trkpt lat="35.035340" lon="135.865150">
        <ele>88.5</ele>
      </trkpt>
      <trkpt lat="35.036830" lon="135.865210">
        <ele>89.1</ele>
      </trkpt>
      <trkpt lat="35.037750" lon="135.865230">
        <ele>89.1</ele>
      </trkpt>
      <trkpt lat="35.038680" lon="135.865280">
        <ele>88.8</ele>
      </trkpt>
      <trkpt lat="35.039030" lon="135.865350">
        <ele>88.7</ele>
      </trkpt>
      <trkpt lat="35.039330" lon="135.865490">
        <ele>88.8</ele>
      </trkpt>
      <trkpt lat="35.039680" lon="135.865760">
        <ele>88.5</ele>
      </trkpt>
      <trkpt lat="35.039860" lon="135.865930">
        <ele>88.5</ele>
      </trkpt>
      <trkpt lat="35.040600" lon="135.866820">
        <ele>88.3</ele>
      </trkpt>
      <trkpt lat="35.040870" lon="135.867080">
        <ele>88.4</ele>
      </trkpt>
      <trkpt lat="35.040970" lon="135.867150">
        <ele>88.4</ele>
      </trkpt>
      <trkpt lat="35.041340" lon="135.867370">
        <ele>88.4</ele>
      </trkpt>
      <trkpt lat="35.042560" lon="135.867870">
        <ele>88.4</ele>
      </trkpt>
      <trkpt lat="35.043160" lon="135.868060">
        <ele>88.4</ele>
      </trkpt>
      <trkpt lat="35.043600" lon="135.868300">
        <ele>88.4</ele>
      </trkpt>
      <trkpt lat="35.043930" lon="135.868530">
        <ele>88.4</ele>
      </trkpt>
      <trkpt lat="35.044190" lon="135.868780">
        <ele>88.5</ele>
      </trkpt>
      <trkpt lat="35.044370" lon="135.868980">
        <ele>88.4</ele>
      </trkpt>
      <trkpt lat="35.044550" lon="135.869260">
        <ele>88.4</ele>
      </trkpt>
      <trkpt lat="35.044650" lon="135.869430">
        <ele>88.4</ele>
      </trkpt>
      <trkpt lat="35.045030" lon="135.870280">
        <ele>88.4</ele>
      </trkpt>
      <trkpt lat="35.045170" lon="135.870550">
        <ele>88.4</ele>
      </trkpt>
      <trkpt lat="35.045760" lon="135.871500">
        <ele>88.7</ele>
      </trkpt>
      <trkpt lat="35.046040" lon="135.871870">
        <ele>88.6</ele>
      </trkpt>
      <trkpt lat="35.046510" lon="135.872370">
        <ele>88.0</ele>
      </trkpt>
      <trkpt lat="35.047060" lon="135.872860">
        <ele>87.8</ele>
      </trkpt>
      <trkpt lat="35.047670" lon="135.873170">
        <ele>87.9</ele>
      </trkpt>
      <trkpt lat="35.047960" lon="135.873240">
        <ele>87.9</ele>
      </trkpt>
      <trkpt lat="35.048520" lon="135.873290">
        <ele>88.1</ele>
      </trkpt>
      <trkpt lat="35.048830" lon="135.873240">
        <ele>88.2</ele>
      </trkpt>
      <trkpt lat="35.049390" lon="135.873220">
        <ele>88.3</ele>
      </trkpt>
      <trkpt lat="35.049630" lon="135.873260">
        <ele>88.3</ele>
      </trkpt>
      <trkpt lat="35.051960" lon="135.873870">
        <ele>88.2</ele>
      </trkpt>
      <trkpt lat="35.052250" lon="135.873990">
        <ele>88.2</ele>
      </trkpt>
      <trkpt lat="35.052500" lon="135.874140">
        <ele>88.3</ele>
      </trkpt>
      <trkpt lat="35.052950" lon="135.874510">
        <ele>88.3</ele>
      </trkpt>
      <trkpt lat="35.053370" lon="135.874880">
        <ele>88.3</ele>
      </trkpt>
      <trkpt lat="35.053530" lon="135.875060">
        <ele>88.5</ele>
      </trkpt>
      <trkpt lat="35.054270" lon="135.876090">
        <ele>88.0</ele>
      </trkpt>
      <trkpt lat="35.054530" lon="135.876380">
        <ele>88.2</ele>
      </trkpt>
      <trkpt lat="35.054910" lon="135.876730">
        <ele>88.5</ele>
      </trkpt>
      <trkpt lat="35.055440" lon="135.877120">
        <ele>88.5</ele>
      </trkpt>
      <trkpt lat="35.055980" lon="135.877370">
        <ele>88.2</ele>
      </trkpt>
      <trkpt lat="35.056490" lon="135.877540">
        <ele>88.1</ele>
      </trkpt>
      <trkpt lat="35.058340" lon="135.878110">
        <ele>88.2</ele>
      </trkpt>
      <trkpt lat="35.061160" lon="135.878750">
        <ele>88.1</ele>
      </trkpt>
      <trkpt lat="35.061460" lon="135.878890">
        <ele>88.1</ele>
      </trkpt>
      <trkpt lat="35.061670" lon="135.879010">
        <ele>87.9</ele>
      </trkpt>
      <trkpt lat="35.061990" lon="135.879230">
        <ele>87.8</ele>
      </trkpt>
      <trkpt lat="35.063670" lon="135.880520">
        <ele>87.9</ele>
      </trkpt>
      <trkpt lat="35.064300" lon="135.881020">
        <ele>87.9</ele>
      </trkpt>
      <trkpt lat="35.064360" lon="135.881050">
        <ele>87.9</ele>
      </trkpt>
      <trkpt lat="35.064900" lon="135.881480">
        <ele>87.9</ele>
      </trkpt>
      <trkpt lat="35.067930" lon="135.883800">
        <ele>90.2</ele>
      </trkpt>
      <trkpt lat="35.068740" lon="135.884380">
        <ele>89.4</ele>
      </trkpt>
      <trkpt lat="35.070730" lon="135.885950">
        <ele>88.7</ele>
      </trkpt>
      <trkpt lat="35.071940" lon="135.886870">
        <ele>88.5</ele>
      </trkpt>
      <trkpt lat="35.072230" lon="135.887060">
        <ele>88.5</ele>
      </trkpt>
      <trkpt lat="35.072690" lon="135.887260">
        <ele>88.5</ele>
      </trkpt>
      <trkpt lat="35.073080" lon="135.887370">
        <ele>88.3</ele>
      </trkpt>
      <trkpt lat="35.073530" lon="135.887370">
        <ele>88.3</ele>
      </trkpt>
      <trkpt lat="35.073900" lon="135.887320">
        <ele>88.3</ele>
      </trkpt>
      <trkpt lat="35.074600" lon="135.887080">
        <ele>88.4</ele>
      </trkpt>
      <trkpt lat="35.074810" lon="135.887030">
        <ele>88.3</ele>
      </trkpt>
      <trkpt lat="35.075700" lon="135.886730">
        <ele>89.0</ele>
      </trkpt>
      <trkpt lat="35.076370" lon="135.886530">
        <ele>88.1</ele>
      </trkpt>
      <trkpt lat="35.076780" lon="135.886520">
        <ele>88.2</ele>
      </trkpt>
      <trkpt lat="35.077070" lon="135.886550">
        <ele>88.1</ele>
      </trkpt>
      <trkpt lat="35.077490" lon="135.886690">
        <ele>88.1</ele>
      </trkpt>
      <trkpt lat="35.077750" lon="135.886830">
        <ele>88.1</ele>
      </trkpt>
      <trkpt lat="35.079180" lon="135.887840">
        <ele>90.9</ele>
      </trkpt>
      <trkpt lat="35.081520" lon="135.889290">
        <ele>90.9</ele>
      </trkpt>
      <trkpt lat="35.082050" lon="135.889650">
        <ele>91.4</ele>
      </trkpt>
      <trkpt lat="35.082170" lon="135.889700">
        <ele>91.4</ele>
      </trkpt>
      <trkpt lat="35.082500" lon="135.889980">
        <ele>91.4</ele>
      </trkpt>
      <trkpt lat="35.083270" lon="135.890700">
        <ele>91.7</ele>
      </trkpt>
      <trkpt lat="35.083530" lon="135.890890">
        <ele>91.9</ele>
      </trkpt>
      <trkpt lat="35.084170" lon="135.891350">
        <ele>91.8</ele>
      </trkpt>
      <trkpt lat="35.085150" lon="135.892010">
        <ele>89.2</ele>
      </trkpt>
      <trkpt lat="35.086910" lon="135.893230">
        <ele>88.4</ele>
      </trkpt>
      <trkpt lat="35.087060" lon="135.893320">
        <ele>88.3</ele>
      </trkpt>
      <trkpt lat="35.087110" lon="135.893370">
        <ele>88.3</ele>
      </trkpt>
      <trkpt lat="35.088810" lon="135.894510">
        <ele>88.2</ele>
      </trkpt>
      <trkpt lat="35.089170" lon="135.894790">
        <ele>88.1</ele>
      </trkpt>
      <trkpt lat="35.089450" lon="135.895060">
        <ele>88.1</ele>
      </trkpt>
      <trkpt lat="35.091640" lon="135.898520">
        <ele>89.3</ele>
      </trkpt>
      <trkpt lat="35.091920" lon="135.898900">
        <ele>89.8</ele>
      </trkpt>
      <trkpt lat="35.092250" lon="135.899210">
        <ele>90.2</ele>
      </trkpt>
      <trkpt lat="35.092680" lon="135.899500">
        <ele>90.8</ele>
      </trkpt>
      <trkpt lat="35.098700" lon="135.902600">
        <ele>88.6</ele>
      </trkpt>
      <trkpt lat="35.099270" lon="135.902830">
        <ele>88.6</ele>
      </trkpt>
      <trkpt lat="35.100140" lon="135.903070">
        <ele>88.6</ele>
      </trkpt>
      <trkpt lat="35.100980" lon="135.903350">
        <ele>88.2</ele>
      </trkpt>
      <trkpt lat="35.101910" lon="135.903700">
        <ele>88.4</ele>
      </trkpt>
      <trkpt lat="35.102250" lon="135.903870">
        <ele>88.4</ele>
      </trkpt>
      <trkpt lat="35.102490" lon="135.904020">
        <ele>88.5</ele>
      </trkpt>
      <trkpt lat="35.105050" lon="135.905910">
        <ele>88.8</ele>
      </trkpt>
      <trkpt lat="35.105870" lon="135.906470">
        <ele>88.4</ele>
      </trkpt>
      <trkpt lat="35.107730" lon="135.907890">
        <ele>88.3</ele>
      </trkpt>
      <trkpt lat="35.109260" lon="135.908990">
        <ele>88.5</ele>
      </trkpt>
      <trkpt lat="35.110950" lon="135.910240">
        <ele>91.6</ele>
      </trkpt>
      <trkpt lat="35.111450" lon="135.910590">
        <ele>92.0</ele>
      </trkpt>
      <trkpt lat="35.111750" lon="135.910780">
        <ele>91.2</ele>
      </trkpt>
      <trkpt lat="35.113270" lon="135.911810">
        <ele>90.1</ele>
      </trkpt>
      <trkpt lat="35.113540" lon="135.912040">
        <ele>90.1</ele>
      </trkpt>
      <trkpt lat="35.113790" lon="135.912290">
        <ele>90.0</ele>
      </trkpt>
      <trkpt lat="35.114020" lon="135.912550">
        <ele>90.0</ele>
      </trkpt>
      <trkpt lat="35.114430" lon="135.912930">
        <ele>89.9</ele>
      </trkpt>
      <trkpt lat="35.115950" lon="135.914210">
        <ele>88.6</ele>
      </trkpt>
      <trkpt lat="35.117640" lon="135.915350">
        <ele>88.1</ele>
      </trkpt>
      <trkpt lat="35.118560" lon="135.915950">
        <ele>87.7</ele>
      </trkpt>
      <trkpt lat="35.119910" lon="135.916870">
        <ele>87.4</ele>
      </trkpt>
      <trkpt lat="35.121170" lon="135.917640">
        <ele>87.5</ele>
      </trkpt>
      <trkpt lat="35.122000" lon="135.918220">
        <ele>87.9</ele>
      </trkpt>
      <trkpt lat="35.122960" lon="135.918830">
        <ele>88.2</ele>
      </trkpt>
      <trkpt lat="35.124670" lon="135.919950">
        <ele>88.8</ele>
      </trkpt>
      <trkpt lat="35.125870" lon="135.920830">
        <ele>89.9</ele>
      </trkpt>
      <trkpt lat="35.128080" lon="135.922370">
        <ele>89.9</ele>
      </trkpt>
      <trkpt lat="35.129790" lon="135.923610">
        <ele>88.9</ele>
      </trkpt>
      <trkpt lat="35.130410" lon="135.924040">
        <ele>88.8</ele>
      </trkpt>
      <trkpt lat="35.130840" lon="135.924360">
        <ele>88.8</ele>
      </trkpt>
      <trkpt lat="35.131440" lon="135.924920">
        <ele>88.8</ele>
      </trkpt>
      <trkpt lat="35.131710" lon="135.925140">
        <ele>88.8</ele>
      </trkpt>
      <trkpt lat="35.131860" lon="135.925210">
        <ele>88.7</ele>
      </trkpt>
      <trkpt lat="35.132060" lon="135.925240">
        <ele>88.6</ele>
      </trkpt>
      <trkpt lat="35.132380" lon="135.925170">
        <ele>88.6</ele>
      </trkpt>
      <trkpt lat="35.133440" lon="135.924510">
        <ele>88.7</ele>
      </trkpt>
      <trkpt lat="35.133830" lon="135.924310">
        <ele>88.7</ele>
      </trkpt>
      <trkpt lat="35.135630" lon="135.923520">
        <ele>88.9</ele>
      </trkpt>
      <trkpt lat="35.136910" lon="135.922930">
        <ele>89.6</ele>
      </trkpt>
      <trkpt lat="35.137270" lon="135.922820">
        <ele>89.6</ele>
      </trkpt>
      <trkpt lat="35.137950" lon="135.922720">
        <ele>89.2</ele>
      </trkpt>
      <trkpt lat="35.138670" lon="135.922790">
        <ele>89.1</ele>
      </trkpt>
      <trkpt lat="35.139000" lon="135.922870">
        <ele>89.1</ele>
      </trkpt>
      <trkpt lat="35.145120" lon="135.924950">
        <ele>88.8</ele>
      </trkpt>
      <trkpt lat="35.146240" lon="135.925290">
        <ele>88.4</ele>
      </trkpt>
      <trkpt lat="35.147550" lon="135.925560">
        <ele>88.7</ele>
      </trkpt>
      <trkpt lat="35.148440" lon="135.925670">
        <ele>88.8</ele>
      </trkpt>
      <trkpt lat="35.149240" lon="135.925720">
        <ele>88.8</ele>
      </trkpt>
      <trkpt lat="35.150470" lon="135.925700">
        <ele>89.7</ele>
      </trkpt>
      <trkpt lat="35.151310" lon="135.925640">
        <ele>90.3</ele>
      </trkpt>
      <trkpt lat="35.162030" lon="135.924220">
        <ele>88.4</ele>
      </trkpt>
    </trkseg>
  </trk>
</gpx>