<?xml version='1.0' encoding='UTF-8'?>
<gpx version="1.1"
  creator="GPXmagic"
  xmlns="http://www.topografix.com/GPX/1/1"
  xmlns:rgt="http://www.rgtcycling.com/XML/GpxExtensions/v1"
  xmlns:xsi="http://www.w3.org/2001/XMLSchema-instance" xsi:schemaLocation="http://www.topografix.com/GPX/1/1
  http://www.topografix.com/GPX/1/1/gpx.xsd">
  <metadata>
    <name>Smoothed with GPXmagic</name>
    <author>
      <link href="https://www.stepwiserefinement.co.uk">
        <text>GPXmagic v3</text>
        <type>text/html</type>
      </link>
    </author>
  </metadata>
<trk>  <name>Sasebo&#32;Criterium&#32;-&#32;Tour&#32;de&#32;Kyushu</name>
<trkseg>
<trkpt lat="33.163114" lon="129.724739"><ele>20.5</ele></trkpt>
<trkpt lat="33.16356341652199" lon="129.72438988845465"><ele>19.14514973958333</ele></trkpt>
<trkpt lat="33.164012530079994" lon="129.72401775431288"><ele>17.768311457013212</ele></trkpt>
<trkpt lat="33.16404700040234" lon="129.72399392066086"><ele>17.669399663570854</ele></trkpt>
<trkpt lat="33.16408147072468" lon="129.72397008699002"><ele>17.570487870128495</ele></trkpt>
<trkpt lat="33.1641152341749" lon="129.7239401586961"><ele>17.474403576239467</ele></trkpt>
<trkpt lat="33.16414508607977" lon="129.72390866309934"><ele>17.38074918453798</ele></trkpt>
<trkpt lat="33.164174937984626" lon="129.72387716748113"><ele>17.28709479283649</ele></trkpt>
<trkpt lat="33.16420402947498" lon="129.72382637643008"><ele>17.205271472178058</ele></trkpt>
<trkpt lat="33.164218644828566" lon="129.7237821176165"><ele>17.138178490392995</ele></trkpt>
<trkpt lat="33.164227326157715" lon="129.72374952763164"><ele>17.10361328125</ele></trkpt>
<trkpt lat="33.16421416763916" lon="129.72369449324967"><ele>17.075194185131785</ele></trkpt>
<trkpt lat="33.16420169119031" lon="129.72364931000263"><ele>17.046775089013572</ele></trkpt>
<trkpt lat="33.16417856709866" lon="129.72360111441984"><ele>17.04229924784408</ele></trkpt>
<trkpt lat="33.164156856639536" lon="129.7235612266902"><ele>17.04004745989046</ele></trkpt>
<trkpt lat="33.16413340990432" lon="129.7235207810759"><ele>17.041849953559332</ele></trkpt>
<trkpt lat="33.16410848586013" lon="129.7234836708691"><ele>17.051889000161896</ele></trkpt>
<trkpt lat="33.164083561815964" lon="129.72344656068336"><ele>17.061928046764464</ele></trkpt>
<trkpt lat="33.16401867855482" lon="129.7233283725378"><ele>17.10867814780734</ele></trkpt>
<trkpt lat="33.163992220070696" lon="129.72329187636336"><ele>17.127658607808307</ele></trkpt>
<trkpt lat="33.16396766770509" lon="129.723254053559"><ele>17.154456250753398</ele></trkpt>
<trkpt lat="33.16394311533948" lon="129.72321623077582"><ele>17.18125389369849</ele></trkpt>
<trkpt lat="33.16391982984073" lon="129.72317079198723"><ele>17.216912347889405</ele></trkpt>
<trkpt lat="33.16390223574561" lon="129.72312779126528"><ele>17.263594648603867</ele></trkpt>
<trkpt lat="33.163889451198244" lon="129.72309099091993"><ele>17.293749999999996</ele></trkpt>
<trkpt lat="33.16390104499856" lon="129.72303594016995"><ele>17.372323692765498</ele></trkpt>
<trkpt lat="33.163921149051326" lon="129.72298049777874"><ele>17.457214374395342</ele></trkpt>
<trkpt lat="33.16394777233559" lon="129.7229447299309"><ele>17.55556926813695</ele></trkpt>
<trkpt lat="33.16400742787593" lon="129.722889216557"><ele>17.740471272358885</ele></trkpt>
<trkpt lat="33.16403712698125" lon="129.72285702995836"><ele>17.846405520858944</ele></trkpt>
<trkpt lat="33.16406694666555" lon="129.72282506324387"><ele>17.95328772951593</ele></trkpt>
<trkpt lat="33.16410270603729" lon="129.72279623190124"><ele>18.066494502271127</ele></trkpt>
<trkpt lat="33.16413744550739" lon="129.72277238613404"><ele>18.183863217971222</ele></trkpt>
<trkpt lat="33.164187659649784" lon="129.72276372416883"><ele>18.305232142850492</ele></trkpt>
<trkpt lat="33.16422127166628" lon="129.72276171236723"><ele>18.383819241982504</ele></trkpt>
<trkpt lat="33.16426069316636" lon="129.72279404422775"><ele>18.48920336173399</ele></trkpt>
<trkpt lat="33.1642971477998" lon="129.72282703886387"><ele>18.59394367401704</ele></trkpt>
<trkpt lat="33.16432260847674" lon="129.7228639950611"><ele>18.682006287947797</ele></trkpt>
<trkpt lat="33.164348069153654" lon="129.7229009512797"><ele>18.770068901878552</ele></trkpt>
<trkpt lat="33.164373118299764" lon="129.72293914010388"><ele>18.855830591027654</ele></trkpt>
<trkpt lat="33.16446210868156" lon="129.72305923227412"><ele>19.125494007126658</ele></trkpt>
<trkpt lat="33.16457251214771" lon="129.72321023499225"><ele>19.44815354713314</ele></trkpt>
<trkpt lat="33.1646812345319" lon="129.72336334337143"><ele>19.767670877874963</ele></trkpt>
<trkpt lat="33.16477480725623" lon="129.72349625118406"><ele>20.047732426303856</ele></trkpt>
<trkpt lat="33.16484573032069" lon="129.72359676871497"><ele>20.26997084548105</ele></trkpt>
<trkpt lat="33.16489437172011" lon="129.72366484203053"><ele>20.43921282798834</ele></trkpt>
<trkpt lat="33.164926441009335" lon="129.72370792943693"><ele>20.58009866645071</ele></trkpt>
<trkpt lat="33.164949956706884" lon="129.72373507328138"><ele>20.726906516574882</ele></trkpt>
<trkpt lat="33.1649726664442" lon="129.72375351363146"><ele>20.91237802293169</ele></trkpt>
<trkpt lat="33.16499923871886" lon="129.7237661330697"><ele>21.142354712314088</ele></trkpt>
<trkpt lat="33.16503022050203" lon="129.72377252486643"><ele>21.39386930257112</ele></trkpt>
<trkpt lat="33.16506329686428" lon="129.72377030422732"><ele>21.62736518347051</ele></trkpt>
<trkpt lat="33.16509670737953" lon="129.72375863138137"><ele>21.81974129801097</ele></trkpt>
<trkpt lat="33.16513015686084" lon="129.72373856771938"><ele>21.966631301440326</ele></trkpt>
<trkpt lat="33.16516579921124" lon="129.72371126490162"><ele>22.075883058984907</ele></trkpt>
<trkpt lat="33.1652070386874" lon="129.72367614998623"><ele>22.153566529492455</ele></trkpt>
<trkpt lat="33.165257019097204" lon="129.72363177822984"><ele>22.205555555555556</ele></trkpt>
<trkpt lat="33.16531463281249" lon="129.72357975192884"><ele>22.23515625</ele></trkpt>
<trkpt lat="33.165375025173596" lon="129.72352475047862"><ele>22.239496527777778</ele></trkpt>
<trkpt lat="33.16543354687499" lon="129.72347109131516"><ele>22.20998263888889</ele></trkpt>
<trkpt lat="33.16548922656249" lon="129.7234195788595"><ele>22.141145833333336</ele></trkpt>
<trkpt lat="33.165543059895825" lon="129.7233690166429"><ele>22.04010416666667</ele></trkpt>
<trkpt lat="33.16559529340276" lon="129.7233184824955"><ele>21.922222222222224</ele></trkpt>
<trkpt lat="33.165645587226834" lon="129.723267419269"><ele>21.80073148148148</ele></trkpt>
<trkpt lat="33.1656944808148" lon="129.723214810377"><ele>21.67999074074074</ele></trkpt>
<trkpt lat="33.16574223911804" lon="129.72316092366253"><ele>21.562006944444445</ele></trkpt>
<trkpt lat="33.16578827422452" lon="129.72310726933233"><ele>21.45056712962963</ele></trkpt>
<trkpt lat="33.16583263330324" lon="129.7230542001235"><ele>21.34868287037037</ele></trkpt>
<trkpt lat="33.165878186518505" lon="129.72299827429242"><ele>21.25248888888889</ele></trkpt>
<trkpt lat="33.1659283988148" lon="129.72293531864128"><ele>21.156488888888887</ele></trkpt>
<trkpt lat="33.16598324488887" lon="129.7228655291884"><ele>21.0652</ele></trkpt>
<trkpt lat="33.16603850770369" lon="129.72279408709994"><ele>20.99977777777778</ele></trkpt>
<trkpt lat="33.166093946427495" lon="129.72272022127726"><ele>20.99822776721742</ele></trkpt>
<trkpt lat="33.166115825383" lon="129.72268042458725"><ele>21.04016977341721</ele></trkpt>
<trkpt lat="33.16613746555451" lon="129.72264064495445"><ele>21.09520608143072</ele></trkpt>
<trkpt lat="33.16615881039912" lon="129.7226004364398"><ele>21.18490002311094</ele></trkpt>
<trkpt lat="33.166180378283826" lon="129.7225601545431"><ele>21.286449670408565</ele></trkpt>
<trkpt lat="33.16620203172087" lon="129.7225201821775"><ele>21.40903276580247</ele></trkpt>
<trkpt lat="33.16622579544469" lon="129.72247923597487"><ele>21.540487317934655</ele></trkpt>
<trkpt lat="33.16624957723749" lon="129.72244102881328"><ele>21.685542826281377</ele></trkpt>
<trkpt lat="33.16628180951355" lon="129.72240081428956"><ele>21.789050790956686</ele></trkpt>
<trkpt lat="33.16632734406555" lon="129.72237176643063"><ele>21.864016704886335</ele></trkpt>
<trkpt lat="33.16639301213702" lon="129.72237179261634"><ele>21.938983421169063</ele></trkpt>
<trkpt lat="33.166412757677854" lon="129.7223790689845"><ele>21.950078812146167</ele></trkpt>
<trkpt lat="33.16644825280894" lon="129.72242827640554"><ele>22.02504608445763</ele></trkpt>
<trkpt lat="33.16646379133422" lon="129.72250366553794"><ele>22.100012861167976</ele></trkpt>
<trkpt lat="33.16644363240791" lon="129.72257376139947"><ele>22.174978822393424</ele></trkpt>
<trkpt lat="33.16641096470892" lon="129.7226188171436"><ele>22.24994455801442</ele></trkpt>
<trkpt lat="33.1663827754535" lon="129.7226524758567"><ele>22.324910279694205</ele></trkpt>
<trkpt lat="33.16635458619806" lon="129.72268613454813"><ele>22.39987600137399</ele></trkpt>
<trkpt lat="33.16632513893255" lon="129.7227195950304"><ele>22.40434967887581</ele></trkpt>
<trkpt lat="33.166295838598636" lon="129.72275187115537"><ele>22.37602615464876</ele></trkpt>
<trkpt lat="33.16626640230666" lon="129.7227841608456"><ele>22.34800292903989</ele></trkpt>
<trkpt lat="33.16623666720169" lon="129.72281586443174"><ele>22.321679713133335</ele></trkpt>
<trkpt lat="33.16619870704732" lon="129.72286703958935"><ele>22.283556241426613</ele></trkpt>
<trkpt lat="33.166137688786" lon="129.72295005506842"><ele>22.242009602194788</ele></trkpt>
<trkpt lat="33.16608577083332" lon="129.7230193336663"><ele>22.245833333333337</ele></trkpt>
<trkpt lat="33.16603931487911" lon="129.72307960661482"><ele>22.30670760459534</ele></trkpt>
<trkpt lat="33.16599268049124" lon="129.7231382735166"><ele>22.42656142832648</ele></trkpt>
<trkpt lat="33.165942244405855" lon="129.72320001836667"><ele>22.59830568415638</ele></trkpt>
<trkpt lat="33.165888524434145" lon="129.72326373607575"><ele>22.8079561042524</ele></trkpt>
<trkpt lat="33.165833285665286" lon="129.72332648443032"><ele>23.043990054869685</ele></trkpt>
<trkpt lat="33.16577808856308" lon="129.72338594112657"><ele>23.296536351165983</ele></trkpt>
<trkpt lat="33.165724290830745" lon="129.72344126575666"><ele>23.54697466563786</ele></trkpt>
<trkpt lat="33.16567308451216" lon="129.7234922455306"><ele>23.76624121227709</ele></trkpt>
<trkpt lat="33.16562410427382" lon="129.72354000696595"><ele>23.923046339163236</ele></trkpt>
<trkpt lat="33.16557264583332" lon="129.7235893336538"><ele>24.00208333333333</ele></trkpt>
<trkpt lat="33.16551213683127" lon="129.72364655944074"><ele>24.00372942386831</ele></trkpt>
<trkpt lat="33.1654386247428" lon="129.72371537781882"><ele>23.941409465020577</ele></trkpt>
<trkpt lat="33.16535573456789" lon="129.72379193685515"><ele>23.833873456790123</ele></trkpt>
<trkpt lat="33.165273243569956" lon="129.72386583458567"><ele>23.69889403292181</ele></trkpt>
<trkpt lat="33.16520109362139" lon="129.7239255717321"><ele>23.54292695473251</ele></trkpt>
<trkpt lat="33.16514335416665" lon="129.72396433355664"><ele>23.354166666666664</ele></trkpt>
<trkpt lat="33.165096675465094" lon="129.72398182075187"><ele>23.104898619684498</ele></trkpt>
<trkpt lat="33.16505478891245" lon="129.72398254739304"><ele>22.777032964677637</ele></trkpt>
<trkpt lat="33.16501270984438" lon="129.72397385896116"><ele>22.38269354423868</ele></trkpt>
<trkpt lat="33.16496908144718" lon="129.7239650568228"><ele>21.977177640603564</ele></trkpt>
<trkpt lat="33.16492347205075" lon="129.723964676489"><ele>21.618208804869685</ele></trkpt>
<trkpt lat="33.16487554398147" lon="129.72397753101885"><ele>21.33816550925926</ele></trkpt>
<trkpt lat="33.164824735243045" lon="129.72400256345946"><ele>21.126388888888886</ele></trkpt>
<trkpt lat="33.16477092332175" lon="129.72403621250268"><ele>20.959519675925925</ele></trkpt>
<trkpt lat="33.16471343424305" lon="129.72407572052563"><ele>20.81656458333333</ele></trkpt>
<trkpt lat="33.16465119890739" lon="129.72412048442865"><ele>20.688385185185187</ele></trkpt>
<trkpt lat="33.16458579994443" lon="129.7241688503012"><ele>20.577167361111112</ele></trkpt>
<trkpt lat="33.16452128129628" lon="129.7242179113338"><ele>20.498292824074074</ele></trkpt>
<trkpt lat="33.1644607377037" lon="129.7242659710593"><ele>20.476948842592595</ele></trkpt>
<trkpt lat="33.164402124592584" lon="129.72431537534368"><ele>20.533303703703705</ele></trkpt>
<trkpt lat="33.164340954518515" lon="129.7243698469414"><ele>20.669096296296296</ele></trkpt>
<trkpt lat="33.16427562177777" lon="129.72442999497193"><ele>20.86097777777778</ele></trkpt>
<trkpt lat="33.16420879451851" lon="129.724492686534"><ele>21.071540740740744</ele></trkpt>
<trkpt lat="33.164142524592584" lon="129.72455583765765"><ele>21.27108148148148</ele></trkpt>
<trkpt lat="33.16407451733332" lon="129.72462174630206"><ele>21.452296296296296</ele></trkpt>
<trkpt lat="33.16400056888888" lon="129.7246945078578"><ele>21.62428148148148</ele></trkpt>
<trkpt lat="33.163921234666645" lon="129.72477358492895"><ele>21.791555555555554</ele></trkpt>
<trkpt lat="33.16384315066665" lon="129.7248528056254"><ele>21.944459259259254</ele></trkpt>
<trkpt lat="33.16377346844442" lon="129.7249260573887"><ele>22.067407407407405</ele></trkpt>
<trkpt lat="33.163713744888874" lon="129.72499295509584"><ele>22.153718518518517</ele></trkpt>
<trkpt lat="33.16366008044444" lon="129.72505792543777"><ele>22.211481481481478</ele></trkpt>
<trkpt lat="33.16360865866666" lon="129.72512409135874"><ele>22.259288888888886</ele></trkpt>
<trkpt lat="33.16355835777777" lon="129.7251912632122"><ele>22.3229037037037</ele></trkpt>
<trkpt lat="33.16350851822221" lon="129.72525966619864"><ele>22.43460740740741</ele></trkpt>
<trkpt lat="33.16345622962962" lon="129.7253332591514"><ele>22.625496296296294</ele></trkpt>
<trkpt lat="33.1633979308148" lon="129.7254169540493"><ele>22.906237037037034</ele></trkpt>
<trkpt lat="33.16333403555554" lon="129.7255099529105"><ele>23.24662222222222</ele></trkpt>
<trkpt lat="33.163269349925926" lon="129.7256054234106"><ele>23.58125925925926</ele></trkpt>
<trkpt lat="33.163208354074065" lon="129.72569755255245"><ele>23.842385185185183</ele></trkpt>
<trkpt lat="33.163150845481475" lon="129.72578753683808"><ele>23.994859259259258</ele></trkpt>
<trkpt lat="33.16309320518517" lon="129.72588100530925"><ele>24.045318518518513</ele></trkpt>
<trkpt lat="33.1630339391111" lon="129.7259792977696"><ele>24.022977777777776</ele></trkpt>
<trkpt lat="33.16297542029628" lon="129.72607724529678"><ele>23.95465185185185</ele></trkpt>
<trkpt lat="33.16292032992591" lon="129.7261695368074"><ele>23.848192592592593</ele></trkpt>
<trkpt lat="33.162867788296275" lon="129.7262572215337"><ele>23.695733333333333</ele></trkpt>
<trkpt lat="33.16281448459257" lon="129.72634572940336"><ele>23.490755555555552</ele></trkpt>
<trkpt lat="33.16275973288887" lon="129.72643628792486"><ele>23.247466666666668</ele></trkpt>
<trkpt lat="33.16270707925924" lon="129.72652308135784"><ele>22.99986666666667</ele></trkpt>
<trkpt lat="33.162660934962936" lon="129.72659874142377"><ele>22.78017777777778</ele></trkpt>
<trkpt lat="33.16262206076618" lon="129.7266618336304"><ele>22.59797361111111</ele></trkpt>
<trkpt lat="33.162587383206" lon="129.7267171941111"><ele>22.44324305555556</ele></trkpt>
<trkpt lat="33.162553202840265" lon="129.72677051334048"><ele>22.307995833333337</ele></trkpt>
<trkpt lat="33.16251721707406" lon="129.7268246898818"><ele>22.203022222222227</ele></trkpt>
<trkpt lat="33.16247774232869" lon="129.72688112783902"><ele>22.14887291666667</ele></trkpt>
<trkpt lat="33.16240014408118" lon="129.72698069822772"><ele>22.197327579790745</ele></trkpt>
<trkpt lat="33.16237368522409" lon="129.7270163842867"><ele>22.239864331868464</ele></trkpt>
<trkpt lat="33.16234574958524" lon="129.7270501371636"><ele>22.2922581014641</ele></trkpt>
<trkpt lat="33.16231025036714" lon="129.7270766679164"><ele>22.358480158270233</ele></trkpt>
<trkpt lat="33.1622662099404" lon="129.7270893901283"><ele>22.431404054701293</ele></trkpt>
<trkpt lat="33.162220175622174" lon="129.7270802522328"><ele>22.504581728606492</ele></trkpt>
<trkpt lat="33.16219012792065" lon="129.72706589102154"><ele>22.556960519547324</ele></trkpt>
<trkpt lat="33.16216007892432" lon="129.7270304755255"><ele>22.621459148282657</ele></trkpt>
<trkpt lat="33.16213285469452" lon="129.72699268154605"><ele>22.686274416346745</ele></trkpt>
<trkpt lat="33.16210880569561" lon="129.72695298772888"><ele>22.752298154186008</ele></trkpt>
<trkpt lat="33.16208835830991" lon="129.7269110044295"><ele>22.8192065850516</ele></trkpt>
<trkpt lat="33.16207252114921" lon="129.72686679335285"><ele>22.882560221424203</ele></trkpt>
<trkpt lat="33.16205861934156" lon="129.7268134835258"><ele>22.946090534979422</ele></trkpt>
<trkpt lat="33.16205179629629" lon="129.72677560904611"><ele>22.98264746227709</ele></trkpt>
<trkpt lat="33.162049004115204" lon="129.72673596296224"><ele>23.017352537722907</ele></trkpt>
<trkpt lat="33.16205035390945" lon="129.72669460082938"><ele>23.053909465020574</ele></trkpt>
<trkpt lat="33.16205570576131" lon="129.7266519814947"><ele>23.095816186556927</ele></trkpt>
<trkpt lat="33.16206454526748" lon="129.72660870783793"><ele>23.145130315500687</ele></trkpt>
<trkpt lat="33.16207553909464" lon="129.7265653909678"><ele>23.200000000000003</ele></trkpt>
<trkpt lat="33.16208657818928" lon="129.72652259398316"><ele>23.255075445816185</ele></trkpt>
<trkpt lat="33.16209548148147" lon="129.72648063032835"><ele>23.306447187928672</ele></trkpt>
<trkpt lat="33.16210063786007" lon="129.7264391481531"><ele>23.357818930041155</ele></trkpt>
<trkpt lat="33.162101257920426" lon="129.7263977675074"><ele>23.418583264746232</ele></trkpt>
<trkpt lat="33.16209706815363" lon="129.72635628063813"><ele>23.497559945130316</ele></trkpt>
<trkpt lat="33.162088603522626" lon="129.7263155370255"><ele>23.59471934156379</ele></trkpt>
<trkpt lat="33.1620761449657" lon="129.72627479635503"><ele>23.70921536351166</ele></trkpt>
<trkpt lat="33.16205864058161" lon="129.72623057556365"><ele>23.848333607681756</ele></trkpt>
<trkpt lat="33.16202426771217" lon="129.72615721949657"><ele>24.096235424295458</ele></trkpt>
<trkpt lat="33.161999234752734" lon="129.72612002803322"><ele>24.23634933663101</ele></trkpt>
<trkpt lat="33.16197437502608" lon="129.72608260877374"><ele>24.374625451063565</ele></trkpt>
<trkpt lat="33.16194953879297" lon="129.72604389826154"><ele>24.510848143506664</ele></trkpt>
<trkpt lat="33.161926491290075" lon="129.72600491846708"><ele>24.640796045024242</ele></trkpt>
<trkpt lat="33.16190529426227" lon="129.72595898568287"><ele>24.755473604762678</ele></trkpt>
<trkpt lat="33.161890857727485" lon="129.7259202925839"><ele>24.834655265965555</ele></trkpt>
<trkpt lat="33.16189722547713" lon="129.7258666429835"><ele>24.881895802044156</ele></trkpt>
<trkpt lat="33.16191780514945" lon="129.72581257049555"><ele>24.869373308911182</ele></trkpt>
<trkpt lat="33.16194515941467" lon="129.72577060926972"><ele>24.820330815037874</ele></trkpt>
<trkpt lat="33.16197494415121" lon="129.72573880529083"><ele>24.740504941539207</ele></trkpt>
<trkpt lat="33.16200708421091" lon="129.7257086757014"><ele>24.649193733723212</ele></trkpt>
<trkpt lat="33.16207363580246" lon="129.72564370591502"><ele>24.424074074074074</ele></trkpt>
<trkpt lat="33.162200066732694" lon="129.72552560362456"><ele>23.956050906873948</ele></trkpt>
<trkpt lat="33.16240709414214" lon="129.725344034779"><ele>23.176848041457095</ele></trkpt>
<trkpt lat="33.162720904384486" lon="129.7250745925749"><ele>21.989468068891938</ele></trkpt>
<trkpt lat="33.163114" lon="129.724739"><ele>20.5</ele></trkpt>
</trkseg>
</trk></gpx>
