<?xml version="1.0" encoding="UTF-8"?>
<gpx version="1.1" creator="BikeTerra" xmlns="http://www.topografix.com/GPX/1/1" xmlns:biketerra="https://biketerra.com/xmlns/gpx/1">
    <metadata>
        <name>Istrian Hilltop Route Croatia</name>
        <extensions>
            <biketerra:version>2.0.0</biketerra:version>
            <biketerra:isLoop>false</biketerra:isLoop>
            <biketerra:defaultSurface>asphalt</biketerra:defaultSurface>
        </extensions>
    </metadata>
    <trk>
        <name>Istrian Hilltop Route Croatia</name>
        <trkseg>
            <trkpt lat="45.3795063" lon="13.7233198"><ele>280.93</ele></trkpt>
            <trkpt lat="45.3795227" lon="13.723426"><ele>279.93</ele></trkpt>
            <trkpt lat="45.3795768" lon="13.7235424"><ele>279.51</ele></trkpt>
            <trkpt lat="45.3798431" lon="13.723907"><ele>278.31</ele></trkpt>
            <trkpt lat="45.3801009" lon="13.7243506"><ele>277.12</ele></trkpt>
            <trkpt lat="45.3806121" lon="13.7251738"><ele>275.13</ele></trkpt>
            <trkpt lat="45.3810167" lon="13.7258329"><ele>273.55</ele></trkpt>
            <trkpt lat="45.3811288" lon="13.7261203"><ele>272.8</ele></trkpt>
            <trkpt lat="45.3812155" lon="13.7264015"><ele>271.89</ele></trkpt>
            <trkpt lat="45.3812528" lon="13.7267112"><ele>270.7</ele></trkpt>
            <trkpt lat="45.3812275" lon="13.7268557"><ele>270.04</ele></trkpt>
            <trkpt lat="45.3811774" lon="13.7269348"><ele>269.52</ele></trkpt>
            <trkpt lat="45.3811102" lon="13.7269584"><ele>269.01</ele></trkpt>
            <trkpt lat="45.3807962" lon="13.7268344"><ele>266.34</ele></trkpt>
            <trkpt lat="45.3806492" lon="13.7268233"><ele>265.05</ele></trkpt>
            <trkpt lat="45.3805405" lon="13.7268542"><ele>264.05</ele></trkpt>
            <trkpt lat="45.3804105" lon="13.7269377"><ele>262.75</ele></trkpt>
            <trkpt lat="45.3801725" lon="13.7271541"><ele>260.18</ele></trkpt>
            <trkpt lat="45.3799835" lon="13.7274147"><ele>257.81</ele></trkpt>
            <trkpt lat="45.3798093" lon="13.7276746"><ele>255.53</ele></trkpt>
            <trkpt lat="45.3795413" lon="13.728119"><ele>251.66</ele></trkpt>
            <trkpt lat="45.3793059" lon="13.7284115"><ele>248.46</ele></trkpt>
            <trkpt lat="45.3791283" lon="13.7284954"><ele>246.4</ele></trkpt>
            <trkpt lat="45.3785604" lon="13.728543"><ele>239.88</ele></trkpt>
            <trkpt lat="45.3784099" lon="13.7285844"><ele>238.2</ele></trkpt>
            <trkpt lat="45.3783018" lon="13.7286438"><ele>237</ele></trkpt>
            <trkpt lat="45.3779423" lon="13.7289546"><ele>232.98</ele></trkpt>
            <trkpt lat="45.3773198" lon="13.7293822"><ele>227.07</ele></trkpt>
            <trkpt lat="45.3770113" lon="13.729647"><ele>224.09</ele></trkpt>
            <trkpt lat="45.3763265" lon="13.7303822"><ele>217.03</ele></trkpt>
            <trkpt lat="45.3759617" lon="13.7306938"><ele>213.59</ele></trkpt>
            <trkpt lat="45.3758236" lon="13.7308775"><ele>212.11</ele></trkpt>
            <trkpt lat="45.3757942" lon="13.730952"><ele>211.65</ele></trkpt>
            <trkpt lat="45.3757729" lon="13.7310809"><ele>210.96</ele></trkpt>
            <trkpt lat="45.3757802" lon="13.7313108"><ele>209.79</ele></trkpt>
            <trkpt lat="45.3758629" lon="13.7316667"><ele>207.97</ele></trkpt>
            <trkpt lat="45.3759048" lon="13.7318055"><ele>207.27</ele></trkpt>
            <trkpt lat="45.3759945" lon="13.73198"><ele>206.29</ele></trkpt>
            <trkpt lat="45.3759923" lon="13.7320363"><ele>206.04</ele></trkpt>
            <trkpt lat="45.3759676" lon="13.7320858"><ele>205.78</ele></trkpt>
            <trkpt lat="45.3759377" lon="13.7321047"><ele>205.57</ele></trkpt>
            <trkpt lat="45.3758991" lon="13.7320993"><ele>205.34</ele></trkpt>
            <trkpt lat="45.3758647" lon="13.7320607"><ele>205.07</ele></trkpt>
            <trkpt lat="45.3758044" lon="13.7319364"><ele>204.44</ele></trkpt>
            <trkpt lat="45.3754527" lon="13.7314669"><ele>201.69</ele></trkpt>
            <trkpt lat="45.3753631" lon="13.7312746"><ele>200.83</ele></trkpt>
            <trkpt lat="45.3753024" lon="13.731057"><ele>200.02</ele></trkpt>
            <trkpt lat="45.3752189" lon="13.7305327"><ele>198.4</ele></trkpt>
            <trkpt lat="45.3752042" lon="13.7303552"><ele>197.95</ele></trkpt>
            <trkpt lat="45.375216" lon="13.7302233"><ele>197.66</ele></trkpt>
            <trkpt lat="45.3752553" lon="13.7301003"><ele>197.39</ele></trkpt>
            <trkpt lat="45.3753157" lon="13.7300141"><ele>197.18</ele></trkpt>
            <trkpt lat="45.3756936" lon="13.7298773"><ele>196.31</ele></trkpt>
            <trkpt lat="45.3758251" lon="13.7297885"><ele>195.95</ele></trkpt>
            <trkpt lat="45.3759742" lon="13.7296499"><ele>195.42</ele></trkpt>
            <trkpt lat="45.3761041" lon="13.7295048"><ele>194.8</ele></trkpt>
            <trkpt lat="45.3765235" lon="13.7289543"><ele>192.08</ele></trkpt>
            <trkpt lat="45.3765517" lon="13.7288738"><ele>191.72</ele></trkpt>
            <trkpt lat="45.3765397" lon="13.7287907"><ele>191.35</ele></trkpt>
            <trkpt lat="45.3765017" lon="13.7287484"><ele>191.04</ele></trkpt>
            <trkpt lat="45.3764455" lon="13.7287582"><ele>190.66</ele></trkpt>
            <trkpt lat="45.3760296" lon="13.7292551"><ele>186.37</ele></trkpt>
            <trkpt lat="45.3759083" lon="13.7293544"><ele>185.06</ele></trkpt>
            <trkpt lat="45.3757695" lon="13.7294089"><ele>183.55</ele></trkpt>
            <trkpt lat="45.3756488" lon="13.7294264"><ele>182.16</ele></trkpt>
            <trkpt lat="45.3755247" lon="13.729409"><ele>180.64</ele></trkpt>
            <trkpt lat="45.3750868" lon="13.7291876"><ele>174.65</ele></trkpt>
            <trkpt lat="45.3750004" lon="13.7291754"><ele>173.56</ele></trkpt>
            <trkpt lat="45.374908" lon="13.7292007"><ele>172.41</ele></trkpt>
            <trkpt lat="45.3747847" lon="13.7292851"><ele>170.81</ele></trkpt>
            <trkpt lat="45.3745215" lon="13.729536"><ele>167.45</ele></trkpt>
            <trkpt lat="45.3737679" lon="13.7300828"><ele>159.72</ele></trkpt>
            <trkpt lat="45.3736795" lon="13.7301978"><ele>158.72</ele></trkpt>
            <trkpt lat="45.3736482" lon="13.7303502"><ele>157.84</ele></trkpt>
            <trkpt lat="45.3736827" lon="13.7310347"><ele>154.29</ele></trkpt>
            <trkpt lat="45.3736741" lon="13.7311393"><ele>153.78</ele></trkpt>
            <trkpt lat="45.3736392" lon="13.7312187"><ele>153.33</ele></trkpt>
            <trkpt lat="45.3735838" lon="13.7312859"><ele>152.84</ele></trkpt>
            <trkpt lat="45.37351" lon="13.7313301"><ele>152.32</ele></trkpt>
            <trkpt lat="45.3734329" lon="13.7313408"><ele>151.83</ele></trkpt>
            <trkpt lat="45.373358" lon="13.7312959"><ele>151.33</ele></trkpt>
            <trkpt lat="45.3733181" lon="13.7311937"><ele>150.84</ele></trkpt>
            <trkpt lat="45.3732955" lon="13.7308878"><ele>149.61</ele></trkpt>
            <trkpt lat="45.3732306" lon="13.7303366"><ele>147.52</ele></trkpt>
            <trkpt lat="45.373234" lon="13.7299747"><ele>146.19</ele></trkpt>
            <trkpt lat="45.3732757" lon="13.7294319"><ele>144.09</ele></trkpt>
            <trkpt lat="45.3733726" lon="13.7288892"><ele>141.58</ele></trkpt>
            <trkpt lat="45.3733529" lon="13.7287362"><ele>140.77</ele></trkpt>
            <trkpt lat="45.3732445" lon="13.7285407"><ele>139.32</ele></trkpt>
            <trkpt lat="45.3721471" lon="13.7270974"><ele>125.2</ele></trkpt>
            <trkpt lat="45.3720222" lon="13.7269783"><ele>123.85</ele></trkpt>
            <trkpt lat="45.3718535" lon="13.7268746"><ele>122.31</ele></trkpt>
            <trkpt lat="45.371457" lon="13.7267312"><ele>119.15</ele></trkpt>
            <trkpt lat="45.37114" lon="13.7266768"><ele>116.88</ele></trkpt>
            <trkpt lat="45.3709138" lon="13.7267339"><ele>115.32</ele></trkpt>
            <trkpt lat="45.3704603" lon="13.7269529"><ele>112.1</ele></trkpt>
            <trkpt lat="45.3702712" lon="13.7270919"><ele>110.61</ele></trkpt>
            <trkpt lat="45.3701502" lon="13.7272138"><ele>109.53</ele></trkpt>
            <trkpt lat="45.3700738" lon="13.7273297"><ele>108.69</ele></trkpt>
            <trkpt lat="45.3700138" lon="13.7275206"><ele>107.54</ele></trkpt>
            <trkpt lat="45.3700136" lon="13.7276988"><ele>106.54</ele></trkpt>
            <trkpt lat="45.3700566" lon="13.7278678"><ele>105.51</ele></trkpt>
            <trkpt lat="45.3703415" lon="13.7284484"><ele>101.45</ele></trkpt>
            <trkpt lat="45.3704806" lon="13.7286557"><ele>99.9</ele></trkpt>
            <trkpt lat="45.3705624" lon="13.7287431"><ele>99.16</ele></trkpt>
            <trkpt lat="45.370665" lon="13.7288131"><ele>98.39</ele></trkpt>
            <trkpt lat="45.3709006" lon="13.7288583"><ele>96.93</ele></trkpt>
            <trkpt lat="45.3709333" lon="13.7289093"><ele>96.66</ele></trkpt>
            <trkpt lat="45.3709408" lon="13.7289788"><ele>96.39</ele></trkpt>
            <trkpt lat="45.3709195" lon="13.7290426"><ele>96.14</ele></trkpt>
            <trkpt lat="45.370883" lon="13.7290701"><ele>95.93</ele></trkpt>
            <trkpt lat="45.3706798" lon="13.7290763"><ele>95.01</ele></trkpt>
            <trkpt lat="45.3705727" lon="13.7290375"><ele>94.56</ele></trkpt>
            <trkpt lat="45.3700986" lon="13.7287742"><ele>92.59</ele></trkpt>
            <trkpt lat="45.3699449" lon="13.7287414"><ele>91.93</ele></trkpt>
            <trkpt lat="45.3698451" lon="13.7287558"><ele>91.46</ele></trkpt>
            <trkpt lat="45.3695894" lon="13.7288659"><ele>90.06</ele></trkpt>
            <trkpt lat="45.3694597" lon="13.7288963"><ele>89.28</ele></trkpt>
            <trkpt lat="45.369298" lon="13.7288927"><ele>88.24</ele></trkpt>
            <trkpt lat="45.3689908" lon="13.7288335"><ele>86.07</ele></trkpt>
            <trkpt lat="45.3688101" lon="13.7288342"><ele>84.74</ele></trkpt>
            <trkpt lat="45.3680706" lon="13.7290193"><ele>79.09</ele></trkpt>
            <trkpt lat="45.3674175" lon="13.7291466"><ele>74.24</ele></trkpt>
            <trkpt lat="45.3672461" lon="13.7291264"><ele>73.01</ele></trkpt>
            <trkpt lat="45.3662588" lon="13.7288277"><ele>66.06</ele></trkpt>
            <trkpt lat="45.3660906" lon="13.7287349"><ele>64.85</ele></trkpt>
            <trkpt lat="45.3660263" lon="13.728675"><ele>64.34</ele></trkpt>
            <trkpt lat="45.365983" lon="13.7285942"><ele>63.87</ele></trkpt>
            <trkpt lat="45.365966" lon="13.7284623"><ele>63.25</ele></trkpt>
            <trkpt lat="45.3659989" lon="13.7283144"><ele>62.55</ele></trkpt>
            <trkpt lat="45.3661141" lon="13.7280546"><ele>61.15</ele></trkpt>
            <trkpt lat="45.3661931" lon="13.7279482"><ele>60.44</ele></trkpt>
            <trkpt lat="45.366337" lon="13.7278265"><ele>59.33</ele></trkpt>
            <trkpt lat="45.366378" lon="13.7277715"><ele>58.96</ele></trkpt>
            <trkpt lat="45.366388" lon="13.7276843"><ele>58.53</ele></trkpt>
            <trkpt lat="45.3663632" lon="13.7276378"><ele>58.25</ele></trkpt>
            <trkpt lat="45.366332" lon="13.7276206"><ele>58.02</ele></trkpt>
            <trkpt lat="45.3662847" lon="13.7276318"><ele>57.68</ele></trkpt>
            <trkpt lat="45.3661992" lon="13.727711"><ele>56.95</ele></trkpt>
            <trkpt lat="45.3660988" lon="13.7277683"><ele>56.16</ele></trkpt>
            <trkpt lat="45.365631" lon="13.7279638"><ele>52.46</ele></trkpt>
            <trkpt lat="45.3649185" lon="13.728442"><ele>46.21</ele></trkpt>
            <trkpt lat="45.3646887" lon="13.7284766"><ele>44.41</ele></trkpt>
            <trkpt lat="45.3643668" lon="13.7284654"><ele>42.01</ele></trkpt>
            <trkpt lat="45.3642104" lon="13.7285164"><ele>40.91</ele></trkpt>
            <trkpt lat="45.3641399" lon="13.7285852"><ele>40.36</ele></trkpt>
            <trkpt lat="45.3640595" lon="13.7287074"><ele>39.66</ele></trkpt>
            <trkpt lat="45.3639458" lon="13.7289212"><ele>38.65</ele></trkpt>
            <trkpt lat="45.3638863" lon="13.7290745"><ele>38.06</ele></trkpt>
            <trkpt lat="45.3638412" lon="13.7292504"><ele>37.48</ele></trkpt>
            <trkpt lat="45.3638169" lon="13.7294292"><ele>36.96</ele></trkpt>
            <trkpt lat="45.3638364" lon="13.7298701"><ele>35.74</ele></trkpt>
            <trkpt lat="45.3638169" lon="13.7300637"><ele>35.18</ele></trkpt>
            <trkpt lat="45.3636226" lon="13.7305991"><ele>33.26</ele></trkpt>
            <trkpt lat="45.3634304" lon="13.7313857"><ele>30.12</ele></trkpt>
            <trkpt lat="45.3632985" lon="13.7317082"><ele>28.53</ele></trkpt>
            <trkpt lat="45.3630874" lon="13.7321149"><ele>26.19</ele></trkpt>
            <trkpt lat="45.3629372" lon="13.7323416"><ele>24.69</ele></trkpt>
            <trkpt lat="45.3627781" lon="13.7325356"><ele>23.23</ele></trkpt>
            <trkpt lat="45.3621704" lon="13.7330296"><ele>18.33</ele></trkpt>
            <trkpt lat="45.3619909" lon="13.7332111"><ele>16.79</ele></trkpt>
            <trkpt lat="45.3617043" lon="13.7335529"><ele>14.22</ele></trkpt>
            <trkpt lat="45.3614829" lon="13.7338386"><ele>12.29</ele></trkpt>
            <trkpt lat="45.3612686" lon="13.7341357"><ele>10.54</ele></trkpt>
            <trkpt lat="45.3609971" lon="13.7345121"><ele>8.69</ele></trkpt>
            <trkpt lat="45.3607578" lon="13.7348174"><ele>7.51</ele></trkpt>
            <trkpt lat="45.3607301" lon="13.7349246"><ele>7.28</ele></trkpt>
            <trkpt lat="45.3606947" lon="13.7353971"><ele>6.63</ele></trkpt>
            <trkpt lat="45.3604973" lon="13.7380956"><ele>5.5</ele></trkpt>
            <trkpt lat="45.3604313" lon="13.7384167"><ele>5.56</ele></trkpt>
            <trkpt lat="45.360331" lon="13.7386367"><ele>5.73</ele></trkpt>
            <trkpt lat="45.3603159" lon="13.7387101"><ele>5.8</ele></trkpt>
            <trkpt lat="45.3603293" lon="13.7388034"><ele>5.9</ele></trkpt>
            <trkpt lat="45.3604102" lon="13.7390114"><ele>6.21</ele></trkpt>
            <trkpt lat="45.3604087" lon="13.7391057"><ele>6.35</ele></trkpt>
            <trkpt lat="45.3603796" lon="13.7392565"><ele>6.61</ele></trkpt>
            <trkpt lat="45.3602476" lon="13.7394838"><ele>7.16</ele></trkpt>
            <trkpt lat="45.359555" lon="13.741235"><ele>11.32</ele></trkpt>
            <trkpt lat="45.3588576" lon="13.7429993"><ele>14.76</ele></trkpt>
            <trkpt lat="45.3587397" lon="13.743227"><ele>15.02</ele></trkpt>
            <trkpt lat="45.3585664" lon="13.7434409"><ele>15.09</ele></trkpt>
            <trkpt lat="45.3583583" lon="13.7435854"><ele>14.95</ele></trkpt>
            <trkpt lat="45.3581115" lon="13.743668"><ele>14.65</ele></trkpt>
            <trkpt lat="45.3576912" lon="13.7437493"><ele>14.04</ele></trkpt>
            <trkpt lat="45.3576057" lon="13.743815"><ele>13.92</ele></trkpt>
            <trkpt lat="45.3575556" lon="13.7439118"><ele>13.84</ele></trkpt>
            <trkpt lat="45.357441" lon="13.7443411"><ele>13.66</ele></trkpt>
            <trkpt lat="45.3572787" lon="13.7451466"><ele>13.74</ele></trkpt>
            <trkpt lat="45.3571701" lon="13.7454779"><ele>13.91</ele></trkpt>
            <trkpt lat="45.3570231" lon="13.7458427"><ele>14.24</ele></trkpt>
            <trkpt lat="45.3569704" lon="13.7460472"><ele>14.44</ele></trkpt>
            <trkpt lat="45.3569462" lon="13.7462157"><ele>14.61</ele></trkpt>
            <trkpt lat="45.3569079" lon="13.7469401"><ele>15.36</ele></trkpt>
            <trkpt lat="45.3568661" lon="13.7472395"><ele>15.64</ele></trkpt>
            <trkpt lat="45.3567927" lon="13.7474802"><ele>15.82</ele></trkpt>
            <trkpt lat="45.3566412" lon="13.7477924"><ele>16</ele></trkpt>
            <trkpt lat="45.3565978" lon="13.7479124"><ele>16.03</ele></trkpt>
            <trkpt lat="45.3565622" lon="13.7480801"><ele>16.05</ele></trkpt>
            <trkpt lat="45.3565168" lon="13.7484588"><ele>15.98</ele></trkpt>
            <trkpt lat="45.3564629" lon="13.7486683"><ele>15.87</ele></trkpt>
            <trkpt lat="45.3562496" lon="13.749176"><ele>15.31</ele></trkpt>
            <trkpt lat="45.3556232" lon="13.7502231"><ele>13.28</ele></trkpt>
            <trkpt lat="45.355411" lon="13.7507914"><ele>12.2</ele></trkpt>
            <trkpt lat="45.3552214" lon="13.751469"><ele>11.08</ele></trkpt>
            <trkpt lat="45.3544782" lon="13.7549464"><ele>7.45</ele></trkpt>
            <trkpt lat="45.353666" lon="13.758698"><ele>8.93</ele></trkpt>
            <trkpt lat="45.3533132" lon="13.7603549"><ele>10.86</ele></trkpt>
            <trkpt lat="45.3533182" lon="13.7604971"><ele>11.04</ele></trkpt>
            <trkpt lat="45.3533634" lon="13.7606417"><ele>11.26</ele></trkpt>
            <trkpt lat="45.353726" lon="13.7612835"><ele>12.49</ele></trkpt>
            <trkpt lat="45.3538224" lon="13.7615994"><ele>12.97</ele></trkpt>
            <trkpt lat="45.3538382" lon="13.7618233"><ele>13.24</ele></trkpt>
            <trkpt lat="45.3538182" lon="13.7622846"><ele>13.7</ele></trkpt>
            <trkpt lat="45.3539378" lon="13.7630568"><ele>14.26</ele></trkpt>
            <trkpt lat="45.3539639" lon="13.7635388"><ele>14.46</ele></trkpt>
            <trkpt lat="45.3539479" lon="13.7645188"><ele>14.58</ele></trkpt>
            <trkpt lat="45.3540416" lon="13.7650252"><ele>14.52</ele></trkpt>
            <trkpt lat="45.3542576" lon="13.7659403"><ele>14.19</ele></trkpt>
            <trkpt lat="45.3542883" lon="13.7662213"><ele>14.04</ele></trkpt>
            <trkpt lat="45.354311" lon="13.7668379"><ele>13.64</ele></trkpt>
            <trkpt lat="45.3543709" lon="13.7674324"><ele>13.23</ele></trkpt>
            <trkpt lat="45.3545293" lon="13.7685673"><ele>12.56</ele></trkpt>
            <trkpt lat="45.3546651" lon="13.769497"><ele>12.26</ele></trkpt>
            <trkpt lat="45.3547471" lon="13.7697127"><ele>12.22</ele></trkpt>
            <trkpt lat="45.3548249" lon="13.7698396"><ele>12.2</ele></trkpt>
            <trkpt lat="45.3554107" lon="13.7706493"><ele>12.07</ele></trkpt>
            <trkpt lat="45.3559503" lon="13.7713055"><ele>11.64</ele></trkpt>
            <trkpt lat="45.35603" lon="13.7714355"><ele>11.52</ele></trkpt>
            <trkpt lat="45.3561688" lon="13.7717028"><ele>11.19</ele></trkpt>
            <trkpt lat="45.3562345" lon="13.7719028"><ele>10.92</ele></trkpt>
            <trkpt lat="45.3562723" lon="13.7721068"><ele>10.64</ele></trkpt>
            <trkpt lat="45.3563093" lon="13.7725525"><ele>10.01</ele></trkpt>
            <trkpt lat="45.3563086" lon="13.7728666"><ele>9.61</ele></trkpt>
            <trkpt lat="45.3562854" lon="13.7730151"><ele>9.43</ele></trkpt>
            <trkpt lat="45.35558" lon="13.7755111"><ele>7.02</ele></trkpt>
            <trkpt lat="45.35517" lon="13.777049"><ele>7.09</ele></trkpt>
            <trkpt lat="45.3544825" lon="13.7795428"><ele>9.07</ele></trkpt>
            <trkpt lat="45.3542075" lon="13.7805405"><ele>9.61</ele></trkpt>
            <trkpt lat="45.3540181" lon="13.7816088"><ele>9.73</ele></trkpt>
            <trkpt lat="45.3536656" lon="13.782801"><ele>9.49</ele></trkpt>
            <trkpt lat="45.3536136" lon="13.7831303"><ele>9.44</ele></trkpt>
            <trkpt lat="45.3536018" lon="13.7834544"><ele>9.43</ele></trkpt>
            <trkpt lat="45.3536288" lon="13.7837511"><ele>9.47</ele></trkpt>
            <trkpt lat="45.3537045" lon="13.7840991"><ele>9.62</ele></trkpt>
            <trkpt lat="45.3537899" lon="13.7843765"><ele>9.83</ele></trkpt>
            <trkpt lat="45.3539103" lon="13.7846934"><ele>10.19</ele></trkpt>
            <trkpt lat="45.3540525" lon="13.78499"><ele>10.65</ele></trkpt>
            <trkpt lat="45.3545178" lon="13.7856908"><ele>12.05</ele></trkpt>
            <trkpt lat="45.3547002" lon="13.7860763"><ele>12.6</ele></trkpt>
            <trkpt lat="45.3547646" lon="13.7862749"><ele>12.77</ele></trkpt>
            <trkpt lat="45.3548086" lon="13.7864904"><ele>12.87</ele></trkpt>
            <trkpt lat="45.3548169" lon="13.7866409"><ele>12.88</ele></trkpt>
            <trkpt lat="45.3547988" lon="13.7868264"><ele>12.84</ele></trkpt>
            <trkpt lat="45.3547195" lon="13.7871153"><ele>12.63</ele></trkpt>
            <trkpt lat="45.3545902" lon="13.7873767"><ele>12.26</ele></trkpt>
            <trkpt lat="45.3538681" lon="13.788407"><ele>10.08</ele></trkpt>
            <trkpt lat="45.3534868" lon="13.7889496"><ele>9.06</ele></trkpt>
            <trkpt lat="45.3533254" lon="13.789283"><ele>8.68</ele></trkpt>
            <trkpt lat="45.3532942" lon="13.7894209"><ele>8.59</ele></trkpt>
            <trkpt lat="45.3532814" lon="13.789565"><ele>8.52</ele></trkpt>
            <trkpt lat="45.3532892" lon="13.7897646"><ele>8.49</ele></trkpt>
            <trkpt lat="45.353345" lon="13.7900591"><ele>8.56</ele></trkpt>
            <trkpt lat="45.3537955" lon="13.7909556"><ele>9.27</ele></trkpt>
            <trkpt lat="45.3540734" lon="13.7921638"><ele>10.56</ele></trkpt>
            <trkpt lat="45.3541091" lon="13.7923696"><ele>10.79</ele></trkpt>
            <trkpt lat="45.3541241" lon="13.7926533"><ele>11.11</ele></trkpt>
            <trkpt lat="45.3541062" lon="13.7928381"><ele>11.31</ele></trkpt>
            <trkpt lat="45.3540642" lon="13.7929886"><ele>11.47</ele></trkpt>
            <trkpt lat="45.3538175" lon="13.7936522"><ele>12.1</ele></trkpt>
            <trkpt lat="45.3537387" lon="13.7940078"><ele>12.3</ele></trkpt>
            <trkpt lat="45.3537359" lon="13.7943699"><ele>12.38</ele></trkpt>
            <trkpt lat="45.353802" lon="13.7948013"><ele>12.35</ele></trkpt>
            <trkpt lat="45.3538962" lon="13.7951169"><ele>12.27</ele></trkpt>
            <trkpt lat="45.3541445" lon="13.7957104"><ele>12.08</ele></trkpt>
            <trkpt lat="45.354375" lon="13.7963167"><ele>12.03</ele></trkpt>
            <trkpt lat="45.3548871" lon="13.7977317"><ele>12.64</ele></trkpt>
            <trkpt lat="45.3551856" lon="13.7991803"><ele>14.4</ele></trkpt>
            <trkpt lat="45.3552397" lon="13.799584"><ele>15.03</ele></trkpt>
            <trkpt lat="45.3552333" lon="13.7997444"><ele>15.28</ele></trkpt>
            <trkpt lat="45.3552051" lon="13.7999026"><ele>15.54</ele></trkpt>
            <trkpt lat="45.3551087" lon="13.8001489"><ele>15.94</ele></trkpt>
            <trkpt lat="45.3550061" lon="13.8003186"><ele>16.18</ele></trkpt>
            <trkpt lat="45.3548912" lon="13.8004656"><ele>16.35</ele></trkpt>
            <trkpt lat="45.3545168" lon="13.8008079"><ele>16.53</ele></trkpt>
            <trkpt lat="45.3543684" lon="13.8009925"><ele>16.52</ele></trkpt>
            <trkpt lat="45.3542901" lon="13.8011199"><ele>16.49</ele></trkpt>
            <trkpt lat="45.3542" lon="13.8013139"><ele>16.44</ele></trkpt>
            <trkpt lat="45.3541069" lon="13.8016249"><ele>16.38</ele></trkpt>
            <trkpt lat="45.3540904" lon="13.8019535"><ele>16.35</ele></trkpt>
            <trkpt lat="45.3541279" lon="13.8027096"><ele>16.36</ele></trkpt>
            <trkpt lat="45.3541241" lon="13.8029304"><ele>16.35</ele></trkpt>
            <trkpt lat="45.3540969" lon="13.8031738"><ele>16.33</ele></trkpt>
            <trkpt lat="45.3539211" lon="13.8038764"><ele>16.22</ele></trkpt>
            <trkpt lat="45.3538228" lon="13.8066664"><ele>15.87</ele></trkpt>
            <trkpt lat="45.3538921" lon="13.8073148"><ele>16.19</ele></trkpt>
            <trkpt lat="45.3539157" lon="13.80741"><ele>16.27</ele></trkpt>
            <trkpt lat="45.35397" lon="13.807525"><ele>16.4</ele></trkpt>
            <trkpt lat="45.3540761" lon="13.8076863"><ele>16.65</ele></trkpt>
            <trkpt lat="45.3545914" lon="13.8081124"><ele>17.69</ele></trkpt>
            <trkpt lat="45.3546796" lon="13.8082667"><ele>17.84</ele></trkpt>
            <trkpt lat="45.354725" lon="13.8084109"><ele>17.88</ele></trkpt>
            <trkpt lat="45.3547374" lon="13.8086219"><ele>17.85</ele></trkpt>
            <trkpt lat="45.3547109" lon="13.8098003"><ele>16.86</ele></trkpt>
            <trkpt lat="45.3547208" lon="13.8108991"><ele>15.64</ele></trkpt>
            <trkpt lat="45.3548015" lon="13.8123619"><ele>14.19</ele></trkpt>
            <trkpt lat="45.3548572" lon="13.8133488"><ele>13.47</ele></trkpt>
            <trkpt lat="45.3550181" lon="13.814241"><ele>13.12</ele></trkpt>
            <trkpt lat="45.3550356" lon="13.8144223"><ele>13.1</ele></trkpt>
            <trkpt lat="45.3550983" lon="13.8157976"><ele>13.43</ele></trkpt>
            <trkpt lat="45.3550246" lon="13.817288"><ele>14.17</ele></trkpt>
            <trkpt lat="45.3550527" lon="13.8175786"><ele>14.29</ele></trkpt>
            <trkpt lat="45.3552019" lon="13.8183537"><ele>14.53</ele></trkpt>
            <trkpt lat="45.3552487" lon="13.8187676"><ele>14.53</ele></trkpt>
            <trkpt lat="45.355273" lon="13.8192446"><ele>14.4</ele></trkpt>
            <trkpt lat="45.3552579" lon="13.8197212"><ele>14.11</ele></trkpt>
            <trkpt lat="45.3552434" lon="13.8198278"><ele>14.03</ele></trkpt>
            <trkpt lat="45.355159" lon="13.8203709"><ele>13.51</ele></trkpt>
            <trkpt lat="45.3550021" lon="13.8211689"><ele>12.6</ele></trkpt>
            <trkpt lat="45.3549614" lon="13.8216214"><ele>12.11</ele></trkpt>
            <trkpt lat="45.3549535" lon="13.8235345"><ele>10.27</ele></trkpt>
            <trkpt lat="45.3549499" lon="13.8245982"><ele>9.77</ele></trkpt>
            <trkpt lat="45.3549455" lon="13.8258745"><ele>9.91</ele></trkpt>
            <trkpt lat="45.3549397" lon="13.8274696"><ele>10.9</ele></trkpt>
            <trkpt lat="45.3549142" lon="13.8285732"><ele>11.76</ele></trkpt>
            <trkpt lat="45.3548954" lon="13.8287036"><ele>11.85</ele></trkpt>
            <trkpt lat="45.3548213" lon="13.8288116"><ele>11.95</ele></trkpt>
            <trkpt lat="45.3547251" lon="13.8288613"><ele>12.04</ele></trkpt>
            <trkpt lat="45.3535507" lon="13.8289295"><ele>12.87</ele></trkpt>
            <trkpt lat="45.3518243" lon="13.8289843"><ele>14.48</ele></trkpt>
            <trkpt lat="45.3493142" lon="13.8290633"><ele>16.69</ele></trkpt>
            <trkpt lat="45.3486082" lon="13.8290855"><ele>16.4</ele></trkpt>
            <trkpt lat="45.3481375" lon="13.8291003"><ele>15.62</ele></trkpt>
            <trkpt lat="45.3477453" lon="13.8291126"><ele>14.64</ele></trkpt>
            <trkpt lat="45.3473575" lon="13.82913"><ele>13.54</ele></trkpt>
            <trkpt lat="45.3469763" lon="13.829155"><ele>12.59</ele></trkpt>
            <trkpt lat="45.3466809" lon="13.8292312"><ele>12.11</ele></trkpt>
            <trkpt lat="45.3463048" lon="13.8293968"><ele>11.92</ele></trkpt>
            <trkpt lat="45.3459966" lon="13.8295523"><ele>12.15</ele></trkpt>
            <trkpt lat="45.3458566" lon="13.8296591"><ele>12.4</ele></trkpt>
            <trkpt lat="45.3457787" lon="13.8297677"><ele>12.63</ele></trkpt>
            <trkpt lat="45.3457241" lon="13.8298913"><ele>12.88</ele></trkpt>
            <trkpt lat="45.3456501" lon="13.8302133"><ele>13.57</ele></trkpt>
            <trkpt lat="45.3455709" lon="13.83056"><ele>14.43</ele></trkpt>
            <trkpt lat="45.3455238" lon="13.8306492"><ele>14.71</ele></trkpt>
            <trkpt lat="45.345457" lon="13.8306821"><ele>14.98</ele></trkpt>
            <trkpt lat="45.3454085" lon="13.8306601"><ele>15.17</ele></trkpt>
            <trkpt lat="45.3453742" lon="13.830596"><ele>15.4</ele></trkpt>
            <trkpt lat="45.3453711" lon="13.8305095"><ele>15.65</ele></trkpt>
            <trkpt lat="45.3454047" lon="13.8302243"><ele>16.55</ele></trkpt>
            <trkpt lat="45.3453911" lon="13.8301232"><ele>16.89</ele></trkpt>
            <trkpt lat="45.3453642" lon="13.8300498"><ele>17.19</ele></trkpt>
            <trkpt lat="45.3453053" lon="13.8299603"><ele>17.64</ele></trkpt>
            <trkpt lat="45.3451052" lon="13.8297336"><ele>19.13</ele></trkpt>
            <trkpt lat="45.3450403" lon="13.8296995"><ele>19.59</ele></trkpt>
            <trkpt lat="45.34499" lon="13.8297202"><ele>19.95</ele></trkpt>
            <trkpt lat="45.3449579" lon="13.8297911"><ele>20.37</ele></trkpt>
            <trkpt lat="45.3449539" lon="13.8298977"><ele>20.93</ele></trkpt>
            <trkpt lat="45.3449726" lon="13.8299696"><ele>21.36</ele></trkpt>
            <trkpt lat="45.3450767" lon="13.8302015"><ele>23.02</ele></trkpt>
            <trkpt lat="45.345082" lon="13.8302694"><ele>23.46</ele></trkpt>
            <trkpt lat="45.345063" lon="13.8303235"><ele>23.86</ele></trkpt>
            <trkpt lat="45.3450027" lon="13.8303597"><ele>24.5</ele></trkpt>
            <trkpt lat="45.3448962" lon="13.8303468"><ele>25.6</ele></trkpt>
            <trkpt lat="45.344618" lon="13.8301057"><ele>29.2</ele></trkpt>
            <trkpt lat="45.3445396" lon="13.8300588"><ele>30.2</ele></trkpt>
            <trkpt lat="45.3440561" lon="13.8299254"><ele>36.22</ele></trkpt>
            <trkpt lat="45.3437489" lon="13.829794"><ele>40.27</ele></trkpt>
            <trkpt lat="45.3436404" lon="13.8297749"><ele>41.66</ele></trkpt>
            <trkpt lat="45.3432506" lon="13.8297988"><ele>46.64</ele></trkpt>
            <trkpt lat="45.3430471" lon="13.8297518"><ele>49.24</ele></trkpt>
            <trkpt lat="45.3429473" lon="13.8296897"><ele>50.59</ele></trkpt>
            <trkpt lat="45.3428013" lon="13.8294701"><ele>53.16</ele></trkpt>
            <trkpt lat="45.3426429" lon="13.8293355"><ele>55.32</ele></trkpt>
            <trkpt lat="45.3421158" lon="13.8290848"><ele>61.48</ele></trkpt>
            <trkpt lat="45.3420481" lon="13.8290812"><ele>62.18</ele></trkpt>
            <trkpt lat="45.3419887" lon="13.8291231"><ele>62.84</ele></trkpt>
            <trkpt lat="45.3419661" lon="13.8291707"><ele>63.24</ele></trkpt>
            <trkpt lat="45.3419604" lon="13.8292443"><ele>63.73</ele></trkpt>
            <trkpt lat="45.342002" lon="13.8293984"><ele>64.77</ele></trkpt>
            <trkpt lat="45.3424886" lon="13.8300224"><ele>70.09</ele></trkpt>
            <trkpt lat="45.3425782" lon="13.830182"><ele>71.2</ele></trkpt>
            <trkpt lat="45.3425961" lon="13.8302673"><ele>71.67</ele></trkpt>
            <trkpt lat="45.342588" lon="13.8303807"><ele>72.26</ele></trkpt>
            <trkpt lat="45.3425564" lon="13.8304484"><ele>72.68</ele></trkpt>
            <trkpt lat="45.3425188" lon="13.8304718"><ele>72.99</ele></trkpt>
            <trkpt lat="45.3424709" lon="13.8304652"><ele>73.34</ele></trkpt>
            <trkpt lat="45.342414" lon="13.8304216"><ele>73.81</ele></trkpt>
            <trkpt lat="45.3422318" lon="13.8301552"><ele>75.75</ele></trkpt>
            <trkpt lat="45.3421166" lon="13.8300238"><ele>76.88</ele></trkpt>
            <trkpt lat="45.341532" lon="13.8295395"><ele>82.22</ele></trkpt>
            <trkpt lat="45.34128" lon="13.8292999"><ele>84.66</ele></trkpt>
            <trkpt lat="45.3408213" lon="13.82877"><ele>89.33</ele></trkpt>
            <trkpt lat="45.3405913" lon="13.8284578"><ele>91.55</ele></trkpt>
            <trkpt lat="45.340117" lon="13.8275495"><ele>96.19</ele></trkpt>
            <trkpt lat="45.3399073" lon="13.8268347"><ele>98.93</ele></trkpt>
            <trkpt lat="45.3398121" lon="13.8265615"><ele>100</ele></trkpt>
            <trkpt lat="45.3396303" lon="13.8261782"><ele>101.75</ele></trkpt>
            <trkpt lat="45.339528" lon="13.826007"><ele>102.7</ele></trkpt>
            <trkpt lat="45.339162" lon="13.8254899"><ele>106.28</ele></trkpt>
            <trkpt lat="45.3389058" lon="13.8250375"><ele>109.63</ele></trkpt>
            <trkpt lat="45.3387679" lon="13.8248562"><ele>111.38</ele></trkpt>
            <trkpt lat="45.3386691" lon="13.8247641"><ele>112.55</ele></trkpt>
            <trkpt lat="45.3383876" lon="13.8246052"><ele>115.79</ele></trkpt>
            <trkpt lat="45.338108" lon="13.8244939"><ele>119.07</ele></trkpt>
            <trkpt lat="45.3380049" lon="13.8244722"><ele>120.27</ele></trkpt>
            <trkpt lat="45.3378611" lon="13.8245048"><ele>121.95</ele></trkpt>
            <trkpt lat="45.3374785" lon="13.824736"><ele>126.73</ele></trkpt>
            <trkpt lat="45.3372064" lon="13.8248183"><ele>129.81</ele></trkpt>
            <trkpt lat="45.3366291" lon="13.8248079"><ele>135.87</ele></trkpt>
            <trkpt lat="45.33571" lon="13.82461"><ele>144.96</ele></trkpt>
            <trkpt lat="45.3354212" lon="13.8245615"><ele>147.74</ele></trkpt>
            <trkpt lat="45.335003" lon="13.8245338"><ele>151.75</ele></trkpt>
            <trkpt lat="45.3349005" lon="13.8245447"><ele>152.75</ele></trkpt>
            <trkpt lat="45.3347343" lon="13.8246078"><ele>154.45</ele></trkpt>
            <trkpt lat="45.3344621" lon="13.8248203"><ele>157.54</ele></trkpt>
            <trkpt lat="45.3344284" lon="13.8248832"><ele>158.1</ele></trkpt>
            <trkpt lat="45.3344179" lon="13.8249443"><ele>158.53</ele></trkpt>
            <trkpt lat="45.3344721" lon="13.8253107"><ele>161.06</ele></trkpt>
            <trkpt lat="45.3344623" lon="13.825406"><ele>161.69</ele></trkpt>
            <trkpt lat="45.3344285" lon="13.8254856"><ele>162.28</ele></trkpt>
            <trkpt lat="45.3343616" lon="13.8255438"><ele>162.98</ele></trkpt>
            <trkpt lat="45.334144" lon="13.82564"><ele>164.89</ele></trkpt>
            <trkpt lat="45.3338212" lon="13.8257162"><ele>167.46</ele></trkpt>
            <trkpt lat="45.3337241" lon="13.825768"><ele>168.26</ele></trkpt>
            <trkpt lat="45.3335627" lon="13.8259777"><ele>169.96</ele></trkpt>
            <trkpt lat="45.3335011" lon="13.8260842"><ele>170.72</ele></trkpt>
            <trkpt lat="45.3334579" lon="13.8262222"><ele>171.59</ele></trkpt>
            <trkpt lat="45.3334135" lon="13.8264528"><ele>173</ele></trkpt>
            <trkpt lat="45.3333925" lon="13.8267068"><ele>174.57</ele></trkpt>
            <trkpt lat="45.3334134" lon="13.8270085"><ele>176.49</ele></trkpt>
            <trkpt lat="45.3339023" lon="13.8282078"><ele>185.14</ele></trkpt>
            <trkpt lat="45.3339364" lon="13.8283668"><ele>185.97</ele></trkpt>
            <trkpt lat="45.3339782" lon="13.8284308"><ele>186.34</ele></trkpt>
            <trkpt lat="45.3340126" lon="13.8284405"><ele>186.54</ele></trkpt>
            <trkpt lat="45.3340548" lon="13.8284197"><ele>186.77</ele></trkpt>
            <trkpt lat="45.3340806" lon="13.8283716"><ele>186.97</ele></trkpt>
            <trkpt lat="45.3340849" lon="13.8283142"><ele>187.14</ele></trkpt>
            <trkpt lat="45.3340143" lon="13.8281306"><ele>187.62</ele></trkpt>
            <trkpt lat="45.3337615" lon="13.8271505"><ele>188.99</ele></trkpt>
            <trkpt lat="45.3337106" lon="13.8268983"><ele>189.52</ele></trkpt>
            <trkpt lat="45.3337135" lon="13.8268354"><ele>189.69</ele></trkpt>
            <trkpt lat="45.3337343" lon="13.8267883"><ele>189.84</ele></trkpt>
            <trkpt lat="45.3337922" lon="13.8267558"><ele>190.12</ele></trkpt>
            <trkpt lat="45.3338475" lon="13.8268026"><ele>190.45</ele></trkpt>
            <trkpt lat="45.3338935" lon="13.827001"><ele>191.33</ele></trkpt>
            <trkpt lat="45.3342049" lon="13.828"><ele>197.1</ele></trkpt>
            <trkpt lat="45.3351441" lon="13.829945"><ele>211.11</ele></trkpt>
            <trkpt lat="45.335305" lon="13.8301902"><ele>213.5</ele></trkpt>
            <trkpt lat="45.3353699" lon="13.8302564"><ele>214.39</ele></trkpt>
            <trkpt lat="45.3354592" lon="13.8303059"><ele>215.52</ele></trkpt>
            <trkpt lat="45.3357077" lon="13.8303509"><ele>218.68</ele></trkpt>
            <trkpt lat="45.3357777" lon="13.8303461"><ele>219.59</ele></trkpt>
            <trkpt lat="45.3359342" lon="13.83028"><ele>221.73</ele></trkpt>
            <trkpt lat="45.33641" lon="13.8302034"><ele>227.71</ele></trkpt>
            <trkpt lat="45.336669" lon="13.8302176"><ele>230.23</ele></trkpt>
            <trkpt lat="45.3368331" lon="13.8303113"><ele>231.4</ele></trkpt>
            <trkpt lat="45.3369614" lon="13.8304421"><ele>232.01</ele></trkpt>
            <trkpt lat="45.3371542" lon="13.8307282"><ele>232.26</ele></trkpt>
            <trkpt lat="45.3372924" lon="13.8310541"><ele>231.79</ele></trkpt>
            <trkpt lat="45.337435" lon="13.831395"><ele>230.87</ele></trkpt>
            <trkpt lat="45.3377362" lon="13.8321441"><ele>228.73</ele></trkpt>
            <trkpt lat="45.3377661" lon="13.8321827"><ele>228.64</ele></trkpt>
            <trkpt lat="45.337814" lon="13.8321891"><ele>228.55</ele></trkpt>
            <trkpt lat="45.3378453" lon="13.8321605"><ele>228.51</ele></trkpt>
            <trkpt lat="45.3378657" lon="13.832102"><ele>228.47</ele></trkpt>
            <trkpt lat="45.3378864" lon="13.8318267"><ele>228.61</ele></trkpt>
            <trkpt lat="45.3378178" lon="13.8305217"><ele>231.92</ele></trkpt>
            <trkpt lat="45.3377769" lon="13.8302705"><ele>233.09</ele></trkpt>
            <trkpt lat="45.337738" lon="13.8301324"><ele>233.95</ele></trkpt>
            <trkpt lat="45.3375666" lon="13.8296836"><ele>237.61</ele></trkpt>
            <trkpt lat="45.3373322" lon="13.8293181"><ele>241.73</ele></trkpt>
            <trkpt lat="45.3372778" lon="13.8292588"><ele>242.57</ele></trkpt>
            <trkpt lat="45.3372327" lon="13.8292368"><ele>243.16</ele></trkpt>
            <trkpt lat="45.3370297" lon="13.8292719"><ele>245.64</ele></trkpt>
            <trkpt lat="45.3369051" lon="13.8292633"><ele>247.1</ele></trkpt>
            <trkpt lat="45.3365963" lon="13.8292219"><ele>250.47</ele></trkpt>
            <trkpt lat="45.3363645" lon="13.8291872"><ele>252.68</ele></trkpt>
            <trkpt lat="45.3361745" lon="13.8290988"><ele>254.4</ele></trkpt>
            <trkpt lat="45.3359774" lon="13.8289174"><ele>255.48</ele></trkpt>
        </trkseg>
    </trk>
</gpx>
