<?xml version="1.0" encoding="utf-8"?>
<gpx xmlns:xsd="http://www.w3.org/2001/XMLSchema" xmlns:xsi="http://www.w3.org/2001/XMLSchema-instance" version="1.1" creator="Geo::Gpx" xsi:schemaLocation="http://www.topografix.com/GPX/1/1 http://www.topografix.com/GPX/1/1/gpx.xsd" xmlns="http://www.topografix.com/GPX/1/1">
<metadata>
<name>Tizi n'Tichka Pass Morocco</name>
<author>
<link href="https://www.strava.com/athletes/462432">
</link>
<name>Ryan Yates</name>
</author>
<time>2026-09-24T01:47:32Z</time>
<keywords>processGPX</keywords>
<copyright>2020 https://www.openstreetmap.org/copyright</copyright>
<link href="https://www.strava.com/routes/3537989914296174012">
</link>
<bounds maxlat="31.3581188667332" maxlon="-7.37027829710284" minlat="31.2852756559944" minlon="-7.39342966821635" />
</metadata>
<trk>
<link href="https://www.strava.com/routes/3537989914296174012">
</link>
<name>Tizi n'Tichka Pass Morocco</name>
<trkseg>
<trkpt lat="31.3581188667332" lon="-7.39153248627003">
<ele>1588.81781660586</ele>
</trkpt>
<trkpt lat="31.3573283900786" lon="-7.39168308115107">
<ele>1590.60451249077</ele>
</trkpt>
<trkpt lat="31.3571409436044" lon="-7.39169435834131">
<ele>1590.93382032362</ele>
</trkpt>
<trkpt lat="31.3569262499965" lon="-7.39163017256211">
<ele>1591.267776994</ele>
</trkpt>
<trkpt lat="31.3564905261937" lon="-7.39139238312193">
<ele>1591.68008398748</ele>
</trkpt>
<trkpt lat="31.3561119505894" lon="-7.39125237470594">
<ele>1591.78128634542</ele>
</trkpt>
<trkpt lat="31.3558420404952" lon="-7.3912081146783">
<ele>1591.79641993291</ele>
</trkpt>
<trkpt lat="31.3554861476324" lon="-7.39119505532794">
<ele>1591.87227176506</ele>
</trkpt>
<trkpt lat="31.3553311448039" lon="-7.3912338709302">
<ele>1591.96263701524</ele>
</trkpt>
<trkpt lat="31.3551860278669" lon="-7.39132423824452">
<ele>1592.10489946307</ele>
</trkpt>
<trkpt lat="31.3551039022714" lon="-7.39141514355348">
<ele>1592.23103144996</ele>
</trkpt>
<trkpt lat="31.3549136980403" lon="-7.39169464304963">
<ele>1592.6780111981</ele>
</trkpt>
<trkpt lat="31.3548224317098" lon="-7.39177830552894">
<ele>1592.87968197069</ele>
</trkpt>
<trkpt lat="31.3546617129105" lon="-7.39187714208906">
<ele>1593.21168799937</ele>
</trkpt>
<trkpt lat="31.3543411045632" lon="-7.39201804947788">
<ele>1593.8414591063</ele>
</trkpt>
<trkpt lat="31.3540871552013" lon="-7.39209256017632">
<ele>1594.27959894954</ele>
</trkpt>
<trkpt lat="31.3538271738212" lon="-7.39213782706813">
<ele>1594.63214872358</ele>
</trkpt>
<trkpt lat="31.3531021942014" lon="-7.39212177832022">
<ele>1595.10392015047</ele>
</trkpt>
<trkpt lat="31.3528696938443" lon="-7.39208895397849">
<ele>1595.13001784595</ele>
</trkpt>
<trkpt lat="31.3519521027574" lon="-7.39183580482763">
<ele>1594.94137520579</ele>
</trkpt>
<trkpt lat="31.3517514121105" lon="-7.3917170209614">
<ele>1594.95704057603</ele>
</trkpt>
<trkpt lat="31.3513786279642" lon="-7.3913928243386">
<ele>1595.34285628778</ele>
</trkpt>
<trkpt lat="31.3512181446272" lon="-7.39129529175238">
<ele>1595.65721857304</ele>
</trkpt>
<trkpt lat="31.3511099637039" lon="-7.39126754188251">
<ele>1595.90153436828</ele>
</trkpt>
<trkpt lat="31.3507708919412" lon="-7.39125295485182">
<ele>1596.8970884092</ele>
</trkpt>
<trkpt lat="31.3503195791132" lon="-7.39126070731339">
<ele>1598.75215142677</ele>
</trkpt>
<trkpt lat="31.3494505345368" lon="-7.39132060633119">
<ele>1603.23833702283</ele>
</trkpt>
<trkpt lat="31.3491499310535" lon="-7.39135600858803">
<ele>1604.80591506771</ele>
</trkpt>
<trkpt lat="31.3487599295943" lon="-7.39140234184519">
<ele>1606.66849413036</ele>
</trkpt>
<trkpt lat="31.3486371037241" lon="-7.3913981613825">
<ele>1607.20020786623</ele>
</trkpt>
<trkpt lat="31.3484429681685" lon="-7.39135489238801">
<ele>1607.99113699949</ele>
</trkpt>
<trkpt lat="31.3478370850222" lon="-7.39112713745793">
<ele>1610.13958362669</ele>
</trkpt>
<trkpt lat="31.3474001256482" lon="-7.39098933194135">
<ele>1611.48354274519</ele>
</trkpt>
<trkpt lat="31.3465159830046" lon="-7.39067357862283">
<ele>1614.08129819699</ele>
</trkpt>
<trkpt lat="31.3461897194685" lon="-7.39064657188021">
<ele>1615.1396642386</ele>
</trkpt>
<trkpt lat="31.346071029306" lon="-7.39067297647607">
<ele>1615.56636349901</ele>
</trkpt>
<trkpt lat="31.3459432143135" lon="-7.3907270722777">
<ele>1616.07164849233</ele>
</trkpt>
<trkpt lat="31.3455896840838" lon="-7.39092112676978">
<ele>1617.67141991143</ele>
</trkpt>
<trkpt lat="31.345011232928" lon="-7.39130105362792">
<ele>1620.7466342158</ele>
</trkpt>
<trkpt lat="31.3447623725454" lon="-7.39151054361896">
<ele>1622.12953167987</ele>
</trkpt>
<trkpt lat="31.3445814045354" lon="-7.39172089425475">
<ele>1623.17206455703</ele>
</trkpt>
<trkpt lat="31.3444183102251" lon="-7.39195633304461">
<ele>1624.09887346442</ele>
</trkpt>
<trkpt lat="31.344183158304" lon="-7.39239736921933">
<ele>1625.35342920401</ele>
</trkpt>
<trkpt lat="31.3439678801214" lon="-7.39279786363249">
<ele>1626.16829795052</ele>
</trkpt>
<trkpt lat="31.3437780520514" lon="-7.39304747761075">
<ele>1626.54600073945</ele>
</trkpt>
<trkpt lat="31.3434457016098" lon="-7.3933509025">
<ele>1626.81516885488</ele>
</trkpt>
<trkpt lat="31.3432797504217" lon="-7.39341810150089">
<ele>1627.12499705541</ele>
</trkpt>
<trkpt lat="31.343099877063" lon="-7.39342966821635">
<ele>1627.62859846386</ele>
</trkpt>
<trkpt lat="31.3426839827512" lon="-7.39340707808765">
<ele>1629.17060333198</ele>
</trkpt>
<trkpt lat="31.3424696243933" lon="-7.39334622918436">
<ele>1630.15642858754</ele>
</trkpt>
<trkpt lat="31.3423327124489" lon="-7.39324194282795">
<ele>1630.93804850439</ele>
</trkpt>
<trkpt lat="31.3416695633492" lon="-7.3924709122883">
<ele>1635.65454943008</ele>
</trkpt>
<trkpt lat="31.3412895155488" lon="-7.39207238717901">
<ele>1638.29948910685</ele>
</trkpt>
<trkpt lat="31.3399439122092" lon="-7.39103461879956">
<ele>1646.85593520622</ele>
</trkpt>
<trkpt lat="31.3398577292727" lon="-7.39097618327921">
<ele>1647.41223643095</ele>
</trkpt>
<trkpt lat="31.3397846608464" lon="-7.39094886563485">
<ele>1647.84282229402</ele>
</trkpt>
<trkpt lat="31.3393296927562" lon="-7.39087887020266">
<ele>1650.44367531969</ele>
</trkpt>
<trkpt lat="31.3391666100189" lon="-7.39083452747562">
<ele>1651.40805746947</ele>
</trkpt>
<trkpt lat="31.3388923238114" lon="-7.39064044776242">
<ele>1653.35693490513</ele>
</trkpt>
<trkpt lat="31.3385359620529" lon="-7.39027915948405">
<ele>1656.41673737209</ele>
</trkpt>
<trkpt lat="31.3380753945124" lon="-7.38981957470385">
<ele>1660.61065644098</ele>
</trkpt>
<trkpt lat="31.3378310657922" lon="-7.38953123393158">
<ele>1662.76162233238</ele>
</trkpt>
<trkpt lat="31.337673634107" lon="-7.3892013811492">
<ele>1664.47276319031</ele>
</trkpt>
<trkpt lat="31.3374256283323" lon="-7.38865384815694">
<ele>1666.69302612414</ele>
</trkpt>
<trkpt lat="31.3372785327916" lon="-7.38848335410938">
<ele>1667.46914567251</ele>
</trkpt>
<trkpt lat="31.3369649115729" lon="-7.38821382361986">
<ele>1668.74369259435</ele>
</trkpt>
<trkpt lat="31.3368760557565" lon="-7.38812099595887">
<ele>1669.05793045915</ele>
</trkpt>
<trkpt lat="31.3367976909421" lon="-7.38798602102711">
<ele>1669.36419499266</ele>
</trkpt>
<trkpt lat="31.33677020156" lon="-7.38790575946165">
<ele>1669.49809914562</ele>
</trkpt>
<trkpt lat="31.3367676308191" lon="-7.3877121991381">
<ele>1669.57434008025</ele>
</trkpt>
<trkpt lat="31.3367891687241" lon="-7.38759800720195">
<ele>1669.57872103123</ele>
</trkpt>
<trkpt lat="31.3368614579669" lon="-7.38743781569994">
<ele>1669.554880921</ele>
</trkpt>
<trkpt lat="31.3370634728957" lon="-7.3871241303191">
<ele>1669.48604676122</ele>
</trkpt>
<trkpt lat="31.3374667966054" lon="-7.38675680600918">
<ele>1669.49868374491</ele>
</trkpt>
<trkpt lat="31.3375254644633" lon="-7.38667835826536">
<ele>1669.52704026992</ele>
</trkpt>
<trkpt lat="31.3375748616129" lon="-7.38655647143756">
<ele>1669.57891965968</ele>
</trkpt>
<trkpt lat="31.3375923811138" lon="-7.38644041939323">
<ele>1669.64060533005</ele>
</trkpt>
<trkpt lat="31.337522137452" lon="-7.38614662973979">
<ele>1669.87989934647</ele>
</trkpt>
<trkpt lat="31.3373598246522" lon="-7.38565947838892">
<ele>1670.56124209291</ele>
</trkpt>
<trkpt lat="31.337216670698" lon="-7.3852433421862">
<ele>1671.44376604021</ele>
</trkpt>
<trkpt lat="31.3370233909601" lon="-7.38468629396319">
<ele>1673.03169758147</ele>
</trkpt>
<trkpt lat="31.336907581162" lon="-7.38439661794455">
<ele>1674.08230849243</ele>
</trkpt>
<trkpt lat="31.3368425036707" lon="-7.38430740552925">
<ele>1674.50244509409</ele>
</trkpt>
<trkpt lat="31.3366754442974" lon="-7.38413686209491">
<ele>1675.49333911095</ele>
</trkpt>
<trkpt lat="31.336111004485" lon="-7.38382813960155">
<ele>1678.64568756338</ele>
</trkpt>
<trkpt lat="31.3360139483254" lon="-7.38376075603076">
<ele>1679.25460761179</ele>
</trkpt>
<trkpt lat="31.3359536254084" lon="-7.38369156937144">
<ele>1679.70776635242</ele>
</trkpt>
<trkpt lat="31.3358581214889" lon="-7.38352681089832">
<ele>1680.55948370864</ele>
</trkpt>
<trkpt lat="31.3358173384517" lon="-7.38342292142718">
<ele>1681.01608376462</ele>
</trkpt>
<trkpt lat="31.3355846368963" lon="-7.38247298826281">
<ele>1684.41463546454</ele>
</trkpt>
<trkpt lat="31.3354289279198" lon="-7.38220791640406">
<ele>1685.42488095246</ele>
</trkpt>
<trkpt lat="31.3351370455279" lon="-7.38184296352242">
<ele>1686.95241189129</ele>
</trkpt>
<trkpt lat="31.3349663129442" lon="-7.38171432116023">
<ele>1687.68717177645</ele>
</trkpt>
<trkpt lat="31.3346296910974" lon="-7.38161707644371">
<ele>1688.99429310451</ele>
</trkpt>
<trkpt lat="31.3344803337463" lon="-7.3816325450611">
<ele>1689.58717775191</ele>
</trkpt>
<trkpt lat="31.3340549403535" lon="-7.38175122805015">
<ele>1691.41470983658</ele>
</trkpt>
<trkpt lat="31.3339420605521" lon="-7.38176909913651">
<ele>1691.91417964486</ele>
</trkpt>
<trkpt lat="31.3337771737599" lon="-7.38174954911733">
<ele>1692.65440425858</ele>
</trkpt>
<trkpt lat="31.3336447980394" lon="-7.38167404508261">
<ele>1693.3180600826</ele>
</trkpt>
<trkpt lat="31.3334992783254" lon="-7.38146559065111">
<ele>1694.33213863345</ele>
</trkpt>
<trkpt lat="31.3334452436756" lon="-7.38134273968459">
<ele>1694.81643195628</ele>
</trkpt>
<trkpt lat="31.3332404141351" lon="-7.38076952247447">
<ele>1696.88856515668</ele>
</trkpt>
<trkpt lat="31.3328434169491" lon="-7.37952418989102">
<ele>1701.05928969031</ele>
</trkpt>
<trkpt lat="31.3327440862783" lon="-7.37933261989643">
<ele>1701.76071322008</ele>
</trkpt>
<trkpt lat="31.3325979780345" lon="-7.37919483529735">
<ele>1702.46117937047</ele>
</trkpt>
<trkpt lat="31.332342369174" lon="-7.37909602060351">
<ele>1703.49701753656</ele>
</trkpt>
<trkpt lat="31.3317492104055" lon="-7.37901489288834">
<ele>1706.04874027805</ele>
</trkpt>
<trkpt lat="31.3312775045533" lon="-7.37895125020619">
<ele>1708.43518291055</ele>
</trkpt>
<trkpt lat="31.3305903577898" lon="-7.37888118215115">
<ele>1712.39992721349</ele>
</trkpt>
<trkpt lat="31.3298479668097" lon="-7.37887774806591">
<ele>1716.98141757233</ele>
</trkpt>
<trkpt lat="31.3297113392832" lon="-7.37883622897794">
<ele>1717.83674620326</ele>
</trkpt>
<trkpt lat="31.3296098236167" lon="-7.37874871457395">
<ele>1718.650962844</ele>
</trkpt>
<trkpt lat="31.3295603689428" lon="-7.37861749678906">
<ele>1719.44344682198</ele>
</trkpt>
<trkpt lat="31.3295533229569" lon="-7.37845806266444">
<ele>1720.32443603088</ele>
</trkpt>
<trkpt lat="31.3295859129676" lon="-7.37795521625866">
<ele>1723.18154171225</ele>
</trkpt>
<trkpt lat="31.3295646970338" lon="-7.3777918715377">
<ele>1724.12421879107</ele>
</trkpt>
<trkpt lat="31.3294955286007" lon="-7.37764337189556">
<ele>1725.07451797451</ele>
</trkpt>
<trkpt lat="31.3293268575069" lon="-7.37741202037458">
<ele>1726.71270850467</ele>
</trkpt>
<trkpt lat="31.3291975927935" lon="-7.37729485639917">
<ele>1727.67451457658</ele>
</trkpt>
<trkpt lat="31.3289942857997" lon="-7.37719095196648">
<ele>1728.8593973604</ele>
</trkpt>
<trkpt lat="31.3286854148958" lon="-7.37704322781688">
<ele>1730.33603751949</ele>
</trkpt>
<trkpt lat="31.3284599011337" lon="-7.37696514359218">
<ele>1731.1528578923</ele>
</trkpt>
<trkpt lat="31.328350973581" lon="-7.37694469632219">
<ele>1731.47977430683</ele>
</trkpt>
<trkpt lat="31.3282664553526" lon="-7.37696094888388">
<ele>1731.71174407573</ele>
</trkpt>
<trkpt lat="31.3281754858911" lon="-7.3770171996321">
<ele>1731.96770454477</ele>
</trkpt>
<trkpt lat="31.3281158857526" lon="-7.37708734233613">
<ele>1732.16101162349</ele>
</trkpt>
<trkpt lat="31.3280749188279" lon="-7.37717368035012">
<ele>1732.3424465118</ele>
</trkpt>
<trkpt lat="31.3280552815759" lon="-7.37727420796359">
<ele>1732.51865568631</ele>
</trkpt>
<trkpt lat="31.3280667733363" lon="-7.37740485105755">
<ele>1732.72915839884</ele>
</trkpt>
<trkpt lat="31.3281004609448" lon="-7.37749321117875">
<ele>1732.87554421171</ele>
</trkpt>
<trkpt lat="31.3281505984809" lon="-7.37756579800023">
<ele>1733.01180689927</ele>
</trkpt>
<trkpt lat="31.3285203948415" lon="-7.37790743476746">
<ele>1733.76751836158</ele>
</trkpt>
<trkpt lat="31.328585371757" lon="-7.37802201842982">
<ele>1733.97873438374</ele>
</trkpt>
<trkpt lat="31.3286037760787" lon="-7.37811192249004">
<ele>1734.14918124646</ele>
</trkpt>
<trkpt lat="31.3285978701843" lon="-7.37820425516021">
<ele>1734.34852057719</ele>
</trkpt>
<trkpt lat="31.3285700838115" lon="-7.37828323253741">
<ele>1734.59755532581</ele>
</trkpt>
<trkpt lat="31.328528446317" lon="-7.37834778549199">
<ele>1734.86248383451</ele>
</trkpt>
<trkpt lat="31.3284286792248" lon="-7.37845714691342">
<ele>1735.44795222544</ele>
</trkpt>
<trkpt lat="31.3281329630077" lon="-7.37868786648624">
<ele>1737.24815314139</ele>
</trkpt>
<trkpt lat="31.3277611645526" lon="-7.37897307116655">
<ele>1739.85324605502</ele>
</trkpt>
<trkpt lat="31.3275467830416" lon="-7.37911907321112">
<ele>1741.44910729505</ele>
</trkpt>
<trkpt lat="31.3274131539545" lon="-7.3791672819934">
<ele>1742.37466390507</ele>
</trkpt>
<trkpt lat="31.3272267860072" lon="-7.37918866847402">
<ele>1743.62696584081</ele>
</trkpt>
<trkpt lat="31.3263130745639" lon="-7.37918084340474">
<ele>1749.7751152523</ele>
</trkpt>
<trkpt lat="31.3262393763321" lon="-7.37922367258847">
<ele>1750.30242769894</ele>
</trkpt>
<trkpt lat="31.3261765762298" lon="-7.37931621086511">
<ele>1750.93706633691</ele>
</trkpt>
<trkpt lat="31.3261571278198" lon="-7.37942327716475">
<ele>1751.50899719677</ele>
</trkpt>
<trkpt lat="31.3261732776624" lon="-7.37951250256631">
<ele>1751.97316764821</ele>
</trkpt>
<trkpt lat="31.3262157067568" lon="-7.37958186418726">
<ele>1752.39870469982</ele>
</trkpt>
<trkpt lat="31.3263011979099" lon="-7.37963660857921">
<ele>1752.95156477778</ele>
</trkpt>
<trkpt lat="31.3270085445414" lon="-7.3798709780477">
<ele>1756.71661330307</ele>
</trkpt>
<trkpt lat="31.327358832714" lon="-7.3800331125519">
<ele>1758.45779623324</ele>
</trkpt>
<trkpt lat="31.3275285092725" lon="-7.38016294618153">
<ele>1759.38528149731</ele>
</trkpt>
<trkpt lat="31.3278604189982" lon="-7.3805193008155">
<ele>1761.48967382731</ele>
</trkpt>
<trkpt lat="31.3279879903209" lon="-7.38059918267344">
<ele>1762.19817609136</ele>
</trkpt>
<trkpt lat="31.3280749017307" lon="-7.38060314269158">
<ele>1762.62912753233</ele>
</trkpt>
<trkpt lat="31.3281727647781" lon="-7.38056842951242">
<ele>1763.14479007861</ele>
</trkpt>
<trkpt lat="31.328458938604" lon="-7.38020385511634">
<ele>1765.3624180119</ele>
</trkpt>
<trkpt lat="31.3285207959337" lon="-7.38016523118084">
<ele>1765.74265789766</ele>
</trkpt>
<trkpt lat="31.3286169142791" lon="-7.3801494970658">
<ele>1766.27323301413</ele>
</trkpt>
<trkpt lat="31.3287855176126" lon="-7.38017781190086">
<ele>1767.21869164516</ele>
</trkpt>
<trkpt lat="31.3292413412798" lon="-7.38038211796826">
<ele>1769.99238232244</ele>
</trkpt>
<trkpt lat="31.3299479475929" lon="-7.38039376595749">
<ele>1774.18037042736</ele>
</trkpt>
<trkpt lat="31.3301197346132" lon="-7.3804581239035">
<ele>1775.28090650806</ele>
</trkpt>
<trkpt lat="31.3302406721656" lon="-7.38053836516059">
<ele>1776.1409483562</ele>
</trkpt>
<trkpt lat="31.3304260359349" lon="-7.38071713196928">
<ele>1777.64053251048</ele>
</trkpt>
<trkpt lat="31.330759758941" lon="-7.38109306833838">
<ele>1780.49016772131</ele>
</trkpt>
<trkpt lat="31.3308378702354" lon="-7.38121084172957">
<ele>1781.26050187428</ele>
</trkpt>
<trkpt lat="31.3309375681492" lon="-7.38141904086108">
<ele>1782.48489241117</ele>
</trkpt>
<trkpt lat="31.3314118175855" lon="-7.38288367639267">
<ele>1790.16630736984</ele>
</trkpt>
<trkpt lat="31.331635360623" lon="-7.38375001497163">
<ele>1794.09796778356</ele>
</trkpt>
<trkpt lat="31.3316349584084" lon="-7.38386604216531">
<ele>1794.55182556143</ele>
</trkpt>
<trkpt lat="31.3315962039716" lon="-7.3839479848362">
<ele>1794.89672639806</ele>
</trkpt>
<trkpt lat="31.3315465667276" lon="-7.38398847178945">
<ele>1795.1459258325</ele>
</trkpt>
<trkpt lat="31.3314713698947" lon="-7.3839874377821">
<ele>1795.44526934256</ele>
</trkpt>
<trkpt lat="31.331406674126" lon="-7.38394813981084">
<ele>1795.75158532325</ele>
</trkpt>
<trkpt lat="31.3313461353242" lon="-7.38387304455197">
<ele>1796.20186287006</ele>
</trkpt>
<trkpt lat="31.3312505052004" lon="-7.3835662141461">
<ele>1797.72558894196</ele>
</trkpt>
<trkpt lat="31.3310956514357" lon="-7.38301230114897">
<ele>1800.74756249946</ele>
</trkpt>
<trkpt lat="31.3309308763796" lon="-7.38271338949457">
<ele>1802.75676845082</ele>
</trkpt>
<trkpt lat="31.3307289590327" lon="-7.38243150577121">
<ele>1804.90960630733</ele>
</trkpt>
<trkpt lat="31.3301486908799" lon="-7.38181238402837">
<ele>1810.16197359947</ele>
</trkpt>
<trkpt lat="31.329882659429" lon="-7.38156048766053">
<ele>1812.20247604492</ele>
</trkpt>
<trkpt lat="31.3296473055659" lon="-7.38130038942075">
<ele>1813.97879664435</ele>
</trkpt>
<trkpt lat="31.3294461492157" lon="-7.38113727698301">
<ele>1815.2499888574</ele>
</trkpt>
<trkpt lat="31.329318907112" lon="-7.38106947748913">
<ele>1815.96350139264</ele>
</trkpt>
<trkpt lat="31.3291608213792" lon="-7.3810436382638">
<ele>1816.78077227682</ele>
</trkpt>
<trkpt lat="31.3290168073441" lon="-7.38108184545868">
<ele>1817.54026015575</ele>
</trkpt>
<trkpt lat="31.3288910574874" lon="-7.38114161060838">
<ele>1818.25088594967</ele>
</trkpt>
<trkpt lat="31.3287846688017" lon="-7.38125114947549">
<ele>1819.00766208063</ele>
</trkpt>
<trkpt lat="31.3285683969704" lon="-7.3815606899054">
<ele>1820.9136898377</ele>
</trkpt>
<trkpt lat="31.3284662332093" lon="-7.38165244180516">
<ele>1821.6812774831</ele>
</trkpt>
<trkpt lat="31.3283518319502" lon="-7.3817112768905">
<ele>1822.45393823558</ele>
</trkpt>
<trkpt lat="31.3281900265189" lon="-7.38174860398195">
<ele>1823.51382872937</ele>
</trkpt>
<trkpt lat="31.327989612431" lon="-7.3817679791264">
<ele>1824.85951925321</ele>
</trkpt>
<trkpt lat="31.3276307276119" lon="-7.38174871069038">
<ele>1827.43446701985</ele>
</trkpt>
<trkpt lat="31.3265806373958" lon="-7.38157833431061">
<ele>1835.55756326461</ele>
</trkpt>
<trkpt lat="31.3261298437238" lon="-7.38143869212443">
<ele>1838.93288546582</ele>
</trkpt>
<trkpt lat="31.3257768752243" lon="-7.38129312355397">
<ele>1841.37690316899</ele>
</trkpt>
<trkpt lat="31.3254969501279" lon="-7.38117669451251">
<ele>1843.10876041667</ele>
</trkpt>
<trkpt lat="31.3249977091071" lon="-7.38097034394664">
<ele>1845.84665016231</ele>
</trkpt>
<trkpt lat="31.3246939997742" lon="-7.38087879819415">
<ele>1847.40039163309</ele>
</trkpt>
<trkpt lat="31.324472001626" lon="-7.38086891150508">
<ele>1848.54699603135</ele>
</trkpt>
<trkpt lat="31.324219128405" lon="-7.38089012065689">
<ele>1849.94849236127</ele>
</trkpt>
<trkpt lat="31.3239788570079" lon="-7.38092138699974">
<ele>1851.41342508136</ele>
</trkpt>
<trkpt lat="31.3236210696614" lon="-7.38099813316782">
<ele>1853.88563689607</ele>
</trkpt>
<trkpt lat="31.3231390638439" lon="-7.38103902204416">
<ele>1857.60070660642</ele>
</trkpt>
<trkpt lat="31.3227580475741" lon="-7.38102770808003">
<ele>1860.78394439631</ele>
</trkpt>
<trkpt lat="31.3226270150383" lon="-7.38099335783726">
<ele>1861.95960802783</ele>
</trkpt>
<trkpt lat="31.3220200729624" lon="-7.38073901311796">
<ele>1867.66644330182</ele>
</trkpt>
<trkpt lat="31.3216533323983" lon="-7.38054990570057">
<ele>1871.26960025688</ele>
</trkpt>
<trkpt lat="31.3214866624256" lon="-7.38041163764723">
<ele>1873.18791267207</ele>
</trkpt>
<trkpt lat="31.3214269920487" lon="-7.38033103216881">
<ele>1874.0582675581</ele>
</trkpt>
<trkpt lat="31.3213851563226" lon="-7.38023769479477">
<ele>1874.92459276955</ele>
</trkpt>
<trkpt lat="31.3213471370196" lon="-7.37999357654381">
<ele>1876.9708135525</ele>
</trkpt>
<trkpt lat="31.3213029342104" lon="-7.37946999350061">
<ele>1881.36687441057</ele>
</trkpt>
<trkpt lat="31.3213162832873" lon="-7.37928186269555">
<ele>1882.94682490714</ele>
</trkpt>
<trkpt lat="31.321375048226" lon="-7.3791291997428">
<ele>1884.27203940966</ele>
</trkpt>
<trkpt lat="31.3214340166381" lon="-7.37907376524808">
<ele>1884.90050965214</ele>
</trkpt>
<trkpt lat="31.321940631749" lon="-7.37880760470704">
<ele>1889.4699194755</ele>
</trkpt>
<trkpt lat="31.3222906027019" lon="-7.37857906639437">
<ele>1892.692192485</ele>
</trkpt>
<trkpt lat="31.3227973675411" lon="-7.37844171613437">
<ele>1896.76406534158</ele>
</trkpt>
<trkpt lat="31.3229472498821" lon="-7.3783619093983">
<ele>1898.03340003247</ele>
</trkpt>
<trkpt lat="31.3230909983957" lon="-7.37824493071325">
<ele>1899.37984297902</ele>
</trkpt>
<trkpt lat="31.3236716097656" lon="-7.37759254645165">
<ele>1905.56299558457</ele>
</trkpt>
<trkpt lat="31.3238040021592" lon="-7.37713198310064">
<ele>1908.65180885369</ele>
</trkpt>
<trkpt lat="31.3240142133785" lon="-7.37669725345197">
<ele>1911.57737161481</ele>
</trkpt>
<trkpt lat="31.3240423056116" lon="-7.376510254145">
<ele>1912.59959817163</ele>
</trkpt>
<trkpt lat="31.324020222235" lon="-7.37638226789997">
<ele>1913.26542840396</ele>
</trkpt>
<trkpt lat="31.3239848351345" lon="-7.37630216913575">
<ele>1913.70914647403</ele>
</trkpt>
<trkpt lat="31.3239075871296" lon="-7.37623994524842">
<ele>1914.22943642929</ele>
</trkpt>
<trkpt lat="31.3238163065463" lon="-7.37621931880834">
<ele>1914.72281972301</ele>
</trkpt>
<trkpt lat="31.3234983497794" lon="-7.37629674704382">
<ele>1916.25396246833</ele>
</trkpt>
<trkpt lat="31.3232049293241" lon="-7.37638099192428">
<ele>1917.41838132558</ele>
</trkpt>
<trkpt lat="31.32299592976" lon="-7.37639902207775">
<ele>1918.08249771181</ele>
</trkpt>
<trkpt lat="31.3226155868685" lon="-7.37634370691164">
<ele>1919.04637537948</ele>
</trkpt>
<trkpt lat="31.3214596528432" lon="-7.37621329311354">
<ele>1921.3094116199</ele>
</trkpt>
<trkpt lat="31.3211064176631" lon="-7.37617344132989">
<ele>1922.34741607847</ele>
</trkpt>
<trkpt lat="31.3208440150874" lon="-7.37614534876881">
<ele>1923.3673716</ele>
</trkpt>
<trkpt lat="31.3207687205393" lon="-7.3761531890752">
<ele>1923.69976278992</ele>
</trkpt>
<trkpt lat="31.3206971090948" lon="-7.37619390671417">
<ele>1924.07279113965</ele>
</trkpt>
<trkpt lat="31.3206503871992" lon="-7.37625416873647">
<ele>1924.41294288913</ele>
</trkpt>
<trkpt lat="31.3206244771494" lon="-7.37632682326484">
<ele>1924.75533414859</ele>
</trkpt>
<trkpt lat="31.320622319416" lon="-7.37641515594658">
<ele>1925.15573963392</ele>
</trkpt>
<trkpt lat="31.3206433830419" lon="-7.37648716986978">
<ele>1925.51054364143</ele>
</trkpt>
<trkpt lat="31.3206942602142" lon="-7.37655773556216">
<ele>1925.95646040526</ele>
</trkpt>
<trkpt lat="31.3207721253257" lon="-7.3765984894728">
<ele>1926.45415936811</ele>
</trkpt>
<trkpt lat="31.3213514433073" lon="-7.37661081935036">
<ele>1930.11019820612</ele>
</trkpt>
<trkpt lat="31.322489107197" lon="-7.37668445071096">
<ele>1937.54778219068</ele>
</trkpt>
<trkpt lat="31.3229580868572" lon="-7.37684581943035">
<ele>1940.92099233956</ele>
</trkpt>
<trkpt lat="31.3230693826444" lon="-7.37693402341126">
<ele>1941.91857927966</ele>
</trkpt>
<trkpt lat="31.3231052495694" lon="-7.37698392582393">
<ele>1942.33696735972</ele>
</trkpt>
<trkpt lat="31.3231297051258" lon="-7.37705343806442">
<ele>1942.82408076692</ele>
</trkpt>
<trkpt lat="31.3231263436959" lon="-7.37716224644514">
<ele>1943.52683806752</ele>
</trkpt>
<trkpt lat="31.3230725041486" lon="-7.37730351639808">
<ele>1944.44909173016</ele>
</trkpt>
<trkpt lat="31.3228950613067" lon="-7.37748063181361">
<ele>1946.02643933583</ele>
</trkpt>
<trkpt lat="31.3227896097128" lon="-7.37756179768648">
<ele>1946.91281904058</ele>
</trkpt>
<trkpt lat="31.3225574791368" lon="-7.37763371080015">
<ele>1948.6485908718</ele>
</trkpt>
<trkpt lat="31.3221708018893" lon="-7.37765333659434">
<ele>1951.53479791939</ele>
</trkpt>
<trkpt lat="31.3218779918223" lon="-7.37782590056861">
<ele>1954.06339423094</ele>
</trkpt>
<trkpt lat="31.3217728338578" lon="-7.37786423464856">
<ele>1954.8982829245</ele>
</trkpt>
<trkpt lat="31.3216605853073" lon="-7.37787384992575">
<ele>1955.75551952059</ele>
</trkpt>
<trkpt lat="31.3208415478117" lon="-7.37780670925254">
<ele>1962.06148555973</ele>
</trkpt>
<trkpt lat="31.320509229196" lon="-7.37774974515941">
<ele>1964.64554131289</ele>
</trkpt>
<trkpt lat="31.3202977495335" lon="-7.37767156715422">
<ele>1966.29452457856</ele>
</trkpt>
<trkpt lat="31.3201750104965" lon="-7.37756487950153">
<ele>1967.3300523035</ele>
</trkpt>
<trkpt lat="31.3200285843018" lon="-7.3772907929157">
<ele>1969.04186985977</ele>
</trkpt>
<trkpt lat="31.3197611124661" lon="-7.37677515411572">
<ele>1971.75884316276</ele>
</trkpt>
<trkpt lat="31.3196070273445" lon="-7.3765641023046">
<ele>1973.0083269588</ele>
</trkpt>
<trkpt lat="31.3192729724801" lon="-7.37622690420087">
<ele>1975.35501886359</ele>
</trkpt>
<trkpt lat="31.3189937400653" lon="-7.37578697232891">
<ele>1977.86562661835</ele>
</trkpt>
<trkpt lat="31.3189264217862" lon="-7.37573390875689">
<ele>1978.3068166907</ele>
</trkpt>
<trkpt lat="31.3188661468799" lon="-7.37571558650823">
<ele>1978.64745092191</ele>
</trkpt>
<trkpt lat="31.318784580146" lon="-7.37573099715565">
<ele>1979.1035142475</ele>
</trkpt>
<trkpt lat="31.3187298561831" lon="-7.37577401877348">
<ele>1979.4681296561</ele>
</trkpt>
<trkpt lat="31.3186973239812" lon="-7.37582740086219">
<ele>1979.77834381446</ele>
</trkpt>
<trkpt lat="31.3186807877218" lon="-7.37589256287299">
<ele>1980.10164468142</ele>
</trkpt>
<trkpt lat="31.318685611881" lon="-7.37596237408543">
<ele>1980.43679806239</ele>
</trkpt>
<trkpt lat="31.3187097919715" lon="-7.37602175212243">
<ele>1980.75168265922</ele>
</trkpt>
<trkpt lat="31.3192384896389" lon="-7.37658165798473">
<ele>1984.81454097213</ele>
</trkpt>
<trkpt lat="31.3194537936723" lon="-7.37687509546161">
<ele>1986.71073888827</ele>
</trkpt>
<trkpt lat="31.3195078522817" lon="-7.37701433850002">
<ele>1987.46661032205</ele>
</trkpt>
<trkpt lat="31.3195418962709" lon="-7.37715491114059">
<ele>1988.19393517188</ele>
</trkpt>
<trkpt lat="31.3195418248839" lon="-7.37748975529819">
<ele>1989.86833916156</ele>
</trkpt>
<trkpt lat="31.3194976718691" lon="-7.37761606828412">
<ele>1990.50797746017</ele>
</trkpt>
<trkpt lat="31.319403790059" lon="-7.3777544595791">
<ele>1991.38307063329</ele>
</trkpt>
<trkpt lat="31.3193495461677" lon="-7.37780890304477">
<ele>1991.84104037266</ele>
</trkpt>
<trkpt lat="31.3191100285001" lon="-7.37798753240966">
<ele>1993.68234005521</ele>
</trkpt>
<trkpt lat="31.3189533303971" lon="-7.37807611706736">
<ele>1994.82714739481</ele>
</trkpt>
<trkpt lat="31.3188457416255" lon="-7.37811615579273">
<ele>1995.58052080286</ele>
</trkpt>
<trkpt lat="31.3185753852626" lon="-7.37817749282215">
<ele>1997.46200414084</ele>
</trkpt>
<trkpt lat="31.3184867973092" lon="-7.378221071987">
<ele>1998.13556009571</ele>
</trkpt>
<trkpt lat="31.3184300363883" lon="-7.37826920810103">
<ele>1998.63116351596</ele>
</trkpt>
<trkpt lat="31.3183656188567" lon="-7.3783553533054">
<ele>1999.30519394591</ele>
</trkpt>
<trkpt lat="31.3183507163248" lon="-7.37841010657229">
<ele>1999.60445419263</ele>
</trkpt>
<trkpt lat="31.3183611764716" lon="-7.37845543568766">
<ele>1999.82698776866</ele>
</trkpt>
<trkpt lat="31.3184148877994" lon="-7.37849670438722">
<ele>2000.21419165445</ele>
</trkpt>
<trkpt lat="31.3185139952152" lon="-7.3785008534207">
<ele>2000.90451753456</ele>
</trkpt>
<trkpt lat="31.319188970624" lon="-7.37841916435798">
<ele>2005.86652659169</ele>
</trkpt>
<trkpt lat="31.3194241125624" lon="-7.37837541201452">
<ele>2007.60839452135</ele>
</trkpt>
<trkpt lat="31.3195963895347" lon="-7.37837265806264">
<ele>2008.87202972319</ele>
</trkpt>
<trkpt lat="31.319649513542" lon="-7.37838852044827">
<ele>2009.27637033653</ele>
</trkpt>
<trkpt lat="31.3196975088091" lon="-7.37843624820468">
<ele>2009.74176228956</ele>
</trkpt>
<trkpt lat="31.3197247239911" lon="-7.37851787255125">
<ele>2010.29166247184</ele>
</trkpt>
<trkpt lat="31.3197241826392" lon="-7.37860387251479">
<ele>2010.81644690103</ele>
</trkpt>
<trkpt lat="31.3196786407122" lon="-7.37869381978524">
<ele>2011.43190358193</ele>
</trkpt>
<trkpt lat="31.3195820315204" lon="-7.37877945678049">
<ele>2012.23312117532</ele>
</trkpt>
<trkpt lat="31.3193172095602" lon="-7.37896007863891">
<ele>2014.18973970938</ele>
</trkpt>
<trkpt lat="31.3189559928479" lon="-7.37915567239522">
<ele>2016.71403214108</ele>
</trkpt>
<trkpt lat="31.3188720800061" lon="-7.37916937682566">
<ele>2017.29463404896</ele>
</trkpt>
<trkpt lat="31.31876576534" lon="-7.37916198498048">
<ele>2018.03947941177</ele>
</trkpt>
<trkpt lat="31.3185397252193" lon="-7.37901116318225">
<ele>2019.89688494492</ele>
</trkpt>
<trkpt lat="31.3183899219209" lon="-7.37898542699735">
<ele>2020.97306372897</ele>
</trkpt>
<trkpt lat="31.3182941578468" lon="-7.37901639667855">
<ele>2021.67373742985</ele>
</trkpt>
<trkpt lat="31.3178692356209" lon="-7.37925681771998">
<ele>2024.91952556077</ele>
</trkpt>
<trkpt lat="31.3177497877321" lon="-7.37929811926589">
<ele>2025.7268990775</ele>
</trkpt>
<trkpt lat="31.3176549972847" lon="-7.37930948116168">
<ele>2026.32917252572</ele>
</trkpt>
<trkpt lat="31.3171396449785" lon="-7.37926669632125">
<ele>2029.31882260814</ele>
</trkpt>
<trkpt lat="31.3165929899354" lon="-7.37921349876238">
<ele>2031.89287633581</ele>
</trkpt>
<trkpt lat="31.3164205668245" lon="-7.37916653026296">
<ele>2032.57754728534</ele>
</trkpt>
<trkpt lat="31.3162892403445" lon="-7.37908398597414">
<ele>2033.11068704822</ele>
</trkpt>
<trkpt lat="31.316177266823" lon="-7.37895696947335">
<ele>2033.63516151293</ele>
</trkpt>
<trkpt lat="31.3160901789328" lon="-7.37877295728472">
<ele>2034.200538193</ele>
</trkpt>
<trkpt lat="31.31585595255" lon="-7.37781504947856">
<ele>2036.76594596281</ele>
</trkpt>
<trkpt lat="31.3157859447891" lon="-7.37765758737312">
<ele>2037.23835196068</ele>
</trkpt>
<trkpt lat="31.3157254686138" lon="-7.37758827505974">
<ele>2037.50396646247</ele>
</trkpt>
<trkpt lat="31.3156081707885" lon="-7.37750196545113">
<ele>2037.93709255746</ele>
</trkpt>
<trkpt lat="31.315101081776" lon="-7.37721594304863">
<ele>2039.65923166302</ele>
</trkpt>
<trkpt lat="31.3150009071366" lon="-7.37710926598488">
<ele>2040.04422252952</ele>
</trkpt>
<trkpt lat="31.314970488694" lon="-7.377024474392">
<ele>2040.25712143967</ele>
</trkpt>
<trkpt lat="31.3149600639745" lon="-7.37692507030814">
<ele>2040.48544881924</ele>
</trkpt>
<trkpt lat="31.3149753554838" lon="-7.3768225854491">
<ele>2040.71035381419</ele>
</trkpt>
<trkpt lat="31.3150115615847" lon="-7.37673100602114">
<ele>2040.91988296848</ele>
</trkpt>
<trkpt lat="31.3151297040956" lon="-7.3765139431625">
<ele>2041.45521646092</ele>
</trkpt>
<trkpt lat="31.3155617609931" lon="-7.37589788291115">
<ele>2043.22185891087</ele>
</trkpt>
<trkpt lat="31.3156230109366" lon="-7.37578412087935">
<ele>2043.5446750711</ele>
</trkpt>
<trkpt lat="31.3156484113004" lon="-7.37559981421784">
<ele>2044.00775488918</ele>
</trkpt>
<trkpt lat="31.315614284627" lon="-7.37539787442738">
<ele>2044.53885222166</ele>
</trkpt>
<trkpt lat="31.3155604392989" lon="-7.37530967325783">
<ele>2044.82795216033</ele>
</trkpt>
<trkpt lat="31.3154459798909" lon="-7.37521413657151">
<ele>2045.27775694166</ele>
</trkpt>
<trkpt lat="31.3149183012777" lon="-7.3748735882551">
<ele>2047.41256181359</ele>
</trkpt>
<trkpt lat="31.3145425314742" lon="-7.37466036460424">
<ele>2049.14424320407</ele>
</trkpt>
<trkpt lat="31.3137098235252" lon="-7.37411843349409">
<ele>2053.59284515725</ele>
</trkpt>
<trkpt lat="31.3135938559433" lon="-7.374019875299">
<ele>2054.21023740451</ele>
</trkpt>
<trkpt lat="31.3135203707965" lon="-7.37393495505942">
<ele>2054.61430385958</ele>
</trkpt>
<trkpt lat="31.3134815377861" lon="-7.37384265140108">
<ele>2054.8993457204</ele>
</trkpt>
<trkpt lat="31.3134662180223" lon="-7.37372482991165">
<ele>2055.13782658942</ele>
</trkpt>
<trkpt lat="31.3135536175051" lon="-7.3729298892354">
<ele>2056.13252972939</ele>
</trkpt>
<trkpt lat="31.3135518902988" lon="-7.37268512458879">
<ele>2056.52996914469</ele>
</trkpt>
<trkpt lat="31.3135197730506" lon="-7.37252411081068">
<ele>2056.8511544086</ele>
</trkpt>
<trkpt lat="31.3134069770679" lon="-7.37221949938148">
<ele>2057.63523304975</ele>
</trkpt>
<trkpt lat="31.3132656477402" lon="-7.3718541101243">
<ele>2058.84811061523</ele>
</trkpt>
<trkpt lat="31.31311921133" lon="-7.37147555597754">
<ele>2060.40605267039</ele>
</trkpt>
<trkpt lat="31.3129880617341" lon="-7.37116998871927">
<ele>2061.86428793136</ele>
</trkpt>
<trkpt lat="31.3128769191706" lon="-7.37097405843923">
<ele>2062.92953973376</ele>
</trkpt>
<trkpt lat="31.3124756672367" lon="-7.37044201203689">
<ele>2066.29432293281</ele>
</trkpt>
<trkpt lat="31.3123800226749" lon="-7.37035328651152">
<ele>2066.9850132169</ele>
</trkpt>
<trkpt lat="31.312248281491" lon="-7.37028025630637">
<ele>2067.8142408673</ele>
</trkpt>
<trkpt lat="31.3121808323676" lon="-7.37027829710284">
<ele>2068.20020918939</ele>
</trkpt>
<trkpt lat="31.3120901550227" lon="-7.37031246178298">
<ele>2068.74497729635</ele>
</trkpt>
<trkpt lat="31.3120111450885" lon="-7.37035974993038">
<ele>2069.25438211657</ele>
</trkpt>
<trkpt lat="31.3119368141485" lon="-7.37042931316803">
<ele>2069.80348519387</ele>
</trkpt>
<trkpt lat="31.3110872564191" lon="-7.37149801363124">
<ele>2077.25579673602</ele>
</trkpt>
<trkpt lat="31.3107320060536" lon="-7.3719460130816">
<ele>2080.04856349767</ele>
</trkpt>
<trkpt lat="31.3104782756001" lon="-7.37226598601781">
<ele>2081.62355223973</ele>
</trkpt>
<trkpt lat="31.3102762403207" lon="-7.37252076377316">
<ele>2082.56532423941</ele>
</trkpt>
<trkpt lat="31.3100747919045" lon="-7.37277480063653">
<ele>2083.18716240643</ele>
</trkpt>
<trkpt lat="31.3098997504659" lon="-7.37298375259841">
<ele>2083.34524304799</ele>
</trkpt>
<trkpt lat="31.3097450265727" lon="-7.373099425594">
<ele>2083.01844984394</ele>
</trkpt>
<trkpt lat="31.3096711812394" lon="-7.37312742085293">
<ele>2082.79736482882</ele>
</trkpt>
<trkpt lat="31.3095940739299" lon="-7.37313112209862">
<ele>2082.53515698243</ele>
</trkpt>
<trkpt lat="31.3093951434679" lon="-7.37307779531005">
<ele>2081.68521716603</ele>
</trkpt>
<trkpt lat="31.3087549396105" lon="-7.37287269845757">
<ele>2078.49417926597</ele>
</trkpt>
<trkpt lat="31.3086764661987" lon="-7.37287238592474">
<ele>2078.11848540221</ele>
</trkpt>
<trkpt lat="31.308502437705" lon="-7.37291281092059">
<ele>2077.28897124518</ele>
</trkpt>
<trkpt lat="31.3083769337844" lon="-7.37296301281179">
<ele>2076.6801862147</ele>
</trkpt>
<trkpt lat="31.308023603003" lon="-7.37317780572552">
<ele>2074.93895736986</ele>
</trkpt>
<trkpt lat="31.3074625257997" lon="-7.37351992546615">
<ele>2072.5724931574</ele>
</trkpt>
<trkpt lat="31.3071983457402" lon="-7.37367368042151">
<ele>2071.78777112692</ele>
</trkpt>
<trkpt lat="31.3070077301622" lon="-7.37371264348628">
<ele>2071.54267855599</ele>
</trkpt>
<trkpt lat="31.3069064581784" lon="-7.37370634913399">
<ele>2071.51901701632</ele>
</trkpt>
<trkpt lat="31.3067249999632" lon="-7.37366339705574">
<ele>2071.60848855988</ele>
</trkpt>
<trkpt lat="31.3063467828133" lon="-7.37349709875039">
<ele>2072.04768362573</ele>
</trkpt>
<trkpt lat="31.3055403865829" lon="-7.37313842997789">
<ele>2073.32861770129</ele>
</trkpt>
<trkpt lat="31.3047414289831" lon="-7.37267714149622">
<ele>2074.71257254912</ele>
</trkpt>
<trkpt lat="31.3040181462329" lon="-7.37227153843074">
<ele>2076.19336965753</ele>
</trkpt>
<trkpt lat="31.3036815058053" lon="-7.3721721043126">
<ele>2076.87969856826</ele>
</trkpt>
<trkpt lat="31.3028506051557" lon="-7.37209527333419">
<ele>2078.55578655801</ele>
</trkpt>
<trkpt lat="31.3025901772685" lon="-7.37200677793639">
<ele>2079.23894740769</ele>
</trkpt>
<trkpt lat="31.3024649708928" lon="-7.3719296213584">
<ele>2079.6370809752</ele>
</trkpt>
<trkpt lat="31.302134795145" lon="-7.37165064796563">
<ele>2081.01084539115</ele>
</trkpt>
<trkpt lat="31.3016317127206" lon="-7.37122648955562">
<ele>2083.51758254923</ele>
</trkpt>
<trkpt lat="31.3015062638407" lon="-7.37115990572298">
<ele>2084.11455648407</ele>
</trkpt>
<trkpt lat="31.3013466271935" lon="-7.37112806628706">
<ele>2084.81550831264</ele>
</trkpt>
<trkpt lat="31.3012656488016" lon="-7.37112898903431">
<ele>2085.1666467311</ele>
</trkpt>
<trkpt lat="31.3003320000574" lon="-7.37126950088095">
<ele>2089.06042547966</ele>
</trkpt>
<trkpt lat="31.2993101923072" lon="-7.37141275629759">
<ele>2092.67289178417</ele>
</trkpt>
<trkpt lat="31.2990701842461" lon="-7.37151368730532">
<ele>2093.4914119832</ele>
</trkpt>
<trkpt lat="31.2983472824979" lon="-7.3719356341926">
<ele>2096.16529944699</ele>
</trkpt>
<trkpt lat="31.2978209658814" lon="-7.3722917692785">
<ele>2098.47427463601</ele>
</trkpt>
<trkpt lat="31.2976017630011" lon="-7.37248445957062">
<ele>2099.58413657955</ele>
</trkpt>
<trkpt lat="31.2975361640678" lon="-7.37257592478284">
<ele>2099.99968418485</ele>
</trkpt>
<trkpt lat="31.297238616543" lon="-7.3732796534479">
<ele>2102.57283782483</ele>
</trkpt>
<trkpt lat="31.2970512267844" lon="-7.37364076395948">
<ele>2103.74697169689</ele>
</trkpt>
<trkpt lat="31.2963843845002" lon="-7.3752600694431">
<ele>2107.70584748353</ele>
</trkpt>
<trkpt lat="31.2962364026501" lon="-7.37553235758183">
<ele>2108.59312517087</ele>
</trkpt>
<trkpt lat="31.29595063969" lon="-7.37583805077943">
<ele>2109.94956547585</ele>
</trkpt>
<trkpt lat="31.2957800817364" lon="-7.37599817028136">
<ele>2110.74620386241</ele>
</trkpt>
<trkpt lat="31.2944053696351" lon="-7.3770564409312">
<ele>2116.35589866979</ele>
</trkpt>
<trkpt lat="31.2939404426546" lon="-7.37741374080036">
<ele>2118.52362223257</ele>
</trkpt>
<trkpt lat="31.2935979276143" lon="-7.37768972373124">
<ele>2120.32504122868</ele>
</trkpt>
<trkpt lat="31.2932040104193" lon="-7.37819798564866">
<ele>2123.11247652914</ele>
</trkpt>
<trkpt lat="31.2925050012327" lon="-7.37923125236644">
<ele>2129.00750493026</ele>
</trkpt>
<trkpt lat="31.2921448590324" lon="-7.37978145940264">
<ele>2131.81152213525</ele>
</trkpt>
<trkpt lat="31.2916636409605" lon="-7.38048819007997">
<ele>2134.88689278782</ele>
</trkpt>
<trkpt lat="31.2905969713111" lon="-7.38204818443926">
<ele>2141.05848057049</ele>
</trkpt>
<trkpt lat="31.290309620525" lon="-7.38248328813541">
<ele>2142.87233126741</ele>
</trkpt>
<trkpt lat="31.2901398279323" lon="-7.38274079957155">
<ele>2144.09544027782</ele>
</trkpt>
<trkpt lat="31.2900162506323" lon="-7.38286044293333">
<ele>2144.90630846504</ele>
</trkpt>
<trkpt lat="31.2898219373394" lon="-7.38291137053366">
<ele>2146.1274281242</ele>
</trkpt>
<trkpt lat="31.2897029021628" lon="-7.38289159693214">
<ele>2146.91260222193</ele>
</trkpt>
<trkpt lat="31.2892091598919" lon="-7.38250036923767">
<ele>2150.91977552224</ele>
</trkpt>
<trkpt lat="31.2887809125695" lon="-7.38220559023645">
<ele>2154.39083739302</ele>
</trkpt>
<trkpt lat="31.2886795848443" lon="-7.38219510203737">
<ele>2155.12753722465</ele>
</trkpt>
<trkpt lat="31.2884015092827" lon="-7.38221749447056">
<ele>2157.15641068643</ele>
</trkpt>
<trkpt lat="31.2881880359493" lon="-7.38232386568876">
<ele>2158.84966273758</ele>
</trkpt>
<trkpt lat="31.2873999743437" lon="-7.38279823815308">
<ele>2165.14839980529</ele>
</trkpt>
<trkpt lat="31.2867359336242" lon="-7.38309623660996">
<ele>2170.31197966833</ele>
</trkpt>
<trkpt lat="31.2865487700464" lon="-7.38320246680873">
<ele>2171.90891751718</ele>
</trkpt>
<trkpt lat="31.2863560128137" lon="-7.38337409904058">
<ele>2173.81303665271</ele>
</trkpt>
<trkpt lat="31.285715507697" lon="-7.38422331558476">
<ele>2181.60504918764</ele>
</trkpt>
<trkpt lat="31.2856109788978" lon="-7.38428435035929">
<ele>2182.52360468685</ele>
</trkpt>
<trkpt lat="31.2855168913068" lon="-7.38430555496632">
<ele>2183.25730875109</ele>
</trkpt>
<trkpt lat="31.285443597065" lon="-7.38429069105209">
<ele>2183.81707015169</ele>
</trkpt>
<trkpt lat="31.2853802615035" lon="-7.38424439456016">
<ele>2184.3569042891</ele>
</trkpt>
<trkpt lat="31.2853242586271" lon="-7.38418538109814">
<ele>2184.88008106823</ele>
</trkpt>
<trkpt lat="31.285286619112" lon="-7.38411675522162">
<ele>2185.34411679527</ele>
</trkpt>
<trkpt lat="31.2852756559944" lon="-7.3839580614456">
<ele>2186.2200845827</ele>
</trkpt>
<trkpt lat="31.285304701639" lon="-7.38378519908415">
<ele>2187.17901184236</ele>
</trkpt>
<trkpt lat="31.2854938142369" lon="-7.38318221271946">
<ele>2190.63864274023</ele>
</trkpt>
<trkpt lat="31.2856257792455" lon="-7.38295928820874">
<ele>2192.02275642194</ele>
</trkpt>
<trkpt lat="31.2862604806395" lon="-7.38216686648301">
<ele>2197.29994618673</ele>
</trkpt>
<trkpt lat="31.286490834751" lon="-7.38181252814784">
<ele>2199.39808754135</ele>
</trkpt>
<trkpt lat="31.2865384014489" lon="-7.38168961057043">
<ele>2200.02461195238</ele>
</trkpt>
<trkpt lat="31.2865420963656" lon="-7.38152998835525">
<ele>2200.75807741582</ele>
</trkpt>
<trkpt lat="31.286516718939" lon="-7.38144191165912">
<ele>2201.17633385934</ele>
</trkpt>
<trkpt lat="31.2864694885627" lon="-7.38135588183535">
<ele>2201.63101099321</ele>
</trkpt>
<trkpt lat="31.2863563015935" lon="-7.38124405595613">
<ele>2202.38975907978</ele>
</trkpt>
<trkpt lat="31.2861960549657" lon="-7.38113638716611">
<ele>2203.30441586611</ele>
</trkpt>
<trkpt lat="31.2861244632856" lon="-7.38110587910645">
<ele>2203.6735852266</ele>
</trkpt>
</trkseg>
<type>cycling</type>
</trk>
</gpx>
