<?xml version='1.0' encoding='UTF-8'?>
<gpx version="1.1"
  creator="GPXmagic"
  xmlns="http://www.topografix.com/GPX/1/1"
  xmlns:rgt="http://www.rgtcycling.com/XML/GpxExtensions/v1"
  xmlns:xsi="http://www.w3.org/2001/XMLSchema-instance" xsi:schemaLocation="http://www.topografix.com/GPX/1/1
  http://www.topografix.com/GPX/1/1/gpx.xsd">
  <metadata>
    <name>Smoothed with GPXmagic</name>
    <author>
      <link href="https://www.stepwiserefinement.co.uk">
        <text>GPXmagic v3</text>
        <type>text/html</type>
      </link>
    </author>
  </metadata>
<trk>  <name>Assynt&#32;&amp;&#32;Kylesku&#32;Bridge&#32;Corridor&#32;Scotland</name>
<trkseg>
<trkpt lat="58.1499892" lon="-4.974026"><ele>75.82</ele></trkpt>
<trkpt lat="58.1504307" lon="-4.9743044"><ele>75.66</ele></trkpt>
<trkpt lat="58.1512829" lon="-4.974541400000001"><ele>75.95</ele></trkpt>
<trkpt lat="58.1518514" lon="-4.9746957"><ele>77.45</ele></trkpt>
<trkpt lat="58.1524224" lon="-4.9748512"><ele>80.06</ele></trkpt>
<trkpt lat="58.1529174" lon="-4.975010500000001"><ele>82.6</ele></trkpt>
<trkpt lat="58.1534767" lon="-4.975280000000001"><ele>84.82</ele></trkpt>
<trkpt lat="58.15394059999999" lon="-4.975505"><ele>85.69</ele></trkpt>
<trkpt lat="58.1544979" lon="-4.9757753"><ele>85.83</ele></trkpt>
<trkpt lat="58.154945" lon="-4.976013"><ele>85.99</ele></trkpt>
<trkpt lat="58.15511370000001" lon="-4.976136400000001"><ele>86.27</ele></trkpt>
<trkpt lat="58.155396299999985" lon="-4.976448"><ele>87.42</ele></trkpt>
<trkpt lat="58.1559268" lon="-4.9771252"><ele>91.28</ele></trkpt>
<trkpt lat="58.15618530000001" lon="-4.977377399999999"><ele>93.36</ele></trkpt>
<trkpt lat="58.156556200000004" lon="-4.977582600000001"><ele>96.02</ele></trkpt>
<trkpt lat="58.157062499999995" lon="-4.97786"><ele>98.63</ele></trkpt>
<trkpt lat="58.15761729999999" lon="-4.9781658"><ele>99.49</ele></trkpt>
<trkpt lat="58.15784939999999" lon="-4.978323600000001"><ele>98.98</ele></trkpt>
<trkpt lat="58.15799169999999" lon="-4.9784613"><ele>98.37</ele></trkpt>
<trkpt lat="58.158093" lon="-4.9785975"><ele>97.77</ele></trkpt>
<trkpt lat="58.1582542" lon="-4.978872999999999"><ele>96.53</ele></trkpt>
<trkpt lat="58.158675599999995" lon="-4.9797856"><ele>92.35</ele></trkpt>
<trkpt lat="58.15920909999999" lon="-4.980949900000001"><ele>86.68</ele></trkpt>
<trkpt lat="58.1598817" lon="-4.9826527"><ele>77.64</ele></trkpt>
<trkpt lat="58.1601579" lon="-4.9832663"><ele>74.56</ele></trkpt>
<trkpt lat="58.160282" lon="-4.983456099999999"><ele>73.63</ele></trkpt>
<trkpt lat="58.160444" lon="-4.9836206"><ele>72.74</ele></trkpt>
<trkpt lat="58.160988499999995" lon="-4.984067600000001"><ele>70.94</ele></trkpt>
<trkpt lat="58.161235699999985" lon="-4.9843491"><ele>70.62</ele></trkpt>
<trkpt lat="58.1616354" lon="-4.9850797"><ele>71.02</ele></trkpt>
<trkpt lat="58.16222689999999" lon="-4.986246399999998"><ele>73.13</ele></trkpt>
<trkpt lat="58.16250070000001" lon="-4.9866161"><ele>73.66</ele></trkpt>
<trkpt lat="58.1626391" lon="-4.9867231"><ele>73.7</ele></trkpt>
<trkpt lat="58.162826" lon="-4.986828300000001"><ele>73.58</ele></trkpt>
<trkpt lat="58.1630326" lon="-4.9868558"><ele>73.31</ele></trkpt>
<trkpt lat="58.1632662" lon="-4.9868066"><ele>72.94</ele></trkpt>
<trkpt lat="58.16398420000001" lon="-4.9864635"><ele>72.03</ele></trkpt>
<trkpt lat="58.1641233" lon="-4.9864405000000005"><ele>71.95</ele></trkpt>
<trkpt lat="58.16437959999999" lon="-4.9864484"><ele>71.93</ele></trkpt>
<trkpt lat="58.164648299999996" lon="-4.9865869"><ele>72.04</ele></trkpt>
<trkpt lat="58.1648102" lon="-4.9867624"><ele>72.18</ele></trkpt>
<trkpt lat="58.16507909999999" lon="-4.9871304"><ele>72.5</ele></trkpt>
<trkpt lat="58.165634999999995" lon="-4.988015"><ele>73.5</ele></trkpt>
<trkpt lat="58.1661901" lon="-4.9888988"><ele>75.04</ele></trkpt>
<trkpt lat="58.16656220000001" lon="-4.9894192"><ele>76.18</ele></trkpt>
<trkpt lat="58.16685890000001" lon="-4.989717200000001"><ele>76.95</ele></trkpt>
<trkpt lat="58.16720060000001" lon="-4.9899906"><ele>77.55</ele></trkpt>
<trkpt lat="58.167678699999996" lon="-4.9903853"><ele>77.64</ele></trkpt>
<trkpt lat="58.16783869999999" lon="-4.9906011"><ele>77.34</ele></trkpt>
<trkpt lat="58.16790700000001" lon="-4.9907344"><ele>77.13</ele></trkpt>
<trkpt lat="58.1680181" lon="-4.9910625"><ele>76.62</ele></trkpt>
<trkpt lat="58.16839310000002" lon="-4.992626200000001"><ele>74.7</ele></trkpt>
<trkpt lat="58.16853239999999" lon="-4.9930259"><ele>74.31</ele></trkpt>
<trkpt lat="58.1687897" lon="-4.9934973000000005"><ele>73.97</ele></trkpt>
<trkpt lat="58.169129600000005" lon="-4.9940711"><ele>73.8</ele></trkpt>
<trkpt lat="58.169318999999994" lon="-4.9944426"><ele>73.75</ele></trkpt>
<trkpt lat="58.1694195" lon="-4.9947194"><ele>73.71</ele></trkpt>
<trkpt lat="58.1694989" lon="-4.9950243"><ele>73.66</ele></trkpt>
<trkpt lat="58.169568399999996" lon="-4.9954552"><ele>73.56</ele></trkpt>
<trkpt lat="58.169661700000006" lon="-4.996335"><ele>73.45</ele></trkpt>
<trkpt lat="58.169791399999994" lon="-4.9975628"><ele>74.23</ele></trkpt>
<trkpt lat="58.16987640000001" lon="-4.998024"><ele>74.66</ele></trkpt>
<trkpt lat="58.169976" lon="-4.998360600000001"><ele>74.83</ele></trkpt>
<trkpt lat="58.1701767" lon="-4.998793399999999"><ele>74.66</ele></trkpt>
<trkpt lat="58.1705864" lon="-4.999505699999999"><ele>73.69</ele></trkpt>
<trkpt lat="58.1712114" lon="-5.0005614000000005"><ele>72.75</ele></trkpt>
<trkpt lat="58.17147450000001" lon="-5.000976800000001"><ele>72.28</ele></trkpt>
<trkpt lat="58.1716214" lon="-5.001185499999999"><ele>71.94</ele></trkpt>
<trkpt lat="58.17235110000001" lon="-5.0021347"><ele>70.68</ele></trkpt>
<trkpt lat="58.17280860000001" lon="-5.0029157"><ele>72.03</ele></trkpt>
<trkpt lat="58.172881700000005" lon="-5.0029512"><ele>72.36</ele></trkpt>
<trkpt lat="58.173266100000006" lon="-5.002758799999999"><ele>74.56</ele></trkpt>
<trkpt lat="58.1738791" lon="-5.002443199999999"><ele>79.29</ele></trkpt>
<trkpt lat="58.1742612" lon="-5.0023706"><ele>82.45</ele></trkpt>
<trkpt lat="58.1747957" lon="-5.0023219999999995"><ele>87.11</ele></trkpt>
<trkpt lat="58.17502019999999" lon="-5.0023715"><ele>89.09</ele></trkpt>
<trkpt lat="58.175231999999994" lon="-5.002482799999999"><ele>90.96</ele></trkpt>
<trkpt lat="58.1754112" lon="-5.002623699999999"><ele>92.56</ele></trkpt>
<trkpt lat="58.17587" lon="-5.003125"><ele>96.82</ele></trkpt>
<trkpt lat="58.1766496" lon="-5.0039576"><ele>103.99</ele></trkpt>
<trkpt lat="58.1768354" lon="-5.0040779"><ele>105.43</ele></trkpt>
<trkpt lat="58.176969" lon="-5.0041096000000005"><ele>106.32</ele></trkpt>
<trkpt lat="58.1771114" lon="-5.0040988"><ele>107.16</ele></trkpt>
<trkpt lat="58.1772645" lon="-5.0040305"><ele>107.95</ele></trkpt>
<trkpt lat="58.177374" lon="-5.0039421"><ele>108.47</ele></trkpt>
<trkpt lat="58.1779968" lon="-5.0032277"><ele>111.07</ele></trkpt>
<trkpt lat="58.1782209" lon="-5.0030335"><ele>112</ele></trkpt>
<trkpt lat="58.1784704" lon="-5.0029357"><ele>113.14</ele></trkpt>
<trkpt lat="58.1787394" lon="-5.002936400000001"><ele>114.7</ele></trkpt>
<trkpt lat="58.179538900000004" lon="-5.003250700000001"><ele>121.17</ele></trkpt>
<trkpt lat="58.1798379" lon="-5.003524299999999"><ele>123.72</ele></trkpt>
<trkpt lat="58.18010279999999" lon="-5.003923899999999"><ele>125.93</ele></trkpt>
<trkpt lat="58.1804662" lon="-5.004734799999999"><ele>129.01</ele></trkpt>
<trkpt lat="58.180677999999986" lon="-5.0051635"><ele>130.7</ele></trkpt>
<trkpt lat="58.1807991" lon="-5.0053143"><ele>131.53</ele></trkpt>
<trkpt lat="58.1809933" lon="-5.0054681"><ele>132.81</ele></trkpt>
<trkpt lat="58.1812911" lon="-5.005488999999999"><ele>134.79</ele></trkpt>
<trkpt lat="58.182063299999996" lon="-5.005400000000001"><ele>140.43</ele></trkpt>
<trkpt lat="58.183494800000005" lon="-5.0052312"><ele>152.45</ele></trkpt>
<trkpt lat="58.1837334" lon="-5.005228300000001"><ele>154.62</ele></trkpt>
<trkpt lat="58.18386029999999" lon="-5.0052595"><ele>155.83</ele></trkpt>
<trkpt lat="58.18396959999999" lon="-5.0053321"><ele>156.96</ele></trkpt>
<trkpt lat="58.1841095" lon="-5.0055154"><ele>158.66</ele></trkpt>
<trkpt lat="58.1843649" lon="-5.0060157"><ele>162.36</ele></trkpt>
<trkpt lat="58.18449940000001" lon="-5.0064005"><ele>164.75</ele></trkpt>
<trkpt lat="58.1845457" lon="-5.006623300000001"><ele>165.96</ele></trkpt>
<trkpt lat="58.1847123" lon="-5.0076029"><ele>170.83</ele></trkpt>
<trkpt lat="58.1847834" lon="-5.0078800999999995"><ele>172.17</ele></trkpt>
<trkpt lat="58.1850376" lon="-5.0086939"><ele>175.75</ele></trkpt>
<trkpt lat="58.1852959" lon="-5.0093081"><ele>178.24</ele></trkpt>
<trkpt lat="58.1854992" lon="-5.0096963"><ele>179.95</ele></trkpt>
<trkpt lat="58.18576310000001" lon="-5.0101108"><ele>182.22</ele></trkpt>
<trkpt lat="58.18615329999999" lon="-5.0105826"><ele>185.65</ele></trkpt>
<trkpt lat="58.18666" lon="-5.0110728"><ele>189.9</ele></trkpt>
<trkpt lat="58.1873397" lon="-5.011732"><ele>196.31</ele></trkpt>
<trkpt lat="58.187962" lon="-5.0125386"><ele>203.13</ele></trkpt>
<trkpt lat="58.1881175" lon="-5.0127186"><ele>204.73</ele></trkpt>
<trkpt lat="58.18873849999999" lon="-5.013351299999998"><ele>210.75</ele></trkpt>
<trkpt lat="58.18936530000001" lon="-5.014222000000001"><ele>217.62</ele></trkpt>
<trkpt lat="58.1894454" lon="-5.0143031"><ele>218.5</ele></trkpt>
<trkpt lat="58.1896493" lon="-5.0144428"><ele>220.65</ele></trkpt>
<trkpt lat="58.189916399999994" lon="-5.0144446"><ele>223.27</ele></trkpt>
<trkpt lat="58.1903521" lon="-5.0141682"><ele>227.37</ele></trkpt>
<trkpt lat="58.1911094" lon="-5.013653"><ele>232.52</ele></trkpt>
<trkpt lat="58.1925717" lon="-5.013086"><ele>238.38</ele></trkpt>
<trkpt lat="58.192957699999994" lon="-5.012813999999999"><ele>239.69</ele></trkpt>
<trkpt lat="58.1933283" lon="-5.012469500000001"><ele>240.76</ele></trkpt>
<trkpt lat="58.1942045" lon="-5.0114433"><ele>242.84</ele></trkpt>
<trkpt lat="58.1944311" lon="-5.0112586"><ele>243.34</ele></trkpt>
<trkpt lat="58.19455189999999" lon="-5.011187500000001"><ele>243.61</ele></trkpt>
<trkpt lat="58.19517819999999" lon="-5.0109792"><ele>245.04</ele></trkpt>
<trkpt lat="58.195901199999994" lon="-5.0106305"><ele>246.77</ele></trkpt>
<trkpt lat="58.1965889" lon="-5.010372800000001"><ele>247.89</ele></trkpt>
<trkpt lat="58.1979016" lon="-5.010230900000001"><ele>248.86</ele></trkpt>
<trkpt lat="58.19890360000001" lon="-5.0102282"><ele>249.59</ele></trkpt>
<trkpt lat="58.1992586" lon="-5.0100862"><ele>249.94</ele></trkpt>
<trkpt lat="58.1995107" lon="-5.0098991"><ele>250.21</ele></trkpt>
<trkpt lat="58.1996926" lon="-5.009615400000001"><ele>250.45</ele></trkpt>
<trkpt lat="58.200035" lon="-5.008715"><ele>251.08</ele></trkpt>
<trkpt lat="58.2003372" lon="-5.007902600000001"><ele>251.78</ele></trkpt>
<trkpt lat="58.20049430000001" lon="-5.0076529"><ele>252.11</ele></trkpt>
<trkpt lat="58.200635" lon="-5.0075085"><ele>252.39</ele></trkpt>
<trkpt lat="58.2008852" lon="-5.0073591"><ele>252.89</ele></trkpt>
<trkpt lat="58.2014525" lon="-5.0071863"><ele>254.01</ele></trkpt>
<trkpt lat="58.2020907" lon="-5.006831499999999"><ele>255.31</ele></trkpt>
<trkpt lat="58.202372200000006" lon="-5.0068499"><ele>255.88</ele></trkpt>
<trkpt lat="58.203064399999995" lon="-5.0069711"><ele>257.33</ele></trkpt>
<trkpt lat="58.203278100000006" lon="-5.006900400000001"><ele>257.76</ele></trkpt>
<trkpt lat="58.2034865" lon="-5.0067178"><ele>258.16</ele></trkpt>
<trkpt lat="58.204567000000004" lon="-5.0054585"><ele>259.95</ele></trkpt>
<trkpt lat="58.2046947" lon="-5.005328799999999"><ele>260.17</ele></trkpt>
<trkpt lat="58.2050155" lon="-5.0051139"><ele>260.78</ele></trkpt>
<trkpt lat="58.2053713" lon="-5.004951"><ele>261.51</ele></trkpt>
<trkpt lat="58.2060661" lon="-5.0047329"><ele>262.85</ele></trkpt>
<trkpt lat="58.206299200000004" lon="-5.0045865"><ele>263.14</ele></trkpt>
<trkpt lat="58.206415" lon="-5.004464800000001"><ele>263.2</ele></trkpt>
<trkpt lat="58.20654980000001" lon="-5.0042594"><ele>263.18</ele></trkpt>
<trkpt lat="58.207297399999995" lon="-5.0027611"><ele>261.77</ele></trkpt>
<trkpt lat="58.2074658" lon="-5.002501099999999"><ele>261.41</ele></trkpt>
<trkpt lat="58.2076611" lon="-5.002321399999999"><ele>261.07</ele></trkpt>
<trkpt lat="58.2081956" lon="-5.001982600000001"><ele>260.2</ele></trkpt>
<trkpt lat="58.20845849999999" lon="-5.0017369"><ele>259.65</ele></trkpt>
<trkpt lat="58.208934" lon="-5.001059"><ele>258.04</ele></trkpt>
<trkpt lat="58.2092874" lon="-5.0005626"><ele>256.44</ele></trkpt>
<trkpt lat="58.2097277" lon="-4.9999866"><ele>254.2</ele></trkpt>
<trkpt lat="58.210508099999984" lon="-4.9994912"><ele>250.33</ele></trkpt>
<trkpt lat="58.2113217" lon="-4.9989798"><ele>245.81</ele></trkpt>
<trkpt lat="58.212327300000005" lon="-4.9984319"><ele>241.14</ele></trkpt>
<trkpt lat="58.21272170000002" lon="-4.998239999999999"><ele>239.79</ele></trkpt>
<trkpt lat="58.21418" lon="-4.9976707"><ele>235.94</ele></trkpt>
<trkpt lat="58.21491780000001" lon="-4.997443299999999"><ele>234.08</ele></trkpt>
<trkpt lat="58.2158336" lon="-4.9971623"><ele>230.96</ele></trkpt>
<trkpt lat="58.2160292" lon="-4.9971515"><ele>230.01</ele></trkpt>
<trkpt lat="58.2161801" lon="-4.9972151"><ele>229.09</ele></trkpt>
<trkpt lat="58.2162817" lon="-4.99736"><ele>228.21</ele></trkpt>
<trkpt lat="58.2163565" lon="-4.9976277"><ele>226.97</ele></trkpt>
<trkpt lat="58.216368" lon="-4.9978635"><ele>225.92</ele></trkpt>
<trkpt lat="58.216346899999984" lon="-4.998258899999999"><ele>224.07</ele></trkpt>
<trkpt lat="58.2161839" lon="-4.999330699999999"><ele>219</ele></trkpt>
<trkpt lat="58.2160841" lon="-5.0000432"><ele>216.02</ele></trkpt>
<trkpt lat="58.2160929" lon="-5.0003398"><ele>214.85</ele></trkpt>
<trkpt lat="58.2161659" lon="-5.0006487"><ele>213.49</ele></trkpt>
<trkpt lat="58.216257" lon="-5.000765799999999"><ele>212.64</ele></trkpt>
<trkpt lat="58.216335699999995" lon="-5.0007842"><ele>212.01</ele></trkpt>
<trkpt lat="58.2165176" lon="-5.0006466"><ele>210.39</ele></trkpt>
<trkpt lat="58.2165981" lon="-5.0004877"><ele>209.4</ele></trkpt>
<trkpt lat="58.2166763" lon="-5.000192899999999"><ele>207.84</ele></trkpt>
<trkpt lat="58.21676459999999" lon="-4.999605800000001"><ele>204.79</ele></trkpt>
<trkpt lat="58.216892" lon="-4.9991917"><ele>202.24</ele></trkpt>
<trkpt lat="58.2169925" lon="-4.9990471"><ele>200.94</ele></trkpt>
<trkpt lat="58.2171408" lon="-4.998927899999999"><ele>199.29</ele></trkpt>
<trkpt lat="58.2173338" lon="-4.9988835"><ele>197.32</ele></trkpt>
<trkpt lat="58.2176477" lon="-4.998849"><ele>194.2</ele></trkpt>
<trkpt lat="58.21792249999999" lon="-4.9987629"><ele>191.45</ele></trkpt>
<trkpt lat="58.2180886" lon="-4.998654100000001"><ele>189.73</ele></trkpt>
<trkpt lat="58.218235699999994" lon="-4.9984893"><ele>188.1</ele></trkpt>
<trkpt lat="58.2186798" lon="-4.9978826"><ele>183.35</ele></trkpt>
<trkpt lat="58.2188457" lon="-4.997704900000001"><ele>181.93</ele></trkpt>
<trkpt lat="58.2190227" lon="-4.997565900000001"><ele>180.63</ele></trkpt>
<trkpt lat="58.2191626" lon="-4.9975085"><ele>179.73</ele></trkpt>
<trkpt lat="58.21931730000001" lon="-4.997486"><ele>178.81</ele></trkpt>
<trkpt lat="58.21951849999999" lon="-4.9975274"><ele>177.68</ele></trkpt>
<trkpt lat="58.2197654" lon="-4.997696999999999"><ele>176.24</ele></trkpt>
<trkpt lat="58.220365" lon="-4.998267"><ele>172.94</ele></trkpt>
<trkpt lat="58.22062079999999" lon="-4.998507799999999"><ele>172.01</ele></trkpt>
<trkpt lat="58.221245" lon="-4.99888"><ele>170.74</ele></trkpt>
<trkpt lat="58.222181199999994" lon="-4.9994268"><ele>170.03</ele></trkpt>
<trkpt lat="58.22232890000001" lon="-4.999553"><ele>170</ele></trkpt>
<trkpt lat="58.2225584" lon="-4.9998785"><ele>170.03</ele></trkpt>
<trkpt lat="58.2227096" lon="-5.000210399999999"><ele>170.07</ele></trkpt>
<trkpt lat="58.22304499999999" lon="-5.001334999999999"><ele>169.95</ele></trkpt>
<trkpt lat="58.22332620000001" lon="-5.002304199999999"><ele>168.52</ele></trkpt>
<trkpt lat="58.22338860000001" lon="-5.0024554"><ele>168.07</ele></trkpt>
<trkpt lat="58.22356580000001" lon="-5.002737999999999"><ele>166.71</ele></trkpt>
<trkpt lat="58.22364119999999" lon="-5.002786599999999"><ele>166.15</ele></trkpt>
<trkpt lat="58.22381899999999" lon="-5.0027989"><ele>164.74</ele></trkpt>
<trkpt lat="58.2245763" lon="-5.0023003"><ele>157.73</ele></trkpt>
<trkpt lat="58.224669999999996" lon="-5.0022595"><ele>156.96</ele></trkpt>
<trkpt lat="58.22488049999999" lon="-5.002293"><ele>155.45</ele></trkpt>
<trkpt lat="58.2250285" lon="-5.0024231"><ele>154.5</ele></trkpt>
<trkpt lat="58.2252815" lon="-5.0028439"><ele>153.22</ele></trkpt>
<trkpt lat="58.22566629999999" lon="-5.0035692"><ele>152.19</ele></trkpt>
<trkpt lat="58.22596010000001" lon="-5.004445399999999"><ele>151.54</ele></trkpt>
<trkpt lat="58.226228500000005" lon="-5.005273"><ele>150.96</ele></trkpt>
<trkpt lat="58.226427599999994" lon="-5.0057634"><ele>150.53</ele></trkpt>
<trkpt lat="58.2265976" lon="-5.006084700000001"><ele>150.14</ele></trkpt>
<trkpt lat="58.2267695" lon="-5.006333500000001"><ele>149.7</ele></trkpt>
<trkpt lat="58.2274395" lon="-5.006939199999999"><ele>147.74</ele></trkpt>
<trkpt lat="58.228093400000006" lon="-5.0074956"><ele>144.45</ele></trkpt>
<trkpt lat="58.2288715" lon="-5.008156"><ele>138.15</ele></trkpt>
<trkpt lat="58.228992299999994" lon="-5.008228300000002"><ele>137.17</ele></trkpt>
<trkpt lat="58.229719700000004" lon="-5.0085261"><ele>131.55</ele></trkpt>
<trkpt lat="58.229864199999994" lon="-5.0086315"><ele>130.29</ele></trkpt>
<trkpt lat="58.2300001" lon="-5.0087744"><ele>128.94</ele></trkpt>
<trkpt lat="58.230515099999984" lon="-5.0095299"><ele>122.74</ele></trkpt>
<trkpt lat="58.2308224" lon="-5.0099301999999994"><ele>119.03</ele></trkpt>
<trkpt lat="58.231576999999994" lon="-5.010344300000001"><ele>111.49</ele></trkpt>
<trkpt lat="58.2317415" lon="-5.010466300000001"><ele>109.99</ele></trkpt>
<trkpt lat="58.231991099999995" lon="-5.010793500000001"><ele>107.63</ele></trkpt>
<trkpt lat="58.2324208" lon="-5.0115132"><ele>103.38</ele></trkpt>
<trkpt lat="58.2325462" lon="-5.0117362"><ele>102.03</ele></trkpt>
<trkpt lat="58.2327055" lon="-5.0122092"><ele>99.54</ele></trkpt>
<trkpt lat="58.2330056" lon="-5.013363100000001"><ele>93.6</ele></trkpt>
<trkpt lat="58.233175100000004" lon="-5.013763300000001"><ele>91.46</ele></trkpt>
<trkpt lat="58.2334078" lon="-5.0141853"><ele>89.25</ele></trkpt>
<trkpt lat="58.23372999999999" lon="-5.0147408"><ele>86.64</ele></trkpt>
<trkpt lat="58.2339389" lon="-5.014958"><ele>85.27</ele></trkpt>
<trkpt lat="58.23408409999999" lon="-5.0150372"><ele>84.4</ele></trkpt>
<trkpt lat="58.2342177" lon="-5.015054200000001"><ele>83.63</ele></trkpt>
<trkpt lat="58.23439030000001" lon="-5.015009"><ele>82.6</ele></trkpt>
<trkpt lat="58.234587499999996" lon="-5.0149109"><ele>81.4</ele></trkpt>
<trkpt lat="58.234793899999985" lon="-5.0147388"><ele>80.08</ele></trkpt>
<trkpt lat="58.2349699" lon="-5.0145218"><ele>78.85</ele></trkpt>
<trkpt lat="58.235926000000006" lon="-5.0132351"><ele>72.47</ele></trkpt>
<trkpt lat="58.23608289999999" lon="-5.012954400000001"><ele>71.59</ele></trkpt>
<trkpt lat="58.2366016" lon="-5.0117307"><ele>69.09</ele></trkpt>
<trkpt lat="58.2371438" lon="-5.0107687"><ele>67.18</ele></trkpt>
<trkpt lat="58.2373409" lon="-5.010534600000001"><ele>66.69</ele></trkpt>
<trkpt lat="58.23748099999999" lon="-5.010447500000001"><ele>66.45</ele></trkpt>
<trkpt lat="58.2376295" lon="-5.0104395"><ele>66.25</ele></trkpt>
<trkpt lat="58.238250300000004" lon="-5.0107352"><ele>65.65</ele></trkpt>
<trkpt lat="58.238496" lon="-5.0107687"><ele>65.43</ele></trkpt>
<trkpt lat="58.2388887" lon="-5.0106688"><ele>64.99</ele></trkpt>
<trkpt lat="58.23944289999999" lon="-5.010425900000002"><ele>63.92</ele></trkpt>
<trkpt lat="58.23999870000001" lon="-5.0101732"><ele>61.63</ele></trkpt>
<trkpt lat="58.2403557" lon="-5.0098296"><ele>59.09</ele></trkpt>
<trkpt lat="58.24094879999999" lon="-5.0091207"><ele>53.96</ele></trkpt>
<trkpt lat="58.241492099999995" lon="-5.0084179"><ele>48.92</ele></trkpt>
<trkpt lat="58.2420478" lon="-5.007724800000001"><ele>43.99</ele></trkpt>
<trkpt lat="58.2423262" lon="-5.0072033"><ele>41.09</ele></trkpt>
<trkpt lat="58.2428417" lon="-5.0058647"><ele>34.86</ele></trkpt>
<trkpt lat="58.2429728" lon="-5.0055347999999995"><ele>33.6</ele></trkpt>
<trkpt lat="58.2431737" lon="-5.005193"><ele>32.31</ele></trkpt>
<trkpt lat="58.24366380000001" lon="-5.0045687999999995"><ele>30.34</ele></trkpt>
<trkpt lat="58.2441309" lon="-5.0040079"><ele>28.99</ele></trkpt>
<trkpt lat="58.244353999999994" lon="-5.0038765000000005"><ele>28.38</ele></trkpt>
<trkpt lat="58.24453660000002" lon="-5.003880399999999"><ele>27.86</ele></trkpt>
<trkpt lat="58.24465" lon="-5.0039374"><ele>27.5</ele></trkpt>
<trkpt lat="58.2447989" lon="-5.0040721"><ele>26.96</ele></trkpt>
<trkpt lat="58.24544590000001" lon="-5.004925300000001"><ele>24.13</ele></trkpt>
<trkpt lat="58.24558789999999" lon="-5.005053"><ele>23.54</ele></trkpt>
<trkpt lat="58.2457003" lon="-5.0051033"><ele>23.1</ele></trkpt>
<trkpt lat="58.2458606" lon="-5.005086600000001"><ele>22.52</ele></trkpt>
<trkpt lat="58.246016600000004" lon="-5.0050183"><ele>21.99</ele></trkpt>
<trkpt lat="58.2463961" lon="-5.004815"><ele>20.95</ele></trkpt>
<trkpt lat="58.2466244" lon="-5.0047436"><ele>20.57</ele></trkpt>
<trkpt lat="58.24683609999999" lon="-5.0047405"><ele>20.42</ele></trkpt>
<trkpt lat="58.24710640000001" lon="-5.0048357"><ele>20.51</ele></trkpt>
<trkpt lat="58.2474285" lon="-5.005091000000001"><ele>21</ele></trkpt>
<trkpt lat="58.24784089999999" lon="-5.005533000000001"><ele>22.14</ele></trkpt>
<trkpt lat="58.2483375" lon="-5.0061873"><ele>24.09</ele></trkpt>
<trkpt lat="58.2485822" lon="-5.0065341"><ele>25.26</ele></trkpt>
<trkpt lat="58.2491127" lon="-5.007355799999999"><ele>28.42</ele></trkpt>
<trkpt lat="58.2494272" lon="-5.007865"><ele>31.23</ele></trkpt>
<trkpt lat="58.249807000000004" lon="-5.0088247"><ele>37.1</ele></trkpt>
<trkpt lat="58.249920100000004" lon="-5.0093393"><ele>40.04</ele></trkpt>
<trkpt lat="58.2500203" lon="-5.0112369"><ele>49.56</ele></trkpt>
<trkpt lat="58.2501014" lon="-5.012289599999998"><ele>53.21</ele></trkpt>
<trkpt lat="58.250184299999994" lon="-5.012792899999999"><ele>54.19</ele></trkpt>
<trkpt lat="58.2504936" lon="-5.014638099999999"><ele>55.89</ele></trkpt>
<trkpt lat="58.2506719" lon="-5.0157027"><ele>56.24</ele></trkpt>
<trkpt lat="58.250735999999996" lon="-5.0161228"><ele>56</ele></trkpt>
<trkpt lat="58.25091069999999" lon="-5.0167656"><ele>54.6</ele></trkpt>
<trkpt lat="58.251227300000004" lon="-5.0175761"><ele>50.36</ele></trkpt>
<trkpt lat="58.2514298" lon="-5.0181627"><ele>46.27</ele></trkpt>
<trkpt lat="58.251709299999995" lon="-5.0192056"><ele>39.04</ele></trkpt>
<trkpt lat="58.2519649" lon="-5.0200029"><ele>33.94</ele></trkpt>
<trkpt lat="58.2523655" lon="-5.0210441"><ele>27.72</ele></trkpt>
<trkpt lat="58.252449999999996" lon="-5.0212131"><ele>26.78</ele></trkpt>
<trkpt lat="58.25279179999999" lon="-5.0217446"><ele>24.15</ele></trkpt>
<trkpt lat="58.2531599" lon="-5.0221031"><ele>22.92</ele></trkpt>
<trkpt lat="58.253392000000005" lon="-5.0223016000000005"><ele>22.71</ele></trkpt>
<trkpt lat="58.2536455" lon="-5.0224702"><ele>22.91</ele></trkpt>
<trkpt lat="58.2540809" lon="-5.0225674"><ele>23.92</ele></trkpt>
<trkpt lat="58.254350099999996" lon="-5.0225381"><ele>24.91</ele></trkpt>
<trkpt lat="58.2551419" lon="-5.022297000000001"><ele>28.51</ele></trkpt>
<trkpt lat="58.25549070000001" lon="-5.0222636"><ele>29.95</ele></trkpt>
<trkpt lat="58.2558969" lon="-5.0223807"><ele>31.32</ele></trkpt>
<trkpt lat="58.25618" lon="-5.022522299999999"><ele>32.01</ele></trkpt>
<trkpt lat="58.2565322" lon="-5.0228032"><ele>32.49</ele></trkpt>
<trkpt lat="58.2568945" lon="-5.0231464"><ele>32.56</ele></trkpt>
<trkpt lat="58.257081200000016" lon="-5.0233924"><ele>32.44</ele></trkpt>
<trkpt lat="58.2574034" lon="-5.0238691"><ele>32.03</ele></trkpt>
<trkpt lat="58.257549299999994" lon="-5.024167299999999"><ele>31.78</ele></trkpt>
<trkpt lat="58.25764230000001" lon="-5.024417800000001"><ele>31.59</ele></trkpt>
<trkpt lat="58.257756" lon="-5.024827"><ele>31.34</ele></trkpt>
<trkpt lat="58.2578011" lon="-5.0250627"><ele>31.23</ele></trkpt>
<trkpt lat="58.2578537" lon="-5.0255327"><ele>31.08</ele></trkpt>
<trkpt lat="58.2578553" lon="-5.026136999999999"><ele>31.01</ele></trkpt>
<trkpt lat="58.257797" lon="-5.026663"><ele>31.06</ele></trkpt>
<trkpt lat="58.2576914" lon="-5.027133200000001"><ele>31.22</ele></trkpt>
<trkpt lat="58.2575775" lon="-5.0274421"><ele>31.39</ele></trkpt>
<trkpt lat="58.25739680000001" lon="-5.0278175"><ele>31.68</ele></trkpt>
<trkpt lat="58.256891899999985" lon="-5.028760500000001"><ele>32.31</ele></trkpt>
<trkpt lat="58.2566731" lon="-5.0293507"><ele>31.85</ele></trkpt>
<trkpt lat="58.256607499999994" lon="-5.029645500000001"><ele>31.26</ele></trkpt>
<trkpt lat="58.2565702" lon="-5.0298997"><ele>30.57</ele></trkpt>
<trkpt lat="58.256543300000004" lon="-5.030306"><ele>29.17</ele></trkpt>
<trkpt lat="58.25654870000002" lon="-5.0305784"><ele>28.05</ele></trkpt>
<trkpt lat="58.2565842" lon="-5.0309692"><ele>26.17</ele></trkpt>
<trkpt lat="58.256626699999984" lon="-5.031170100000001"><ele>25.04</ele></trkpt>
<trkpt lat="58.2568814" lon="-5.0321199"><ele>19.05</ele></trkpt>
<trkpt lat="58.257079900000015" lon="-5.032679699999999"><ele>15.21</ele></trkpt>
<trkpt lat="58.25716659999999" lon="-5.0329646"><ele>13.44</ele></trkpt>
<trkpt lat="58.25738310000001" lon="-5.0338658999999994"><ele>9</ele></trkpt>
<trkpt lat="58.257586299999986" lon="-5.034943700000001"><ele>5.2</ele></trkpt>
<trkpt lat="58.2577264" lon="-5.0354196"><ele>3.82</ele></trkpt>
<trkpt lat="58.2578523" lon="-5.0357312"><ele>3.11</ele></trkpt>
<trkpt lat="58.25797810000001" lon="-5.0359652"><ele>2.72</ele></trkpt>
<trkpt lat="58.25812210000001" lon="-5.0361686"><ele>2.51</ele></trkpt>
<trkpt lat="58.2583435" lon="-5.0363718"><ele>2.53</ele></trkpt>
<trkpt lat="58.2585829" lon="-5.0365186"><ele>2.87</ele></trkpt>
<trkpt lat="58.2590616" lon="-5.0367937"><ele>4.35</ele></trkpt>
<trkpt lat="58.2592679" lon="-5.036957100000002"><ele>5.38</ele></trkpt>
<trkpt lat="58.2595033" lon="-5.0372734"><ele>7</ele></trkpt>
<trkpt lat="58.260102499999995" lon="-5.0383256"><ele>12.77</ele></trkpt>
<trkpt lat="58.26034159999998" lon="-5.0386034"><ele>15.29</ele></trkpt>
<trkpt lat="58.260674099999996" lon="-5.03882"><ele>18.77</ele></trkpt>
<trkpt lat="58.2613841" lon="-5.039098199999999"><ele>26.34</ele></trkpt>
<trkpt lat="58.26154859999999" lon="-5.039223699999999"><ele>28.23</ele></trkpt>
<trkpt lat="58.261891100000014" lon="-5.039604700000001"><ele>32.42</ele></trkpt>
<trkpt lat="58.2622787" lon="-5.0401956"><ele>36.94</ele></trkpt>
<trkpt lat="58.26252410000001" lon="-5.040491"><ele>38.98</ele></trkpt>
<trkpt lat="58.2627846" lon="-5.0407016"><ele>40.68</ele></trkpt>
<trkpt lat="58.262978499999996" lon="-5.0407684"><ele>41.78</ele></trkpt>
<trkpt lat="58.2632033" lon="-5.0407686"><ele>42.98</ele></trkpt>
<trkpt lat="58.2639625" lon="-5.0406580000000005"><ele>46.96</ele></trkpt>
<trkpt lat="58.2640653" lon="-5.0406647"><ele>47.52</ele></trkpt>
<trkpt lat="58.2642678" lon="-5.0407468"><ele>48.66</ele></trkpt>
<trkpt lat="58.2644678" lon="-5.0408696"><ele>49.84</ele></trkpt>
<trkpt lat="58.264911300000016" lon="-5.0411725"><ele>52.5</ele></trkpt>
<trkpt lat="58.26545879999999" lon="-5.041641900000001"><ele>55.97</ele></trkpt>
<trkpt lat="58.26590649999999" lon="-5.0421777"><ele>59.26</ele></trkpt>
<trkpt lat="58.2660708" lon="-5.0424434"><ele>60.69</ele></trkpt>
<trkpt lat="58.2663987" lon="-5.043110400000001"><ele>63.92</ele></trkpt>
<trkpt lat="58.2665681" lon="-5.0435799"><ele>65.9</ele></trkpt>
<trkpt lat="58.2667105" lon="-5.0440863"><ele>67.88</ele></trkpt>
<trkpt lat="58.26683719999999" lon="-5.0446788"><ele>70.15</ele></trkpt>
<trkpt lat="58.2669281" lon="-5.0452973"><ele>72.59</ele></trkpt>
<trkpt lat="58.26701" lon="-5.046705700000001"><ele>78.79</ele></trkpt>
<trkpt lat="58.26707060000001" lon="-5.0477623"><ele>84.47</ele></trkpt>
<trkpt lat="58.2671936" lon="-5.0492181"><ele>92.53</ele></trkpt>
<trkpt lat="58.2672437" lon="-5.0494793"><ele>93.86</ele></trkpt>
<trkpt lat="58.2675903" lon="-5.0511472"><ele>101.36</ele></trkpt>
<trkpt lat="58.26785780000001" lon="-5.0521437"><ele>104.71</ele></trkpt>
<trkpt lat="58.2679726" lon="-5.0525569"><ele>105.62</ele></trkpt>
<trkpt lat="58.2681828" lon="-5.053080999999999"><ele>106.39</ele></trkpt>
<trkpt lat="58.2684593" lon="-5.0537559"><ele>106.43</ele></trkpt>
<trkpt lat="58.26867260000001" lon="-5.054173"><ele>105.8</ele></trkpt>
<trkpt lat="58.269124999999995" lon="-5.0549313"><ele>103.72</ele></trkpt>
<trkpt lat="58.269467099999986" lon="-5.055421999999999"><ele>102.02</ele></trkpt>
<trkpt lat="58.2696673" lon="-5.0556662"><ele>101.15</ele></trkpt>
<trkpt lat="58.27008" lon="-5.0561378"><ele>99.82</ele></trkpt>
<trkpt lat="58.2704396" lon="-5.0564356"><ele>99.08</ele></trkpt>
<trkpt lat="58.2710094" lon="-5.056870700000002"><ele>98.17</ele></trkpt>
<trkpt lat="58.2714101" lon="-5.0572201"><ele>97.53</ele></trkpt>
<trkpt lat="58.272130000000004" lon="-5.0579011"><ele>96.27</ele></trkpt>
<trkpt lat="58.2728202" lon="-5.0586514"><ele>94.96</ele></trkpt>
<trkpt lat="58.27512740000002" lon="-5.0614678"><ele>90.31</ele></trkpt>
<trkpt lat="58.27545" lon="-5.061906"><ele>89.86</ele></trkpt>
<trkpt lat="58.2761823" lon="-5.062924499999999"><ele>89.25</ele></trkpt>
<trkpt lat="58.2774084" lon="-5.0648894"><ele>87.85</ele></trkpt>
<trkpt lat="58.2784357" lon="-5.066891400000001"><ele>85.3</ele></trkpt>
<trkpt lat="58.2789095" lon="-5.067837100000001"><ele>83.58</ele></trkpt>
<trkpt lat="58.279321100000004" lon="-5.0685496"><ele>81.9</ele></trkpt>
<trkpt lat="58.279890099999996" lon="-5.0693681"><ele>79.57</ele></trkpt>
<trkpt lat="58.2808207" lon="-5.070468699999999"><ele>75.86</ele></trkpt>
<trkpt lat="58.2817894" lon="-5.071368"><ele>72.33</ele></trkpt>
<trkpt lat="58.282310700000004" lon="-5.0717648"><ele>70.48</ele></trkpt>
<trkpt lat="58.283039599999995" lon="-5.0723524"><ele>67.76</ele></trkpt>
<trkpt lat="58.283714999999994" lon="-5.0730953"><ele>64.53</ele></trkpt>
<trkpt lat="58.284165" lon="-5.0735921"><ele>61.73</ele></trkpt>
<trkpt lat="58.28536509999999" lon="-5.0749173"><ele>53.4</ele></trkpt>
<trkpt lat="58.28551459999999" lon="-5.075094600000001"><ele>52.14</ele></trkpt>
<trkpt lat="58.2861094" lon="-5.075851999999999"><ele>45.91</ele></trkpt>
<trkpt lat="58.28671430000001" lon="-5.0768464"><ele>38.25</ele></trkpt>
<trkpt lat="58.287049299999985" lon="-5.0774014"><ele>34.93</ele></trkpt>
<trkpt lat="58.28753569999999" lon="-5.0783828"><ele>31.38</ele></trkpt>
<trkpt lat="58.2879004" lon="-5.0791193"><ele>30.22</ele></trkpt>
<trkpt lat="58.28835" lon="-5.0799276"><ele>30.88</ele></trkpt>
<trkpt lat="58.28893759999999" lon="-5.0807889"><ele>33.79</ele></trkpt>
<trkpt lat="58.2894796" lon="-5.0815519"><ele>38.94</ele></trkpt>
<trkpt lat="58.2898899" lon="-5.0823015"><ele>44.21</ele></trkpt>
<trkpt lat="58.2900792" lon="-5.0827068"><ele>46.82</ele></trkpt>
<trkpt lat="58.290258" lon="-5.0831931"><ele>49.48</ele></trkpt>
<trkpt lat="58.290379" lon="-5.0836716000000015"><ele>51.7</ele></trkpt>
<trkpt lat="58.290489" lon="-5.0842484"><ele>54.21</ele></trkpt>
<trkpt lat="58.2906581" lon="-5.085349"><ele>59.07</ele></trkpt>
<trkpt lat="58.290689099999994" lon="-5.085861300000001"><ele>61.42</ele></trkpt>
<trkpt lat="58.29069899999999" lon="-5.087354999999999"><ele>69</ele></trkpt>
<trkpt lat="58.290741100000005" lon="-5.088261"><ele>73.66</ele></trkpt>
<trkpt lat="58.2908715" lon="-5.0893139"><ele>78.66</ele></trkpt>
<trkpt lat="58.2909763" lon="-5.089915"><ele>81.42</ele></trkpt>
<trkpt lat="58.2911116" lon="-5.090499699999999"><ele>84</ele></trkpt>
<trkpt lat="58.29127849999999" lon="-5.091024700000001"><ele>86.11</ele></trkpt>
<trkpt lat="58.291527300000006" lon="-5.0916429999999995"><ele>87.98</ele></trkpt>
<trkpt lat="58.2917823" lon="-5.0921888"><ele>88.87</ele></trkpt>
<trkpt lat="58.2920041" lon="-5.092536999999999"><ele>89.1</ele></trkpt>
<trkpt lat="58.29251870000001" lon="-5.093299900000001"><ele>88.77</ele></trkpt>
<trkpt lat="58.293489900000004" lon="-5.0950101"><ele>87.37</ele></trkpt>
<trkpt lat="58.2939693" lon="-5.0958804"><ele>86.57</ele></trkpt>
<trkpt lat="58.294740800000014" lon="-5.0975239000000006"><ele>84.99</ele></trkpt>
<trkpt lat="58.295637200000016" lon="-5.0997583"><ele>81.84</ele></trkpt>
<trkpt lat="58.2961649" lon="-5.101074599999999"><ele>79.05</ele></trkpt>
<trkpt lat="58.29667220000001" lon="-5.1023126"><ele>76.18</ele></trkpt>
<trkpt lat="58.2973372" lon="-5.1034362"><ele>72.36</ele></trkpt>
<trkpt lat="58.2976677" lon="-5.104093499999999"><ele>70.01</ele></trkpt>
<trkpt lat="58.2978504" lon="-5.1046074"><ele>68.36</ele></trkpt>
<trkpt lat="58.2979556" lon="-5.1050292"><ele>67.06</ele></trkpt>
<trkpt lat="58.2980132" lon="-5.1053214"><ele>66.14</ele></trkpt>
<trkpt lat="58.298073" lon="-5.1057792"><ele>64.72</ele></trkpt>
<trkpt lat="58.29811180000001" lon="-5.1064296"><ele>62.78</ele></trkpt>
<trkpt lat="58.2981081" lon="-5.1067716"><ele>61.87</ele></trkpt>
<trkpt lat="58.2979992" lon="-5.1078783"><ele>59.88</ele></trkpt>
<trkpt lat="58.2979205" lon="-5.108670200000001"><ele>59.61</ele></trkpt>
<trkpt lat="58.2978849" lon="-5.109148200000001"><ele>59.99</ele></trkpt>
<trkpt lat="58.2978703" lon="-5.1096223"><ele>60.76</ele></trkpt>
<trkpt lat="58.29787730000001" lon="-5.1100229"><ele>61.74</ele></trkpt>
<trkpt lat="58.2979244" lon="-5.1107858"><ele>64.5</ele></trkpt>
<trkpt lat="58.2980022" lon="-5.1113754"><ele>67.37</ele></trkpt>
<trkpt lat="58.29809340000001" lon="-5.1118587"><ele>70.08</ele></trkpt>
<trkpt lat="58.2982406" lon="-5.1124427"><ele>73.62</ele></trkpt>
<trkpt lat="58.29846159999999" lon="-5.1130926"><ele>77.78</ele></trkpt>
<trkpt lat="58.298670900000005" lon="-5.113566399999998"><ele>80.92</ele></trkpt>
<trkpt lat="58.298996999999986" lon="-5.1141369"><ele>84.61</ele></trkpt>
<trkpt lat="58.2992275" lon="-5.1144676"><ele>86.54</ele></trkpt>
<trkpt lat="58.29965610000001" lon="-5.1148928"><ele>88.9</ele></trkpt>
<trkpt lat="58.2998262" lon="-5.1150267"><ele>89.47</ele></trkpt>
<trkpt lat="58.3000593" lon="-5.115167"><ele>89.92</ele></trkpt>
<trkpt lat="58.300655" lon="-5.1153844"><ele>89.72</ele></trkpt>
<trkpt lat="58.301165" lon="-5.1155681"><ele>88.09</ele></trkpt>
<trkpt lat="58.30150499999999" lon="-5.1156906"><ele>86.12</ele></trkpt>
<trkpt lat="58.3021" lon="-5.115905"><ele>81.46</ele></trkpt>
<trkpt lat="58.30261000000001" lon="-5.116088700000001"><ele>76.77</ele></trkpt>
<trkpt lat="58.30295" lon="-5.11622"><ele>72.97</ele></trkpt>
<trkpt lat="58.303458" lon="-5.1164312"><ele>66.5</ele></trkpt>
<trkpt lat="58.3039957" lon="-5.1167883"><ele>59.97</ele></trkpt>
<trkpt lat="58.3043417" lon="-5.117097899999999"><ele>56.1</ele></trkpt>
<trkpt lat="58.3046733" lon="-5.117462"><ele>52.4</ele></trkpt>
<trkpt lat="58.3049792" lon="-5.1178647999999995"><ele>48.93</ele></trkpt>
<trkpt lat="58.30519559999999" lon="-5.1182003"><ele>46.49</ele></trkpt>
<trkpt lat="58.305388199999996" lon="-5.1185404"><ele>44.43</ele></trkpt>
<trkpt lat="58.305627400000006" lon="-5.1189952"><ele>42.18</ele></trkpt>
<trkpt lat="58.3059086" lon="-5.119648499999999"><ele>39.98</ele></trkpt>
<trkpt lat="58.3062441" lon="-5.1205492"><ele>38.18</ele></trkpt>
<trkpt lat="58.3064323" lon="-5.121006000000001"><ele>37.48</ele></trkpt>
<trkpt lat="58.3066932" lon="-5.1214521"><ele>36.75</ele></trkpt>
<trkpt lat="58.306973799999994" lon="-5.121821300000001"><ele>36.12</ele></trkpt>
<trkpt lat="58.3071844" lon="-5.12201"><ele>35.79</ele></trkpt>
<trkpt lat="58.3073721" lon="-5.1221207"><ele>35.62</ele></trkpt>
<trkpt lat="58.30774950000001" lon="-5.122229"><ele>35.65</ele></trkpt>
<trkpt lat="58.308448099999985" lon="-5.1223699"><ele>37.11</ele></trkpt>
<trkpt lat="58.3091214" lon="-5.1225324"><ele>40.68</ele></trkpt>
<trkpt lat="58.30963990000001" lon="-5.1227711"><ele>43.97</ele></trkpt>
<trkpt lat="58.30998" lon="-5.12297"><ele>45.78</ele></trkpt>
<trkpt lat="58.31023879999999" lon="-5.1231373"><ele>46.73</ele></trkpt>
<trkpt lat="58.310680999999995" lon="-5.1234725"><ele>47.51</ele></trkpt>
<trkpt lat="58.3110803" lon="-5.1238025"><ele>47.1</ele></trkpt>
<trkpt lat="58.31133" lon="-5.1239667"><ele>46.23</ele></trkpt>
<trkpt lat="58.311669899999984" lon="-5.124161899999999"><ele>44.54</ele></trkpt>
<trkpt lat="58.31190070000001" lon="-5.1243143"><ele>43.16</ele></trkpt>
<trkpt lat="58.3124088" lon="-5.1244769"><ele>40.26</ele></trkpt>
<trkpt lat="58.312689999999996" lon="-5.12448"><ele>39.08</ele></trkpt>
<trkpt lat="58.31325079999999" lon="-5.124477700000001"><ele>37.8</ele></trkpt>
<trkpt lat="58.314051100000015" lon="-5.124291"><ele>38.74</ele></trkpt>
<trkpt lat="58.3146894" lon="-5.1241013"><ele>39.37</ele></trkpt>
<trkpt lat="58.3153303" lon="-5.1239044"><ele>38.01</ele></trkpt>
<trkpt lat="58.3157881" lon="-5.1237638"><ele>35.26</ele></trkpt>
<trkpt lat="58.3164291" lon="-5.1235669"><ele>30.29</ele></trkpt>
<trkpt lat="58.3171617" lon="-5.1233444"><ele>26.14</ele></trkpt>
<trkpt lat="58.3177117" lon="-5.1231911"><ele>25.12</ele></trkpt>
<trkpt lat="58.318305399999986" lon="-5.122992499999999"><ele>25.5</ele></trkpt>
<trkpt lat="58.31872" lon="-5.122916"><ele>26.23</ele></trkpt>
<trkpt lat="58.3189945" lon="-5.1229591"><ele>26.65</ele></trkpt>
<trkpt lat="58.3192803" lon="-5.123072"><ele>26.94</ele></trkpt>
<trkpt lat="58.3195485" lon="-5.1232409"><ele>27.01</ele></trkpt>
<trkpt lat="58.3198214" lon="-5.1234874"><ele>26.84</ele></trkpt>
<trkpt lat="58.3200824" lon="-5.1237846"><ele>26.46</ele></trkpt>
<trkpt lat="58.3205642" lon="-5.124439199999999"><ele>25.51</ele></trkpt>
<trkpt lat="58.321284800000015" lon="-5.1254347"><ele>24.29</ele></trkpt>
<trkpt lat="58.321423100000004" lon="-5.125653000000002"><ele>24.16</ele></trkpt>
<trkpt lat="58.32173770000001" lon="-5.1262188"><ele>24.24</ele></trkpt>
<trkpt lat="58.3223409" lon="-5.127651"><ele>25.31</ele></trkpt>
<trkpt lat="58.32258010000001" lon="-5.1281782"><ele>25.87</ele></trkpt>
<trkpt lat="58.32270969999999" lon="-5.128432"><ele>26.25</ele></trkpt>
<trkpt lat="58.323127400000004" lon="-5.1291629"><ele>27.7</ele></trkpt>
<trkpt lat="58.3238933" lon="-5.130503299999999"><ele>31.41</ele></trkpt>
<trkpt lat="58.3245194" lon="-5.131599900000001"><ele>32.61</ele></trkpt>
<trkpt lat="58.3249271" lon="-5.1323886"><ele>31.25</ele></trkpt>
<trkpt lat="58.32547079999999" lon="-5.1334439"><ele>26.49</ele></trkpt>
<trkpt lat="58.3258612" lon="-5.134339"><ele>21.09</ele></trkpt>
<trkpt lat="58.3261698" lon="-5.134896299999999"><ele>18.22</ele></trkpt>
<trkpt lat="58.32639800000001" lon="-5.135184199999999"><ele>17.03</ele></trkpt>
<trkpt lat="58.3266166" lon="-5.135368"><ele>16.39</ele></trkpt>
<trkpt lat="58.32679799999999" lon="-5.1354425"><ele>16.2</ele></trkpt>
<trkpt lat="58.3270155" lon="-5.1354444"><ele>16.34</ele></trkpt>
<trkpt lat="58.3274055" lon="-5.1353574"><ele>17.66</ele></trkpt>
<trkpt lat="58.3281094" lon="-5.135109999999999"><ele>22.5</ele></trkpt>
<trkpt lat="58.329076" lon="-5.1342947"><ele>31.01</ele></trkpt>
<trkpt lat="58.329381399999995" lon="-5.1341051"><ele>33.56</ele></trkpt>
<trkpt lat="58.3296929" lon="-5.133971700000001"><ele>35.93</ele></trkpt>
<trkpt lat="58.33060930000001" lon="-5.1338833"><ele>41.75</ele></trkpt>
<trkpt lat="58.332666700000004" lon="-5.133730000000001"><ele>55.78</ele></trkpt>
<trkpt lat="58.3331139" lon="-5.1336967"><ele>59.51</ele></trkpt>
<trkpt lat="58.3337398" lon="-5.1336520000000005"><ele>65.68</ele></trkpt>
<trkpt lat="58.334100899999996" lon="-5.1337035"><ele>69.48</ele></trkpt>
<trkpt lat="58.33443030000001" lon="-5.133856999999999"><ele>73.08</ele></trkpt>
<trkpt lat="58.3347493" lon="-5.1340817"><ele>76.37</ele></trkpt>
<trkpt lat="58.33513750000001" lon="-5.1344456"><ele>79.48</ele></trkpt>
<trkpt lat="58.335525000000004" lon="-5.134811200000001"><ele>80.95</ele></trkpt>
<trkpt lat="58.335912699999994" lon="-5.1351770000000005"><ele>81</ele></trkpt>
<trkpt lat="58.3360641" lon="-5.135348200000001"><ele>80.77</ele></trkpt>
<trkpt lat="58.33641330000001" lon="-5.135820900000001"><ele>79.66</ele></trkpt>
<trkpt lat="58.3366931" lon="-5.1362678"><ele>78.53</ele></trkpt>
<trkpt lat="58.3368918" lon="-5.1368072"><ele>77.59</ele></trkpt>
<trkpt lat="58.33698410000001" lon="-5.1371573"><ele>77.17</ele></trkpt>
<trkpt lat="58.33706159999999" lon="-5.1375433"><ele>76.89</ele></trkpt>
<trkpt lat="58.3371276" lon="-5.1380246"><ele>76.74</ele></trkpt>
<trkpt lat="58.33714870000001" lon="-5.1384644"><ele>76.73</ele></trkpt>
<trkpt lat="58.3371385" lon="-5.1388959"><ele>76.76</ele></trkpt>
<trkpt lat="58.33706" lon="-5.1396018"><ele>76.72</ele></trkpt>
<trkpt lat="58.3369411" lon="-5.140464000000001"><ele>76.06</ele></trkpt>
<trkpt lat="58.3369112" lon="-5.1409384"><ele>75.35</ele></trkpt>
<trkpt lat="58.3369108" lon="-5.1414118"><ele>74.47</ele></trkpt>
<trkpt lat="58.33695079999999" lon="-5.1420123"><ele>73.27</ele></trkpt>
<trkpt lat="58.3369923" lon="-5.1423739"><ele>72.63</ele></trkpt>
<trkpt lat="58.33705139999999" lon="-5.1427312999999995"><ele>72.12</ele></trkpt>
<trkpt lat="58.337167799999996" lon="-5.1432083"><ele>71.66</ele></trkpt>
<trkpt lat="58.33732" lon="-5.1436462"><ele>71.47</ele></trkpt>
<trkpt lat="58.3374544" lon="-5.1439305"><ele>71.43</ele></trkpt>
<trkpt lat="58.33776819999999" lon="-5.1444717"><ele>71.46</ele></trkpt>
<trkpt lat="58.337940999999994" lon="-5.144723399999999"><ele>71.45</ele></trkpt>
<trkpt lat="58.33817009999999" lon="-5.144966499999999"><ele>71.35</ele></trkpt>
<trkpt lat="58.3383835" lon="-5.1451133"><ele>71.13</ele></trkpt>
<trkpt lat="58.338661800000004" lon="-5.1452386"><ele>70.67</ele></trkpt>
<trkpt lat="58.3392508" lon="-5.145380799999999"><ele>69.27</ele></trkpt>
<trkpt lat="58.3396586" lon="-5.1455085"><ele>68.19</ele></trkpt>
<trkpt lat="58.33993140000001" lon="-5.1457551"><ele>67.46</ele></trkpt>
<trkpt lat="58.34028610000001" lon="-5.146200399999999"><ele>66.66</ele></trkpt>
<trkpt lat="58.34038030000001" lon="-5.146358099999999"><ele>66.48</ele></trkpt>
<trkpt lat="58.34075840000001" lon="-5.1472942999999995"><ele>65.93</ele></trkpt>
<trkpt lat="58.3410895" lon="-5.148007"><ele>65.66</ele></trkpt>
<trkpt lat="58.341442" lon="-5.1485951000000005"><ele>65.36</ele></trkpt>
<trkpt lat="58.341813" lon="-5.1490379"><ele>64.85</ele></trkpt>
<trkpt lat="58.34212620000001" lon="-5.149743"><ele>63.74</ele></trkpt>
<trkpt lat="58.342251" lon="-5.1501078"><ele>62.88</ele></trkpt>
<trkpt lat="58.3423549" lon="-5.150490800000001"><ele>61.77</ele></trkpt>
<trkpt lat="58.34245889999998" lon="-5.1510072"><ele>60.07</ele></trkpt>
<trkpt lat="58.342519499999995" lon="-5.151452100000001"><ele>58.56</ele></trkpt>
<trkpt lat="58.34255600000001" lon="-5.151906000000001"><ele>57.13</ele></trkpt>
<trkpt lat="58.3425644" lon="-5.1522828"><ele>56.11</ele></trkpt>
<trkpt lat="58.3425476" lon="-5.1529296"><ele>54.76</ele></trkpt>
<trkpt lat="58.342496199999985" lon="-5.1534483"><ele>54.02</ele></trkpt>
<trkpt lat="58.342408199999994" lon="-5.1539682"><ele>53.53</ele></trkpt>
<trkpt lat="58.342121800000015" lon="-5.1553978"><ele>52.53</ele></trkpt>
<trkpt lat="58.3420606" lon="-5.155948400000001"><ele>51.79</ele></trkpt>
<trkpt lat="58.34204830000001" lon="-5.1563826"><ele>50.88</ele></trkpt>
<trkpt lat="58.3420725" lon="-5.1567735"><ele>49.8</ele></trkpt>
<trkpt lat="58.34211239999999" lon="-5.1570289"><ele>48.96</ele></trkpt>
<trkpt lat="58.34219359999999" lon="-5.1573619"><ele>47.73</ele></trkpt>
<trkpt lat="58.34230600000001" lon="-5.1576901"><ele>46.41</ele></trkpt>
<trkpt lat="58.3424586" lon="-5.158027900000001"><ele>45.07</ele></trkpt>
<trkpt lat="58.3425689" lon="-5.1582109"><ele>44.38</ele></trkpt>
<trkpt lat="58.342782" lon="-5.1585145"><ele>43.45</ele></trkpt>
<trkpt lat="58.3429828" lon="-5.158684"><ele>42.99</ele></trkpt>
<trkpt lat="58.3431388" lon="-5.158749799999999"><ele>42.81</ele></trkpt>
<trkpt lat="58.3433646" lon="-5.158779199999999"><ele>42.69</ele></trkpt>
<trkpt lat="58.34368370000001" lon="-5.158778799999999"><ele>42.66</ele></trkpt>
<trkpt lat="58.34410909999999" lon="-5.158731199999999"><ele>42.6</ele></trkpt>
<trkpt lat="58.344467699999996" lon="-5.1587315"><ele>42.37</ele></trkpt>
<trkpt lat="58.344639" lon="-5.1587678"><ele>42.14</ele></trkpt>
<trkpt lat="58.344809299999994" lon="-5.1588463"><ele>41.8</ele></trkpt>
<trkpt lat="58.3450626" lon="-5.1590937"><ele>41.03</ele></trkpt>
<trkpt lat="58.3458317" lon="-5.1601882"><ele>37.71</ele></trkpt>
<trkpt lat="58.345982" lon="-5.1603934"><ele>37.07</ele></trkpt>
<trkpt lat="58.3462556" lon="-5.1606253"><ele>36.04</ele></trkpt>
<trkpt lat="58.34649199999999" lon="-5.160794"><ele>35.08</ele></trkpt>
<trkpt lat="58.3466475" lon="-5.160849"><ele>34.39</ele></trkpt>
<trkpt lat="58.34689" lon="-5.160879600000001"><ele>33.2</ele></trkpt>
<trkpt lat="58.3470094" lon="-5.1608638"><ele>32.56</ele></trkpt>
<trkpt lat="58.3473766" lon="-5.160745799999999"><ele>30.47</ele></trkpt>
<trkpt lat="58.348715" lon="-5.160095"><ele>22.75</ele></trkpt>
<trkpt lat="58.3493982" lon="-5.1597682"><ele>19.49</ele></trkpt>
<trkpt lat="58.34966060000001" lon="-5.159557"><ele>18.5</ele></trkpt>
<trkpt lat="58.3499089" lon="-5.1592987"><ele>17.83</ele></trkpt>
<trkpt lat="58.3502984" lon="-5.1587513"><ele>17.17</ele></trkpt>
<trkpt lat="58.350542" lon="-5.1583527"><ele>16.9</ele></trkpt>
<trkpt lat="58.3508191" lon="-5.1577378"><ele>16.64</ele></trkpt>
<trkpt lat="58.35104630000001" lon="-5.157078000000001"><ele>16.4</ele></trkpt>
<trkpt lat="58.3512295" lon="-5.156327600000001"><ele>16.16</ele></trkpt>
<trkpt lat="58.35135099999999" lon="-5.155538599999999"><ele>15.97</ele></trkpt>
<trkpt lat="58.3515424" lon="-5.1535714"><ele>16.24</ele></trkpt>
<trkpt lat="58.35158179999999" lon="-5.1532266"><ele>16.47</ele></trkpt>
<trkpt lat="58.3519534" lon="-5.1504367"><ele>18.93</ele></trkpt>
<trkpt lat="58.3521489" lon="-5.1489634"><ele>19.48</ele></trkpt>
<trkpt lat="58.352199199999994" lon="-5.1484074"><ele>19.59</ele></trkpt>
<trkpt lat="58.35220869999999" lon="-5.148061899999999"><ele>19.65</ele></trkpt>
<trkpt lat="58.352168899999995" lon="-5.1473265"><ele>19.75</ele></trkpt>
<trkpt lat="58.35211900000001" lon="-5.146842599999999"><ele>19.82</ele></trkpt>
<trkpt lat="58.35154999999999" lon="-5.1436874"><ele>20.2</ele></trkpt>
<trkpt lat="58.351309" lon="-5.14236"><ele>20.09</ele></trkpt>
<trkpt lat="58.35089" lon="-5.1406061"><ele>20</ele></trkpt>
<trkpt lat="58.35081569999999" lon="-5.1403703"><ele>20.03</ele></trkpt>
<trkpt lat="58.35051099999999" lon="-5.1396152"><ele>20.23</ele></trkpt>
<trkpt lat="58.349354399999996" lon="-5.137167000000001"><ele>20.97</ele></trkpt>
<trkpt lat="58.349235199999995" lon="-5.1368835"><ele>20.97</ele></trkpt>
<trkpt lat="58.3490742" lon="-5.136452600000001"><ele>20.88</ele></trkpt>
<trkpt lat="58.3488808" lon="-5.1357428"><ele>20.72</ele></trkpt>
<trkpt lat="58.348582099999994" lon="-5.1337803"><ele>21.11</ele></trkpt>
<trkpt lat="58.34854549999999" lon="-5.1330013"><ele>21.6</ele></trkpt>
<trkpt lat="58.3486388" lon="-5.1315187"><ele>22.52</ele></trkpt>
<trkpt lat="58.34862919999999" lon="-5.1306524"><ele>22.45</ele></trkpt>
<trkpt lat="58.34856099999999" lon="-5.1295437999999995"><ele>22.09</ele></trkpt>
<trkpt lat="58.348560799999994" lon="-5.1290853"><ele>22.16</ele></trkpt>
<trkpt lat="58.3486578" lon="-5.1270999999999995"><ele>23.58</ele></trkpt>
<trkpt lat="58.348702200000005" lon="-5.1262"><ele>23.11</ele></trkpt>
<trkpt lat="58.34872390000001" lon="-5.125669899999999"><ele>22.26</ele></trkpt>
<trkpt lat="58.34875890000001" lon="-5.1241344"><ele>18.49</ele></trkpt>
<trkpt lat="58.3487892" lon="-5.122806799999999"><ele>15.96</ele></trkpt>
</trkseg>
</trk></gpx>
