<?xml version='1.0' encoding='UTF-8'?>
<gpx version="1.1"
  creator="GPXmagic"
  xmlns="http://www.topografix.com/GPX/1/1"
  xmlns:rgt="http://www.rgtcycling.com/XML/GpxExtensions/v1"
  xmlns:xsi="http://www.w3.org/2001/XMLSchema-instance" xsi:schemaLocation="http://www.topografix.com/GPX/1/1
  http://www.topografix.com/GPX/1/1/gpx.xsd">
  <metadata>
    <name>Smoothed with GPXmagic</name>
    <author>
      <link href="https://www.stepwiserefinement.co.uk">
        <text>GPXmagic v3</text>
        <type>text/html</type>
      </link>
    </author>
  </metadata>
<trk>  <name>Trotternish&#32;Peninsula&#32;Scotland</name>
<trkseg>
<trkpt lat="57.4124394" lon="-6.1924142"><ele>18.66</ele></trkpt>
<trkpt lat="57.4128742" lon="-6.1921249"><ele>20.83</ele></trkpt>
<trkpt lat="57.4129275" lon="-6.191884899999999"><ele>21.46</ele></trkpt>
<trkpt lat="57.41292910000001" lon="-6.1912597"><ele>22.47</ele></trkpt>
<trkpt lat="57.4130978" lon="-6.190072"><ele>23.23</ele></trkpt>
<trkpt lat="57.4131544" lon="-6.1898776"><ele>23.27</ele></trkpt>
<trkpt lat="57.4132616" lon="-6.189752099999999"><ele>23.27</ele></trkpt>
<trkpt lat="57.4137982" lon="-6.189484200000002"><ele>23.07</ele></trkpt>
<trkpt lat="57.4139411" lon="-6.1894458"><ele>23.07</ele></trkpt>
<trkpt lat="57.4142509" lon="-6.1894808"><ele>23.23</ele></trkpt>
<trkpt lat="57.4144812" lon="-6.189645199999999"><ele>23.52</ele></trkpt>
<trkpt lat="57.4152589" lon="-6.1903889"><ele>25</ele></trkpt>
<trkpt lat="57.41599260000001" lon="-6.1910927"><ele>27.79</ele></trkpt>
<trkpt lat="57.4164461" lon="-6.1913572"><ele>30.86</ele></trkpt>
<trkpt lat="57.41667" lon="-6.1914486"><ele>32.58</ele></trkpt>
<trkpt lat="57.41736490000001" lon="-6.1914971"><ele>37.17</ele></trkpt>
<trkpt lat="57.4176094" lon="-6.1915859"><ele>38.05</ele></trkpt>
<trkpt lat="57.41776169999999" lon="-6.1917011"><ele>38.36</ele></trkpt>
<trkpt lat="57.4182366" lon="-6.192259899999999"><ele>38.79</ele></trkpt>
<trkpt lat="57.418389699999985" lon="-6.192416399999999"><ele>38.96</ele></trkpt>
<trkpt lat="57.4187411" lon="-6.1926499"><ele>39.54</ele></trkpt>
<trkpt lat="57.41932090000001" lon="-6.192972700000001"><ele>40.87</ele></trkpt>
<trkpt lat="57.41957970000001" lon="-6.193006900000002"><ele>41.55</ele></trkpt>
<trkpt lat="57.4197675" lon="-6.1929775"><ele>42.11</ele></trkpt>
<trkpt lat="57.41994899999999" lon="-6.1928687999999985"><ele>42.76</ele></trkpt>
<trkpt lat="57.4200253" lon="-6.1927453"><ele>43.14</ele></trkpt>
<trkpt lat="57.42041919999999" lon="-6.191765499999999"><ele>45.77</ele></trkpt>
<trkpt lat="57.4206011" lon="-6.191450699999999"><ele>46.84</ele></trkpt>
<trkpt lat="57.4210874" lon="-6.190753199999998"><ele>49.75</ele></trkpt>
<trkpt lat="57.4214635" lon="-6.190095500000001"><ele>52.57</ele></trkpt>
<trkpt lat="57.4217118" lon="-6.189725200000002"><ele>54.13</ele></trkpt>
<trkpt lat="57.4219317" lon="-6.1895379"><ele>55.14</ele></trkpt>
<trkpt lat="57.422422" lon="-6.1892707"><ele>57.26</ele></trkpt>
<trkpt lat="57.4226384" lon="-6.189251"><ele>58.24</ele></trkpt>
<trkpt lat="57.4230329" lon="-6.189317499999999"><ele>60.13</ele></trkpt>
<trkpt lat="57.4232772" lon="-6.189266400000001"><ele>61.48</ele></trkpt>
<trkpt lat="57.423423699999994" lon="-6.189181799999998"><ele>62.47</ele></trkpt>
<trkpt lat="57.4236345" lon="-6.188873100000001"><ele>64.55</ele></trkpt>
<trkpt lat="57.4238376" lon="-6.1880893"><ele>68.49</ele></trkpt>
<trkpt lat="57.4240709" lon="-6.1878311"><ele>70.28</ele></trkpt>
<trkpt lat="57.4243519" lon="-6.1876579"><ele>71.6</ele></trkpt>
<trkpt lat="57.4256789" lon="-6.187239999999999"><ele>75.49</ele></trkpt>
<trkpt lat="57.42691080000001" lon="-6.186790500000001"><ele>80.17</ele></trkpt>
<trkpt lat="57.42724480000001" lon="-6.1867407"><ele>81.42</ele></trkpt>
<trkpt lat="57.42783980000001" lon="-6.1868"><ele>83.68</ele></trkpt>
<trkpt lat="57.428128199999996" lon="-6.1867690999999985"><ele>84.97</ele></trkpt>
<trkpt lat="57.42857860000001" lon="-6.186572800000001"><ele>87.24</ele></trkpt>
<trkpt lat="57.42898869999999" lon="-6.186198"><ele>89.04</ele></trkpt>
<trkpt lat="57.4292098" lon="-6.185887"><ele>89.89</ele></trkpt>
<trkpt lat="57.42934700000001" lon="-6.185452699999999"><ele>90.65</ele></trkpt>
<trkpt lat="57.42939749999999" lon="-6.1851869"><ele>91.07</ele></trkpt>
<trkpt lat="57.429544" lon="-6.183832799999999"><ele>93.21</ele></trkpt>
<trkpt lat="57.4296926" lon="-6.1832312"><ele>94.4</ele></trkpt>
<trkpt lat="57.42986190000001" lon="-6.182873400000002"><ele>95.53</ele></trkpt>
<trkpt lat="57.4300463" lon="-6.1827136000000005"><ele>96.61</ele></trkpt>
<trkpt lat="57.43032860000001" lon="-6.1825418"><ele>98.4</ele></trkpt>
<trkpt lat="57.431256499999996" lon="-6.1821262"><ele>103.45</ele></trkpt>
<trkpt lat="57.4317095" lon="-6.181981600000001"><ele>104.67</ele></trkpt>
<trkpt lat="57.4327094" lon="-6.1818516"><ele>105.88</ele></trkpt>
<trkpt lat="57.4328961" lon="-6.1818565"><ele>106.07</ele></trkpt>
<trkpt lat="57.4336625" lon="-6.1819881"><ele>107.17</ele></trkpt>
<trkpt lat="57.43653750000001" lon="-6.1824819"><ele>113.09</ele></trkpt>
<trkpt lat="57.43739620000001" lon="-6.1826284000000005"><ele>115.3</ele></trkpt>
<trkpt lat="57.4377868" lon="-6.1825893"><ele>116.17</ele></trkpt>
<trkpt lat="57.437992099999995" lon="-6.1824553"><ele>116.68</ele></trkpt>
<trkpt lat="57.4384082" lon="-6.182116700000001"><ele>118.12</ele></trkpt>
<trkpt lat="57.4387686" lon="-6.1819129"><ele>120.35</ele></trkpt>
<trkpt lat="57.4389852" lon="-6.181860200000001"><ele>122.1</ele></trkpt>
<trkpt lat="57.43929670000001" lon="-6.181892599999999"><ele>124.74</ele></trkpt>
<trkpt lat="57.4396593" lon="-6.1820512999999995"><ele>127.51</ele></trkpt>
<trkpt lat="57.440018599999995" lon="-6.182324599999999"><ele>129.55</ele></trkpt>
<trkpt lat="57.44021650000001" lon="-6.1824119"><ele>130.27</ele></trkpt>
<trkpt lat="57.44070070000001" lon="-6.1824612"><ele>131.56</ele></trkpt>
<trkpt lat="57.4411363" lon="-6.182425600000001"><ele>132.95</ele></trkpt>
<trkpt lat="57.44171010000001" lon="-6.1822795"><ele>135.07</ele></trkpt>
<trkpt lat="57.4433161" lon="-6.1817698"><ele>140.07</ele></trkpt>
<trkpt lat="57.4438308" lon="-6.181509999999999"><ele>141.1</ele></trkpt>
<trkpt lat="57.444688800000016" lon="-6.1811039"><ele>141.68</ele></trkpt>
<trkpt lat="57.4451114" lon="-6.180728000000001"><ele>141.66</ele></trkpt>
<trkpt lat="57.44585410000001" lon="-6.1799773"><ele>141.72</ele></trkpt>
<trkpt lat="57.446007" lon="-6.1798379"><ele>142.09</ele></trkpt>
<trkpt lat="57.4462302" lon="-6.1797568"><ele>143.02</ele></trkpt>
<trkpt lat="57.44701719999999" lon="-6.179859199999999"><ele>148.5</ele></trkpt>
<trkpt lat="57.447432199999994" lon="-6.1798885"><ele>151.51</ele></trkpt>
<trkpt lat="57.4478886" lon="-6.1798389"><ele>154.33</ele></trkpt>
<trkpt lat="57.4486684" lon="-6.1796316"><ele>157.22</ele></trkpt>
<trkpt lat="57.4489907" lon="-6.1796115"><ele>158.04</ele></trkpt>
<trkpt lat="57.449398300000006" lon="-6.1796805"><ele>158.75</ele></trkpt>
<trkpt lat="57.449904700000005" lon="-6.1798701"><ele>159.17</ele></trkpt>
<trkpt lat="57.450194" lon="-6.180086500000001"><ele>159.17</ele></trkpt>
<trkpt lat="57.4508086" lon="-6.180497199999999"><ele>159.1</ele></trkpt>
<trkpt lat="57.45141170000001" lon="-6.180740999999999"><ele>159.84</ele></trkpt>
<trkpt lat="57.4526057" lon="-6.1812578"><ele>165.57</ele></trkpt>
<trkpt lat="57.4533699" lon="-6.1815588"><ele>169.34</ele></trkpt>
<trkpt lat="57.45425019999999" lon="-6.1817703"><ele>169.94</ele></trkpt>
<trkpt lat="57.4550233" lon="-6.181983300000001"><ele>169.77</ele></trkpt>
<trkpt lat="57.4559903" lon="-6.1822506"><ele>167.99</ele></trkpt>
<trkpt lat="57.45750019999999" lon="-6.1827741"><ele>163.44</ele></trkpt>
<trkpt lat="57.4577406" lon="-6.182936699999999"><ele>162.32</ele></trkpt>
<trkpt lat="57.45849290000002" lon="-6.1837819"><ele>156.45</ele></trkpt>
<trkpt lat="57.45877080000001" lon="-6.183998500000001"><ele>154.49</ele></trkpt>
<trkpt lat="57.460078100000004" lon="-6.1842925"><ele>147.41</ele></trkpt>
<trkpt lat="57.4606049" lon="-6.1843693"><ele>145.99</ele></trkpt>
<trkpt lat="57.46089139999999" lon="-6.1844445"><ele>145.82</ele></trkpt>
<trkpt lat="57.46138390000001" lon="-6.1844826"><ele>145.73</ele></trkpt>
<trkpt lat="57.461702" lon="-6.184531800000002"><ele>145.56</ele></trkpt>
<trkpt lat="57.4619923" lon="-6.184642400000001"><ele>145.31</ele></trkpt>
<trkpt lat="57.46236759999999" lon="-6.1847186"><ele>145.03</ele></trkpt>
<trkpt lat="57.4630003" lon="-6.184701"><ele>144.74</ele></trkpt>
<trkpt lat="57.463305200000015" lon="-6.1847393"><ele>144.56</ele></trkpt>
<trkpt lat="57.46354029999999" lon="-6.184722900000001"><ele>144.35</ele></trkpt>
<trkpt lat="57.4641921" lon="-6.184603"><ele>143.56</ele></trkpt>
<trkpt lat="57.46443829999999" lon="-6.184631000000001"><ele>143.39</ele></trkpt>
<trkpt lat="57.46498" lon="-6.184771999999999"><ele>143.34</ele></trkpt>
<trkpt lat="57.46533729999999" lon="-6.184899599999998"><ele>143.36</ele></trkpt>
<trkpt lat="57.4657548" lon="-6.1850823"><ele>143.44</ele></trkpt>
<trkpt lat="57.4660042" lon="-6.1850989"><ele>143.64</ele></trkpt>
<trkpt lat="57.466420799999995" lon="-6.1850101"><ele>144.46</ele></trkpt>
<trkpt lat="57.4669973" lon="-6.184722600000001"><ele>146.31</ele></trkpt>
<trkpt lat="57.46758910000001" lon="-6.1845732"><ele>147.85</ele></trkpt>
<trkpt lat="57.4679355" lon="-6.1843486"><ele>148.8</ele></trkpt>
<trkpt lat="57.4682797" lon="-6.184199300000001"><ele>149.78</ele></trkpt>
<trkpt lat="57.468804000000006" lon="-6.183925100000001"><ele>151.22</ele></trkpt>
<trkpt lat="57.4692244" lon="-6.1837394"><ele>151.81</ele></trkpt>
<trkpt lat="57.4695779" lon="-6.1836393"><ele>151.83</ele></trkpt>
<trkpt lat="57.470453799999994" lon="-6.183234999999999"><ele>149.9</ele></trkpt>
<trkpt lat="57.471909200000006" lon="-6.18256"><ele>143.03</ele></trkpt>
<trkpt lat="57.472611900000004" lon="-6.1821908"><ele>141.68</ele></trkpt>
<trkpt lat="57.4734563" lon="-6.181930199999999"><ele>140.93</ele></trkpt>
<trkpt lat="57.47368420000001" lon="-6.181806199999999"><ele>140.99</ele></trkpt>
<trkpt lat="57.474190199999995" lon="-6.1814417"><ele>142.1</ele></trkpt>
<trkpt lat="57.4754284" lon="-6.1807994"><ele>147.79</ele></trkpt>
<trkpt lat="57.4758891" lon="-6.1804697"><ele>150.99</ele></trkpt>
<trkpt lat="57.4762625" lon="-6.180148999999999"><ele>153.84</ele></trkpt>
<trkpt lat="57.4766735" lon="-6.1798453"><ele>156.33</ele></trkpt>
<trkpt lat="57.4769579" lon="-6.1797509999999996"><ele>157.22</ele></trkpt>
<trkpt lat="57.477208300000015" lon="-6.179772"><ele>157.5</ele></trkpt>
<trkpt lat="57.477949300000006" lon="-6.1800090999999995"><ele>156.64</ele></trkpt>
<trkpt lat="57.4788231" lon="-6.180219900000001"><ele>154.12</ele></trkpt>
<trkpt lat="57.479066499999995" lon="-6.1802579"><ele>153.23</ele></trkpt>
<trkpt lat="57.4794138" lon="-6.180207600000001"><ele>152.19</ele></trkpt>
<trkpt lat="57.4797283" lon="-6.180021399999999"><ele>151.67</ele></trkpt>
<trkpt lat="57.47999829999999" lon="-6.179784699999999"><ele>151.6</ele></trkpt>
<trkpt lat="57.480284000000005" lon="-6.179403400000002"><ele>151.9</ele></trkpt>
<trkpt lat="57.4810711" lon="-6.1784539"><ele>152.84</ele></trkpt>
<trkpt lat="57.4819711" lon="-6.1774504000000015"><ele>151.76</ele></trkpt>
<trkpt lat="57.48311999999999" lon="-6.176391"><ele>150.15</ele></trkpt>
<trkpt lat="57.48396830000001" lon="-6.175711999999999"><ele>150.91</ele></trkpt>
<trkpt lat="57.48454150000001" lon="-6.1753097"><ele>152.31</ele></trkpt>
<trkpt lat="57.48516990000002" lon="-6.174925000000001"><ele>153.62</ele></trkpt>
<trkpt lat="57.48598" lon="-6.1744967"><ele>154.87</ele></trkpt>
<trkpt lat="57.4874149" lon="-6.1737576"><ele>156.9</ele></trkpt>
<trkpt lat="57.487666699999984" lon="-6.1736009"><ele>157.14</ele></trkpt>
<trkpt lat="57.488236699999995" lon="-6.173146099999999"><ele>157.25</ele></trkpt>
<trkpt lat="57.488761299999986" lon="-6.1727602"><ele>156.83</ele></trkpt>
<trkpt lat="57.48909700000001" lon="-6.172551400000001"><ele>156.24</ele></trkpt>
<trkpt lat="57.4895995" lon="-6.172270799999998"><ele>154.72</ele></trkpt>
<trkpt lat="57.489933" lon="-6.1721292"><ele>153.36</ele></trkpt>
<trkpt lat="57.4909845" lon="-6.171754"><ele>148.8</ele></trkpt>
<trkpt lat="57.491738900000016" lon="-6.1714144"><ele>147.01</ele></trkpt>
<trkpt lat="57.4921821" lon="-6.1710224"><ele>147.65</ele></trkpt>
<trkpt lat="57.493501099999996" lon="-6.169608"><ele>152.41</ele></trkpt>
<trkpt lat="57.49367239999999" lon="-6.1693713"><ele>152.94</ele></trkpt>
<trkpt lat="57.4938515" lon="-6.169009600000001"><ele>153.52</ele></trkpt>
<trkpt lat="57.493974" lon="-6.168639"><ele>153.93</ele></trkpt>
<trkpt lat="57.4940724" lon="-6.1681405"><ele>154.3</ele></trkpt>
<trkpt lat="57.4941097" lon="-6.1676332"><ele>154.49</ele></trkpt>
<trkpt lat="57.494100399999994" lon="-6.1670326"><ele>154.55</ele></trkpt>
<trkpt lat="57.4941158" lon="-6.1663089"><ele>154.56</ele></trkpt>
<trkpt lat="57.494153" lon="-6.1658821999999995"><ele>154.68</ele></trkpt>
<trkpt lat="57.4942374" lon="-6.1654273"><ele>155.01</ele></trkpt>
<trkpt lat="57.494420700000006" lon="-6.1647101"><ele>155.97</ele></trkpt>
<trkpt lat="57.4946866" lon="-6.1638936"><ele>157.61</ele></trkpt>
<trkpt lat="57.49515900000001" lon="-6.1623048"><ele>161.32</ele></trkpt>
<trkpt lat="57.4953442" lon="-6.1617736"><ele>162.6</ele></trkpt>
<trkpt lat="57.4955682" lon="-6.161316599999999"><ele>163.95</ele></trkpt>
<trkpt lat="57.4957293" lon="-6.161072099999999"><ele>164.87</ele></trkpt>
<trkpt lat="57.49607" lon="-6.160661499999999"><ele>166.73</ele></trkpt>
<trkpt lat="57.49710999999999" lon="-6.159501100000001"><ele>171.25</ele></trkpt>
<trkpt lat="57.4980711" lon="-6.1584303"><ele>170.43</ele></trkpt>
<trkpt lat="57.498549899999986" lon="-6.1579814"><ele>170.54</ele></trkpt>
<trkpt lat="57.4993066" lon="-6.157385499999998"><ele>173.51</ele></trkpt>
<trkpt lat="57.499946800000004" lon="-6.1567975"><ele>176.84</ele></trkpt>
<trkpt lat="57.50051719999999" lon="-6.1562421"><ele>178.76</ele></trkpt>
<trkpt lat="57.50096979999999" lon="-6.1557485"><ele>179.44</ele></trkpt>
<trkpt lat="57.501719099999995" lon="-6.1548729"><ele>180.17</ele></trkpt>
<trkpt lat="57.50279160000001" lon="-6.153610900000001"><ele>181.88</ele></trkpt>
<trkpt lat="57.503208699999995" lon="-6.1532626"><ele>182.4</ele></trkpt>
<trkpt lat="57.5039701" lon="-6.1527913000000005"><ele>182.25</ele></trkpt>
<trkpt lat="57.50494810000001" lon="-6.1523744"><ele>181.62</ele></trkpt>
<trkpt lat="57.505535" lon="-6.152124999999999"><ele>182.6</ele></trkpt>
<trkpt lat="57.507100799999996" lon="-6.151460900000001"><ele>186.62</ele></trkpt>
<trkpt lat="57.50786939999999" lon="-6.1512509"><ele>187.85</ele></trkpt>
<trkpt lat="57.5086704" lon="-6.151111500000001"><ele>188.54</ele></trkpt>
<trkpt lat="57.51005" lon="-6.1511567"><ele>187.46</ele></trkpt>
<trkpt lat="57.51083680000001" lon="-6.15119"><ele>188.1</ele></trkpt>
<trkpt lat="57.512191699999995" lon="-6.1513299"><ele>192.72</ele></trkpt>
<trkpt lat="57.5125278" lon="-6.151394"><ele>193.47</ele></trkpt>
<trkpt lat="57.5129371" lon="-6.1516396"><ele>193.7</ele></trkpt>
<trkpt lat="57.51354460000001" lon="-6.1522505999999995"><ele>192.99</ele></trkpt>
<trkpt lat="57.5138512" lon="-6.1524841"><ele>192.45</ele></trkpt>
<trkpt lat="57.5140911" lon="-6.1525673"><ele>191.98</ele></trkpt>
<trkpt lat="57.514438600000005" lon="-6.1525518"><ele>191.31</ele></trkpt>
<trkpt lat="57.5147884" lon="-6.152438899999999"><ele>190.63</ele></trkpt>
<trkpt lat="57.51547759999999" lon="-6.152097300000001"><ele>188.81</ele></trkpt>
<trkpt lat="57.515602399999985" lon="-6.152057199999999"><ele>188.36</ele></trkpt>
<trkpt lat="57.5159841" lon="-6.1520214"><ele>186.93</ele></trkpt>
<trkpt lat="57.5163494" lon="-6.1520959"><ele>185.91</ele></trkpt>
<trkpt lat="57.516888" lon="-6.1524595"><ele>185.66</ele></trkpt>
<trkpt lat="57.5174181" lon="-6.152877400000001"><ele>186.15</ele></trkpt>
<trkpt lat="57.5178315" lon="-6.1531186"><ele>186.22</ele></trkpt>
<trkpt lat="57.518231799999995" lon="-6.153219599999999"><ele>185.79</ele></trkpt>
<trkpt lat="57.5189683" lon="-6.1533356"><ele>184.01</ele></trkpt>
<trkpt lat="57.51958079999999" lon="-6.153412499999998"><ele>181.17</ele></trkpt>
<trkpt lat="57.52031110000001" lon="-6.1535006"><ele>176.38</ele></trkpt>
<trkpt lat="57.52178860000001" lon="-6.1537786"><ele>164.47</ele></trkpt>
<trkpt lat="57.52238070000001" lon="-6.1538903"><ele>160.68</ele></trkpt>
<trkpt lat="57.523234999999985" lon="-6.15407"><ele>155.97</ele></trkpt>
<trkpt lat="57.524090700000016" lon="-6.1542507"><ele>150.06</ele></trkpt>
<trkpt lat="57.524997799999994" lon="-6.154501500000001"><ele>141.65</ele></trkpt>
<trkpt lat="57.5253794" lon="-6.1547614"><ele>137.5</ele></trkpt>
<trkpt lat="57.5262611" lon="-6.155729100000002"><ele>126.73</ele></trkpt>
<trkpt lat="57.526806" lon="-6.156162"><ele>123.2</ele></trkpt>
<trkpt lat="57.52716629999999" lon="-6.156446500000001"><ele>123.12</ele></trkpt>
<trkpt lat="57.52752040000001" lon="-6.1566544"><ele>124.12</ele></trkpt>
<trkpt lat="57.52779" lon="-6.156684299999999"><ele>125.08</ele></trkpt>
<trkpt lat="57.5280286" lon="-6.1565646"><ele>125.96</ele></trkpt>
<trkpt lat="57.5282834" lon="-6.1562942"><ele>126.84</ele></trkpt>
<trkpt lat="57.52921889999999" lon="-6.1549338"><ele>128.45</ele></trkpt>
<trkpt lat="57.5293602" lon="-6.1546979"><ele>128.44</ele></trkpt>
<trkpt lat="57.52971" lon="-6.1540385"><ele>128.21</ele></trkpt>
<trkpt lat="57.5300874" lon="-6.1532167"><ele>127.59</ele></trkpt>
<trkpt lat="57.5302101" lon="-6.152919100000002"><ele>127.16</ele></trkpt>
<trkpt lat="57.53062999999999" lon="-6.1517956"><ele>124.37</ele></trkpt>
<trkpt lat="57.531232199999984" lon="-6.150187500000001"><ele>116.39</ele></trkpt>
<trkpt lat="57.53148109999999" lon="-6.1496716"><ele>113.28</ele></trkpt>
<trkpt lat="57.5318529" lon="-6.1491207999999995"><ele>110.01</ele></trkpt>
<trkpt lat="57.5324124" lon="-6.148590100000001"><ele>107.56</ele></trkpt>
<trkpt lat="57.5330971" lon="-6.148133400000001"><ele>107.49</ele></trkpt>
<trkpt lat="57.53351800000001" lon="-6.1479617"><ele>108.05</ele></trkpt>
<trkpt lat="57.533767100000006" lon="-6.1479317"><ele>108.5</ele></trkpt>
<trkpt lat="57.534004" lon="-6.1479604"><ele>108.97</ele></trkpt>
<trkpt lat="57.534343299999996" lon="-6.148082900000001"><ele>109.58</ele></trkpt>
<trkpt lat="57.534787900000005" lon="-6.1483393"><ele>110.2</ele></trkpt>
<trkpt lat="57.5353822" lon="-6.148729"><ele>110.79</ele></trkpt>
<trkpt lat="57.5356618" lon="-6.148827400000001"><ele>111.01</ele></trkpt>
<trkpt lat="57.536008100000004" lon="-6.1487979"><ele>111.29</ele></trkpt>
<trkpt lat="57.53636780000001" lon="-6.1485703"><ele>111.79</ele></trkpt>
<trkpt lat="57.536741799999994" lon="-6.1481963"><ele>112.77</ele></trkpt>
<trkpt lat="57.5373534" lon="-6.1474266"><ele>115.47</ele></trkpt>
<trkpt lat="57.5375117" lon="-6.147244100000001"><ele>116.43</ele></trkpt>
<trkpt lat="57.5383362" lon="-6.1463777"><ele>123.31</ele></trkpt>
<trkpt lat="57.538530999999985" lon="-6.1462244"><ele>124.85</ele></trkpt>
<trkpt lat="57.5391322" lon="-6.1458501"><ele>128.92</ele></trkpt>
<trkpt lat="57.5397518" lon="-6.1455713"><ele>132.91</ele></trkpt>
<trkpt lat="57.54026079999999" lon="-6.1454359"><ele>136.33</ele></trkpt>
<trkpt lat="57.5406799" lon="-6.145388"><ele>139.26</ele></trkpt>
<trkpt lat="57.541101" lon="-6.1453912"><ele>142.09</ele></trkpt>
<trkpt lat="57.54151280000001" lon="-6.145501499999999"><ele>145.04</ele></trkpt>
<trkpt lat="57.54198029999999" lon="-6.145662"><ele>148.86</ele></trkpt>
<trkpt lat="57.542598" lon="-6.14601"><ele>153.97</ele></trkpt>
<trkpt lat="57.54354159999998" lon="-6.146711699999999"><ele>158.85</ele></trkpt>
<trkpt lat="57.5444752" lon="-6.147471"><ele>160.13</ele></trkpt>
<trkpt lat="57.5451203" lon="-6.147888900000001"><ele>159.63</ele></trkpt>
<trkpt lat="57.5456905" lon="-6.148148300000001"><ele>159.56</ele></trkpt>
<trkpt lat="57.54654819999999" lon="-6.148328000000001"><ele>162.06</ele></trkpt>
<trkpt lat="57.547180300000015" lon="-6.148289500000001"><ele>164.77</ele></trkpt>
<trkpt lat="57.5478019" lon="-6.1482019999999995"><ele>166.59</ele></trkpt>
<trkpt lat="57.5486501" lon="-6.1483122"><ele>164.9</ele></trkpt>
<trkpt lat="57.54919840000001" lon="-6.148521"><ele>162.38</ele></trkpt>
<trkpt lat="57.550151" lon="-6.1491118"><ele>160.21</ele></trkpt>
<trkpt lat="57.5510208" lon="-6.1497725"><ele>159.29</ele></trkpt>
<trkpt lat="57.55163040000001" lon="-6.150236200000001"><ele>156.58</ele></trkpt>
<trkpt lat="57.55224030000001" lon="-6.150699899999999"><ele>152.76</ele></trkpt>
<trkpt lat="57.554143" lon="-6.152085900000001"><ele>138.99</ele></trkpt>
<trkpt lat="57.555181" lon="-6.152842"><ele>132.23</ele></trkpt>
<trkpt lat="57.55569919999999" lon="-6.153217899999999"><ele>127.14</ele></trkpt>
<trkpt lat="57.5565505" lon="-6.153669299999999"><ele>118.86</ele></trkpt>
<trkpt lat="57.5572091" lon="-6.1539392"><ele>113.57</ele></trkpt>
<trkpt lat="57.55770719999999" lon="-6.154115000000001"><ele>109.26</ele></trkpt>
<trkpt lat="57.558900300000005" lon="-6.154534900000001"><ele>100.36</ele></trkpt>
<trkpt lat="57.5593702" lon="-6.154637899999998"><ele>96.24</ele></trkpt>
<trkpt lat="57.5597385" lon="-6.154624"><ele>93.02</ele></trkpt>
<trkpt lat="57.560241999999995" lon="-6.1545805"><ele>89.54</ele></trkpt>
<trkpt lat="57.5610837" lon="-6.1545732"><ele>86.41</ele></trkpt>
<trkpt lat="57.561437899999994" lon="-6.154660599999999"><ele>85.45</ele></trkpt>
<trkpt lat="57.5620209" lon="-6.154991600000001"><ele>83.06</ele></trkpt>
<trkpt lat="57.5623914" lon="-6.1552281"><ele>80.38</ele></trkpt>
<trkpt lat="57.563607899999994" lon="-6.1560661"><ele>66.65</ele></trkpt>
<trkpt lat="57.5642627" lon="-6.156515500000001"><ele>60.75</ele></trkpt>
<trkpt lat="57.564643199999985" lon="-6.156603600000001"><ele>59.09</ele></trkpt>
<trkpt lat="57.56492010000001" lon="-6.1565463"><ele>58.96</ele></trkpt>
<trkpt lat="57.56514120000001" lon="-6.1564185"><ele>59.56</ele></trkpt>
<trkpt lat="57.565378700000004" lon="-6.1562023"><ele>60.94</ele></trkpt>
<trkpt lat="57.5657232" lon="-6.155648600000001"><ele>64.49</ele></trkpt>
<trkpt lat="57.565861200000015" lon="-6.155252899999999"><ele>66.72</ele></trkpt>
<trkpt lat="57.5664233" lon="-6.1534346"><ele>77.39</ele></trkpt>
<trkpt lat="57.56662560000001" lon="-6.1530308"><ele>80.38</ele></trkpt>
<trkpt lat="57.5668502" lon="-6.1526806"><ele>83.28</ele></trkpt>
<trkpt lat="57.5671118" lon="-6.152351"><ele>86.08</ele></trkpt>
<trkpt lat="57.5673076" lon="-6.1521535"><ele>87.73</ele></trkpt>
<trkpt lat="57.56769539999999" lon="-6.1518629"><ele>90.14</ele></trkpt>
<trkpt lat="57.5680393" lon="-6.1517010999999995"><ele>91.61</ele></trkpt>
<trkpt lat="57.5683328" lon="-6.1516295"><ele>92.54</ele></trkpt>
<trkpt lat="57.5686254" lon="-6.1516114"><ele>93.23</ele></trkpt>
<trkpt lat="57.5689128" lon="-6.1516525"><ele>93.79</ele></trkpt>
<trkpt lat="57.56918790000001" lon="-6.1517406"><ele>94.27</ele></trkpt>
<trkpt lat="57.57037290000001" lon="-6.152404300000001"><ele>96.3</ele></trkpt>
<trkpt lat="57.5713586" lon="-6.1529578"><ele>96.97</ele></trkpt>
<trkpt lat="57.5721244" lon="-6.1534067"><ele>95.64</ele></trkpt>
<trkpt lat="57.5733456" lon="-6.1542233"><ele>90.88</ele></trkpt>
<trkpt lat="57.5736203" lon="-6.1543861"><ele>89.9</ele></trkpt>
<trkpt lat="57.5743646" lon="-6.1547063"><ele>87.76</ele></trkpt>
<trkpt lat="57.5749517" lon="-6.1548398"><ele>86.36</ele></trkpt>
<trkpt lat="57.575321100000004" lon="-6.154892700000002"><ele>85.38</ele></trkpt>
<trkpt lat="57.5759092" lon="-6.1551252"><ele>83.68</ele></trkpt>
<trkpt lat="57.5763523" lon="-6.155452300000001"><ele>82.44</ele></trkpt>
<trkpt lat="57.5770587" lon="-6.1560391"><ele>80.59</ele></trkpt>
<trkpt lat="57.578193" lon="-6.157010700000001"><ele>77.53</ele></trkpt>
<trkpt lat="57.5786969" lon="-6.157323500000001"><ele>76.03</ele></trkpt>
<trkpt lat="57.579409" lon="-6.1576184"><ele>73.09</ele></trkpt>
<trkpt lat="57.579804900000006" lon="-6.157705"><ele>71.5</ele></trkpt>
<trkpt lat="57.5804725" lon="-6.1577335"><ele>70.1</ele></trkpt>
<trkpt lat="57.5812225" lon="-6.1577515"><ele>70.64</ele></trkpt>
<trkpt lat="57.5830037" lon="-6.1577942000000006"><ele>74.95</ele></trkpt>
<trkpt lat="57.5837602" lon="-6.1578"><ele>76.9</ele></trkpt>
<trkpt lat="57.5843597" lon="-6.157738799999999"><ele>78.65</ele></trkpt>
<trkpt lat="57.58496" lon="-6.1575633"><ele>80.5</ele></trkpt>
<trkpt lat="57.5860627" lon="-6.157161699999999"><ele>84.26</ele></trkpt>
<trkpt lat="57.586513" lon="-6.15713"><ele>85.83</ele></trkpt>
<trkpt lat="57.5869769" lon="-6.15713"><ele>87.22</ele></trkpt>
<trkpt lat="57.5874187" lon="-6.157181300000001"><ele>88.16</ele></trkpt>
<trkpt lat="57.58807130000001" lon="-6.1573944"><ele>89.03</ele></trkpt>
<trkpt lat="57.5894843" lon="-6.1580143"><ele>89.05</ele></trkpt>
<trkpt lat="57.590189999999986" lon="-6.158327100000001"><ele>88.01</ele></trkpt>
<trkpt lat="57.5907895" lon="-6.1586114"><ele>86.65</ele></trkpt>
<trkpt lat="57.591793300000006" lon="-6.1593801"><ele>83.66</ele></trkpt>
<trkpt lat="57.59224180000001" lon="-6.1595897"><ele>82.6</ele></trkpt>
<trkpt lat="57.592486199999996" lon="-6.1596769"><ele>82.07</ele></trkpt>
<trkpt lat="57.5935215" lon="-6.159781500000001"><ele>80.09</ele></trkpt>
<trkpt lat="57.593897899999995" lon="-6.1598808"><ele>80.02</ele></trkpt>
<trkpt lat="57.5944123" lon="-6.1601327"><ele>80.79</ele></trkpt>
<trkpt lat="57.5951086" lon="-6.1606092"><ele>82.21</ele></trkpt>
<trkpt lat="57.595949299999994" lon="-6.161206199999999"><ele>83.17</ele></trkpt>
<trkpt lat="57.596602" lon="-6.1616699000000015"><ele>82.88</ele></trkpt>
<trkpt lat="57.598841" lon="-6.163261699999999"><ele>80.52</ele></trkpt>
<trkpt lat="57.599609099999995" lon="-6.1639104"><ele>79.85</ele></trkpt>
<trkpt lat="57.6003825" lon="-6.1646931"><ele>78.95</ele></trkpt>
<trkpt lat="57.60115969999999" lon="-6.165581399999999"><ele>77.46</ele></trkpt>
<trkpt lat="57.6020295" lon="-6.16676"><ele>74.42</ele></trkpt>
<trkpt lat="57.60282829999999" lon="-6.1679093"><ele>70.81</ele></trkpt>
<trkpt lat="57.603218600000005" lon="-6.168454299999999"><ele>69.19</ele></trkpt>
<trkpt lat="57.6043893" lon="-6.170088099999998"><ele>65.69</ele></trkpt>
<trkpt lat="57.60482240000001" lon="-6.1706207"><ele>64.52</ele></trkpt>
<trkpt lat="57.605149499999996" lon="-6.170928"><ele>63.64</ele></trkpt>
<trkpt lat="57.6060499" lon="-6.171591600000001"><ele>61.14</ele></trkpt>
<trkpt lat="57.6065605" lon="-6.172082499999999"><ele>59.68</ele></trkpt>
<trkpt lat="57.6074681" lon="-6.1731772"><ele>57.44</ele></trkpt>
<trkpt lat="57.60807969999999" lon="-6.1738578"><ele>56.05</ele></trkpt>
<trkpt lat="57.6084734" lon="-6.174159799999998"><ele>55.31</ele></trkpt>
<trkpt lat="57.609169999999985" lon="-6.17448"><ele>54.74</ele></trkpt>
<trkpt lat="57.609623800000016" lon="-6.1746936"><ele>55.26</ele></trkpt>
<trkpt lat="57.6100034" lon="-6.1749067"><ele>56.46</ele></trkpt>
<trkpt lat="57.610428699999986" lon="-6.175249899999999"><ele>59.04</ele></trkpt>
<trkpt lat="57.611039299999995" lon="-6.175860900000001"><ele>63.89</ele></trkpt>
<trkpt lat="57.61162050000001" lon="-6.176601500000002"><ele>68.3</ele></trkpt>
<trkpt lat="57.6120797" lon="-6.1772502"><ele>71.13</ele></trkpt>
<trkpt lat="57.6126966" lon="-6.1781812"><ele>74.45</ele></trkpt>
<trkpt lat="57.6128917" lon="-6.1785779"><ele>75.44</ele></trkpt>
<trkpt lat="57.6133093" lon="-6.1793516"><ele>77.03</ele></trkpt>
<trkpt lat="57.61377950000001" lon="-6.1804815"><ele>78.66</ele></trkpt>
<trkpt lat="57.61413000000001" lon="-6.1815213"><ele>79.54</ele></trkpt>
<trkpt lat="57.6142589" lon="-6.1819944"><ele>79.71</ele></trkpt>
<trkpt lat="57.6149295" lon="-6.184752199999999"><ele>78.71</ele></trkpt>
<trkpt lat="57.615600699999995" lon="-6.187508000000002"><ele>75.84</ele></trkpt>
<trkpt lat="57.61597029999999" lon="-6.1885886"><ele>76.39</ele></trkpt>
<trkpt lat="57.616341299999995" lon="-6.1894712"><ele>78.65</ele></trkpt>
<trkpt lat="57.6170187" lon="-6.1910861"><ele>86.14</ele></trkpt>
<trkpt lat="57.6174888" lon="-6.1922562"><ele>90.95</ele></trkpt>
<trkpt lat="57.617957800000006" lon="-6.1934136"><ele>93.82</ele></trkpt>
<trkpt lat="57.6181887" lon="-6.1939452"><ele>94.33</ele></trkpt>
<trkpt lat="57.618561899999996" lon="-6.1946511"><ele>94.26</ele></trkpt>
<trkpt lat="57.61908949999999" lon="-6.195437899999999"><ele>92.68</ele></trkpt>
<trkpt lat="57.62044330000001" lon="-6.197140000000001"><ele>83.31</ele></trkpt>
<trkpt lat="57.6210355" lon="-6.197883900000001"><ele>78.25</ele></trkpt>
<trkpt lat="57.6220637" lon="-6.1992468"><ele>67.56</ele></trkpt>
<trkpt lat="57.6228797" lon="-6.2004302"><ele>60.87</ele></trkpt>
<trkpt lat="57.623900400000004" lon="-6.2020112"><ele>53.16</ele></trkpt>
<trkpt lat="57.6243794" lon="-6.2028003"><ele>48.93</ele></trkpt>
<trkpt lat="57.62503889999999" lon="-6.204019199999999"><ele>42.55</ele></trkpt>
<trkpt lat="57.6256288" lon="-6.2052387"><ele>36.75</ele></trkpt>
<trkpt lat="57.626217499999996" lon="-6.2064575"><ele>32.14</ele></trkpt>
<trkpt lat="57.626611200000006" lon="-6.2072699"><ele>30.44</ele></trkpt>
<trkpt lat="57.627240199999996" lon="-6.2083177"><ele>28.82</ele></trkpt>
<trkpt lat="57.6277188" lon="-6.208928"><ele>27.94</ele></trkpt>
<trkpt lat="57.6281604" lon="-6.2094494"><ele>27.24</ele></trkpt>
<trkpt lat="57.6290694" lon="-6.210361400000001"><ele>25.81</ele></trkpt>
<trkpt lat="57.62957169999999" lon="-6.2110553"><ele>24.97</ele></trkpt>
<trkpt lat="57.629826" lon="-6.211514000000001"><ele>24.75</ele></trkpt>
<trkpt lat="57.629998000000015" lon="-6.211894"><ele>24.85</ele></trkpt>
<trkpt lat="57.6302122" lon="-6.2124405"><ele>25.39</ele></trkpt>
<trkpt lat="57.6304195" lon="-6.213040900000001"><ele>26.32</ele></trkpt>
<trkpt lat="57.6308376" lon="-6.2144888"><ele>29.24</ele></trkpt>
<trkpt lat="57.6310109" lon="-6.215297800000001"><ele>30.88</ele></trkpt>
<trkpt lat="57.6311393" lon="-6.2162651"><ele>32.51</ele></trkpt>
<trkpt lat="57.6311793" lon="-6.2171423"><ele>33.49</ele></trkpt>
<trkpt lat="57.6311789" lon="-6.217640399999998"><ele>33.71</ele></trkpt>
<trkpt lat="57.6311152" lon="-6.2186716"><ele>33.17</ele></trkpt>
<trkpt lat="57.6309644" lon="-6.221018600000001"><ele>30.48</ele></trkpt>
<trkpt lat="57.63068580000001" lon="-6.2253515"><ele>27.35</ele></trkpt>
<trkpt lat="57.63049989999999" lon="-6.228237200000001"><ele>24.68</ele></trkpt>
<trkpt lat="57.6303297" lon="-6.2301597"><ele>22.5</ele></trkpt>
<trkpt lat="57.63010959999999" lon="-6.23207"><ele>20.14</ele></trkpt>
<trkpt lat="57.629911699999994" lon="-6.2333806"><ele>19.19</ele></trkpt>
<trkpt lat="57.62960030000001" lon="-6.235443199999999"><ele>20.06</ele></trkpt>
<trkpt lat="57.6295314" lon="-6.236152399999999"><ele>20.52</ele></trkpt>
<trkpt lat="57.629549299999994" lon="-6.2368167"><ele>20.91</ele></trkpt>
<trkpt lat="57.6296433" lon="-6.2373513"><ele>21.19</ele></trkpt>
<trkpt lat="57.62977079999999" lon="-6.2377985"><ele>21.47</ele></trkpt>
<trkpt lat="57.6300418" lon="-6.238521900000001"><ele>22.43</ele></trkpt>
<trkpt lat="57.6303304" lon="-6.239149099999999"><ele>24.37</ele></trkpt>
<trkpt lat="57.6306101" lon="-6.239701799999999"><ele>26.96</ele></trkpt>
<trkpt lat="57.6308809" lon="-6.240306500000001"><ele>30.53</ele></trkpt>
<trkpt lat="57.6314045" lon="-6.241986900000001"><ele>42.15</ele></trkpt>
<trkpt lat="57.6314834" lon="-6.2421741"><ele>43.41</ele></trkpt>
<trkpt lat="57.631629800000006" lon="-6.2423772"><ele>45.13</ele></trkpt>
<trkpt lat="57.6318725" lon="-6.242470399999998"><ele>47.38</ele></trkpt>
<trkpt lat="57.63191609999999" lon="-6.2425925"><ele>48.11</ele></trkpt>
<trkpt lat="57.6319034" lon="-6.243846399999999"><ele>53.95</ele></trkpt>
<trkpt lat="57.631875400000006" lon="-6.244301299999999"><ele>56.05</ele></trkpt>
<trkpt lat="57.631823999999995" lon="-6.244602800000001"><ele>57.44</ele></trkpt>
<trkpt lat="57.631499399999996" lon="-6.2454752"><ele>61.66</ele></trkpt>
<trkpt lat="57.631135499999985" lon="-6.2468846"><ele>67.14</ele></trkpt>
<trkpt lat="57.630803799999995" lon="-6.247612999999999"><ele>70.16</ele></trkpt>
<trkpt lat="57.6306565" lon="-6.2480633"><ele>71.83</ele></trkpt>
<trkpt lat="57.63061439999999" lon="-6.2485576"><ele>73.49</ele></trkpt>
<trkpt lat="57.63068719999999" lon="-6.250117900000001"><ele>78.93</ele></trkpt>
<trkpt lat="57.63062310000001" lon="-6.2506955"><ele>80.99</ele></trkpt>
<trkpt lat="57.63043390000001" lon="-6.2512821999999995"><ele>83.4</ele></trkpt>
<trkpt lat="57.63037460000001" lon="-6.251584300000001"><ele>84.57</ele></trkpt>
<trkpt lat="57.6303267" lon="-6.2521046"><ele>86.56</ele></trkpt>
<trkpt lat="57.6302733" lon="-6.2529304"><ele>90.18</ele></trkpt>
<trkpt lat="57.630311799999994" lon="-6.253569900000001"><ele>93.77</ele></trkpt>
<trkpt lat="57.63045269999999" lon="-6.2544771"><ele>99.63</ele></trkpt>
<trkpt lat="57.6305587" lon="-6.2548913"><ele>102.15</ele></trkpt>
<trkpt lat="57.6306571" lon="-6.2550159999999995"><ele>103.18</ele></trkpt>
<trkpt lat="57.63083089999999" lon="-6.2551231000000005"><ele>104.55</ele></trkpt>
<trkpt lat="57.6315031" lon="-6.2552815"><ele>108.57</ele></trkpt>
<trkpt lat="57.631624599999995" lon="-6.255386000000001"><ele>109.34</ele></trkpt>
<trkpt lat="57.63172380000001" lon="-6.255584"><ele>110.22</ele></trkpt>
<trkpt lat="57.6318685" lon="-6.256088499999999"><ele>112.23</ele></trkpt>
<trkpt lat="57.632026" lon="-6.256931700000001"><ele>115.91</ele></trkpt>
<trkpt lat="57.63209359999999" lon="-6.257514300000001"><ele>118.7</ele></trkpt>
<trkpt lat="57.632071" lon="-6.2578969"><ele>120.53</ele></trkpt>
<trkpt lat="57.631998200000005" lon="-6.2580748"><ele>121.54</ele></trkpt>
<trkpt lat="57.6315473" lon="-6.2589689"><ele>126.22</ele></trkpt>
<trkpt lat="57.6313069" lon="-6.259442800000001"><ele>128.01</ele></trkpt>
<trkpt lat="57.631162399999994" lon="-6.2598183"><ele>128.92</ele></trkpt>
<trkpt lat="57.630913" lon="-6.2608301"><ele>130.8</ele></trkpt>
<trkpt lat="57.6308496" lon="-6.2612686"><ele>131.55</ele></trkpt>
<trkpt lat="57.6308474" lon="-6.261676"><ele>132.18</ele></trkpt>
<trkpt lat="57.6309247" lon="-6.2625403"><ele>133.42</ele></trkpt>
<trkpt lat="57.6308738" lon="-6.2633713"><ele>134.73</ele></trkpt>
<trkpt lat="57.63088080000001" lon="-6.2637768000000005"><ele>135.5</ele></trkpt>
<trkpt lat="57.63108849999999" lon="-6.2649095"><ele>138.48</ele></trkpt>
<trkpt lat="57.6312025" lon="-6.265981999999999"><ele>141.11</ele></trkpt>
<trkpt lat="57.631367700000006" lon="-6.2668213999999995"><ele>141.85</ele></trkpt>
<trkpt lat="57.6314095" lon="-6.267283400000002"><ele>141.8</ele></trkpt>
<trkpt lat="57.631402" lon="-6.267692"><ele>141.64</ele></trkpt>
<trkpt lat="57.6312997" lon="-6.268726900000001"><ele>141.2</ele></trkpt>
<trkpt lat="57.631124899999996" lon="-6.269903"><ele>140.93</ele></trkpt>
<trkpt lat="57.63099940000001" lon="-6.2705892"><ele>141.05</ele></trkpt>
<trkpt lat="57.63070040000001" lon="-6.271761700000001"><ele>141.71</ele></trkpt>
<trkpt lat="57.630468300000004" lon="-6.272943099999999"><ele>142.37</ele></trkpt>
<trkpt lat="57.6303232" lon="-6.2735091"><ele>142.78</ele></trkpt>
<trkpt lat="57.63016390000001" lon="-6.2743151"><ele>143.6</ele></trkpt>
<trkpt lat="57.6299092" lon="-6.2751584"><ele>145.37</ele></trkpt>
<trkpt lat="57.629899599999995" lon="-6.2753799"><ele>145.96</ele></trkpt>
<trkpt lat="57.6300194" lon="-6.2761125"><ele>148.29</ele></trkpt>
<trkpt lat="57.6301148" lon="-6.276916699999999"><ele>150.82</ele></trkpt>
<trkpt lat="57.630227399999995" lon="-6.277332300000001"><ele>152.14</ele></trkpt>
<trkpt lat="57.630307299999984" lon="-6.277845200000001"><ele>153.51</ele></trkpt>
<trkpt lat="57.630422100000004" lon="-6.2791855"><ele>156.93</ele></trkpt>
<trkpt lat="57.63039650000001" lon="-6.279548299999999"><ele>158.1</ele></trkpt>
<trkpt lat="57.6302572" lon="-6.280183699999999"><ele>160.52</ele></trkpt>
<trkpt lat="57.6302499" lon="-6.280416500000001"><ele>161.34</ele></trkpt>
<trkpt lat="57.6303156" lon="-6.2806936"><ele>162.36</ele></trkpt>
<trkpt lat="57.6307176" lon="-6.2818759"><ele>166.76</ele></trkpt>
<trkpt lat="57.63079719999999" lon="-6.2821827"><ele>167.9</ele></trkpt>
<trkpt lat="57.630934799999984" lon="-6.2832313"><ele>171.99</ele></trkpt>
<trkpt lat="57.630907" lon="-6.283799"><ele>174.44</ele></trkpt>
<trkpt lat="57.6306857" lon="-6.2849859"><ele>180.59</ele></trkpt>
<trkpt lat="57.6303764" lon="-6.2858290000000006"><ele>186.12</ele></trkpt>
<trkpt lat="57.6302139" lon="-6.2862104"><ele>188.89</ele></trkpt>
<trkpt lat="57.63004" lon="-6.286519"><ele>191.58</ele></trkpt>
<trkpt lat="57.6296201" lon="-6.287077499999999"><ele>197.9</ele></trkpt>
<trkpt lat="57.6289825" lon="-6.2876625"><ele>206.74</ele></trkpt>
<trkpt lat="57.6286999" lon="-6.2878175"><ele>209.61</ele></trkpt>
<trkpt lat="57.628520200000004" lon="-6.2878041"><ele>211.19</ele></trkpt>
<trkpt lat="57.62811090000001" lon="-6.2875985"><ele>214.76</ele></trkpt>
<trkpt lat="57.62782610000001" lon="-6.2873950999999995"><ele>217.51</ele></trkpt>
<trkpt lat="57.6276206" lon="-6.2872975"><ele>219.66</ele></trkpt>
<trkpt lat="57.6273732" lon="-6.2873625"><ele>222.57</ele></trkpt>
<trkpt lat="57.627178" lon="-6.2875592"><ele>225.46</ele></trkpt>
<trkpt lat="57.62723040000001" lon="-6.287841"><ele>227.74</ele></trkpt>
<trkpt lat="57.627699" lon="-6.2884167"><ele>235.6</ele></trkpt>
<trkpt lat="57.62794390000001" lon="-6.288654600000001"><ele>239.61</ele></trkpt>
<trkpt lat="57.62824379999999" lon="-6.2890505"><ele>245.01</ele></trkpt>
<trkpt lat="57.6283703" lon="-6.2891142"><ele>246.88</ele></trkpt>
<trkpt lat="57.62855999999999" lon="-6.289018"><ele>249.61</ele></trkpt>
<trkpt lat="57.6286239" lon="-6.2891881"><ele>251.4</ele></trkpt>
<trkpt lat="57.628503600000016" lon="-6.2894473"><ele>253.61</ele></trkpt>
<trkpt lat="57.6282694" lon="-6.2902409"><ele>257.89</ele></trkpt>
<trkpt lat="57.62824259999999" lon="-6.290582999999999"><ele>258.86</ele></trkpt>
<trkpt lat="57.6284256" lon="-6.291702099999998"><ele>260.89</ele></trkpt>
<trkpt lat="57.6284273" lon="-6.292173899999998"><ele>261.45</ele></trkpt>
<trkpt lat="57.6283272" lon="-6.292555300000001"><ele>261.8</ele></trkpt>
<trkpt lat="57.6279212" lon="-6.2937496"><ele>262.46</ele></trkpt>
<trkpt lat="57.627706300000014" lon="-6.2941709"><ele>262.49</ele></trkpt>
<trkpt lat="57.627539" lon="-6.2943078"><ele>262.42</ele></trkpt>
<trkpt lat="57.6274101" lon="-6.294338400000002"><ele>262.35</ele></trkpt>
<trkpt lat="57.6272412" lon="-6.294254800000002"><ele>262.21</ele></trkpt>
<trkpt lat="57.6268644" lon="-6.293929199999998"><ele>261.79</ele></trkpt>
<trkpt lat="57.6266905" lon="-6.293913599999999"><ele>261.57</ele></trkpt>
<trkpt lat="57.62654850000001" lon="-6.293966300000002"><ele>261.37</ele></trkpt>
<trkpt lat="57.62637490000001" lon="-6.2941693"><ele>261.09</ele></trkpt>
<trkpt lat="57.625631999999996" lon="-6.2955594"><ele>259.99</ele></trkpt>
<trkpt lat="57.6255493" lon="-6.295926200000001"><ele>260.05</ele></trkpt>
<trkpt lat="57.625641" lon="-6.296972"><ele>260.42</ele></trkpt>
<trkpt lat="57.625594" lon="-6.2974654"><ele>260.14</ele></trkpt>
<trkpt lat="57.6254921" lon="-6.297772200000001"><ele>259.61</ele></trkpt>
<trkpt lat="57.624634" lon="-6.3001749"><ele>253.35</ele></trkpt>
<trkpt lat="57.6241497" lon="-6.301525299999999"><ele>250.45</ele></trkpt>
<trkpt lat="57.623994800000006" lon="-6.3018544"><ele>249.73</ele></trkpt>
<trkpt lat="57.623853" lon="-6.302075800000001"><ele>249.19</ele></trkpt>
<trkpt lat="57.62376189999999" lon="-6.3022945"><ele>248.79</ele></trkpt>
<trkpt lat="57.6234934" lon="-6.303227400000001"><ele>247.67</ele></trkpt>
<trkpt lat="57.6233506" lon="-6.3038603"><ele>247.53</ele></trkpt>
<trkpt lat="57.6231612" lon="-6.3050051"><ele>247.79</ele></trkpt>
<trkpt lat="57.6229202" lon="-6.306933800000001"><ele>247.49</ele></trkpt>
<trkpt lat="57.62286640000001" lon="-6.307641799999999"><ele>247.05</ele></trkpt>
<trkpt lat="57.6228509" lon="-6.308354899999999"><ele>246.43</ele></trkpt>
<trkpt lat="57.6229131" lon="-6.309439"><ele>245.52</ele></trkpt>
<trkpt lat="57.622763700000014" lon="-6.310501099999998"><ele>244.75</ele></trkpt>
<trkpt lat="57.6226997" lon="-6.3125529999999985"><ele>243.39</ele></trkpt>
<trkpt lat="57.6226304" lon="-6.3133448"><ele>242.54</ele></trkpt>
<trkpt lat="57.6224836" lon="-6.314690699999999"><ele>240.38</ele></trkpt>
<trkpt lat="57.62248670000001" lon="-6.3163534"><ele>237.68</ele></trkpt>
<trkpt lat="57.62249930000001" lon="-6.319691199999999"><ele>234.1</ele></trkpt>
<trkpt lat="57.6224085" lon="-6.321544599999998"><ele>232</ele></trkpt>
<trkpt lat="57.62203029999999" lon="-6.3238871"><ele>227.67</ele></trkpt>
<trkpt lat="57.62157959999998" lon="-6.326469399999999"><ele>221.59</ele></trkpt>
<trkpt lat="57.6212918" lon="-6.3277714"><ele>218.85</ele></trkpt>
<trkpt lat="57.62126009999999" lon="-6.3288251"><ele>216.93</ele></trkpt>
<trkpt lat="57.62124229999999" lon="-6.329126499999999"><ele>216.31</ele></trkpt>
<trkpt lat="57.6211359" lon="-6.3294991000000005"><ele>215.34</ele></trkpt>
<trkpt lat="57.620943399999994" lon="-6.329754"><ele>214.23</ele></trkpt>
<trkpt lat="57.6206396" lon="-6.3299375"><ele>212.74</ele></trkpt>
<trkpt lat="57.62054669999999" lon="-6.3300961000000004"><ele>212.22</ele></trkpt>
<trkpt lat="57.620444799999994" lon="-6.3305419"><ele>211.34</ele></trkpt>
<trkpt lat="57.62027379999999" lon="-6.3316419"><ele>209.85</ele></trkpt>
<trkpt lat="57.620112" lon="-6.3321977"><ele>208.97</ele></trkpt>
<trkpt lat="57.6198967" lon="-6.3326542"><ele>207.89</ele></trkpt>
<trkpt lat="57.61930709999999" lon="-6.3337715"><ele>204.34</ele></trkpt>
<trkpt lat="57.6190906" lon="-6.3340682"><ele>203.22</ele></trkpt>
<trkpt lat="57.6185292" lon="-6.3347489999999995"><ele>200.54</ele></trkpt>
<trkpt lat="57.61828010000001" lon="-6.3349919"><ele>199.35</ele></trkpt>
<trkpt lat="57.6180513" lon="-6.33527"><ele>198.16</ele></trkpt>
<trkpt lat="57.6171404" lon="-6.3366108"><ele>193.2</ele></trkpt>
<trkpt lat="57.6166422" lon="-6.337465600000001"><ele>189.34</ele></trkpt>
<trkpt lat="57.61585879999999" lon="-6.3388575000000005"><ele>180.54</ele></trkpt>
<trkpt lat="57.6153594" lon="-6.3397502999999995"><ele>176.18</ele></trkpt>
<trkpt lat="57.6142118" lon="-6.341654899999999"><ele>171.86</ele></trkpt>
<trkpt lat="57.6140159" lon="-6.341882300000001"><ele>171.41</ele></trkpt>
<trkpt lat="57.6134408" lon="-6.3423773"><ele>170.81</ele></trkpt>
<trkpt lat="57.6127283" lon="-6.342787400000001"><ele>170.61</ele></trkpt>
<trkpt lat="57.6125318" lon="-6.3429569"><ele>170.58</ele></trkpt>
<trkpt lat="57.6124523" lon="-6.3430859"><ele>170.56</ele></trkpt>
<trkpt lat="57.612089799999985" lon="-6.343808"><ele>170.42</ele></trkpt>
<trkpt lat="57.61194979999999" lon="-6.3440373999999995"><ele>170.4</ele></trkpt>
<trkpt lat="57.6109811" lon="-6.3452191"><ele>170.58</ele></trkpt>
<trkpt lat="57.6105603" lon="-6.345758999999999"><ele>170.48</ele></trkpt>
<trkpt lat="57.609848" lon="-6.346584"><ele>169.96</ele></trkpt>
<trkpt lat="57.6094182" lon="-6.3470621"><ele>169.14</ele></trkpt>
<trkpt lat="57.6092558" lon="-6.347290999999999"><ele>168.6</ele></trkpt>
<trkpt lat="57.60893189999999" lon="-6.3479996"><ele>167.12</ele></trkpt>
<trkpt lat="57.60873200000001" lon="-6.3482135"><ele>166.66</ele></trkpt>
<trkpt lat="57.6085217" lon="-6.3482451"><ele>166.48</ele></trkpt>
<trkpt lat="57.6078854" lon="-6.348081999999999"><ele>166.84</ele></trkpt>
<trkpt lat="57.607574599999985" lon="-6.3481446"><ele>166.96</ele></trkpt>
<trkpt lat="57.606901699999995" lon="-6.3484783"><ele>166.78</ele></trkpt>
<trkpt lat="57.6059389" lon="-6.3488578"><ele>166.31</ele></trkpt>
<trkpt lat="57.6050855" lon="-6.3491998"><ele>164.99</ele></trkpt>
<trkpt lat="57.6048314" lon="-6.3493205"><ele>164.4</ele></trkpt>
<trkpt lat="57.6042092" lon="-6.3496976"><ele>162.55</ele></trkpt>
<trkpt lat="57.6033355" lon="-6.3499825"><ele>159.82</ele></trkpt>
<trkpt lat="57.6030813" lon="-6.350102100000001"><ele>158.79</ele></trkpt>
<trkpt lat="57.60248260000001" lon="-6.3505688000000005"><ele>155.72</ele></trkpt>
<trkpt lat="57.6018092" lon="-6.3511958"><ele>151.95</ele></trkpt>
<trkpt lat="57.6012818" lon="-6.352017599999999"><ele>148.79</ele></trkpt>
<trkpt lat="57.6011399" lon="-6.3521841"><ele>148.1</ele></trkpt>
<trkpt lat="57.600763799999996" lon="-6.352427399999999"><ele>146.65</ele></trkpt>
<trkpt lat="57.599861000000004" lon="-6.3526675"><ele>143.08</ele></trkpt>
<trkpt lat="57.599122900000005" lon="-6.3532077"><ele>138.87</ele></trkpt>
<trkpt lat="57.5988368" lon="-6.3534947"><ele>137.29</ele></trkpt>
<trkpt lat="57.5986861" lon="-6.353802"><ele>136.39</ele></trkpt>
<trkpt lat="57.5983257" lon="-6.3548117"><ele>134.02</ele></trkpt>
<trkpt lat="57.598213099999995" lon="-6.355504500000001"><ele>132.41</ele></trkpt>
<trkpt lat="57.5980966" lon="-6.355864700000001"><ele>131.55</ele></trkpt>
<trkpt lat="57.597089799999985" lon="-6.3574619000000006"><ele>127.48</ele></trkpt>
<trkpt lat="57.596830100000005" lon="-6.357926600000001"><ele>126.61</ele></trkpt>
<trkpt lat="57.596279599999995" lon="-6.3586623"><ele>125.44</ele></trkpt>
<trkpt lat="57.5960711" lon="-6.358991799999998"><ele>125.09</ele></trkpt>
<trkpt lat="57.5959519" lon="-6.359248900000001"><ele>124.89</ele></trkpt>
<trkpt lat="57.595789500000016" lon="-6.359717699999999"><ele>124.57</ele></trkpt>
<trkpt lat="57.59538059999999" lon="-6.3605807"><ele>123.49</ele></trkpt>
<trkpt lat="57.59502059999999" lon="-6.361517499999999"><ele>121.33</ele></trkpt>
<trkpt lat="57.5948092" lon="-6.362003299999999"><ele>119.99</ele></trkpt>
<trkpt lat="57.5945202" lon="-6.362772399999999"><ele>118.04</ele></trkpt>
<trkpt lat="57.5942116" lon="-6.3638814"><ele>115.53</ele></trkpt>
<trkpt lat="57.5941415" lon="-6.3643458"><ele>114.49</ele></trkpt>
<trkpt lat="57.593939" lon="-6.3678411"><ele>106.73</ele></trkpt>
<trkpt lat="57.5937943" lon="-6.3689369"><ele>104.75</ele></trkpt>
<trkpt lat="57.593740899999986" lon="-6.369486399999999"><ele>104.06</ele></trkpt>
<trkpt lat="57.5937254" lon="-6.3702586000000005"><ele>103.21</ele></trkpt>
<trkpt lat="57.5934509" lon="-6.3719684999999995"><ele>98.93</ele></trkpt>
<trkpt lat="57.59330580000001" lon="-6.373217499999998"><ele>95.52</ele></trkpt>
<trkpt lat="57.59328789999999" lon="-6.373513799999999"><ele>94.7</ele></trkpt>
<trkpt lat="57.5930455" lon="-6.374036099999999"><ele>92.75</ele></trkpt>
<trkpt lat="57.5929235" lon="-6.3746358"><ele>90.96</ele></trkpt>
<trkpt lat="57.5928143" lon="-6.374969"><ele>89.85</ele></trkpt>
<trkpt lat="57.592355" lon="-6.375679999999999"><ele>86.34</ele></trkpt>
<trkpt lat="57.5922321" lon="-6.375899000000001"><ele>85.24</ele></trkpt>
<trkpt lat="57.59180980000001" lon="-6.3768456"><ele>80.95</ele></trkpt>
<trkpt lat="57.5913891" lon="-6.377664200000001"><ele>77.66</ele></trkpt>
<trkpt lat="57.590988599999996" lon="-6.3786007"><ele>74.07</ele></trkpt>
<trkpt lat="57.59073999999999" lon="-6.3792618"><ele>71.41</ele></trkpt>
<trkpt lat="57.590622199999984" lon="-6.3795779"><ele>70.43</ele></trkpt>
<trkpt lat="57.59048769999999" lon="-6.379632899999999"><ele>70.02</ele></trkpt>
<trkpt lat="57.5904421" lon="-6.3793989"><ele>69.71</ele></trkpt>
<trkpt lat="57.5905411" lon="-6.379169"><ele>68.64</ele></trkpt>
<trkpt lat="57.5910793" lon="-6.377919000000001"><ele>63.27</ele></trkpt>
<trkpt lat="57.59168010000001" lon="-6.376088600000001"><ele>57.42</ele></trkpt>
<trkpt lat="57.591997799999994" lon="-6.3750457"><ele>54.32</ele></trkpt>
<trkpt lat="57.59214130000001" lon="-6.374476200000001"><ele>52.78</ele></trkpt>
<trkpt lat="57.59224010000001" lon="-6.3739219"><ele>51.4</ele></trkpt>
<trkpt lat="57.5923047" lon="-6.3733468"><ele>50.02</ele></trkpt>
<trkpt lat="57.5923329" lon="-6.3727931"><ele>48.65</ele></trkpt>
<trkpt lat="57.5923262" lon="-6.3721716"><ele>47.02</ele></trkpt>
<trkpt lat="57.592278900000004" lon="-6.371556700000002"><ele>45.26</ele></trkpt>
<trkpt lat="57.5920892" lon="-6.3702452"><ele>41.18</ele></trkpt>
<trkpt lat="57.5920943" lon="-6.3694713"><ele>38.9</ele></trkpt>
<trkpt lat="57.5920005" lon="-6.3681818"><ele>35.29</ele></trkpt>
<trkpt lat="57.5918508" lon="-6.367175"><ele>32.44</ele></trkpt>
<trkpt lat="57.5918333" lon="-6.366885"><ele>31.66</ele></trkpt>
<trkpt lat="57.5919204" lon="-6.365660799999999"><ele>28.33</ele></trkpt>
<trkpt lat="57.59204889999999" lon="-6.364463899999999"><ele>24.77</ele></trkpt>
<trkpt lat="57.5920952" lon="-6.3640857"><ele>23.57</ele></trkpt>
<trkpt lat="57.59211350000001" lon="-6.363858599999999"><ele>22.91</ele></trkpt>
<trkpt lat="57.5920348" lon="-6.363731599999999"><ele>22.24</ele></trkpt>
<trkpt lat="57.5919371" lon="-6.363892800000001"><ele>21.38</ele></trkpt>
<trkpt lat="57.5916312" lon="-6.3642483"><ele>19.17</ele></trkpt>
<trkpt lat="57.591415600000005" lon="-6.364343699999999"><ele>17.71</ele></trkpt>
<trkpt lat="57.5913585" lon="-6.3646357999999985"><ele>16.66</ele></trkpt>
<trkpt lat="57.5912197" lon="-6.3646507"><ele>15.85</ele></trkpt>
<trkpt lat="57.59117980000001" lon="-6.364768599999999"><ele>15.46</ele></trkpt>
<trkpt lat="57.5911694" lon="-6.3652715"><ele>14.58</ele></trkpt>
<trkpt lat="57.59106950000001" lon="-6.3673194"><ele>13.92</ele></trkpt>
<trkpt lat="57.590957" lon="-6.3684719"><ele>13.52</ele></trkpt>
<trkpt lat="57.5907611" lon="-6.3696692"><ele>12.69</ele></trkpt>
<trkpt lat="57.59060780000001" lon="-6.3703608"><ele>12.13</ele></trkpt>
<trkpt lat="57.5904293" lon="-6.371025799999999"><ele>11.7</ele></trkpt>
<trkpt lat="57.590203200000005" lon="-6.3717296"><ele>11.51</ele></trkpt>
<trkpt lat="57.589982100000014" lon="-6.372314200000001"><ele>11.53</ele></trkpt>
<trkpt lat="57.58961969999999" lon="-6.3731194"><ele>11.6</ele></trkpt>
<trkpt lat="57.589105100000005" lon="-6.3741424"><ele>11.37</ele></trkpt>
<trkpt lat="57.58891130000001" lon="-6.3745053"><ele>11.05</ele></trkpt>
<trkpt lat="57.5884094" lon="-6.3752193"><ele>9.79</ele></trkpt>
<trkpt lat="57.587891" lon="-6.375807599999999"><ele>8.59</ele></trkpt>
</trkseg>
</trk></gpx>
