<?xml version="1.0" encoding="UTF-8"?>
<gpx version="1.1" creator="GPXmagic" schemaLocation="http://www.topografix.com/GPX/1/1
  http://www.topografix.com/GPX/1/1/gpx.xsd" xmlns="http://www.topografix.com/GPX/1/1" xmlns:xsi="http://www.w3.org/2001/XMLSchema-instance" xsi:schemaLocation="http://www.topografix.com/GPX/1/1 http://www.topografix.com/GPX/1/1/gpx.xsd http://www.garmin.com/xmlschemas/GpxExtensions/v3 http://www.garmin.com/xmlschemas/GpxExtensionsv3.xsd http://www.garmin.com/xmlschemas/TrackPointExtension/v1 http://www.garmin.com/xmlschemas/TrackPointExtensionv1.xsd http://www.garmin.com/xmlschemas/PowerExtension/v1 http://www.garmin.com/xmlschemas/PowerExtensionv1.xsd http://www.topografix.com/GPX/gpx_style/0/2 http://www.topografix.com/GPX/gpx_style/0/2/gpx_style.xsd" xmlns:gpxtpx="http://www.garmin.com/xmlschemas/TrackPointExtension/v1" xmlns:gpxx="http://www.garmin.com/xmlschemas/GpxExtensions/v3" xmlns:gpxpx="http://www.garmin.com/xmlschemas/PowerExtension/v1" xmlns:gpx_style="http://www.topografix.com/GPX/gpx_style/0/2">
  <metadata>
    <name>Smoothed with GPXmagic</name>
    <author>
      <name>gpx.studio</name>
      <link href="https://gpx.studio"/>
    </author>
  </metadata>
  <trk>
    <name>Blunn&amp;#32;and&amp;#32;North&amp;#32;Table</name>
    <trkseg>
      <trkpt lat="39.82697974235499" lon="-105.1868464563525">
        <ele>1734.4779221375532</ele>
      </trkpt>
      <trkpt lat="39.82693914065883" lon="-105.19092206194381">
        <ele>1746.2718308262185</ele>
      </trkpt>
      <trkpt lat="39.82691934299488" lon="-105.1912273726477">
        <ele>1747.9874748252328</ele>
      </trkpt>
      <trkpt lat="39.8267854000657" lon="-105.192264825435">
        <ele>1752.9528477963065</ele>
      </trkpt>
      <trkpt lat="39.82672740841224" lon="-105.19251652321948">
        <ele>1753.822743989965</ele>
      </trkpt>
      <trkpt lat="39.82659699135841" lon="-105.1928155241031">
        <ele>1754.6562259581824</ele>
      </trkpt>
      <trkpt lat="39.82643874426604" lon="-105.19302633265525">
        <ele>1754.8878195282339</ele>
      </trkpt>
      <trkpt lat="39.82566489410205" lon="-105.19373906681444">
        <ele>1751.6359483962015</ele>
      </trkpt>
      <trkpt lat="39.82542239291309" lon="-105.19405252147779">
        <ele>1749.4815311134194</ele>
      </trkpt>
      <trkpt lat="39.824945018058315" lon="-105.19500138315277">
        <ele>1742.5677174889356</ele>
      </trkpt>
      <trkpt lat="39.82480935696825" lon="-105.19544339935265">
        <ele>1741.9318679119438</ele>
      </trkpt>
      <trkpt lat="39.824349691085416" lon="-105.1971062796008">
        <ele>1742.2410469724769</ele>
      </trkpt>
      <trkpt lat="39.824231250869474" lon="-105.1973953606538">
        <ele>1741.952703647438</ele>
      </trkpt>
      <trkpt lat="39.82410640830939" lon="-105.1975691390394">
        <ele>1741.646358780789</ele>
      </trkpt>
      <trkpt lat="39.82387807980969" lon="-105.19778231667716">
        <ele>1741.1640217571155</ele>
      </trkpt>
      <trkpt lat="39.82350794806416" lon="-105.19798826396914">
        <ele>1740.5257626854618</ele>
      </trkpt>
      <trkpt lat="39.82347957898445" lon="-105.19803274246219">
        <ele>1740.5433409206667</ele>
      </trkpt>
      <trkpt lat="39.82347335402088" lon="-105.19809770548855">
        <ele>1740.5927510826707</ele>
      </trkpt>
      <trkpt lat="39.82350283825076" lon="-105.1982284445407">
        <ele>1740.7464808780605</ele>
      </trkpt>
      <trkpt lat="39.823570954923404" lon="-105.19830054633397">
        <ele>1740.8630599153255</ele>
      </trkpt>
      <trkpt lat="39.823795277753" lon="-105.19833068230443">
        <ele>1741.0433197501404</ele>
      </trkpt>
      <trkpt lat="39.824350966329234" lon="-105.19860531474666">
        <ele>1741.985473020011</ele>
      </trkpt>
      <trkpt lat="39.82476877636527" lon="-105.19869834968439">
        <ele>1743.7661974393582</ele>
      </trkpt>
      <trkpt lat="39.824820809347386" lon="-105.19872951834085">
        <ele>1743.9842646779082</ele>
      </trkpt>
      <trkpt lat="39.82487380757474" lon="-105.19879193384763">
        <ele>1744.2300556518785</ele>
      </trkpt>
      <trkpt lat="39.8250312368562" lon="-105.19929747775556">
        <ele>1745.3604240393663</ele>
      </trkpt>
      <trkpt lat="39.8252991061798" lon="-105.19991906963853">
        <ele>1746.429369847995</ele>
      </trkpt>
      <trkpt lat="39.82548284737705" lon="-105.20039769769122">
        <ele>1747.5234471568704</ele>
      </trkpt>
      <trkpt lat="39.82563736296825" lon="-105.20066306824961">
        <ele>1748.3463619423228</ele>
      </trkpt>
      <trkpt lat="39.82584005049031" lon="-105.20096348120055">
        <ele>1749.4349219081523</ele>
      </trkpt>
      <trkpt lat="39.825860284769995" lon="-105.20108876608845">
        <ele>1749.8143374853985</ele>
      </trkpt>
      <trkpt lat="39.82586716127504" lon="-105.20151781641789">
        <ele>1750.9957278446345</ele>
      </trkpt>
      <trkpt lat="39.82584374065257" lon="-105.20178278021822">
        <ele>1752.001427737107</ele>
      </trkpt>
      <trkpt lat="39.82585428065627" lon="-105.20183543789251">
        <ele>1752.2173317152349</ele>
      </trkpt>
      <trkpt lat="39.825879079665235" lon="-105.20186981263399">
        <ele>1752.3803010748784</ele>
      </trkpt>
      <trkpt lat="39.82592145819819" lon="-105.2018755422336">
        <ele>1752.5563951301724</ele>
      </trkpt>
      <trkpt lat="39.82595951639173" lon="-105.20183919499982">
        <ele>1752.795906418411</ele>
      </trkpt>
      <trkpt lat="39.82603049681479" lon="-105.20158815486653">
        <ele>1754.1059141517358</ele>
      </trkpt>
      <trkpt lat="39.82612108630258" lon="-105.20144479326423">
        <ele>1754.9340452289332</ele>
      </trkpt>
      <trkpt lat="39.826193120395295" lon="-105.20138742848354">
        <ele>1755.3102735516832</ele>
      </trkpt>
      <trkpt lat="39.826305653310236" lon="-105.20135385661006">
        <ele>1755.6887686985979</ele>
      </trkpt>
      <trkpt lat="39.826542164434166" lon="-105.20135137028352">
        <ele>1756.198790533659</ele>
      </trkpt>
      <trkpt lat="39.82684065104932" lon="-105.20140169600508">
        <ele>1756.0328592761161</ele>
      </trkpt>
      <trkpt lat="39.827199851398284" lon="-105.20153109751475">
        <ele>1755.0899918516616</ele>
      </trkpt>
      <trkpt lat="39.827453871241346" lon="-105.20165656014504">
        <ele>1754.2245995169344</ele>
      </trkpt>
      <trkpt lat="39.82781410095286" lon="-105.20174773276183">
        <ele>1752.7577582704005</ele>
      </trkpt>
      <trkpt lat="39.827959744873006" lon="-105.20172679925136">
        <ele>1752.2606187930198</ele>
      </trkpt>
      <trkpt lat="39.82835192713245" lon="-105.20153429044416">
        <ele>1751.7490170108927</ele>
      </trkpt>
      <trkpt lat="39.82845578303031" lon="-105.2015214025487">
        <ele>1751.8914884266371</ele>
      </trkpt>
      <trkpt lat="39.8285203887109" lon="-105.20156299387874">
        <ele>1752.080118027362</ele>
      </trkpt>
      <trkpt lat="39.82857445948698" lon="-105.20163389493096">
        <ele>1752.3734019774229</ele>
      </trkpt>
      <trkpt lat="39.82863671022057" lon="-105.20175235595374">
        <ele>1752.9496218870302</ele>
      </trkpt>
      <trkpt lat="39.82876761152364" lon="-105.20209081319463">
        <ele>1754.667486981163</ele>
      </trkpt>
      <trkpt lat="39.828834311369945" lon="-105.20220438072067">
        <ele>1755.169234899156</ele>
      </trkpt>
      <trkpt lat="39.828919473166735" lon="-105.20229287135683">
        <ele>1755.6453758901798</ele>
      </trkpt>
      <trkpt lat="39.82904563381324" lon="-105.20239803335656">
        <ele>1756.3615668969655</ele>
      </trkpt>
      <trkpt lat="39.82912770281093" lon="-105.202442526707">
        <ele>1756.8365651558338</ele>
      </trkpt>
      <trkpt lat="39.82931580233304" lon="-105.20251677436535">
        <ele>1757.8545168175065</ele>
      </trkpt>
      <trkpt lat="39.82962709240711" lon="-105.20260195740191">
        <ele>1759.1189331893652</ele>
      </trkpt>
      <trkpt lat="39.82975152163903" lon="-105.20265925848311">
        <ele>1759.7935057124446</ele>
      </trkpt>
      <trkpt lat="39.82999593777573" lon="-105.20297452789191">
        <ele>1761.9933100823303</ele>
      </trkpt>
      <trkpt lat="39.83021060918457" lon="-105.20313649880887">
        <ele>1763.6261815723956</ele>
      </trkpt>
      <trkpt lat="39.83025174817402" lon="-105.20320156191997">
        <ele>1763.9859508672346</ele>
      </trkpt>
      <trkpt lat="39.83023923020714" lon="-105.20326943476863">
        <ele>1764.262455576513</ele>
      </trkpt>
      <trkpt lat="39.830181832163554" lon="-105.20330218467426">
        <ele>1764.569266286457</ele>
      </trkpt>
      <trkpt lat="39.8297319571882" lon="-105.20325692688132">
        <ele>1767.0759966336357</ele>
      </trkpt>
      <trkpt lat="39.829562480270496" lon="-105.20321532594244">
        <ele>1768.0262878717276</ele>
      </trkpt>
      <trkpt lat="39.82950423801938" lon="-105.20323796778212">
        <ele>1768.2791834268496</ele>
      </trkpt>
      <trkpt lat="39.82948564080556" lon="-105.2032951281181">
        <ele>1768.4197880090499</ele>
      </trkpt>
      <trkpt lat="39.82950044134349" lon="-105.20334593405836">
        <ele>1768.5789740001699</ele>
      </trkpt>
      <trkpt lat="39.82953761785499" lon="-105.20338986168753">
        <ele>1768.8171861705289</ele>
      </trkpt>
      <trkpt lat="39.82970874636398" lon="-105.20348990414311">
        <ele>1769.7939696405356</ele>
      </trkpt>
      <trkpt lat="39.82995766562582" lon="-105.20367423327761">
        <ele>1771.1189146359523</ele>
      </trkpt>
      <trkpt lat="39.830262098380835" lon="-105.20404641524536">
        <ele>1772.7385996713674</ele>
      </trkpt>
      <trkpt lat="39.830305689700296" lon="-105.20421133164064">
        <ele>1773.427281406872</ele>
      </trkpt>
      <trkpt lat="39.83033089003352" lon="-105.20451778221025">
        <ele>1774.2758579286242</ele>
      </trkpt>
      <trkpt lat="39.8304360459662" lon="-105.2049710110979">
        <ele>1774.8423229968155</ele>
      </trkpt>
      <trkpt lat="39.83045403054696" lon="-105.20523068107416">
        <ele>1775.3487514307087</ele>
      </trkpt>
      <trkpt lat="39.830454615127145" lon="-105.20539448076434">
        <ele>1775.6920064384726</ele>
      </trkpt>
      <trkpt lat="39.83039158548349" lon="-105.20613709876115">
        <ele>1777.1232762753118</ele>
      </trkpt>
      <trkpt lat="39.830416821590575" lon="-105.20733973522177">
        <ele>1782.1201324058509</ele>
      </trkpt>
      <trkpt lat="39.830233335241005" lon="-105.2088702573032">
        <ele>1787.219906471856</ele>
      </trkpt>
      <trkpt lat="39.83024017302436" lon="-105.20916518898473">
        <ele>1788.1205469313757</ele>
      </trkpt>
      <trkpt lat="39.83028707681743" lon="-105.20958027700897">
        <ele>1789.8787782582888</ele>
      </trkpt>
      <trkpt lat="39.830280047789095" lon="-105.21033504918985">
        <ele>1792.734065564065</ele>
      </trkpt>
      <trkpt lat="39.83013130653276" lon="-105.21137367753708">
        <ele>1797.1952171105845</ele>
      </trkpt>
      <trkpt lat="39.83013945484545" lon="-105.21149517540611">
        <ele>1797.5839144228125</ele>
      </trkpt>
      <trkpt lat="39.83020016084308" lon="-105.21179266261976">
        <ele>1798.455924412986</ele>
      </trkpt>
      <trkpt lat="39.830209489299065" lon="-105.21190436053605">
        <ele>1798.8161517311707</ele>
      </trkpt>
      <trkpt lat="39.83018341026623" lon="-105.21240009803334">
        <ele>1800.4819685069363</ele>
      </trkpt>
      <trkpt lat="39.83021844938924" lon="-105.21304492261552">
        <ele>1803.7679864854194</ele>
      </trkpt>
      <trkpt lat="39.83019437233008" lon="-105.21360984121753">
        <ele>1805.9746147001185</ele>
      </trkpt>
      <trkpt lat="39.83021478617074" lon="-105.21374788746063">
        <ele>1806.3445378232177</ele>
      </trkpt>
      <trkpt lat="39.83030162921282" lon="-105.21399009904357">
        <ele>1806.844660109088</ele>
      </trkpt>
      <trkpt lat="39.83031957992997" lon="-105.21409899633818">
        <ele>1807.009123205799</ele>
      </trkpt>
      <trkpt lat="39.830329414952686" lon="-105.21499967659685">
        <ele>1808.207217067406</ele>
      </trkpt>
      <trkpt lat="39.83030101150389" lon="-105.2158193466591">
        <ele>1809.606279442148</ele>
      </trkpt>
      <trkpt lat="39.830339628375846" lon="-105.21666256296847">
        <ele>1810.680794095107</ele>
      </trkpt>
      <trkpt lat="39.83034919349833" lon="-105.21742068060043">
        <ele>1811.7624169902438</ele>
      </trkpt>
      <trkpt lat="39.8302916127887" lon="-105.21888864795982">
        <ele>1814.3278760791595</ele>
      </trkpt>
      <trkpt lat="39.83033799275224" lon="-105.21956471638158">
        <ele>1815.2930504563317</ele>
      </trkpt>
      <trkpt lat="39.83033938582341" lon="-105.21975806652065">
        <ele>1815.9386871816587</ele>
      </trkpt>
      <trkpt lat="39.83033107820553" lon="-105.21985976804365">
        <ele>1816.2486436839806</ele>
      </trkpt>
      <trkpt lat="39.83028346350293" lon="-105.22003184159655">
        <ele>1816.5874749741463</ele>
      </trkpt>
      <trkpt lat="39.83011467778287" lon="-105.22032618526653">
        <ele>1816.7536708505536</ele>
      </trkpt>
      <trkpt lat="39.829879438103454" lon="-105.22060771422264">
        <ele>1816.2082621426093</ele>
      </trkpt>
      <trkpt lat="39.82976263965303" lon="-105.22077286594164">
        <ele>1815.6271725139527</ele>
      </trkpt>
      <trkpt lat="39.82956262126942" lon="-105.22121486091284">
        <ele>1814.0507012056664</ele>
      </trkpt>
      <trkpt lat="39.82952829109943" lon="-105.22134288247291">
        <ele>1813.5730802464968</ele>
      </trkpt>
      <trkpt lat="39.82955265598567" lon="-105.22159112791749">
        <ele>1812.5077782856968</ele>
      </trkpt>
      <trkpt lat="39.829544934269904" lon="-105.22163139987015">
        <ele>1812.3395900001913</ele>
      </trkpt>
      <trkpt lat="39.82951756380348" lon="-105.22166729250421">
        <ele>1812.1686171429235</ele>
      </trkpt>
      <trkpt lat="39.82946175423506" lon="-105.22165927520759">
        <ele>1811.9020596409762</ele>
      </trkpt>
      <trkpt lat="39.82942520556978" lon="-105.22157925382484">
        <ele>1811.449080617528</ele>
      </trkpt>
      <trkpt lat="39.82940546350192" lon="-105.22136030836532">
        <ele>1810.1526844378252</ele>
      </trkpt>
      <trkpt lat="39.82942459606744" lon="-105.22105015643024">
        <ele>1808.5656901657364</ele>
      </trkpt>
      <trkpt lat="39.82939389450276" lon="-105.22087672985943">
        <ele>1807.8921787261281</ele>
      </trkpt>
      <trkpt lat="39.829345709654504" lon="-105.22076399166922">
        <ele>1807.4204478541028</ele>
      </trkpt>
      <trkpt lat="39.82930484687678" lon="-105.22071442957517">
        <ele>1807.12788030062</ele>
      </trkpt>
      <trkpt lat="39.82925452626822" lon="-105.22071409019533">
        <ele>1806.8433417698498</ele>
      </trkpt>
      <trkpt lat="39.82921469064831" lon="-105.22077337205128">
        <ele>1806.4693049348227</ele>
      </trkpt>
      <trkpt lat="39.82919043515843" lon="-105.22093546558547">
        <ele>1805.6482722013927</ele>
      </trkpt>
      <trkpt lat="39.829181471795906" lon="-105.22140324681544">
        <ele>1803.8400873720511</ele>
      </trkpt>
      <trkpt lat="39.82923113802574" lon="-105.22201555741334">
        <ele>1802.1265514890638</ele>
      </trkpt>
      <trkpt lat="39.82933033687919" lon="-105.22249612490567">
        <ele>1800.5634729048943</ele>
      </trkpt>
      <trkpt lat="39.829322262846595" lon="-105.22258786469489">
        <ele>1800.2099996769568</ele>
      </trkpt>
      <trkpt lat="39.82928491505256" lon="-105.22263649363596">
        <ele>1799.9248308250137</ele>
      </trkpt>
      <trkpt lat="39.829243612942456" lon="-105.22264606427582">
        <ele>1799.6927081731274</ele>
      </trkpt>
      <trkpt lat="39.829211542678536" lon="-105.22263014566762">
        <ele>1799.5008494671513</ele>
      </trkpt>
      <trkpt lat="39.82916831289499" lon="-105.22253398136549">
        <ele>1799.025949343187</ele>
      </trkpt>
      <trkpt lat="39.828931924253794" lon="-105.2216723612357">
        <ele>1795.3427323093272</ele>
      </trkpt>
      <trkpt lat="39.828837754052465" lon="-105.22109444952525">
        <ele>1792.5904628014468</ele>
      </trkpt>
      <trkpt lat="39.828805761636936" lon="-105.22098440504656">
        <ele>1792.0944618446106</ele>
      </trkpt>
      <trkpt lat="39.82874839653181" lon="-105.22091402669456">
        <ele>1791.63331841486</ele>
      </trkpt>
      <trkpt lat="39.82867456411672" lon="-105.2208915422908">
        <ele>1791.1579633698775</ele>
      </trkpt>
      <trkpt lat="39.8286007312506" lon="-105.22094021039283">
        <ele>1790.641501100785</ele>
      </trkpt>
      <trkpt lat="39.82853856386833" lon="-105.22104665737588">
        <ele>1790.0580672987342</ele>
      </trkpt>
      <trkpt lat="39.82852345782807" lon="-105.22112349373941">
        <ele>1789.7476264266527</ele>
      </trkpt>
      <trkpt lat="39.82852579978117" lon="-105.22121869367362">
        <ele>1789.3967035675207</ele>
      </trkpt>
      <trkpt lat="39.828636475286274" lon="-105.22167111315802">
        <ele>1787.7834890706458</ele>
      </trkpt>
      <trkpt lat="39.828689048420486" lon="-105.22221150527027">
        <ele>1786.2607172396647</ele>
      </trkpt>
      <trkpt lat="39.82867772989674" lon="-105.22270862581362">
        <ele>1785.288845081341</ele>
      </trkpt>
      <trkpt lat="39.82859201593992" lon="-105.22302914113821">
        <ele>1784.3282845583142</ele>
      </trkpt>
      <trkpt lat="39.828575746214725" lon="-105.22315291649905">
        <ele>1783.964288417745</ele>
      </trkpt>
      <trkpt lat="39.828641125310554" lon="-105.22356829054353">
        <ele>1782.4171405074344</ele>
      </trkpt>
      <trkpt lat="39.82867866154415" lon="-105.22404923672417">
        <ele>1780.652295000102</ele>
      </trkpt>
      <trkpt lat="39.82867334280324" lon="-105.2242895934317">
        <ele>1780.071869543625</ele>
      </trkpt>
      <trkpt lat="39.82863069819319" lon="-105.22483980271826">
        <ele>1777.7667113177247</ele>
      </trkpt>
      <trkpt lat="39.828489091527025" lon="-105.2257127085095">
        <ele>1775.1333003583118</ele>
      </trkpt>
      <trkpt lat="39.828451067221465" lon="-105.22586357129579">
        <ele>1774.5699642367417</ele>
      </trkpt>
      <trkpt lat="39.828394808622896" lon="-105.22593752682899">
        <ele>1774.157556833526</ele>
      </trkpt>
      <trkpt lat="39.82835027008228" lon="-105.225943730357">
        <ele>1773.9163076428983</ele>
      </trkpt>
      <trkpt lat="39.82829716163341" lon="-105.22590517171702">
        <ele>1773.5793944019701</ele>
      </trkpt>
      <trkpt lat="39.82806567414686" lon="-105.22556864231781">
        <ele>1771.5185914535055</ele>
      </trkpt>
      <trkpt lat="39.82804565747001" lon="-105.22548997992513">
        <ele>1771.2106071287506</ele>
      </trkpt>
      <trkpt lat="39.82799650420531" lon="-105.22504804255324">
        <ele>1769.9004214559848</ele>
      </trkpt>
      <trkpt lat="39.8279330205971" lon="-105.22486903014698">
        <ele>1769.2146194019567</ele>
      </trkpt>
      <trkpt lat="39.82786573927847" lon="-105.22476654318592">
        <ele>1768.6621934965092</ele>
      </trkpt>
      <trkpt lat="39.82781241607956" lon="-105.22472760429257">
        <ele>1768.316394462574</ele>
      </trkpt>
      <trkpt lat="39.82774035111607" lon="-105.22471687083969">
        <ele>1767.912586774367</ele>
      </trkpt>
      <trkpt lat="39.82743374548014" lon="-105.22480298425286">
        <ele>1766.6409864164254</ele>
      </trkpt>
      <trkpt lat="39.827222349015884" lon="-105.22480418107789">
        <ele>1766.2584799468248</ele>
      </trkpt>
      <trkpt lat="39.82715071280565" lon="-105.22475988504236">
        <ele>1766.1818671996996</ele>
      </trkpt>
      <trkpt lat="39.82685992271412" lon="-105.22443024833349">
        <ele>1765.7542908442692</ele>
      </trkpt>
      <trkpt lat="39.82679272154641" lon="-105.2242478106985">
        <ele>1765.5171086729626</ele>
      </trkpt>
      <trkpt lat="39.82677330012489" lon="-105.22408278382078">
        <ele>1765.2732825064966</ele>
      </trkpt>
      <trkpt lat="39.82678311385206" lon="-105.22391192051685">
        <ele>1764.9600533863427</ele>
      </trkpt>
      <trkpt lat="39.82687371642578" lon="-105.22343007452159">
        <ele>1763.847785487223</ele>
      </trkpt>
      <trkpt lat="39.8268649952797" lon="-105.22329994178251">
        <ele>1763.5460335064151</ele>
      </trkpt>
      <trkpt lat="39.826813658006884" lon="-105.2231918501547">
        <ele>1763.2887846179865</ele>
      </trkpt>
      <trkpt lat="39.82675701569499" lon="-105.22315767492874">
        <ele>1763.1591117230391</ele>
      </trkpt>
      <trkpt lat="39.82664994791572" lon="-105.22313595152795">
        <ele>1763.0095555169944</ele>
      </trkpt>
      <trkpt lat="39.82622006977796" lon="-105.22309510658812">
        <ele>1763.0969865073714</ele>
      </trkpt>
      <trkpt lat="39.82609122113467" lon="-105.22303891752689">
        <ele>1763.2921585189717</ele>
      </trkpt>
      <trkpt lat="39.82593720994124" lon="-105.2228859931427">
        <ele>1763.7935199440299</ele>
      </trkpt>
      <trkpt lat="39.82572129835243" lon="-105.22256893445537">
        <ele>1765.2547088591716</ele>
      </trkpt>
      <trkpt lat="39.82562375353919" lon="-105.22238918504793">
        <ele>1765.8738066917942</ele>
      </trkpt>
      <trkpt lat="39.82550705669132" lon="-105.22206536218638">
        <ele>1766.3205073869237</ele>
      </trkpt>
      <trkpt lat="39.82546873817035" lon="-105.22201046458092">
        <ele>1766.335241533461</ele>
      </trkpt>
      <trkpt lat="39.82542745620487" lon="-105.22197658348486">
        <ele>1766.3307416319417</ele>
      </trkpt>
      <trkpt lat="39.825334894735576" lon="-105.22194576750839">
        <ele>1766.2867776422454</ele>
      </trkpt>
      <trkpt lat="39.82482202457324" lon="-105.2218968682854">
        <ele>1765.9488935920747</ele>
      </trkpt>
      <trkpt lat="39.82475893283034" lon="-105.22187097164388">
        <ele>1765.970744372022</ele>
      </trkpt>
      <trkpt lat="39.824690906088" lon="-105.22181412254406">
        <ele>1766.02524640258</ele>
      </trkpt>
      <trkpt lat="39.82407455399295" lon="-105.22121439799751">
        <ele>1766.9380586707694</ele>
      </trkpt>
      <trkpt lat="39.82353866376537" lon="-105.22015855030152">
        <ele>1769.5505789453657</ele>
      </trkpt>
      <trkpt lat="39.823470316126894" lon="-105.22005627718228">
        <ele>1770.1814616492131</ele>
      </trkpt>
      <trkpt lat="39.82342483357603" lon="-105.22003075054268">
        <ele>1770.4957923371915</ele>
      </trkpt>
      <trkpt lat="39.82338387291525" lon="-105.22003583567091">
        <ele>1770.7480285654872</ele>
      </trkpt>
      <trkpt lat="39.823319723964154" lon="-105.22011309376335">
        <ele>1771.2439237634399</ele>
      </trkpt>
      <trkpt lat="39.82330273819288" lon="-105.22021514775835">
        <ele>1771.6402530016853</ele>
      </trkpt>
      <trkpt lat="39.823303004772875" lon="-105.22061912109173">
        <ele>1773.0414159856891</ele>
      </trkpt>
      <trkpt lat="39.82326649379496" lon="-105.22071613391734">
        <ele>1773.3584940369353</ele>
      </trkpt>
      <trkpt lat="39.823206331684105" lon="-105.22078213117761">
        <ele>1773.6197840029713</ele>
      </trkpt>
      <trkpt lat="39.823063338127234" lon="-105.22085840688449">
        <ele>1774.0228382344787</ele>
      </trkpt>
      <trkpt lat="39.82289799364473" lon="-105.22088088930711">
        <ele>1774.2919177583585</ele>
      </trkpt>
      <trkpt lat="39.822742745860474" lon="-105.22084340196602">
        <ele>1774.3638927348536</ele>
      </trkpt>
      <trkpt lat="39.822609475092165" lon="-105.22075031341801">
        <ele>1774.1791393950457</ele>
      </trkpt>
      <trkpt lat="39.822326077194475" lon="-105.22037476930016">
        <ele>1773.2104306274903</ele>
      </trkpt>
      <trkpt lat="39.821985770406066" lon="-105.21975140683939">
        <ele>1772.6258415488398</ele>
      </trkpt>
      <trkpt lat="39.821619650017865" lon="-105.21907691724061">
        <ele>1772.8773797529816</ele>
      </trkpt>
      <trkpt lat="39.82145922537207" lon="-105.21872196220608">
        <ele>1773.1060084012588</ele>
      </trkpt>
      <trkpt lat="39.82100094032535" lon="-105.21793969524289">
        <ele>1774.9802374653857</ele>
      </trkpt>
      <trkpt lat="39.820629157580775" lon="-105.21718453068195">
        <ele>1776.8661761585386</ele>
      </trkpt>
      <trkpt lat="39.82050293947868" lon="-105.2168883371738">
        <ele>1776.7351947790198</ele>
      </trkpt>
      <trkpt lat="39.82044819557848" lon="-105.21683185756712">
        <ele>1776.6585433229313</ele>
      </trkpt>
      <trkpt lat="39.82038187806019" lon="-105.21679743228151">
        <ele>1776.5844863442076</ele>
      </trkpt>
      <trkpt lat="39.82014054861985" lon="-105.21678391093917">
        <ele>1776.3300195580514</ele>
      </trkpt>
      <trkpt lat="39.8199484678956" lon="-105.21672046807286">
        <ele>1775.9995282526602</ele>
      </trkpt>
      <trkpt lat="39.81985029383354" lon="-105.21666890318816">
        <ele>1775.7253305026886</ele>
      </trkpt>
      <trkpt lat="39.8197741752277" lon="-105.2166036893104">
        <ele>1775.4480436415608</ele>
      </trkpt>
      <trkpt lat="39.81916145023127" lon="-105.21563361827766">
        <ele>1774.4366456431633</ele>
      </trkpt>
      <trkpt lat="39.818897268207586" lon="-105.21526779388125">
        <ele>1774.705054044862</ele>
      </trkpt>
      <trkpt lat="39.81844577773861" lon="-105.21474050709473">
        <ele>1774.8616573066452</ele>
      </trkpt>
      <trkpt lat="39.81834946842396" lon="-105.2147052619384">
        <ele>1775.2052799966398</ele>
      </trkpt>
      <trkpt lat="39.81805942920086" lon="-105.21469809530755">
        <ele>1776.728591653473</ele>
      </trkpt>
      <trkpt lat="39.817260825484794" lon="-105.21459448180471">
        <ele>1777.8542616092432</ele>
      </trkpt>
      <trkpt lat="39.816885721161896" lon="-105.21443567570505">
        <ele>1776.6194390649584</ele>
      </trkpt>
      <trkpt lat="39.81682767871678" lon="-105.21436056644231">
        <ele>1776.2781264015541</ele>
      </trkpt>
      <trkpt lat="39.81676274236244" lon="-105.21410978709181">
        <ele>1775.3300101936331</ele>
      </trkpt>
      <trkpt lat="39.81673718538362" lon="-105.21392577650208">
        <ele>1774.4956228653057</ele>
      </trkpt>
      <trkpt lat="39.816735230764685" lon="-105.21370009589926">
        <ele>1773.4621123400923</ele>
      </trkpt>
      <trkpt lat="39.81672029879743" lon="-105.21359823282454">
        <ele>1773.0911043284868</ele>
      </trkpt>
      <trkpt lat="39.81663011670989" lon="-105.21341569970254">
        <ele>1772.5562193502085</ele>
      </trkpt>
      <trkpt lat="39.81650966893588" lon="-105.21331824050105">
        <ele>1772.3107589837912</ele>
      </trkpt>
      <trkpt lat="39.81582730575645" lon="-105.21298837800182">
        <ele>1773.5836243327174</ele>
      </trkpt>
      <trkpt lat="39.81566259852605" lon="-105.21295001960137">
        <ele>1774.2250438193337</ele>
      </trkpt>
      <trkpt lat="39.815361695408825" lon="-105.21294527203722">
        <ele>1775.8344051214012</ele>
      </trkpt>
      <trkpt lat="39.8151444628466" lon="-105.21302638015503">
        <ele>1776.58884809149</ele>
      </trkpt>
      <trkpt lat="39.814800496033335" lon="-105.21304466241187">
        <ele>1776.8398977304817</ele>
      </trkpt>
      <trkpt lat="39.814436926679825" lon="-105.21315144808989">
        <ele>1777.0077465264878</ele>
      </trkpt>
      <trkpt lat="39.81428951530958" lon="-105.2131547994275">
        <ele>1777.0093865648569</ele>
      </trkpt>
      <trkpt lat="39.814200173939106" lon="-105.21311937321818">
        <ele>1776.9834192253134</ele>
      </trkpt>
      <trkpt lat="39.81410767075496" lon="-105.21305367342354">
        <ele>1776.9394149420107</ele>
      </trkpt>
      <trkpt lat="39.81362607981378" lon="-105.21254899236314">
        <ele>1776.7484199773257</ele>
      </trkpt>
      <trkpt lat="39.81340680785204" lon="-105.21245478875957">
        <ele>1776.83836097409</ele>
      </trkpt>
      <trkpt lat="39.8116661069665" lon="-105.21214747237455">
        <ele>1776.0936082818857</ele>
      </trkpt>
      <trkpt lat="39.81146223239966" lon="-105.21218144242827">
        <ele>1776.1319852760705</ele>
      </trkpt>
      <trkpt lat="39.81084940189009" lon="-105.2123924293603">
        <ele>1776.6908369162927</ele>
      </trkpt>
      <trkpt lat="39.81042211242585" lon="-105.21236270265065">
        <ele>1776.6879753835717</ele>
      </trkpt>
      <trkpt lat="39.810032074397355" lon="-105.21223397047449">
        <ele>1775.999722486149</ele>
      </trkpt>
      <trkpt lat="39.809775325709516" lon="-105.21203511997479">
        <ele>1774.9951087231223</ele>
      </trkpt>
      <trkpt lat="39.80966109400167" lon="-105.21189450501693">
        <ele>1774.3004843729238</ele>
      </trkpt>
      <trkpt lat="39.80725996886385" lon="-105.20821922347605">
        <ele>1759.5629219729535</ele>
      </trkpt>
      <trkpt lat="39.80717770028592" lon="-105.20803261411764">
        <ele>1759.38243394909</ele>
      </trkpt>
      <trkpt lat="39.807014535684516" lon="-105.20784203016706">
        <ele>1759.0989452177716</ele>
      </trkpt>
      <trkpt lat="39.80490222358419" lon="-105.20451230855022">
        <ele>1755.3666825096782</ele>
      </trkpt>
      <trkpt lat="39.804771261264534" lon="-105.2042548049208">
        <ele>1755.4606490960466</ele>
      </trkpt>
      <trkpt lat="39.80471603000947" lon="-105.20420958454608">
        <ele>1755.507160938635</ele>
      </trkpt>
      <trkpt lat="39.80468285162458" lon="-105.20422146905254">
        <ele>1755.5280814556354</ele>
      </trkpt>
      <trkpt lat="39.80465572951259" lon="-105.20425854725684">
        <ele>1755.5673847753685</ele>
      </trkpt>
      <trkpt lat="39.80459461830437" lon="-105.20442634411015">
        <ele>1755.8062993791395</ele>
      </trkpt>
      <trkpt lat="39.804448299898844" lon="-105.20473704491653">
        <ele>1756.3879835627536</ele>
      </trkpt>
      <trkpt lat="39.80296523859493" lon="-105.20770570339388">
        <ele>1760.342700419755</ele>
      </trkpt>
      <trkpt lat="39.80278154883456" lon="-105.2079870798917">
        <ele>1761.0213197869132</ele>
      </trkpt>
      <trkpt lat="39.80223253544203" lon="-105.20855283968324">
        <ele>1763.7364082657346</ele>
      </trkpt>
      <trkpt lat="39.802082935416735" lon="-105.20878159342995">
        <ele>1764.3253110818348</ele>
      </trkpt>
      <trkpt lat="39.80197341398651" lon="-105.2090316530479">
        <ele>1764.7427257575123</ele>
      </trkpt>
      <trkpt lat="39.80191323289186" lon="-105.20928100167649">
        <ele>1765.181346441385</ele>
      </trkpt>
      <trkpt lat="39.80189158399709" lon="-105.20952999445284">
        <ele>1765.6422434329736</ele>
      </trkpt>
      <trkpt lat="39.80187957689043" lon="-105.21225292672176">
        <ele>1770.553454327418</ele>
      </trkpt>
      <trkpt lat="39.80185664296242" lon="-105.21234247883666">
        <ele>1770.6879197510686</ele>
      </trkpt>
      <trkpt lat="39.80179560708036" lon="-105.2123647219712">
        <ele>1770.7925978717997</ele>
      </trkpt>
      <trkpt lat="39.80068874800278" lon="-105.21239891613808">
        <ele>1772.7074425759406</ele>
      </trkpt>
      <trkpt lat="39.79965274033609" lon="-105.21233142738825">
        <ele>1776.6748700877024</ele>
      </trkpt>
      <trkpt lat="39.79917907253079" lon="-105.2123594508201">
        <ele>1779.550936394899</ele>
      </trkpt>
      <trkpt lat="39.798468222805994" lon="-105.21235597534516">
        <ele>1786.2014976592823</ele>
      </trkpt>
      <trkpt lat="39.79841343382824" lon="-105.21233483623757">
        <ele>1786.697300832193</ele>
      </trkpt>
      <trkpt lat="39.798339339204844" lon="-105.21226640800793">
        <ele>1787.4238361494174</ele>
      </trkpt>
      <trkpt lat="39.79803715827076" lon="-105.2118325759124">
        <ele>1790.248927415628</ele>
      </trkpt>
      <trkpt lat="39.7978974931588" lon="-105.21168820188667">
        <ele>1791.5906375957998</ele>
      </trkpt>
      <trkpt lat="39.797797177382925" lon="-105.21161253146276">
        <ele>1792.65934628977</ele>
      </trkpt>
      <trkpt lat="39.797548748010044" lon="-105.21148693137117">
        <ele>1795.4381970074535</ele>
      </trkpt>
      <trkpt lat="39.797259292776005" lon="-105.2114349346158">
        <ele>1798.631318566483</ele>
      </trkpt>
      <trkpt lat="39.79679061342303" lon="-105.21128829850196">
        <ele>1804.633126984329</ele>
      </trkpt>
      <trkpt lat="39.79646755646981" lon="-105.21113597725689">
        <ele>1808.5323670095922</ele>
      </trkpt>
      <trkpt lat="39.796335162723175" lon="-105.21111014472748">
        <ele>1810.250852581218</ele>
      </trkpt>
      <trkpt lat="39.79621924291498" lon="-105.21111614859416">
        <ele>1811.8269470103069</ele>
      </trkpt>
      <trkpt lat="39.7960633921125" lon="-105.21121402329308">
        <ele>1813.978135956337</ele>
      </trkpt>
      <trkpt lat="39.79553692558989" lon="-105.21172181637397">
        <ele>1819.8869985021995</ele>
      </trkpt>
      <trkpt lat="39.794966737088906" lon="-105.21192377575802">
        <ele>1826.7608156959632</ele>
      </trkpt>
      <trkpt lat="39.79483731850803" lon="-105.21194478439611">
        <ele>1828.1622604920935</ele>
      </trkpt>
      <trkpt lat="39.79401999655498" lon="-105.21188391746321">
        <ele>1836.023198250903</ele>
      </trkpt>
      <trkpt lat="39.79371571102927" lon="-105.2119384304984">
        <ele>1838.7173217441896</ele>
      </trkpt>
      <trkpt lat="39.793548111411056" lon="-105.21211702238709">
        <ele>1838.9227823720366</ele>
      </trkpt>
      <trkpt lat="39.792920078207" lon="-105.21255159382969">
        <ele>1835.6425725968804</ele>
      </trkpt>
      <trkpt lat="39.792401194156504" lon="-105.21301533571267">
        <ele>1831.994664857671</ele>
      </trkpt>
      <trkpt lat="39.79215265759996" lon="-105.21343195847916">
        <ele>1829.6913609597254</ele>
      </trkpt>
      <trkpt lat="39.79195908950164" lon="-105.21390585423498">
        <ele>1830.064356792291</ele>
      </trkpt>
      <trkpt lat="39.79174727115098" lon="-105.21422581324316">
        <ele>1831.8837817508424</ele>
      </trkpt>
      <trkpt lat="39.79147476830362" lon="-105.2148746214833">
        <ele>1834.8921033913305</ele>
      </trkpt>
      <trkpt lat="39.79130261664048" lon="-105.21506894779242">
        <ele>1835.7823307095798</ele>
      </trkpt>
      <trkpt lat="39.79103339795942" lon="-105.21518888992193">
        <ele>1837.1824182054565</ele>
      </trkpt>
      <trkpt lat="39.79091816037384" lon="-105.21531719677417">
        <ele>1837.782462047654</ele>
      </trkpt>
      <trkpt lat="39.790867753437084" lon="-105.21548177002964">
        <ele>1838.1102556150133</ele>
      </trkpt>
      <trkpt lat="39.79084963152437" lon="-105.2156184726673">
        <ele>1838.342416223795</ele>
      </trkpt>
      <trkpt lat="39.7908405837579" lon="-105.21615835102493">
        <ele>1839.6134082136157</ele>
      </trkpt>
      <trkpt lat="39.79086723768254" lon="-105.21711077622508">
        <ele>1841.6262828906854</ele>
      </trkpt>
      <trkpt lat="39.79084331099455" lon="-105.21751233779393">
        <ele>1842.6667916486062</ele>
      </trkpt>
      <trkpt lat="39.79080009820826" lon="-105.21776486946553">
        <ele>1842.5810604831722</ele>
      </trkpt>
      <trkpt lat="39.79075085119666" lon="-105.21788493996698">
        <ele>1842.126572180355</ele>
      </trkpt>
      <trkpt lat="39.79049933779187" lon="-105.21830891933587">
        <ele>1839.7316060707121</ele>
      </trkpt>
      <trkpt lat="39.79017368561449" lon="-105.21876357518995">
        <ele>1837.4326252298727</ele>
      </trkpt>
      <trkpt lat="39.78999756606368" lon="-105.2191675549777">
        <ele>1836.7888449142986</ele>
      </trkpt>
      <trkpt lat="39.78991215039682" lon="-105.21931055936179">
        <ele>1836.7989149538012</ele>
      </trkpt>
      <trkpt lat="39.78974660204402" lon="-105.2195651865017">
        <ele>1837.4968361142776</ele>
      </trkpt>
      <trkpt lat="39.789639261937864" lon="-105.21966819800615">
        <ele>1838.4789808370672</ele>
      </trkpt>
      <trkpt lat="39.78868967495963" lon="-105.22050811372219">
        <ele>1853.5811870100104</ele>
      </trkpt>
      <trkpt lat="39.788368458339356" lon="-105.22070744375269">
        <ele>1859.3985745986654</ele>
      </trkpt>
      <trkpt lat="39.788144545513454" lon="-105.22088315295036">
        <ele>1863.7425984416568</ele>
      </trkpt>
      <trkpt lat="39.78805108649737" lon="-105.22091393686756">
        <ele>1865.336444942352</ele>
      </trkpt>
      <trkpt lat="39.78772076918511" lon="-105.22095502011686">
        <ele>1870.791717837985</ele>
      </trkpt>
      <trkpt lat="39.78714990680797" lon="-105.2211796406296">
        <ele>1880.6547040023056</ele>
      </trkpt>
      <trkpt lat="39.7868103049427" lon="-105.22110046144222">
        <ele>1886.610614088361</ele>
      </trkpt>
      <trkpt lat="39.78655669183851" lon="-105.22114660440796">
        <ele>1891.1666007728963</ele>
      </trkpt>
      <trkpt lat="39.78631375738766" lon="-105.22129478955746">
        <ele>1895.7656861068824</ele>
      </trkpt>
      <trkpt lat="39.7861097697731" lon="-105.22150254587427">
        <ele>1899.9401349483514</ele>
      </trkpt>
      <trkpt lat="39.78601749199607" lon="-105.22155961016918">
        <ele>1901.5337745135546</ele>
      </trkpt>
      <trkpt lat="39.78594289013608" lon="-105.22154869553663">
        <ele>1902.6819921589333</ele>
      </trkpt>
      <trkpt lat="39.78568133055976" lon="-105.22143147413502">
        <ele>1906.8214503614538</ele>
      </trkpt>
      <trkpt lat="39.78561569230084" lon="-105.2213894183002">
        <ele>1907.899092142542</ele>
      </trkpt>
      <trkpt lat="39.78557124432566" lon="-105.22133477855228">
        <ele>1908.7802731156066</ele>
      </trkpt>
      <trkpt lat="39.785490207737624" lon="-105.22117791846304">
        <ele>1910.7829125834942</ele>
      </trkpt>
      <trkpt lat="39.784941063148736" lon="-105.21938944156317">
        <ele>1926.6301166678375</ele>
      </trkpt>
      <trkpt lat="39.7848004898385" lon="-105.21876262842217">
        <ele>1931.879764137283</ele>
      </trkpt>
      <trkpt lat="39.78476739448272" lon="-105.21850403213725">
        <ele>1934.2660562925878</ele>
      </trkpt>
      <trkpt lat="39.78476258036803" lon="-105.21833910478198">
        <ele>1935.9662723515794</ele>
      </trkpt>
      <trkpt lat="39.78477201010414" lon="-105.21805326456247">
        <ele>1939.0224381632438</ele>
      </trkpt>
      <trkpt lat="39.78481750495639" lon="-105.21791050776392">
        <ele>1940.652922684746</ele>
      </trkpt>
      <trkpt lat="39.78530832727991" lon="-105.2171992921748">
        <ele>1950.2975172543458</ele>
      </trkpt>
      <trkpt lat="39.785745297776565" lon="-105.21636849329886">
        <ele>1960.5785987255579</ele>
      </trkpt>
      <trkpt lat="39.785773478839744" lon="-105.21624697473308">
        <ele>1961.7594321459237</ele>
      </trkpt>
      <trkpt lat="39.78581182255964" lon="-105.21592131226838">
        <ele>1964.4839758569278</ele>
      </trkpt>
      <trkpt lat="39.78579883840465" lon="-105.21582433286379">
        <ele>1965.171750240062</ele>
      </trkpt>
      <trkpt lat="39.78571394761299" lon="-105.2155180221082">
        <ele>1967.1160915360613</ele>
      </trkpt>
      <trkpt lat="39.78560457962191" lon="-105.21533285864805">
        <ele>1968.0547271768485</ele>
      </trkpt>
      <trkpt lat="39.7853909972085" lon="-105.21509689195983">
        <ele>1969.030856573102</ele>
      </trkpt>
      <trkpt lat="39.78519645215421" lon="-105.21478903580443">
        <ele>1970.0221713817778</ele>
      </trkpt>
      <trkpt lat="39.78500796452274" lon="-105.21438889915605">
        <ele>1971.5032905502117</ele>
      </trkpt>
      <trkpt lat="39.78487475502136" lon="-105.21418984093195">
        <ele>1972.6857864768406</ele>
      </trkpt>
      <trkpt lat="39.78478162057188" lon="-105.21409576306816">
        <ele>1973.471449727985</ele>
      </trkpt>
      <trkpt lat="39.784677511968546" lon="-105.21403441695577">
        <ele>1974.0575302846335</ele>
      </trkpt>
      <trkpt lat="39.7845519909089" lon="-105.21401706586539">
        <ele>1974.7488031483324</ele>
      </trkpt>
      <trkpt lat="39.7843758537627" lon="-105.2139313652643">
        <ele>1974.2901017459349</ele>
      </trkpt>
      <trkpt lat="39.784135857229" lon="-105.21379226830298">
        <ele>1972.8005827002462</ele>
      </trkpt>
      <trkpt lat="39.78380330064502" lon="-105.21354003387118">
        <ele>1971.4123865718002</ele>
      </trkpt>
      <trkpt lat="39.78367008329654" lon="-105.21349119911507">
        <ele>1971.0236451406415</ele>
      </trkpt>
      <trkpt lat="39.78344961188607" lon="-105.21333804995237">
        <ele>1970.4041109978903</ele>
      </trkpt>
      <trkpt lat="39.783247262819295" lon="-105.21326863203325">
        <ele>1970.0277820070544</ele>
      </trkpt>
      <trkpt lat="39.78285632471002" lon="-105.21325386118919">
        <ele>1969.204371900378</ele>
      </trkpt>
      <trkpt lat="39.782670698191005" lon="-105.21329992092203">
        <ele>1968.5268479509023</ele>
      </trkpt>
      <trkpt lat="39.78239141393757" lon="-105.21353109075957">
        <ele>1967.7169508350366</ele>
      </trkpt>
      <trkpt lat="39.78208223210144" lon="-105.21366685256677">
        <ele>1967.7818917729687</ele>
      </trkpt>
      <trkpt lat="39.78187879845689" lon="-105.21382824059933">
        <ele>1968.3573211168211</ele>
      </trkpt>
      <trkpt lat="39.781780861546025" lon="-105.21387357806465">
        <ele>1968.5757417901993</ele>
      </trkpt>
      <trkpt lat="39.78169921998981" lon="-105.21385960937698">
        <ele>1968.6952247286351</ele>
      </trkpt>
      <trkpt lat="39.781376250088016" lon="-105.21372795246451">
        <ele>1968.8919809018053</ele>
      </trkpt>
      <trkpt lat="39.781301881023005" lon="-105.21371929768577">
        <ele>1968.9146051317305</ele>
      </trkpt>
      <trkpt lat="39.78111669418092" lon="-105.21375059198013">
        <ele>1968.9876808341126</ele>
      </trkpt>
      <trkpt lat="39.78031651671223" lon="-105.21400307171176">
        <ele>1969.4101555079255</ele>
      </trkpt>
      <trkpt lat="39.77984356337883" lon="-105.21394689159571">
        <ele>1967.4088925401986</ele>
      </trkpt>
      <trkpt lat="39.77955064206598" lon="-105.21401596209347">
        <ele>1965.4255579775115</ele>
      </trkpt>
      <trkpt lat="39.77926188954019" lon="-105.21389581516881">
        <ele>1962.7158836233848</ele>
      </trkpt>
      <trkpt lat="39.77900084025017" lon="-105.21393487833274">
        <ele>1961.1756953304896</ele>
      </trkpt>
      <trkpt lat="39.77811231898272" lon="-105.2138863580184">
        <ele>1960.0596283686345</ele>
      </trkpt>
      <trkpt lat="39.77801037247985" lon="-105.21393475469601">
        <ele>1960.466335366505</ele>
      </trkpt>
      <trkpt lat="39.77796385423331" lon="-105.21403673512019">
        <ele>1960.9654831336697</ele>
      </trkpt>
      <trkpt lat="39.777815700923036" lon="-105.21453162560339">
        <ele>1963.710413208869</ele>
      </trkpt>
      <trkpt lat="39.777779424698195" lon="-105.21510314244402">
        <ele>1965.955772849997</ele>
      </trkpt>
      <trkpt lat="39.7776209004859" lon="-105.21595762013847">
        <ele>1968.2762462999106</ele>
      </trkpt>
      <trkpt lat="39.777546717553996" lon="-105.21644989401517">
        <ele>1969.7552986658688</ele>
      </trkpt>
      <trkpt lat="39.77747661541254" lon="-105.21673745281306">
        <ele>1970.3430795898246</ele>
      </trkpt>
      <trkpt lat="39.777331038958124" lon="-105.21707233587796">
        <ele>1970.8412961247695</ele>
      </trkpt>
      <trkpt lat="39.77719753373922" lon="-105.21732729394064">
        <ele>1970.7540172809</ele>
      </trkpt>
      <trkpt lat="39.77705781683539" lon="-105.21750690775508">
        <ele>1970.3876576276443</ele>
      </trkpt>
      <trkpt lat="39.77688643559183" lon="-105.21767455371507">
        <ele>1970.1492189671976</ele>
      </trkpt>
      <trkpt lat="39.776623837721395" lon="-105.21804365317168">
        <ele>1970.6042957921431</ele>
      </trkpt>
      <trkpt lat="39.7765423000691" lon="-105.2182404800668">
        <ele>1971.1676333955027</ele>
      </trkpt>
      <trkpt lat="39.77647125934548" lon="-105.21850075171193">
        <ele>1971.9949066459621</ele>
      </trkpt>
      <trkpt lat="39.77640148707798" lon="-105.21893893260066">
        <ele>1972.6153972212487</ele>
      </trkpt>
      <trkpt lat="39.77634041903781" lon="-105.2201305406998">
        <ele>1973.6165303289906</ele>
      </trkpt>
      <trkpt lat="39.77634097947635" lon="-105.22068011362293">
        <ele>1974.475917917688</ele>
      </trkpt>
      <trkpt lat="39.776398410410664" lon="-105.22155158595065">
        <ele>1974.6639234993484</ele>
      </trkpt>
      <trkpt lat="39.77637995494449" lon="-105.22223819746445">
        <ele>1973.9070305830437</ele>
      </trkpt>
      <trkpt lat="39.77637076869034" lon="-105.2222936473784">
        <ele>1973.8726114650271</ele>
      </trkpt>
      <trkpt lat="39.77634671369575" lon="-105.22232747264904">
        <ele>1973.8543111867139</ele>
      </trkpt>
      <trkpt lat="39.77592998211277" lon="-105.22235233396566">
        <ele>1974.107720046664</ele>
      </trkpt>
      <trkpt lat="39.775477005419404" lon="-105.22244067486459">
        <ele>1975.0426608495454</ele>
      </trkpt>
      <trkpt lat="39.77503958936261" lon="-105.22233922931552">
        <ele>1975.5408665119976</ele>
      </trkpt>
      <trkpt lat="39.77431233330074" lon="-105.22212256856172">
        <ele>1975.7477067487982</ele>
      </trkpt>
      <trkpt lat="39.773929679101734" lon="-105.22209158389668">
        <ele>1976.0061980408816</ele>
      </trkpt>
      <trkpt lat="39.773641598685536" lon="-105.22212354120411">
        <ele>1976.2376697373347</ele>
      </trkpt>
      <trkpt lat="39.77348906115886" lon="-105.22216279906475">
        <ele>1976.2765343537305</ele>
      </trkpt>
      <trkpt lat="39.773418921362875" lon="-105.22219587753725">
        <ele>1976.257450574044</ele>
      </trkpt>
      <trkpt lat="39.77332316006716" lon="-105.22228748374503">
        <ele>1976.1479866432412</ele>
      </trkpt>
      <trkpt lat="39.77327633735899" lon="-105.22229297370184">
        <ele>1976.0610135274133</ele>
      </trkpt>
      <trkpt lat="39.773225339353154" lon="-105.22226519170833">
        <ele>1975.915726036209</ele>
      </trkpt>
      <trkpt lat="39.77318523856599" lon="-105.22221806608215">
        <ele>1975.7199593610417</ele>
      </trkpt>
      <trkpt lat="39.77304862047721" lon="-105.22188270869765">
        <ele>1973.8620061038089</ele>
      </trkpt>
      <trkpt lat="39.77291654802182" lon="-105.22168866354177">
        <ele>1972.1386341940074</ele>
      </trkpt>
      <trkpt lat="39.77285319303896" lon="-105.22162277555748">
        <ele>1971.3567042038394</ele>
      </trkpt>
      <trkpt lat="39.77263991699229" lon="-105.22154596296618">
        <ele>1969.0961626612384</ele>
      </trkpt>
      <trkpt lat="39.77223771633454" lon="-105.22153827521814">
        <ele>1965.1938874243283</ele>
      </trkpt>
      <trkpt lat="39.77173715297055" lon="-105.22145691790227">
        <ele>1961.1020002813395</ele>
      </trkpt>
      <trkpt lat="39.77154849683096" lon="-105.22139260774361">
        <ele>1959.9720614379683</ele>
      </trkpt>
      <trkpt lat="39.77149632869192" lon="-105.22136251346002">
        <ele>1959.6735524878939</ele>
      </trkpt>
      <trkpt lat="39.7714629817879" lon="-105.2213190773115">
        <ele>1959.4282048027944</ele>
      </trkpt>
      <trkpt lat="39.77133274895871" lon="-105.22100327426803">
        <ele>1958.1069015991764</ele>
      </trkpt>
      <trkpt lat="39.77129898728643" lon="-105.2208523539345">
        <ele>1957.6590109255185</ele>
      </trkpt>
      <trkpt lat="39.77128039700899" lon="-105.22062325876578">
        <ele>1957.1001882916908</ele>
      </trkpt>
      <trkpt lat="39.771286998731085" lon="-105.22033341773715">
        <ele>1956.2455194720485</ele>
      </trkpt>
      <trkpt lat="39.77130809296876" lon="-105.22017747310099">
        <ele>1955.7400512331442</ele>
      </trkpt>
      <trkpt lat="39.7713972528378" lon="-105.21985339592429">
        <ele>1954.642236524485</ele>
      </trkpt>
      <trkpt lat="39.77175400141337" lon="-105.21917203638709">
        <ele>1951.273867763069</ele>
      </trkpt>
      <trkpt lat="39.77178888872707" lon="-105.21905300867608">
        <ele>1950.651660504947</ele>
      </trkpt>
      <trkpt lat="39.77184799378058" lon="-105.21868555683638">
        <ele>1948.7854481589156</ele>
      </trkpt>
      <trkpt lat="39.77183913198513" lon="-105.21858820981981">
        <ele>1948.4234413373026</ele>
      </trkpt>
      <trkpt lat="39.7717491158874" lon="-105.21822079358434">
        <ele>1947.294226127372</ele>
      </trkpt>
      <trkpt lat="39.77163292326695" lon="-105.21784665852483">
        <ele>1946.3994128207175</ele>
      </trkpt>
      <trkpt lat="39.7716266642568" lon="-105.2177432150556">
        <ele>1946.0229422098798</ele>
      </trkpt>
      <trkpt lat="39.77167715903207" lon="-105.21763057302802">
        <ele>1945.3839656448922</ele>
      </trkpt>
      <trkpt lat="39.771882600491544" lon="-105.21743261977741">
        <ele>1943.3358459331002</ele>
      </trkpt>
      <trkpt lat="39.771945200315784" lon="-105.21734793104194">
        <ele>1942.623945421851</ele>
      </trkpt>
      <trkpt lat="39.771987999959705" lon="-105.21721372865842">
        <ele>1941.8475758763045</ele>
      </trkpt>
      <trkpt lat="39.77199428242889" lon="-105.21700670503253">
        <ele>1940.7762496376706</ele>
      </trkpt>
      <trkpt lat="39.771962668707395" lon="-105.21691256252058">
        <ele>1940.0730186204796</ele>
      </trkpt>
      <trkpt lat="39.7718767938554" lon="-105.21682762574794">
        <ele>1938.870736615362</ele>
      </trkpt>
      <trkpt lat="39.77184535142087" lon="-105.216774010272">
        <ele>1938.2180970688078</ele>
      </trkpt>
      <trkpt lat="39.771675353639615" lon="-105.21625425180503">
        <ele>1932.2800441010816</ele>
      </trkpt>
      <trkpt lat="39.77151730070762" lon="-105.21607907203169">
        <ele>1930.0373397984422</ele>
      </trkpt>
      <trkpt lat="39.77141174759782" lon="-105.21588504331207">
        <ele>1928.3745898569723</ele>
      </trkpt>
      <trkpt lat="39.77140350583503" lon="-105.21578430450526">
        <ele>1927.592563023065</ele>
      </trkpt>
      <trkpt lat="39.77141481475699" lon="-105.21555121176597">
        <ele>1925.5399373626483</ele>
      </trkpt>
      <trkpt lat="39.77152002690558" lon="-105.21511055326124">
        <ele>1920.906810123178</ele>
      </trkpt>
      <trkpt lat="39.77151337201856" lon="-105.21501196474966">
        <ele>1919.8298286590266</ele>
      </trkpt>
      <trkpt lat="39.77146050655674" lon="-105.21493238596548">
        <ele>1918.7201089891762</ele>
      </trkpt>
      <trkpt lat="39.77129273324017" lon="-105.2147559257765">
        <ele>1915.7840426332352</ele>
      </trkpt>
      <trkpt lat="39.77117496745083" lon="-105.21466934143473">
        <ele>1913.5455519557995</ele>
      </trkpt>
      <trkpt lat="39.771057808620895" lon="-105.21456007381589">
        <ele>1910.9019996539373</ele>
      </trkpt>
      <trkpt lat="39.771038659673785" lon="-105.2145211865252">
        <ele>1910.3479306787106</ele>
      </trkpt>
      <trkpt lat="39.77104071161194" lon="-105.21447073667845">
        <ele>1909.752809817691</ele>
      </trkpt>
      <trkpt lat="39.77109135950435" lon="-105.21430922104028">
        <ele>1907.6843639123142</ele>
      </trkpt>
      <trkpt lat="39.771016931144175" lon="-105.21400247874458">
        <ele>1903.6900913316283</ele>
      </trkpt>
      <trkpt lat="39.7710168521809" lon="-105.2136503585903">
        <ele>1899.1641199236428</ele>
      </trkpt>
      <trkpt lat="39.77103287244512" lon="-105.21344222081903">
        <ele>1896.202513648793</ele>
      </trkpt>
      <trkpt lat="39.77101078014342" lon="-105.21313091640828">
        <ele>1891.2086214833898</ele>
      </trkpt>
      <trkpt lat="39.77092639577876" lon="-105.21272822745625">
        <ele>1885.9028159976235</ele>
      </trkpt>
      <trkpt lat="39.770833765775" lon="-105.21246538788878">
        <ele>1881.9714240473793</ele>
      </trkpt>
      <trkpt lat="39.77079884891487" lon="-105.2117732002166">
        <ele>1872.5726719870293</ele>
      </trkpt>
      <trkpt lat="39.770727978752426" lon="-105.21153108254002">
        <ele>1868.5131017479628</ele>
      </trkpt>
      <trkpt lat="39.770635796024614" lon="-105.21106210613736">
        <ele>1861.6057530206635</ele>
      </trkpt>
      <trkpt lat="39.77011698711793" lon="-105.20981555765117">
        <ele>1849.8314686420679</ele>
      </trkpt>
      <trkpt lat="39.76995545860091" lon="-105.20958463489958">
        <ele>1848.6648602641053</ele>
      </trkpt>
      <trkpt lat="39.76990785494999" lon="-105.20943734553644">
        <ele>1848.405024299673</ele>
      </trkpt>
      <trkpt lat="39.76988577061235" lon="-105.20900065988157">
        <ele>1848.2142706986542</ele>
      </trkpt>
      <trkpt lat="39.76997978236339" lon="-105.20844588145334">
        <ele>1849.0335632300596</ele>
      </trkpt>
      <trkpt lat="39.76997633173179" lon="-105.20801090442077">
        <ele>1851.645458396807</ele>
      </trkpt>
      <trkpt lat="39.77004462907026" lon="-105.20768285533705">
        <ele>1855.2410566949886</ele>
      </trkpt>
      <trkpt lat="39.77009522084747" lon="-105.20756312195199">
        <ele>1856.6576660334604</ele>
      </trkpt>
      <trkpt lat="39.77024582825293" lon="-105.20738680741916">
        <ele>1858.8318772097737</ele>
      </trkpt>
      <trkpt lat="39.77048501122617" lon="-105.20683883183895">
        <ele>1862.4360235999006</ele>
      </trkpt>
      <trkpt lat="39.770549336718666" lon="-105.20650204952487">
        <ele>1863.7891934140378</ele>
      </trkpt>
      <trkpt lat="39.77071043003093" lon="-105.2059303465142">
        <ele>1865.426635048345</ele>
      </trkpt>
      <trkpt lat="39.770717039811636" lon="-105.20584427265742">
        <ele>1865.52278922103</ele>
      </trkpt>
      <trkpt lat="39.77068490967189" lon="-105.20562782678427">
        <ele>1865.6536729443706</ele>
      </trkpt>
      <trkpt lat="39.77070920385276" lon="-105.20553965566653">
        <ele>1865.7537281654763</ele>
      </trkpt>
      <trkpt lat="39.77079922690165" lon="-105.20534473017182">
        <ele>1866.3780025158826</ele>
      </trkpt>
      <trkpt lat="39.771028887365645" lon="-105.20523042099734">
        <ele>1868.0627236155424</ele>
      </trkpt>
      <trkpt lat="39.77120721072398" lon="-105.20504480149839">
        <ele>1869.280578403827</ele>
      </trkpt>
      <trkpt lat="39.77150183575624" lon="-105.20485860652614">
        <ele>1869.984546466486</ele>
      </trkpt>
      <trkpt lat="39.77210363255329" lon="-105.20478326039752">
        <ele>1872.6900716454265</ele>
      </trkpt>
      <trkpt lat="39.77230410545435" lon="-105.20460573577657">
        <ele>1872.6890867868547</ele>
      </trkpt>
      <trkpt lat="39.77239737551836" lon="-105.20447808760125">
        <ele>1872.4733107033996</ele>
      </trkpt>
      <trkpt lat="39.77241898531125" lon="-105.2044014536799">
        <ele>1872.386944529695</ele>
      </trkpt>
      <trkpt lat="39.77246843207297" lon="-105.2039441294133">
        <ele>1872.157535076569</ele>
      </trkpt>
      <trkpt lat="39.77260596050299" lon="-105.20366950828563">
        <ele>1872.0593269265064</ele>
      </trkpt>
      <trkpt lat="39.77263575438036" lon="-105.2035801384973">
        <ele>1872.0784771842198</ele>
      </trkpt>
      <trkpt lat="39.77272631085934" lon="-105.20300973619959">
        <ele>1872.4448332837544</ele>
      </trkpt>
      <trkpt lat="39.772770079935896" lon="-105.20283694117593">
        <ele>1872.275398686711</ele>
      </trkpt>
      <trkpt lat="39.77300176398939" lon="-105.20222408202169">
        <ele>1870.7161638255775</ele>
      </trkpt>
      <trkpt lat="39.77311397373159" lon="-105.20203508918043">
        <ele>1870.7849466035245</ele>
      </trkpt>
      <trkpt lat="39.77327600284445" lon="-105.2018927958918">
        <ele>1871.1429598616328</ele>
      </trkpt>
      <trkpt lat="39.77344191506657" lon="-105.20183431314837">
        <ele>1871.1563234559385</ele>
      </trkpt>
      <trkpt lat="39.773909496662746" lon="-105.20176203200934">
        <ele>1869.678231461167</ele>
      </trkpt>
      <trkpt lat="39.774165978010764" lon="-105.20175633350448">
        <ele>1867.711016499766</ele>
      </trkpt>
      <trkpt lat="39.77437835756077" lon="-105.20168516998375">
        <ele>1865.3654052279667</ele>
      </trkpt>
      <trkpt lat="39.77442771049736" lon="-105.20168565277011">
        <ele>1864.9496461401861</ele>
      </trkpt>
      <trkpt lat="39.77543793001273" lon="-105.20268822672912">
        <ele>1863.4231875927667</ele>
      </trkpt>
      <trkpt lat="39.77555156476972" lon="-105.20276035037197">
        <ele>1863.0537268763233</ele>
      </trkpt>
      <trkpt lat="39.775706248029245" lon="-105.2028089832797">
        <ele>1862.1339366970058</ele>
      </trkpt>
      <trkpt lat="39.77614391674633" lon="-105.20269908711288">
        <ele>1857.5810359460238</ele>
      </trkpt>
      <trkpt lat="39.7762810899412" lon="-105.20253928007655">
        <ele>1855.57186840058</ele>
      </trkpt>
      <trkpt lat="39.77639241839351" lon="-105.20245688062161">
        <ele>1854.1585494859564</ele>
      </trkpt>
      <trkpt lat="39.776538253592015" lon="-105.2024372647735">
        <ele>1852.8919450666726</ele>
      </trkpt>
      <trkpt lat="39.77674743281454" lon="-105.20229748801026">
        <ele>1851.738578994159</ele>
      </trkpt>
      <trkpt lat="39.776905128665156" lon="-105.20225814032807">
        <ele>1850.9875424660247</ele>
      </trkpt>
      <trkpt lat="39.77713858848382" lon="-105.20216754797467">
        <ele>1849.7232503603866</ele>
      </trkpt>
      <trkpt lat="39.77719834824554" lon="-105.20212346063093">
        <ele>1849.4716639630906</ele>
      </trkpt>
      <trkpt lat="39.77728934808488" lon="-105.2020027628742">
        <ele>1849.2896912906904</ele>
      </trkpt>
      <trkpt lat="39.77733173385986" lon="-105.20198129620124">
        <ele>1849.3248331816017</ele>
      </trkpt>
      <trkpt lat="39.77741933885799" lon="-105.20198122509031">
        <ele>1849.5177544001206</ele>
      </trkpt>
      <trkpt lat="39.77832726431004" lon="-105.20238342329799">
        <ele>1852.0952469987326</ele>
      </trkpt>
      <trkpt lat="39.77854745024969" lon="-105.2024372718256">
        <ele>1852.761803786141</ele>
      </trkpt>
      <trkpt lat="39.77866339005056" lon="-105.20252657991954">
        <ele>1853.5641026238857</ele>
      </trkpt>
      <trkpt lat="39.77884084401581" lon="-105.20278120662722">
        <ele>1855.5715757368152</ele>
      </trkpt>
      <trkpt lat="39.778885983194904" lon="-105.20279515922573">
        <ele>1855.7818015325433</ele>
      </trkpt>
      <trkpt lat="39.77892032004093" lon="-105.20276711147825">
        <ele>1855.92705998136</ele>
      </trkpt>
      <trkpt lat="39.7789336212633" lon="-105.20271267159374">
        <ele>1856.103935107193</ele>
      </trkpt>
      <trkpt lat="39.778923245436744" lon="-105.20263780381771">
        <ele>1856.3354609567073</ele>
      </trkpt>
      <trkpt lat="39.77886253687509" lon="-105.20244017637938">
        <ele>1856.625046465941</ele>
      </trkpt>
      <trkpt lat="39.778724688116476" lon="-105.20185651510977">
        <ele>1856.5264801146227</ele>
      </trkpt>
      <trkpt lat="39.778636825271725" lon="-105.20161371491903">
        <ele>1856.6599916647663</ele>
      </trkpt>
      <trkpt lat="39.77855430263753" lon="-105.20102902856439">
        <ele>1857.4828796210256</ele>
      </trkpt>
      <trkpt lat="39.778350464325165" lon="-105.20033536534697">
        <ele>1859.5114272843148</ele>
      </trkpt>
      <trkpt lat="39.778103048765594" lon="-105.19973359038588">
        <ele>1861.3580364248892</ele>
      </trkpt>
      <trkpt lat="39.77778271126022" lon="-105.19941637961222">
        <ele>1862.5794207282795</ele>
      </trkpt>
      <trkpt lat="39.77765666683241" lon="-105.19922428863097">
        <ele>1863.0769940219218</ele>
      </trkpt>
      <trkpt lat="39.77758689244901" lon="-105.19904650763098">
        <ele>1863.2786660305148</ele>
      </trkpt>
      <trkpt lat="39.77757074561723" lon="-105.19885496010458">
        <ele>1862.9370624197006</ele>
      </trkpt>
      <trkpt lat="39.777485387169854" lon="-105.19862508172312">
        <ele>1861.6117584998588</ele>
      </trkpt>
      <trkpt lat="39.77742647081468" lon="-105.19854473927441">
        <ele>1860.8473349123988</ele>
      </trkpt>
      <trkpt lat="39.77720677103099" lon="-105.19835134047909">
        <ele>1858.8287356185635</ele>
      </trkpt>
      <trkpt lat="39.77712181770081" lon="-105.19816638119939">
        <ele>1858.163021828007</ele>
      </trkpt>
      <trkpt lat="39.77689596231584" lon="-105.19777794817713">
        <ele>1857.4807898726651</ele>
      </trkpt>
      <trkpt lat="39.77671079172189" lon="-105.1972386933931">
        <ele>1856.5599944882308</ele>
      </trkpt>
      <trkpt lat="39.776656182956614" lon="-105.19643491809987">
        <ele>1854.2123107283371</ele>
      </trkpt>
      <trkpt lat="39.77668484513171" lon="-105.19630277934847">
        <ele>1854.1960651515674</ele>
      </trkpt>
      <trkpt lat="39.7767741494544" lon="-105.19611825747067">
        <ele>1854.3775066676792</ele>
      </trkpt>
      <trkpt lat="39.776931190298576" lon="-105.19566909065537">
        <ele>1853.4505179386972</ele>
      </trkpt>
      <trkpt lat="39.77727119295619" lon="-105.19485921550915">
        <ele>1847.4640859379601</ele>
      </trkpt>
      <trkpt lat="39.77743749703424" lon="-105.19465522668438">
        <ele>1845.4982572520803</ele>
      </trkpt>
      <trkpt lat="39.777639899421075" lon="-105.19444841990035">
        <ele>1843.941416004407</ele>
      </trkpt>
      <trkpt lat="39.777686586497396" lon="-105.19437871722032">
        <ele>1843.5727473861573</ele>
      </trkpt>
      <trkpt lat="39.777792682063755" lon="-105.19391145556796">
        <ele>1841.3667284116075</ele>
      </trkpt>
      <trkpt lat="39.77784777740891" lon="-105.19378435179698">
        <ele>1840.544755791766</ele>
      </trkpt>
      <trkpt lat="39.77792036256597" lon="-105.19372331012428">
        <ele>1839.8399614388272</ele>
      </trkpt>
      <trkpt lat="39.778186680975516" lon="-105.19364044685872">
        <ele>1836.9310199249048</ele>
      </trkpt>
      <trkpt lat="39.77845851116102" lon="-105.1934019851253">
        <ele>1831.2640912741426</ele>
      </trkpt>
      <trkpt lat="39.77869821548092" lon="-105.19339149713103">
        <ele>1828.112082256078</ele>
      </trkpt>
      <trkpt lat="39.77873179218716" lon="-105.19334700033474">
        <ele>1827.982164849755</ele>
      </trkpt>
      <trkpt lat="39.77872946540965" lon="-105.193293947784">
        <ele>1827.9311026230835</ele>
      </trkpt>
      <trkpt lat="39.77868148361322" lon="-105.19324440276534">
        <ele>1827.5666114879966</ele>
      </trkpt>
      <trkpt lat="39.77863884172563" lon="-105.1932312592087">
        <ele>1827.103731529421</ele>
      </trkpt>
      <trkpt lat="39.77816212068712" lon="-105.19325739803814">
        <ele>1823.372418949884</ele>
      </trkpt>
      <trkpt lat="39.77772449575621" lon="-105.19340640185152">
        <ele>1819.3118737788184</ele>
      </trkpt>
      <trkpt lat="39.77765059441394" lon="-105.19346560713784">
        <ele>1818.5143326197438</ele>
      </trkpt>
      <trkpt lat="39.77747441943068" lon="-105.19371306560427">
        <ele>1816.1942107436078</ele>
      </trkpt>
      <trkpt lat="39.777355917486005" lon="-105.19391260548412">
        <ele>1814.4048827649015</ele>
      </trkpt>
      <trkpt lat="39.77728256832886" lon="-105.19408353647326">
        <ele>1813.1246356008505</ele>
      </trkpt>
      <trkpt lat="39.77725195752255" lon="-105.19411372754797">
        <ele>1812.9638279304313</ele>
      </trkpt>
      <trkpt lat="39.77720046380025" lon="-105.19410858374354">
        <ele>1812.9375334146885</ele>
      </trkpt>
      <trkpt lat="39.777177550881305" lon="-105.19405892781279">
        <ele>1812.9203392774737</ele>
      </trkpt>
      <trkpt lat="39.77718676794411" lon="-105.19400032359947">
        <ele>1812.7555355327256</ele>
      </trkpt>
      <trkpt lat="39.7773345560262" lon="-105.19373982903006">
        <ele>1811.0916809639448</ele>
      </trkpt>
      <trkpt lat="39.777538359797084" lon="-105.19321057190315">
        <ele>1808.5790241480552</ele>
      </trkpt>
      <trkpt lat="39.778081689134346" lon="-105.1928470505208">
        <ele>1805.539689121194</ele>
      </trkpt>
      <trkpt lat="39.7793517336894" lon="-105.1926106664947">
        <ele>1798.3007505372707</ele>
      </trkpt>
      <trkpt lat="39.78018756810326" lon="-105.19253467535745">
        <ele>1792.7879099904512</ele>
      </trkpt>
      <trkpt lat="39.780455924311326" lon="-105.19256985914853">
        <ele>1790.6194020391408</ele>
      </trkpt>
      <trkpt lat="39.780752005673065" lon="-105.1927401598929">
        <ele>1787.2951921523406</ele>
      </trkpt>
      <trkpt lat="39.78103904120534" lon="-105.19276670160004">
        <ele>1784.3114088482237</ele>
      </trkpt>
      <trkpt lat="39.78139684816893" lon="-105.19290582451758">
        <ele>1780.729309187419</ele>
      </trkpt>
      <trkpt lat="39.781453918110095" lon="-105.19289853767663">
        <ele>1780.3094344545518</ele>
      </trkpt>
      <trkpt lat="39.78147894295158" lon="-105.19286929292068">
        <ele>1780.2480562289475</ele>
      </trkpt>
      <trkpt lat="39.78148156900097" lon="-105.19280636723227">
        <ele>1780.1798861457066</ele>
      </trkpt>
      <trkpt lat="39.78144468762044" lon="-105.192756921784">
        <ele>1779.8362551503005</ele>
      </trkpt>
      <trkpt lat="39.78123950270471" lon="-105.19269889046122">
        <ele>1777.3424988599306</ele>
      </trkpt>
      <trkpt lat="39.78115744701624" lon="-105.19264170966143">
        <ele>1776.3185979911113</ele>
      </trkpt>
      <trkpt lat="39.78114469629716" lon="-105.19260173658786">
        <ele>1776.2179040012757</ele>
      </trkpt>
      <trkpt lat="39.78115086513231" lon="-105.19256176418203">
        <ele>1776.1737895869692</ele>
      </trkpt>
      <trkpt lat="39.781199968304186" lon="-105.1925220513494">
        <ele>1775.9515867210434</ele>
      </trkpt>
      <trkpt lat="39.78145439400526" lon="-105.1925869636134">
        <ele>1773.0467387637873</ele>
      </trkpt>
      <trkpt lat="39.78161248349484" lon="-105.19268260269693">
        <ele>1771.2600001405258</ele>
      </trkpt>
      <trkpt lat="39.78178975408906" lon="-105.19267958950701">
        <ele>1769.3541673309467</ele>
      </trkpt>
      <trkpt lat="39.781962807414" lon="-105.19279375141676">
        <ele>1766.6479554469622</ele>
      </trkpt>
      <trkpt lat="39.78202495506018" lon="-105.19281174687183">
        <ele>1765.8962318588017</ele>
      </trkpt>
      <trkpt lat="39.78205902348318" lon="-105.1927886702595">
        <ele>1765.67503124314</ele>
      </trkpt>
      <trkpt lat="39.78207375377601" lon="-105.19273521472849">
        <ele>1765.3671311226187</ele>
      </trkpt>
      <trkpt lat="39.782054536995915" lon="-105.19265081839688">
        <ele>1764.611095267343</ele>
      </trkpt>
      <trkpt lat="39.78202999878148" lon="-105.1926121661964">
        <ele>1764.2024146432445</ele>
      </trkpt>
      <trkpt lat="39.78180674268367" lon="-105.1924487847881">
        <ele>1761.6632968452489</ele>
      </trkpt>
      <trkpt lat="39.781585857813695" lon="-105.1922350327798">
        <ele>1758.1907893699952</ele>
      </trkpt>
      <trkpt lat="39.781561797574724" lon="-105.19219739705866">
        <ele>1757.7820947429036</ele>
      </trkpt>
      <trkpt lat="39.781553120049814" lon="-105.1921452435821">
        <ele>1757.5978323818927</ele>
      </trkpt>
      <trkpt lat="39.781576696893524" lon="-105.19209671709018">
        <ele>1757.5002907678163</ele>
      </trkpt>
      <trkpt lat="39.781620124732505" lon="-105.19208307870308">
        <ele>1757.2368078146762</ele>
      </trkpt>
      <trkpt lat="39.78185141532693" lon="-105.19218031818644">
        <ele>1754.4062489362975</ele>
      </trkpt>
      <trkpt lat="39.781978036246244" lon="-105.1921965358596">
        <ele>1753.1354144179413</ele>
      </trkpt>
      <trkpt lat="39.782045038120906" lon="-105.19215843997598">
        <ele>1752.49988769478</ele>
      </trkpt>
      <trkpt lat="39.78210462545277" lon="-105.1920580555581">
        <ele>1751.849139670542</ele>
      </trkpt>
      <trkpt lat="39.78208881391035" lon="-105.19192146311869">
        <ele>1751.466010250883</ele>
      </trkpt>
      <trkpt lat="39.78207066334924" lon="-105.19186297273806">
        <ele>1751.3820623694596</ele>
      </trkpt>
      <trkpt lat="39.782042761659305" lon="-105.19183129209985">
        <ele>1751.343651140785</ele>
      </trkpt>
      <trkpt lat="39.7816835770829" lon="-105.19179299282557">
        <ele>1750.94012157194</ele>
      </trkpt>
      <trkpt lat="39.781571603154916" lon="-105.19175425945245">
        <ele>1750.3935189072831</ele>
      </trkpt>
      <trkpt lat="39.78147272465604" lon="-105.1916853300054">
        <ele>1749.6338158501717</ele>
      </trkpt>
      <trkpt lat="39.78140372626929" lon="-105.1916061246323">
        <ele>1748.9400022559955</ele>
      </trkpt>
      <trkpt lat="39.7813468767793" lon="-105.19150956966102">
        <ele>1748.2336463538436</ele>
      </trkpt>
      <trkpt lat="39.7810964180256" lon="-105.19096521803202">
        <ele>1743.6267630412824</ele>
      </trkpt>
      <trkpt lat="39.781012868278154" lon="-105.19088734220139">
        <ele>1742.7526546931153</ele>
      </trkpt>
      <trkpt lat="39.780854800290555" lon="-105.19082286333632">
        <ele>1741.7811321029092</ele>
      </trkpt>
      <trkpt lat="39.780525548714216" lon="-105.1907936867135">
        <ele>1740.8006982020809</ele>
      </trkpt>
      <trkpt lat="39.78032588227277" lon="-105.19055738659556">
        <ele>1739.199755809799</ele>
      </trkpt>
      <trkpt lat="39.78009866137337" lon="-105.19042914999767">
        <ele>1736.6657479332623</ele>
      </trkpt>
      <trkpt lat="39.77978031368979" lon="-105.19042471553442">
        <ele>1734.2894950800617</ele>
      </trkpt>
      <trkpt lat="39.77944726750381" lon="-105.19051385389167">
        <ele>1733.0834025994845</ele>
      </trkpt>
      <trkpt lat="39.779375780945784" lon="-105.1905146689696">
        <ele>1732.8524103721172</ele>
      </trkpt>
      <trkpt lat="39.77932405122268" lon="-105.19047566187417">
        <ele>1732.659103012296</ele>
      </trkpt>
      <trkpt lat="39.77929165221337" lon="-105.19040898315164">
        <ele>1732.4694862597812</ele>
      </trkpt>
      <trkpt lat="39.77929150394598" lon="-105.19034969279303">
        <ele>1732.3522469757088</ele>
      </trkpt>
      <trkpt lat="39.77932285536323" lon="-105.19030886038168">
        <ele>1732.2514876524656</ele>
      </trkpt>
      <trkpt lat="39.77996211436252" lon="-105.19016015409983">
        <ele>1731.611310377317</ele>
      </trkpt>
      <trkpt lat="39.780969899929865" lon="-105.18996881207403">
        <ele>1734.487299440988</ele>
      </trkpt>
      <trkpt lat="39.782290018732155" lon="-105.18957094301462">
        <ele>1739.252483797584</ele>
      </trkpt>
      <trkpt lat="39.78431059149122" lon="-105.18914119654177">
        <ele>1738.5942726372111</ele>
      </trkpt>
      <trkpt lat="39.787289813058365" lon="-105.18886039353646">
        <ele>1728.892699600155</ele>
      </trkpt>
      <trkpt lat="39.79035169623474" lon="-105.18869766458364">
        <ele>1730.4786109534514</ele>
      </trkpt>
      <trkpt lat="39.79040822859793" lon="-105.18867249038148">
        <ele>1730.4226693293522</ele>
      </trkpt>
      <trkpt lat="39.79049195169411" lon="-105.18859016902272">
        <ele>1730.2913908589035</ele>
      </trkpt>
      <trkpt lat="39.79087229039162" lon="-105.18809964572853">
        <ele>1729.2834908454045</ele>
      </trkpt>
      <trkpt lat="39.791312802995584" lon="-105.18764889194753">
        <ele>1728.8070673643774</ele>
      </trkpt>
      <trkpt lat="39.791416032574574" lon="-105.18757095687447">
        <ele>1728.7592843988675</ele>
      </trkpt>
      <trkpt lat="39.791700398597285" lon="-105.1874226509729">
        <ele>1728.74388324701</ele>
      </trkpt>
      <trkpt lat="39.792089948893626" lon="-105.18731110226946">
        <ele>1728.8606367161813</ele>
      </trkpt>
      <trkpt lat="39.79256812074768" lon="-105.18722080817953">
        <ele>1728.9451225078785</ele>
      </trkpt>
      <trkpt lat="39.79391588903192" lon="-105.18703184166885">
        <ele>1728.6599465664774</ele>
      </trkpt>
      <trkpt lat="39.794084293220074" lon="-105.1870281823929">
        <ele>1728.6051144578646</ele>
      </trkpt>
      <trkpt lat="39.794519230321995" lon="-105.18707127559205">
        <ele>1728.4460087056857</ele>
      </trkpt>
      <trkpt lat="39.79607987152568" lon="-105.18741943028428">
        <ele>1728.7585845536532</ele>
      </trkpt>
      <trkpt lat="39.79768359545697" lon="-105.18772900004561">
        <ele>1728.2147034130712</ele>
      </trkpt>
      <trkpt lat="39.79797539870236" lon="-105.18781189682883">
        <ele>1728.3178153286985</ele>
      </trkpt>
      <trkpt lat="39.79814568162181" lon="-105.18790846755282">
        <ele>1728.4882692816516</ele>
      </trkpt>
      <trkpt lat="39.79836926901098" lon="-105.18817977421251">
        <ele>1728.7872742318127</ele>
      </trkpt>
      <trkpt lat="39.79917874050537" lon="-105.18930887710668">
        <ele>1731.133699056498</ele>
      </trkpt>
      <trkpt lat="39.80165945037895" lon="-105.19289911545694">
        <ele>1735.6541192771838</ele>
      </trkpt>
      <trkpt lat="39.801840727994815" lon="-105.19310225340409">
        <ele>1735.58148089386</ele>
      </trkpt>
      <trkpt lat="39.80198399693139" lon="-105.1931792682998">
        <ele>1735.4505782654817</ele>
      </trkpt>
      <trkpt lat="39.80213083835818" lon="-105.19320105970628">
        <ele>1735.3461368037038</ele>
      </trkpt>
      <trkpt lat="39.80361132808361" lon="-105.19322022744153">
        <ele>1735.710861252698</ele>
      </trkpt>
      <trkpt lat="39.80474833555593" lon="-105.19325833333185">
        <ele>1736.708455540041</ele>
      </trkpt>
      <trkpt lat="39.80558838716545" lon="-105.19330034775524">
        <ele>1738.7275353756143</ele>
      </trkpt>
      <trkpt lat="39.806320190959866" lon="-105.19336889819502">
        <ele>1739.3782734515573</ele>
      </trkpt>
      <trkpt lat="39.80759118216021" lon="-105.19334022232466">
        <ele>1739.0871073152814</ele>
      </trkpt>
      <trkpt lat="39.811860823090775" lon="-105.19333955873944">
        <ele>1731.4030904822264</ele>
      </trkpt>
      <trkpt lat="39.81257138555782" lon="-105.19332565135925">
        <ele>1729.802844261153</ele>
      </trkpt>
      <trkpt lat="39.81263113664873" lon="-105.19329889874605">
        <ele>1729.6633404086606</ele>
      </trkpt>
      <trkpt lat="39.812649361576185" lon="-105.19322010811115">
        <ele>1729.5146847493988</ele>
      </trkpt>
      <trkpt lat="39.81262020892572" lon="-105.19046097878918">
        <ele>1725.7601906079624</ele>
      </trkpt>
      <trkpt lat="39.81263084279736" lon="-105.18963391171798">
        <ele>1725.06751017672</ele>
      </trkpt>
      <trkpt lat="39.81268079963454" lon="-105.18943673195015">
        <ele>1724.8822090777103</ele>
      </trkpt>
      <trkpt lat="39.812689400980084" lon="-105.18932160795362">
        <ele>1724.7381480458146</ele>
      </trkpt>
      <trkpt lat="39.812670884375876" lon="-105.18394072996034">
        <ele>1718.0699989038017</ele>
      </trkpt>
      <trkpt lat="39.812690302991776" lon="-105.18383880782103">
        <ele>1717.9755896559643</ele>
      </trkpt>
      <trkpt lat="39.81276378279672" lon="-105.18378494901701">
        <ele>1717.8918191286045</ele>
      </trkpt>
      <trkpt lat="39.812894530982696" lon="-105.18376236843837">
        <ele>1717.8190287884768</ele>
      </trkpt>
      <trkpt lat="39.81714885740044" lon="-105.18384199982343">
        <ele>1714.691209352036</ele>
      </trkpt>
      <trkpt lat="39.82696983309346" lon="-105.1839480795594">
        <ele>1730.2170047109996</ele>
      </trkpt>
      <trkpt lat="39.827061970033114" lon="-105.18399347863257">
        <ele>1730.5758016744967</ele>
      </trkpt>
      <trkpt lat="39.82711246896985" lon="-105.18405340663406">
        <ele>1730.780285122192</ele>
      </trkpt>
      <trkpt lat="39.82715958553196" lon="-105.18421330741646">
        <ele>1731.092908594034</ele>
      </trkpt>
      <trkpt lat="39.82716990334463" lon="-105.18436316565126">
        <ele>1731.362443371993</ele>
      </trkpt>
      <trkpt lat="39.827167802690724" lon="-105.18472497933433">
        <ele>1732.1128803873341</ele>
      </trkpt>
      <trkpt lat="39.82714676037828" lon="-105.184909288741">
        <ele>1732.452499623126</ele>
      </trkpt>
      <trkpt lat="39.82700188163006" lon="-105.18541654094295">
        <ele>1733.3764661235184</ele>
      </trkpt>
      <trkpt lat="39.826980367004424" lon="-105.18688179068494">
        <ele>1734.3116320136528</ele>
      </trkpt>
    </trkseg>
  </trk>
</gpx>
