<?xml version='1.0' encoding='UTF-8'?>
<gpx version="1.1"
  creator="GPXmagic"
  xmlns="http://www.topografix.com/GPX/1/1"
  xmlns:rgt="http://www.rgtcycling.com/XML/GpxExtensions/v1"
  xmlns:xsi="http://www.w3.org/2001/XMLSchema-instance" xsi:schemaLocation="http://www.topografix.com/GPX/1/1
  http://www.topografix.com/GPX/1/1/gpx.xsd">
  <metadata>
    <name>Smoothed with GPXmagic</name>
    <author>
      <link href="https://www.stepwiserefinement.co.uk">
        <text>GPXmagic v3</text>
        <type>text/html</type>
      </link>
    </author>
  </metadata>
<trk>  <name>geoje&#32;two</name>
<trkseg>
<trkpt lat="34.8986035" lon="128.6312625"><ele>2.15</ele></trkpt>
<trkpt lat="34.898555" lon="128.630813"><ele>2.99</ele></trkpt>
<trkpt lat="34.898482" lon="128.630014"><ele>4.68</ele></trkpt>
<trkpt lat="34.898454" lon="128.629837"><ele>5.09</ele></trkpt>
<trkpt lat="34.89831600000001" lon="128.62930799999998"><ele>6.52</ele></trkpt>
<trkpt lat="34.898206" lon="128.628702"><ele>8.4</ele></trkpt>
<trkpt lat="34.898145" lon="128.628175"><ele>10.04</ele></trkpt>
<trkpt lat="34.89810200000001" lon="128.627579"><ele>11.42</ele></trkpt>
<trkpt lat="34.898158" lon="128.627084"><ele>11.77</ele></trkpt>
<trkpt lat="34.898388000000004" lon="128.626413"><ele>11.34</ele></trkpt>
<trkpt lat="34.898571" lon="128.626009"><ele>11.3</ele></trkpt>
<trkpt lat="34.898701" lon="128.625885"><ele>11.51</ele></trkpt>
<trkpt lat="34.898908" lon="128.625611"><ele>12.38</ele></trkpt>
<trkpt lat="34.900002" lon="128.624604"><ele>18.45</ele></trkpt>
<trkpt lat="34.901738" lon="128.623482"><ele>23.33</ele></trkpt>
<trkpt lat="34.902039" lon="128.623398"><ele>23.17</ele></trkpt>
<trkpt lat="34.903299" lon="128.623362"><ele>18.9</ele></trkpt>
<trkpt lat="34.903564" lon="128.623257"><ele>17.69</ele></trkpt>
<trkpt lat="34.903803" lon="128.623062"><ele>16.32</ele></trkpt>
<trkpt lat="34.904946" lon="128.621875"><ele>9.59</ele></trkpt>
<trkpt lat="34.905129" lon="128.621657"><ele>9.18</ele></trkpt>
<trkpt lat="34.905452" lon="128.621039"><ele>10.05</ele></trkpt>
<trkpt lat="34.905814" lon="128.62029199999998"><ele>13.21</ele></trkpt>
<trkpt lat="34.906365" lon="128.619077"><ele>20.79</ele></trkpt>
<trkpt lat="34.906629" lon="128.618772"><ele>23.56</ele></trkpt>
<trkpt lat="34.90682900000001" lon="128.618662"><ele>25.32</ele></trkpt>
<trkpt lat="34.907434" lon="128.618582"><ele>30.09</ele></trkpt>
<trkpt lat="34.907709" lon="128.618525"><ele>31.88</ele></trkpt>
<trkpt lat="34.907934" lon="128.618397"><ele>33.06</ele></trkpt>
<trkpt lat="34.908292" lon="128.617969"><ele>34.61</ele></trkpt>
<trkpt lat="34.908455" lon="128.6178"><ele>35.03</ele></trkpt>
<trkpt lat="34.908634" lon="128.617702"><ele>35.24</ele></trkpt>
<trkpt lat="34.908774" lon="128.617672"><ele>35.28</ele></trkpt>
<trkpt lat="34.908986000000006" lon="128.617694"><ele>35.15</ele></trkpt>
<trkpt lat="34.909122" lon="128.617765"><ele>34.9</ele></trkpt>
<trkpt lat="34.90939" lon="128.617986"><ele>33.92</ele></trkpt>
<trkpt lat="34.910285" lon="128.618949"><ele>28.17</ele></trkpt>
<trkpt lat="34.910503" lon="128.619055"><ele>26.84</ele></trkpt>
<trkpt lat="34.910702" lon="128.619064"><ele>25.61</ele></trkpt>
<trkpt lat="34.911108" lon="128.618984"><ele>23.05</ele></trkpt>
<trkpt lat="34.91157100000001" lon="128.618958"><ele>20.43</ele></trkpt>
<trkpt lat="34.911976" lon="128.619089"><ele>18.49</ele></trkpt>
<trkpt lat="34.912644" lon="128.619347"><ele>15.98</ele></trkpt>
<trkpt lat="34.91289" lon="128.61936899999998"><ele>15.27</ele></trkpt>
<trkpt lat="34.914942" lon="128.619172"><ele>10.6</ele></trkpt>
<trkpt lat="34.915296" lon="128.619205"><ele>9.78</ele></trkpt>
<trkpt lat="34.91548800000001" lon="128.619262"><ele>9.35</ele></trkpt>
<trkpt lat="34.91568" lon="128.619404"><ele>8.93</ele></trkpt>
<trkpt lat="34.916263" lon="128.61993"><ele>7.84</ele></trkpt>
<trkpt lat="34.91657099999999" lon="128.620107"><ele>7.52</ele></trkpt>
<trkpt lat="34.918071" lon="128.620465"><ele>6.84</ele></trkpt>
<trkpt lat="34.918603" lon="128.620641"><ele>6.67</ele></trkpt>
<trkpt lat="34.919998" lon="128.621048"><ele>8.89</ele></trkpt>
<trkpt lat="34.920278" lon="128.621112"><ele>9.28</ele></trkpt>
<trkpt lat="34.920550000000006" lon="128.62109299999997"><ele>9.68</ele></trkpt>
<trkpt lat="34.920822" lon="128.620981"><ele>10.14</ele></trkpt>
<trkpt lat="34.920982" lon="128.62084"><ele>10.52</ele></trkpt>
<trkpt lat="34.92119" lon="128.620584"><ele>11.23</ele></trkpt>
<trkpt lat="34.921657" lon="128.619689"><ele>14.25</ele></trkpt>
<trkpt lat="34.92234" lon="128.618411"><ele>21.7</ele></trkpt>
<trkpt lat="34.922365" lon="128.618311"><ele>22.34</ele></trkpt>
<trkpt lat="34.922398" lon="128.617888"><ele>25.44</ele></trkpt>
<trkpt lat="34.922477" lon="128.617576"><ele>28.16</ele></trkpt>
<trkpt lat="34.922645" lon="128.617112"><ele>32.53</ele></trkpt>
<trkpt lat="34.922781" lon="128.616837"><ele>35.06</ele></trkpt>
<trkpt lat="34.922877" lon="128.616693"><ele>36.33</ele></trkpt>
<trkpt lat="34.923154" lon="128.616345"><ele>39.08</ele></trkpt>
<trkpt lat="34.923594" lon="128.615897"><ele>42.07</ele></trkpt>
<trkpt lat="34.92388" lon="128.615471"><ele>43.93</ele></trkpt>
<trkpt lat="34.923994" lon="128.615095"><ele>45.08</ele></trkpt>
<trkpt lat="34.923977" lon="128.614817"><ele>45.73</ele></trkpt>
<trkpt lat="34.92377299999999" lon="128.61407"><ele>46.88</ele></trkpt>
<trkpt lat="34.923828" lon="128.61382"><ele>46.73</ele></trkpt>
<trkpt lat="34.923879" lon="128.61371900000003"><ele>46.47</ele></trkpt>
<trkpt lat="34.924042" lon="128.613552"><ele>45.5</ele></trkpt>
<trkpt lat="34.924274" lon="128.61313299999998"><ele>42.46</ele></trkpt>
<trkpt lat="34.924551" lon="128.612426"><ele>36.35</ele></trkpt>
<trkpt lat="34.9247" lon="128.612127"><ele>33.43</ele></trkpt>
<trkpt lat="34.924794999999996" lon="128.611998"><ele>31.97</ele></trkpt>
<trkpt lat="34.925263" lon="128.611653"><ele>26.37</ele></trkpt>
<trkpt lat="34.925398" lon="128.611506"><ele>24.59</ele></trkpt>
<trkpt lat="34.925511" lon="128.61132899999998"><ele>22.87</ele></trkpt>
<trkpt lat="34.925585" lon="128.611162"><ele>21.49</ele></trkpt>
<trkpt lat="34.925641" lon="128.610849"><ele>19.38</ele></trkpt>
<trkpt lat="34.925603" lon="128.610524"><ele>17.51</ele></trkpt>
<trkpt lat="34.925318" lon="128.609916"><ele>14.11</ele></trkpt>
<trkpt lat="34.92500780000001" lon="128.6092926"><ele>11.31</ele></trkpt>
<trkpt lat="34.924801" lon="128.608877"><ele>10.09</ele></trkpt>
<trkpt lat="34.924792" lon="128.608671"><ele>9.74</ele></trkpt>
<trkpt lat="34.924844" lon="128.608392"><ele>9.38</ele></trkpt>
<trkpt lat="34.924956" lon="128.608034"><ele>9.05</ele></trkpt>
<trkpt lat="34.925138" lon="128.60757"><ele>8.78</ele></trkpt>
<trkpt lat="34.925215" lon="128.607408"><ele>8.71</ele></trkpt>
<trkpt lat="34.92554499999999" lon="128.606896"><ele>8.6</ele></trkpt>
<trkpt lat="34.925926000000004" lon="128.606538"><ele>8.64</ele></trkpt>
<trkpt lat="34.92637599999999" lon="128.606144"><ele>8.87</ele></trkpt>
<trkpt lat="34.927618" lon="128.60509299999998"><ele>10.05</ele></trkpt>
<trkpt lat="34.928302" lon="128.604529"><ele>10.19</ele></trkpt>
<trkpt lat="34.930285" lon="128.60296"><ele>7.86</ele></trkpt>
<trkpt lat="34.930931" lon="128.602367"><ele>6.85</ele></trkpt>
<trkpt lat="34.931488" lon="128.601803"><ele>6.35</ele></trkpt>
<trkpt lat="34.932907" lon="128.600481"><ele>7.21</ele></trkpt>
<trkpt lat="34.933226" lon="128.60028"><ele>7.7</ele></trkpt>
<trkpt lat="34.934169" lon="128.599904"><ele>9.82</ele></trkpt>
<trkpt lat="34.93438" lon="128.599791"><ele>10.44</ele></trkpt>
<trkpt lat="34.93477" lon="128.599445"><ele>12.01</ele></trkpt>
<trkpt lat="34.936148" lon="128.598144"><ele>19.04</ele></trkpt>
<trkpt lat="34.936293000000006" lon="128.598074"><ele>19.86</ele></trkpt>
<trkpt lat="34.93648900000001" lon="128.598053"><ele>21.1</ele></trkpt>
<trkpt lat="34.936657999999994" lon="128.598071"><ele>22.35</ele></trkpt>
<trkpt lat="34.937795" lon="128.598374"><ele>32.98</ele></trkpt>
<trkpt lat="34.93791600000001" lon="128.598423"><ele>34.11</ele></trkpt>
<trkpt lat="34.938206" lon="128.59865900000003"><ele>36.91</ele></trkpt>
<trkpt lat="34.938364" lon="128.598744"><ele>38.1</ele></trkpt>
<trkpt lat="34.938578" lon="128.598784"><ele>39.33</ele></trkpt>
<trkpt lat="34.939697" lon="128.59889"><ele>43.6</ele></trkpt>
<trkpt lat="34.939921" lon="128.598868"><ele>44.55</ele></trkpt>
<trkpt lat="34.940114" lon="128.598788"><ele>45.5</ele></trkpt>
<trkpt lat="34.940552" lon="128.598338"><ele>48.37</ele></trkpt>
<trkpt lat="34.940653" lon="128.59826299999997"><ele>48.96</ele></trkpt>
<trkpt lat="34.94091800000001" lon="128.598218"><ele>50.25</ele></trkpt>
<trkpt lat="34.941221000000006" lon="128.59833699999996"><ele>51.67</ele></trkpt>
<trkpt lat="34.941759" lon="128.59858"><ele>54.1</ele></trkpt>
<trkpt lat="34.941889" lon="128.598677"><ele>54.76</ele></trkpt>
<trkpt lat="34.942082000000006" lon="128.598878"><ele>55.93</ele></trkpt>
<trkpt lat="34.94221400000001" lon="128.598982"><ele>56.73</ele></trkpt>
<trkpt lat="34.94248499999999" lon="128.599036"><ele>58.34</ele></trkpt>
<trkpt lat="34.943402" lon="128.598882"><ele>65</ele></trkpt>
<trkpt lat="34.943501" lon="128.59883"><ele>65.7</ele></trkpt>
<trkpt lat="34.943895" lon="128.598519"><ele>68.32</ele></trkpt>
<trkpt lat="34.944617" lon="128.598217"><ele>70.99</ele></trkpt>
<trkpt lat="34.94476" lon="128.59820000000002"><ele>71.1</ele></trkpt>
<trkpt lat="34.944984" lon="128.598295"><ele>70.58</ele></trkpt>
<trkpt lat="34.945068000000006" lon="128.598405"><ele>69.98</ele></trkpt>
<trkpt lat="34.945315" lon="128.598886"><ele>66.51</ele></trkpt>
<trkpt lat="34.945384999999995" lon="128.598986"><ele>65.52</ele></trkpt>
<trkpt lat="34.94551400000001" lon="128.599078"><ele>64.01</ele></trkpt>
<trkpt lat="34.945657" lon="128.599131"><ele>62.37</ele></trkpt>
<trkpt lat="34.946418" lon="128.599291"><ele>53.75</ele></trkpt>
<trkpt lat="34.946883" lon="128.59936"><ele>49.2</ele></trkpt>
<trkpt lat="34.947088" lon="128.59932200000003"><ele>47.36</ele></trkpt>
<trkpt lat="34.947574" lon="128.599114"><ele>43.22</ele></trkpt>
<trkpt lat="34.947835" lon="128.599043"><ele>41.37</ele></trkpt>
<trkpt lat="34.947990999999995" lon="128.599087"><ele>40.42</ele></trkpt>
<trkpt lat="34.948177" lon="128.599374"><ele>39</ele></trkpt>
<trkpt lat="34.94836900000001" lon="128.59951600000002"><ele>38.24</ele></trkpt>
<trkpt lat="34.948467" lon="128.599529"><ele>37.99</ele></trkpt>
<trkpt lat="34.949385" lon="128.599252"><ele>36.41</ele></trkpt>
<trkpt lat="34.949672" lon="128.599079"><ele>35.7</ele></trkpt>
<trkpt lat="34.94989999999999" lon="128.598814"><ele>34.8</ele></trkpt>
<trkpt lat="34.950018" lon="128.598765"><ele>34.39</ele></trkpt>
<trkpt lat="34.950282" lon="128.598453"><ele>33.09</ele></trkpt>
<trkpt lat="34.95044599999999" lon="128.598349"><ele>32.42</ele></trkpt>
<trkpt lat="34.950587" lon="128.598203"><ele>31.75</ele></trkpt>
<trkpt lat="34.950776" lon="128.598168"><ele>31.05</ele></trkpt>
<trkpt lat="34.950999" lon="128.598173"><ele>30.23</ele></trkpt>
<trkpt lat="34.95131" lon="128.598232"><ele>28.94</ele></trkpt>
<trkpt lat="34.951403" lon="128.598294"><ele>28.44</ele></trkpt>
<trkpt lat="34.95145" lon="128.59839799999997"><ele>27.93</ele></trkpt>
<trkpt lat="34.951464" lon="128.598661"><ele>26.61</ele></trkpt>
<trkpt lat="34.951508" lon="128.598804"><ele>25.72</ele></trkpt>
<trkpt lat="34.951721" lon="128.599093"><ele>23.18</ele></trkpt>
<trkpt lat="34.95185" lon="128.59938800000003"><ele>20.84</ele></trkpt>
<trkpt lat="34.952036" lon="128.599736"><ele>18.03</ele></trkpt>
<trkpt lat="34.952169000000005" lon="128.599944"><ele>16.51</ele></trkpt>
<trkpt lat="34.952328" lon="128.600048"><ele>15.49</ele></trkpt>
<trkpt lat="34.952647999999996" lon="128.60000199999996"><ele>14.27</ele></trkpt>
<trkpt lat="34.952879" lon="128.599934"><ele>13.79</ele></trkpt>
<trkpt lat="34.953759" lon="128.599609"><ele>13.43</ele></trkpt>
<trkpt lat="34.953989" lon="128.599592"><ele>13.47</ele></trkpt>
<trkpt lat="34.954135" lon="128.599655"><ele>13.52</ele></trkpt>
<trkpt lat="34.954654" lon="128.599807"><ele>13.64</ele></trkpt>
<trkpt lat="34.954827" lon="128.599889"><ele>13.55</ele></trkpt>
<trkpt lat="34.954929" lon="128.600021"><ele>13.4</ele></trkpt>
<trkpt lat="34.954999" lon="128.600228"><ele>13.13</ele></trkpt>
<trkpt lat="34.955195" lon="128.60119399999996"><ele>12.4</ele></trkpt>
<trkpt lat="34.955264" lon="128.60157600000002"><ele>12.92</ele></trkpt>
<trkpt lat="34.955393" lon="128.602188"><ele>15.04</ele></trkpt>
<trkpt lat="34.955549" lon="128.60287"><ele>18.53</ele></trkpt>
<trkpt lat="34.955695" lon="128.603049"><ele>19.92</ele></trkpt>
<trkpt lat="34.956078" lon="128.603217"><ele>22.39</ele></trkpt>
<trkpt lat="34.956962" lon="128.60344199999997"><ele>26.69</ele></trkpt>
<trkpt lat="34.957128" lon="128.603508"><ele>27.12</ele></trkpt>
<trkpt lat="34.95726200000001" lon="128.603597"><ele>27.2</ele></trkpt>
<trkpt lat="34.957331" lon="128.603725"><ele>27.05</ele></trkpt>
<trkpt lat="34.957353" lon="128.603972"><ele>26.42</ele></trkpt>
<trkpt lat="34.95719400000001" lon="128.604613"><ele>23.51</ele></trkpt>
<trkpt lat="34.956944" lon="128.604882"><ele>21.41</ele></trkpt>
<trkpt lat="34.956843" lon="128.605038"><ele>20.38</ele></trkpt>
<trkpt lat="34.956828" lon="128.605244"><ele>19.36</ele></trkpt>
<trkpt lat="34.956933" lon="128.605443"><ele>18.32</ele></trkpt>
<trkpt lat="34.957396" lon="128.605867"><ele>15.67</ele></trkpt>
<trkpt lat="34.957519" lon="128.606093"><ele>14.78</ele></trkpt>
<trkpt lat="34.957709" lon="128.60661500000003"><ele>13.04</ele></trkpt>
<trkpt lat="34.957791" lon="128.607524"><ele>10.16</ele></trkpt>
<trkpt lat="34.957891999999994" lon="128.60841699999997"><ele>7.58</ele></trkpt>
<trkpt lat="34.9579" lon="128.608651"><ele>7.17</ele></trkpt>
<trkpt lat="34.957946" lon="128.609094"><ele>6.97</ele></trkpt>
<trkpt lat="34.958016" lon="128.609303"><ele>7.17</ele></trkpt>
<trkpt lat="34.958670999999995" lon="128.610347"><ele>9.99</ele></trkpt>
<trkpt lat="34.958968" lon="128.610743"><ele>11.42</ele></trkpt>
<trkpt lat="34.959500999999996" lon="128.611142"><ele>13.48</ele></trkpt>
<trkpt lat="34.959778" lon="128.611376"><ele>14.4</ele></trkpt>
<trkpt lat="34.96018" lon="128.611797"><ele>15.54</ele></trkpt>
<trkpt lat="34.96028200000001" lon="128.612004"><ele>15.91</ele></trkpt>
<trkpt lat="34.960326" lon="128.612172"><ele>16.16</ele></trkpt>
<trkpt lat="34.960318" lon="128.612596"><ele>16.74</ele></trkpt>
<trkpt lat="34.96028200000001" lon="128.613656"><ele>18.04</ele></trkpt>
<trkpt lat="34.96036599999999" lon="128.61385099999998"><ele>18.25</ele></trkpt>
<trkpt lat="34.960554" lon="128.61405"><ele>18.43</ele></trkpt>
<trkpt lat="34.960708" lon="128.614249"><ele>18.49</ele></trkpt>
<trkpt lat="34.960804" lon="128.614458"><ele>18.46</ele></trkpt>
<trkpt lat="34.961009" lon="128.615234"><ele>17.63</ele></trkpt>
<trkpt lat="34.961013" lon="128.615413"><ele>17.27</ele></trkpt>
<trkpt lat="34.96097999999999" lon="128.61557899999997"><ele>16.84</ele></trkpt>
<trkpt lat="34.960842" lon="128.616051"><ele>15.17</ele></trkpt>
<trkpt lat="34.960802" lon="128.616513"><ele>13.23</ele></trkpt>
<trkpt lat="34.960791" lon="128.616955"><ele>11.24</ele></trkpt>
<trkpt lat="34.960849" lon="128.617697"><ele>7.98</ele></trkpt>
<trkpt lat="34.960948" lon="128.618365"><ele>5.56</ele></trkpt>
<trkpt lat="34.960957" lon="128.618657"><ele>4.81</ele></trkpt>
<trkpt lat="34.960949" lon="128.619085"><ele>4.16</ele></trkpt>
<trkpt lat="34.960954" lon="128.619667"><ele>3.92</ele></trkpt>
<trkpt lat="34.961063" lon="128.621594"><ele>5.21</ele></trkpt>
<trkpt lat="34.961093" lon="128.622218"><ele>5.75</ele></trkpt>
<trkpt lat="34.961152" lon="128.624141"><ele>7.33</ele></trkpt>
<trkpt lat="34.961177" lon="128.62474199999997"><ele>7.55</ele></trkpt>
<trkpt lat="34.961184" lon="128.625289"><ele>7.64</ele></trkpt>
<trkpt lat="34.961176" lon="128.62606399999999"><ele>7.84</ele></trkpt>
<trkpt lat="34.961161" lon="128.62686300000001"><ele>8.38</ele></trkpt>
<trkpt lat="34.961178" lon="128.62700499999997"><ele>8.54</ele></trkpt>
<trkpt lat="34.961282" lon="128.627156"><ele>8.85</ele></trkpt>
<trkpt lat="34.961418" lon="128.627287"><ele>9.28</ele></trkpt>
<trkpt lat="34.961587" lon="128.627384"><ele>9.89</ele></trkpt>
<trkpt lat="34.962067" lon="128.627581"><ele>11.95</ele></trkpt>
<trkpt lat="34.962207" lon="128.627683"><ele>12.71</ele></trkpt>
<trkpt lat="34.962307" lon="128.627814"><ele>13.45</ele></trkpt>
<trkpt lat="34.962417" lon="128.628123"><ele>14.89</ele></trkpt>
<trkpt lat="34.962426" lon="128.628287"><ele>15.55</ele></trkpt>
<trkpt lat="34.962311" lon="128.62852499999997"><ele>16.53</ele></trkpt>
<trkpt lat="34.96192" lon="128.629086"><ele>18.3</ele></trkpt>
<trkpt lat="34.961834" lon="128.629255"><ele>18.41</ele></trkpt>
<trkpt lat="34.961655" lon="128.629752"><ele>17.69</ele></trkpt>
<trkpt lat="34.961403" lon="128.630066"><ele>16.28</ele></trkpt>
<trkpt lat="34.961216" lon="128.630364"><ele>14.6</ele></trkpt>
<trkpt lat="34.960964" lon="128.631005"><ele>10.92</ele></trkpt>
<trkpt lat="34.960731" lon="128.6315"><ele>8.36</ele></trkpt>
<trkpt lat="34.960478" lon="128.631867"><ele>6.89</ele></trkpt>
<trkpt lat="34.96037900000001" lon="128.631982"><ele>6.54</ele></trkpt>
<trkpt lat="34.960109" lon="128.632221"><ele>6.08</ele></trkpt>
<trkpt lat="34.959612" lon="128.632581"><ele>6.01</ele></trkpt>
<trkpt lat="34.958563" lon="128.633474"><ele>6.86</ele></trkpt>
<trkpt lat="34.958361" lon="128.633729"><ele>7.06</ele></trkpt>
<trkpt lat="34.957051" lon="128.6361073"><ele>8.61</ele></trkpt>
<trkpt lat="34.956186" lon="128.637649"><ele>11.27</ele></trkpt>
<trkpt lat="34.956087000000004" lon="128.637899"><ele>11.81</ele></trkpt>
<trkpt lat="34.956033999999995" lon="128.638159"><ele>12.26</ele></trkpt>
<trkpt lat="34.955995" lon="128.638689"><ele>12.69</ele></trkpt>
<trkpt lat="34.956016" lon="128.638948"><ele>12.56</ele></trkpt>
<trkpt lat="34.956262" lon="128.640238"><ele>10.57</ele></trkpt>
<trkpt lat="34.956429" lon="128.641064"><ele>9.13</ele></trkpt>
<trkpt lat="34.956658" lon="128.642407"><ele>6.87</ele></trkpt>
<trkpt lat="34.956725" lon="128.642703"><ele>6.38</ele></trkpt>
<trkpt lat="34.956782000000004" lon="128.642869"><ele>6.11</ele></trkpt>
<trkpt lat="34.95696" lon="128.643221"><ele>5.53</ele></trkpt>
<trkpt lat="34.957897" lon="128.644281"><ele>4.03</ele></trkpt>
<trkpt lat="34.9592102" lon="128.6458056"><ele>1.78</ele></trkpt>
<trkpt lat="34.959773" lon="128.646459"><ele>1.64</ele></trkpt>
<trkpt lat="34.959849" lon="128.646603"><ele>1.83</ele></trkpt>
<trkpt lat="34.95989" lon="128.64677499999996"><ele>2.14</ele></trkpt>
<trkpt lat="34.959854" lon="128.64710200000002"><ele>2.98</ele></trkpt>
<trkpt lat="34.959232" lon="128.6479413"><ele>7.02</ele></trkpt>
<trkpt lat="34.958921" lon="128.648361"><ele>8.06</ele></trkpt>
<trkpt lat="34.958683" lon="128.648565"><ele>8.03</ele></trkpt>
<trkpt lat="34.958551" lon="128.648726"><ele>7.76</ele></trkpt>
<trkpt lat="34.95845500000001" lon="128.64888700000003"><ele>7.4</ele></trkpt>
<trkpt lat="34.958335" lon="128.649152"><ele>6.78</ele></trkpt>
<trkpt lat="34.958184" lon="128.649322"><ele>6.32</ele></trkpt>
<trkpt lat="34.958023999999995" lon="128.649338"><ele>6.09</ele></trkpt>
<trkpt lat="34.957764" lon="128.649302"><ele>5.97</ele></trkpt>
<trkpt lat="34.957307" lon="128.649135"><ele>6.26</ele></trkpt>
<trkpt lat="34.957012" lon="128.649005"><ele>6.56</ele></trkpt>
<trkpt lat="34.956766" lon="128.648962"><ele>6.72</ele></trkpt>
<trkpt lat="34.95654600000001" lon="128.648951"><ele>6.72</ele></trkpt>
<trkpt lat="34.956379" lon="128.649005"><ele>6.58</ele></trkpt>
<trkpt lat="34.955437999999994" lon="128.64961599999998"><ele>4.9</ele></trkpt>
<trkpt lat="34.955345" lon="128.649724"><ele>4.76</ele></trkpt>
<trkpt lat="34.955304" lon="128.649855"><ele>4.68</ele></trkpt>
<trkpt lat="34.95510649999999" lon="128.650913"><ele>5.38</ele></trkpt>
<trkpt lat="34.954909" lon="128.651971"><ele>7.44</ele></trkpt>
<trkpt lat="34.954817" lon="128.652525"><ele>8.76</ele></trkpt>
<trkpt lat="34.954502" lon="128.654523"><ele>13.7</ele></trkpt>
<trkpt lat="34.954426000000005" lon="128.654885"><ele>14.5</ele></trkpt>
<trkpt lat="34.954311000000004" lon="128.655074"><ele>15.02</ele></trkpt>
<trkpt lat="34.954183" lon="128.655147"><ele>15.41</ele></trkpt>
<trkpt lat="34.953496" lon="128.65520399999997"><ele>17.47</ele></trkpt>
<trkpt lat="34.953161" lon="128.655146"><ele>18.61</ele></trkpt>
<trkpt lat="34.952294" lon="128.655132"><ele>22.21</ele></trkpt>
<trkpt lat="34.951427" lon="128.655118"><ele>26.87</ele></trkpt>
<trkpt lat="34.950976000000004" lon="128.655048"><ele>29.65</ele></trkpt>
<trkpt lat="34.950773" lon="128.654976"><ele>30.93</ele></trkpt>
<trkpt lat="34.950255" lon="128.654703"><ele>34.22</ele></trkpt>
<trkpt lat="34.949983" lon="128.654605"><ele>35.74</ele></trkpt>
<trkpt lat="34.949767" lon="128.654628"><ele>36.86</ele></trkpt>
<trkpt lat="34.94941" lon="128.654751"><ele>38.78</ele></trkpt>
<trkpt lat="34.949216" lon="128.654783"><ele>39.85</ele></trkpt>
<trkpt lat="34.948986000000005" lon="128.654763"><ele>41.15</ele></trkpt>
<trkpt lat="34.9488" lon="128.65469"><ele>42.26</ele></trkpt>
<trkpt lat="34.948328" lon="128.654458"><ele>45.04</ele></trkpt>
<trkpt lat="34.947994" lon="128.654328"><ele>46.73</ele></trkpt>
<trkpt lat="34.947735" lon="128.654253"><ele>47.94</ele></trkpt>
<trkpt lat="34.947504" lon="128.654221"><ele>49.03</ele></trkpt>
<trkpt lat="34.94729000000001" lon="128.65423"><ele>50.14</ele></trkpt>
<trkpt lat="34.946647000000006" lon="128.654193"><ele>54.01</ele></trkpt>
<trkpt lat="34.945423" lon="128.653963"><ele>63.51</ele></trkpt>
<trkpt lat="34.94493899999999" lon="128.6538454"><ele>67.08</ele></trkpt>
<trkpt lat="34.944213" lon="128.65366899999998"><ele>70.55</ele></trkpt>
<trkpt lat="34.94406" lon="128.65361999999996"><ele>70.83</ele></trkpt>
<trkpt lat="34.943906" lon="128.653611"><ele>70.92</ele></trkpt>
<trkpt lat="34.94375" lon="128.65364"><ele>70.8</ele></trkpt>
<trkpt lat="34.94353" lon="128.65372300000004"><ele>70.31</ele></trkpt>
<trkpt lat="34.94334" lon="128.65385"><ele>69.54</ele></trkpt>
<trkpt lat="34.942937" lon="128.654308"><ele>66.85</ele></trkpt>
<trkpt lat="34.9428" lon="128.65433600000003"><ele>66.03</ele></trkpt>
<trkpt lat="34.942798" lon="128.65446699999998"><ele>65.34</ele></trkpt>
<trkpt lat="34.942057" lon="128.655359"><ele>57.87</ele></trkpt>
<trkpt lat="34.94191" lon="128.65552"><ele>56.57</ele></trkpt>
<trkpt lat="34.94170200000001" lon="128.655685"><ele>55.18</ele></trkpt>
<trkpt lat="34.941064" lon="128.65599100000003"><ele>52.4</ele></trkpt>
<trkpt lat="34.94014" lon="128.65638000000004"><ele>50.48</ele></trkpt>
<trkpt lat="34.939842999999996" lon="128.65646499999997"><ele>49.93</ele></trkpt>
<trkpt lat="34.939229999999995" lon="128.65661"><ele>48.67</ele></trkpt>
<trkpt lat="34.938741" lon="128.656713"><ele>47.5</ele></trkpt>
<trkpt lat="34.938323" lon="128.656707"><ele>46.36</ele></trkpt>
<trkpt lat="34.93775699999999" lon="128.656605"><ele>44.55</ele></trkpt>
<trkpt lat="34.93752" lon="128.65651999999997"><ele>43.64</ele></trkpt>
<trkpt lat="34.9369" lon="128.6562"><ele>40.86</ele></trkpt>
<trkpt lat="34.93653" lon="128.65616"><ele>39.43</ele></trkpt>
<trkpt lat="34.936341" lon="128.656189"><ele>38.78</ele></trkpt>
<trkpt lat="34.935676" lon="128.65636"><ele>36.68</ele></trkpt>
<trkpt lat="34.935349" lon="128.656421"><ele>35.6</ele></trkpt>
<trkpt lat="34.935145" lon="128.656439"><ele>34.87</ele></trkpt>
<trkpt lat="34.935155" lon="128.656686"><ele>34.08</ele></trkpt>
<trkpt lat="34.93516" lon="128.65713"><ele>32.55</ele></trkpt>
<trkpt lat="34.935196" lon="128.657352"><ele>31.77</ele></trkpt>
<trkpt lat="34.935281999999994" lon="128.657585"><ele>30.95</ele></trkpt>
<trkpt lat="34.93602800000001" lon="128.658931"><ele>27.2</ele></trkpt>
<trkpt lat="34.936704999999996" lon="128.66022999999998"><ele>25.93</ele></trkpt>
<trkpt lat="34.937321999999995" lon="128.66138"><ele>26.11</ele></trkpt>
<trkpt lat="34.937534" lon="128.661651"><ele>26.57</ele></trkpt>
<trkpt lat="34.937619999999995" lon="128.661827"><ele>27</ele></trkpt>
<trkpt lat="34.937748" lon="128.662017"><ele>27.66</ele></trkpt>
<trkpt lat="34.937925" lon="128.662167"><ele>28.48</ele></trkpt>
<trkpt lat="34.938496" lon="128.662456"><ele>30.89</ele></trkpt>
<trkpt lat="34.939806" lon="128.663181"><ele>35.13</ele></trkpt>
<trkpt lat="34.940699" lon="128.66391"><ele>37.51</ele></trkpt>
<trkpt lat="34.940914" lon="128.664174"><ele>38.05</ele></trkpt>
<trkpt lat="34.94100400000001" lon="128.66436000000002"><ele>38.24</ele></trkpt>
<trkpt lat="34.941349" lon="128.664923"><ele>38.39</ele></trkpt>
<trkpt lat="34.94156" lon="128.665211"><ele>38.16</ele></trkpt>
<trkpt lat="34.94177" lon="128.665379"><ele>37.87</ele></trkpt>
<trkpt lat="34.942145" lon="128.665489"><ele>37.48</ele></trkpt>
<trkpt lat="34.942281" lon="128.665623"><ele>37.44</ele></trkpt>
<trkpt lat="34.942293" lon="128.665853"><ele>37.54</ele></trkpt>
<trkpt lat="34.942209" lon="128.666368"><ele>38.4</ele></trkpt>
<trkpt lat="34.942106" lon="128.66668999999996"><ele>39.46</ele></trkpt>
<trkpt lat="34.941978" lon="128.666918"><ele>40.7</ele></trkpt>
<trkpt lat="34.941791" lon="128.667012"><ele>42.19</ele></trkpt>
<trkpt lat="34.941443" lon="128.667111"><ele>45.45</ele></trkpt>
<trkpt lat="34.941131" lon="128.667119"><ele>48.58</ele></trkpt>
<trkpt lat="34.940728" lon="128.667101"><ele>52.45</ele></trkpt>
<trkpt lat="34.94021" lon="128.66721899999996"><ele>56.38</ele></trkpt>
<trkpt lat="34.939609999999995" lon="128.66721799999996"><ele>58.79</ele></trkpt>
<trkpt lat="34.939425" lon="128.667299"><ele>59.04</ele></trkpt>
<trkpt lat="34.939192" lon="128.667485"><ele>58.79</ele></trkpt>
<trkpt lat="34.939091" lon="128.667617"><ele>58.46</ele></trkpt>
<trkpt lat="34.938955" lon="128.66788199999996"><ele>57.7</ele></trkpt>
<trkpt lat="34.938781000000006" lon="128.668434"><ele>56.11</ele></trkpt>
<trkpt lat="34.93877" lon="128.668534"><ele>55.85</ele></trkpt>
<trkpt lat="34.93882" lon="128.66873299999997"><ele>55.37</ele></trkpt>
<trkpt lat="34.9389" lon="128.668824"><ele>55.1</ele></trkpt>
<trkpt lat="34.939075" lon="128.66886899999997"><ele>54.71</ele></trkpt>
<trkpt lat="34.93928" lon="128.668808"><ele>54.37</ele></trkpt>
<trkpt lat="34.93941399999999" lon="128.668845"><ele>54.22</ele></trkpt>
<trkpt lat="34.939547" lon="128.669062"><ele>54.14</ele></trkpt>
<trkpt lat="34.939562" lon="128.66920699999997"><ele>54.21</ele></trkpt>
<trkpt lat="34.93954" lon="128.669448"><ele>54.54</ele></trkpt>
<trkpt lat="34.939646" lon="128.669641"><ele>55.13</ele></trkpt>
<trkpt lat="34.93992500000001" lon="128.669894"><ele>56.64</ele></trkpt>
<trkpt lat="34.940112" lon="128.66998700000002"><ele>57.64</ele></trkpt>
<trkpt lat="34.940401" lon="128.670087"><ele>59.14</ele></trkpt>
<trkpt lat="34.940473000000004" lon="128.67013300000002"><ele>59.53</ele></trkpt>
<trkpt lat="34.940706000000006" lon="128.670516"><ele>61.24</ele></trkpt>
<trkpt lat="34.940870999999994" lon="128.670621"><ele>61.96</ele></trkpt>
<trkpt lat="34.941115" lon="128.67072299999998"><ele>62.82</ele></trkpt>
<trkpt lat="34.941423" lon="128.670804"><ele>63.64</ele></trkpt>
<trkpt lat="34.941707" lon="128.67083"><ele>64.07</ele></trkpt>
<trkpt lat="34.942002" lon="128.670766"><ele>64.06</ele></trkpt>
<trkpt lat="34.942201" lon="128.670694"><ele>63.74</ele></trkpt>
<trkpt lat="34.94234600000001" lon="128.670734"><ele>63.39</ele></trkpt>
<trkpt lat="34.942493" lon="128.670871"><ele>62.86</ele></trkpt>
<trkpt lat="34.94263" lon="128.670956"><ele>62.37</ele></trkpt>
<trkpt lat="34.942808" lon="128.670967"><ele>61.78</ele></trkpt>
<trkpt lat="34.943124" lon="128.670887"><ele>60.72</ele></trkpt>
<trkpt lat="34.94334200000001" lon="128.670895"><ele>60.07</ele></trkpt>
<trkpt lat="34.943751" lon="128.671042"><ele>59.01</ele></trkpt>
<trkpt lat="34.944056" lon="128.671134"><ele>58.52</ele></trkpt>
<trkpt lat="34.944195" lon="128.671155"><ele>58.41</ele></trkpt>
<trkpt lat="34.944837" lon="128.67105099999998"><ele>58.22</ele></trkpt>
<trkpt lat="34.945101" lon="128.671102"><ele>57.91</ele></trkpt>
<trkpt lat="34.946156" lon="128.671446"><ele>53.88</ele></trkpt>
<trkpt lat="34.946343" lon="128.67152099999998"><ele>53.24</ele></trkpt>
<trkpt lat="34.946506" lon="128.67162"><ele>52.81</ele></trkpt>
<trkpt lat="34.946609" lon="128.671724"><ele>52.62</ele></trkpt>
<trkpt lat="34.946796" lon="128.672009"><ele>52.45</ele></trkpt>
<trkpt lat="34.94684000000001" lon="128.672135"><ele>52.48</ele></trkpt>
<trkpt lat="34.946866" lon="128.672422"><ele>52.64</ele></trkpt>
<trkpt lat="34.946801" lon="128.672945"><ele>53.16</ele></trkpt>
<trkpt lat="34.946825" lon="128.673277"><ele>53.52</ele></trkpt>
<trkpt lat="34.946827" lon="128.67357300000003"><ele>53.85</ele></trkpt>
<trkpt lat="34.94689000000001" lon="128.674033"><ele>54.4</ele></trkpt>
<trkpt lat="34.946974" lon="128.674314"><ele>54.78</ele></trkpt>
<trkpt lat="34.947084" lon="128.674537"><ele>55.11</ele></trkpt>
<trkpt lat="34.947508000000006" lon="128.675235"><ele>56.13</ele></trkpt>
<trkpt lat="34.947657" lon="128.675514"><ele>56.41</ele></trkpt>
<trkpt lat="34.9482584" lon="128.6769904"><ele>56.77</ele></trkpt>
<trkpt lat="34.94863" lon="128.677887"><ele>58.2</ele></trkpt>
<trkpt lat="34.949033" lon="128.678944"><ele>61.68</ele></trkpt>
<trkpt lat="34.949286" lon="128.679648"><ele>64.33</ele></trkpt>
<trkpt lat="34.949715000000005" lon="128.6806296"><ele>67.92</ele></trkpt>
<trkpt lat="34.950001" lon="128.681284"><ele>69.34</ele></trkpt>
<trkpt lat="34.950623" lon="128.682616"><ele>70.39</ele></trkpt>
<trkpt lat="34.95097400000001" lon="128.683115"><ele>70.53</ele></trkpt>
<trkpt lat="34.951143" lon="128.683478"><ele>70.58</ele></trkpt>
<trkpt lat="34.951227" lon="128.683718"><ele>70.64</ele></trkpt>
<trkpt lat="34.95130400000001" lon="128.684104"><ele>70.79</ele></trkpt>
<trkpt lat="34.951331" lon="128.68466400000003"><ele>71.15</ele></trkpt>
<trkpt lat="34.951393" lon="128.684909"><ele>71.4</ele></trkpt>
<trkpt lat="34.951546" lon="128.685271"><ele>71.94</ele></trkpt>
<trkpt lat="34.951855" lon="128.685679"><ele>73.25</ele></trkpt>
<trkpt lat="34.952222" lon="128.68628"><ele>75.92</ele></trkpt>
<trkpt lat="34.952889" lon="128.687345"><ele>82.08</ele></trkpt>
<trkpt lat="34.953155" lon="128.687815"><ele>85.51</ele></trkpt>
<trkpt lat="34.953543" lon="128.688234"><ele>89.95</ele></trkpt>
<trkpt lat="34.95386299999999" lon="128.688625"><ele>93.92</ele></trkpt>
<trkpt lat="34.954068" lon="128.688926"><ele>96.64</ele></trkpt>
<trkpt lat="34.954315" lon="128.689226"><ele>99.55</ele></trkpt>
<trkpt lat="34.954597" lon="128.689462"><ele>102.64</ele></trkpt>
<trkpt lat="34.954882" lon="128.689596"><ele>105.8</ele></trkpt>
<trkpt lat="34.955071999999994" lon="128.689661"><ele>108.07</ele></trkpt>
<trkpt lat="34.955254" lon="128.689814"><ele>110.78</ele></trkpt>
<trkpt lat="34.955674" lon="128.69009799999998"><ele>117.05</ele></trkpt>
<trkpt lat="34.95581" lon="128.690232"><ele>119.38</ele></trkpt>
<trkpt lat="34.95605" lon="128.690581"><ele>124.28</ele></trkpt>
<trkpt lat="34.95616999999999" lon="128.690879"><ele>127.38</ele></trkpt>
<trkpt lat="34.956535" lon="128.691335"><ele>131.78</ele></trkpt>
<trkpt lat="34.956795" lon="128.691546"><ele>132.83</ele></trkpt>
<trkpt lat="34.95712900000001" lon="128.691778"><ele>132.01</ele></trkpt>
<trkpt lat="34.957206" lon="128.691849"><ele>131.46</ele></trkpt>
<trkpt lat="34.9576" lon="128.692075"><ele>127.68</ele></trkpt>
<trkpt lat="34.957845" lon="128.692288"><ele>124.23</ele></trkpt>
<trkpt lat="34.958239000000006" lon="128.692577"><ele>118.16</ele></trkpt>
<trkpt lat="34.958733" lon="128.69267900000003"><ele>111.19</ele></trkpt>
<trkpt lat="34.959107" lon="128.692577"><ele>105.82</ele></trkpt>
<trkpt lat="34.959269" lon="128.69257099999996"><ele>103.54</ele></trkpt>
<trkpt lat="34.95966899999999" lon="128.69277"><ele>97.39</ele></trkpt>
<trkpt lat="34.959792" lon="128.692775"><ele>95.58</ele></trkpt>
<trkpt lat="34.95992900000001" lon="128.692711"><ele>93.38</ele></trkpt>
<trkpt lat="34.960219" lon="128.692437"><ele>87.78</ele></trkpt>
<trkpt lat="34.960439" lon="128.692295"><ele>83.98</ele></trkpt>
<trkpt lat="34.960585" lon="128.69232"><ele>81.77</ele></trkpt>
<trkpt lat="34.960772" lon="128.692399"><ele>78.9</ele></trkpt>
<trkpt lat="34.961028999999996" lon="128.692472"><ele>75.26</ele></trkpt>
<trkpt lat="34.961212" lon="128.692324"><ele>72.44</ele></trkpt>
<trkpt lat="34.961345" lon="128.69213"><ele>70.02</ele></trkpt>
<trkpt lat="34.961539" lon="128.691981"><ele>67.6</ele></trkpt>
<trkpt lat="34.96167899999999" lon="128.69197"><ele>66.29</ele></trkpt>
<trkpt lat="34.96221" lon="128.692126"><ele>61.72</ele></trkpt>
<trkpt lat="34.963064" lon="128.692308"><ele>54.63</ele></trkpt>
<trkpt lat="34.963381" lon="128.692265"><ele>51.56</ele></trkpt>
<trkpt lat="34.96384700000001" lon="128.692051"><ele>46.43</ele></trkpt>
<trkpt lat="34.963964999999995" lon="128.691959"><ele>45.02</ele></trkpt>
<trkpt lat="34.96414600000001" lon="128.691739"><ele>42.64</ele></trkpt>
<trkpt lat="34.964439" lon="128.690911"><ele>36.88</ele></trkpt>
<trkpt lat="34.964514" lon="128.690737"><ele>35.99</ele></trkpt>
<trkpt lat="34.964704" lon="128.690393"><ele>34.83</ele></trkpt>
<trkpt lat="34.964787" lon="128.690279"><ele>34.59</ele></trkpt>
<trkpt lat="34.965217" lon="128.690023"><ele>34.21</ele></trkpt>
<trkpt lat="34.965371" lon="128.689906"><ele>34.12</ele></trkpt>
<trkpt lat="34.96555" lon="128.689686"><ele>33.96</ele></trkpt>
<trkpt lat="34.96557" lon="128.68955800000003"><ele>33.86</ele></trkpt>
<trkpt lat="34.965466" lon="128.68917699999997"><ele>33.42</ele></trkpt>
<trkpt lat="34.965469" lon="128.689001"><ele>33.15</ele></trkpt>
<trkpt lat="34.965532" lon="128.688815"><ele>32.77</ele></trkpt>
<trkpt lat="34.965615" lon="128.688686"><ele>32.42</ele></trkpt>
<trkpt lat="34.965869" lon="128.68858"><ele>31.65</ele></trkpt>
<trkpt lat="34.9667265" lon="128.6884556"><ele>29.66</ele></trkpt>
<trkpt lat="34.967550700000004" lon="128.6883453"><ele>28.54</ele></trkpt>
<trkpt lat="34.96817" lon="128.688274"><ele>27.28</ele></trkpt>
<trkpt lat="34.968201" lon="128.688453"><ele>26.87</ele></trkpt>
<trkpt lat="34.968402" lon="128.68902"><ele>25.38</ele></trkpt>
<trkpt lat="34.968555" lon="128.689405"><ele>24.44</ele></trkpt>
<trkpt lat="34.968634" lon="128.689965"><ele>23.47</ele></trkpt>
<trkpt lat="34.968766" lon="128.69050699999997"><ele>22.71</ele></trkpt>
<trkpt lat="34.968937" lon="128.690791"><ele>22.24</ele></trkpt>
<trkpt lat="34.969048" lon="128.690892"><ele>22</ele></trkpt>
<trkpt lat="34.969334" lon="128.691091"><ele>21.36</ele></trkpt>
<trkpt lat="34.96955899999999" lon="128.69130099999998"><ele>20.74</ele></trkpt>
<trkpt lat="34.97033400000001" lon="128.692309"><ele>17.97</ele></trkpt>
<trkpt lat="34.970808" lon="128.692859"><ele>16.45</ele></trkpt>
<trkpt lat="34.970997" lon="128.693311"><ele>15.61</ele></trkpt>
<trkpt lat="34.97128399999999" lon="128.693617"><ele>15.01</ele></trkpt>
<trkpt lat="34.971521" lon="128.693784"><ele>14.61</ele></trkpt>
<trkpt lat="34.971698" lon="128.69388"><ele>14.27</ele></trkpt>
<trkpt lat="34.972031" lon="128.694127"><ele>13.37</ele></trkpt>
<trkpt lat="34.97280500000001" lon="128.694777"><ele>10.41</ele></trkpt>
<trkpt lat="34.973078" lon="128.694951"><ele>9.41</ele></trkpt>
<trkpt lat="34.973583" lon="128.69513"><ele>7.88</ele></trkpt>
<trkpt lat="34.973917" lon="128.695135"><ele>7.27</ele></trkpt>
<trkpt lat="34.97405299999999" lon="128.695082"><ele>7.16</ele></trkpt>
<trkpt lat="34.974647" lon="128.694701"><ele>7.47</ele></trkpt>
<trkpt lat="34.974849000000006" lon="128.694594"><ele>7.81</ele></trkpt>
<trkpt lat="34.97506" lon="128.694535"><ele>8.3</ele></trkpt>
<trkpt lat="34.975254" lon="128.69453400000003"><ele>8.8</ele></trkpt>
<trkpt lat="34.975412000000006" lon="128.694578"><ele>9.22</ele></trkpt>
<trkpt lat="34.975925999999994" lon="128.694835"><ele>10.56</ele></trkpt>
<trkpt lat="34.976124" lon="128.69487300000003"><ele>10.99</ele></trkpt>
<trkpt lat="34.976317" lon="128.694846"><ele>11.38</ele></trkpt>
<trkpt lat="34.976516" lon="128.69476499999996"><ele>11.81</ele></trkpt>
<trkpt lat="34.976722" lon="128.694641"><ele>12.31</ele></trkpt>
<trkpt lat="34.976898" lon="128.694502"><ele>12.82</ele></trkpt>
<trkpt lat="34.977096" lon="128.694271"><ele>13.54</ele></trkpt>
<trkpt lat="34.977478" lon="128.69374600000003"><ele>14.94</ele></trkpt>
<trkpt lat="34.977837" lon="128.69348399999998"><ele>15.35</ele></trkpt>
<trkpt lat="34.977935" lon="128.693371"><ele>15.25</ele></trkpt>
<trkpt lat="34.978036" lon="128.693194"><ele>14.86</ele></trkpt>
<trkpt lat="34.978093" lon="128.692985"><ele>14.18</ele></trkpt>
<trkpt lat="34.978155" lon="128.69262500000002"><ele>12.65</ele></trkpt>
<trkpt lat="34.978251" lon="128.692244"><ele>10.91</ele></trkpt>
<trkpt lat="34.97833" lon="128.692094"><ele>10.25</ele></trkpt>
<trkpt lat="34.97856000000001" lon="128.691874"><ele>9.44</ele></trkpt>
<trkpt lat="34.97899400000001" lon="128.691735"><ele>9.36</ele></trkpt>
<trkpt lat="34.979193" lon="128.691654"><ele>9.81</ele></trkpt>
<trkpt lat="34.979452" lon="128.691396"><ele>11.47</ele></trkpt>
<trkpt lat="34.97955999999999" lon="128.691214"><ele>12.83</ele></trkpt>
<trkpt lat="34.979606" lon="128.691073"><ele>13.91</ele></trkpt>
<trkpt lat="34.979754" lon="128.69027"><ele>20.62</ele></trkpt>
<trkpt lat="34.97976" lon="128.690092"><ele>22.16</ele></trkpt>
<trkpt lat="34.979708" lon="128.689689"><ele>25.84</ele></trkpt>
<trkpt lat="34.97965800000001" lon="128.68956699999998"><ele>27.1</ele></trkpt>
<trkpt lat="34.979351" lon="128.688982"><ele>33.54</ele></trkpt>
<trkpt lat="34.979254" lon="128.68856399999999"><ele>37.44</ele></trkpt>
<trkpt lat="34.979109" lon="128.688097"><ele>41.57</ele></trkpt>
<trkpt lat="34.979077999999994" lon="128.687743"><ele>44.18</ele></trkpt>
<trkpt lat="34.979008" lon="128.687426"><ele>46.39</ele></trkpt>
<trkpt lat="34.97903" lon="128.686734"><ele>50.9</ele></trkpt>
<trkpt lat="34.979122" lon="128.68650400000004"><ele>52.68</ele></trkpt>
<trkpt lat="34.979328" lon="128.686343"><ele>54.81</ele></trkpt>
<trkpt lat="34.979433" lon="128.686225"><ele>56.07</ele></trkpt>
<trkpt lat="34.97955600000001" lon="128.685941"><ele>58.36</ele></trkpt>
<trkpt lat="34.979583" lon="128.685807"><ele>59.31</ele></trkpt>
<trkpt lat="34.979587" lon="128.685431"><ele>61.76</ele></trkpt>
<trkpt lat="34.979521" lon="128.685131"><ele>63.52</ele></trkpt>
<trkpt lat="34.979552" lon="128.685018"><ele>64.09</ele></trkpt>
<trkpt lat="34.979715" lon="128.684659"><ele>65.47</ele></trkpt>
<trkpt lat="34.97973900000001" lon="128.684423"><ele>65.65</ele></trkpt>
<trkpt lat="34.97997" lon="128.684354"><ele>65.04</ele></trkpt>
<trkpt lat="34.98032249999999" lon="128.684143"><ele>62.04</ele></trkpt>
<trkpt lat="34.9805575" lon="128.6840023"><ele>58.91</ele></trkpt>
<trkpt lat="34.98138" lon="128.68351"><ele>46.68</ele></trkpt>
<trkpt lat="34.98156" lon="128.68352"><ele>44.56</ele></trkpt>
<trkpt lat="34.98179" lon="128.68363"><ele>41.9</ele></trkpt>
<trkpt lat="34.98188" lon="128.68363"><ele>40.96</ele></trkpt>
<trkpt lat="34.98226" lon="128.68346"><ele>36.94</ele></trkpt>
<trkpt lat="34.98257" lon="128.68344"><ele>34.09</ele></trkpt>
<trkpt lat="34.983222" lon="128.683515"><ele>28.72</ele></trkpt>
<trkpt lat="34.983626" lon="128.683585"><ele>25.78</ele></trkpt>
<trkpt lat="34.983881" lon="128.683579"><ele>24.1</ele></trkpt>
<trkpt lat="34.98403999999999" lon="128.68351"><ele>23.05</ele></trkpt>
<trkpt lat="34.984665" lon="128.683028"><ele>18.71</ele></trkpt>
<trkpt lat="34.9852154" lon="128.6825973"><ele>15.4</ele></trkpt>
<trkpt lat="34.98714199999999" lon="128.68109"><ele>6.51</ele></trkpt>
</trkseg>
</trk></gpx>
