<?xml version='1.0' encoding='UTF-8'?>
<gpx version="1.1"
  creator="GPXmagic"
  xmlns="http://www.topografix.com/GPX/1/1"
  xmlns:rgt="http://www.rgtcycling.com/XML/GpxExtensions/v1"
  xmlns:xsi="http://www.w3.org/2001/XMLSchema-instance" xsi:schemaLocation="http://www.topografix.com/GPX/1/1
  http://www.topografix.com/GPX/1/1/gpx.xsd">
  <metadata>
    <name>Smoothed with GPXmagic</name>
    <author>
      <link href="https://www.stepwiserefinement.co.uk">
        <text>GPXmagic v3</text>
        <type>text/html</type>
      </link>
    </author>
  </metadata>
<trk>  <name>Lookout&#32;Out&#32;and&#32;Back</name>
<trkseg>
<trkpt lat="39.74194" lon="-105.22789000000002"><ele>1831.23</ele></trkpt>
<trkpt lat="39.7419077" lon="-105.22805450000001"><ele>1831.77</ele></trkpt>
<trkpt lat="39.741919900000006" lon="-105.22820240000001"><ele>1832.44</ele></trkpt>
<trkpt lat="39.741877" lon="-105.2282857"><ele>1832.92</ele></trkpt>
<trkpt lat="39.7418006" lon="-105.2283"><ele>1833.4</ele></trkpt>
<trkpt lat="39.741424200000004" lon="-105.22816530000001"><ele>1835.81</ele></trkpt>
<trkpt lat="39.7408218" lon="-105.2279499"><ele>1839.72</ele></trkpt>
<trkpt lat="39.7405959" lon="-105.22786920000003"><ele>1841.16</ele></trkpt>
<trkpt lat="39.7404542" lon="-105.22777470000003"><ele>1842.13</ele></trkpt>
<trkpt lat="39.7402802" lon="-105.22762320000002"><ele>1843.4</ele></trkpt>
<trkpt lat="39.7401729" lon="-105.2275515"><ele>1844.13</ele></trkpt>
<trkpt lat="39.7400991" lon="-105.2275692"><ele>1844.58</ele></trkpt>
<trkpt lat="39.7400695" lon="-105.22760039999999"><ele>1844.81</ele></trkpt>
<trkpt lat="39.74004130000001" lon="-105.2276909"><ele>1845.26</ele></trkpt>
<trkpt lat="39.740062300000005" lon="-105.2277846"><ele>1845.71</ele></trkpt>
<trkpt lat="39.74015" lon="-105.22794920000001"><ele>1846.61</ele></trkpt>
<trkpt lat="39.7402523" lon="-105.2281751"><ele>1847.8</ele></trkpt>
<trkpt lat="39.7403303" lon="-105.22839060000001"><ele>1848.9</ele></trkpt>
<trkpt lat="39.7403956" lon="-105.22864160000003"><ele>1850.17</ele></trkpt>
<trkpt lat="39.74047749999999" lon="-105.2290383"><ele>1852.25</ele></trkpt>
<trkpt lat="39.7404991" lon="-105.22918290000001"><ele>1853.02</ele></trkpt>
<trkpt lat="39.74050820000001" lon="-105.2293653"><ele>1854.01</ele></trkpt>
<trkpt lat="39.7404909" lon="-105.22946840000002"><ele>1854.58</ele></trkpt>
<trkpt lat="39.740362" lon="-105.22984659999999"><ele>1856.89</ele></trkpt>
<trkpt lat="39.740322" lon="-105.2299937"><ele>1857.77</ele></trkpt>
<trkpt lat="39.740295999999994" lon="-105.2301315"><ele>1858.58</ele></trkpt>
<trkpt lat="39.7402821" lon="-105.23026900000004"><ele>1859.37</ele></trkpt>
<trkpt lat="39.7402837" lon="-105.23040000000002"><ele>1860.11</ele></trkpt>
<trkpt lat="39.7403306" lon="-105.2305722"><ele>1861.14</ele></trkpt>
<trkpt lat="39.7404142" lon="-105.23069079999999"><ele>1862.03</ele></trkpt>
<trkpt lat="39.7408446" lon="-105.2309473"><ele>1865.29</ele></trkpt>
<trkpt lat="39.7409511" lon="-105.23104310000001"><ele>1866.18</ele></trkpt>
<trkpt lat="39.7410342" lon="-105.2312374"><ele>1867.36</ele></trkpt>
<trkpt lat="39.7411363" lon="-105.23161550000003"><ele>1869.48</ele></trkpt>
<trkpt lat="39.741169" lon="-105.23171760000002"><ele>1870.06</ele></trkpt>
<trkpt lat="39.7412478" lon="-105.2318974"><ele>1871.15</ele></trkpt>
<trkpt lat="39.7413457" lon="-105.2320575"><ele>1872.23</ele></trkpt>
<trkpt lat="39.7414623" lon="-105.23220330000001"><ele>1873.33</ele></trkpt>
<trkpt lat="39.7415836" lon="-105.2323314"><ele>1874.39</ele></trkpt>
<trkpt lat="39.7422398" lon="-105.2328833"><ele>1879.74</ele></trkpt>
<trkpt lat="39.74238569999999" lon="-105.233018"><ele>1880.98</ele></trkpt>
<trkpt lat="39.7426458" lon="-105.23328650000002"><ele>1883.27</ele></trkpt>
<trkpt lat="39.7427836" lon="-105.2334634"><ele>1884.6</ele></trkpt>
<trkpt lat="39.74284720000001" lon="-105.2335758"><ele>1885.34</ele></trkpt>
<trkpt lat="39.74288399999999" lon="-105.2336934"><ele>1886.01</ele></trkpt>
<trkpt lat="39.742901" lon="-105.23381990000001"><ele>1886.68</ele></trkpt>
<trkpt lat="39.7428811" lon="-105.23402770000001"><ele>1887.78</ele></trkpt>
<trkpt lat="39.742761" lon="-105.2345153"><ele>1890.4</ele></trkpt>
<trkpt lat="39.7427449" lon="-105.2346823"><ele>1891.27</ele></trkpt>
<trkpt lat="39.7427673" lon="-105.2347835"><ele>1891.82</ele></trkpt>
<trkpt lat="39.7428051" lon="-105.23484070000002"><ele>1892.21</ele></trkpt>
<trkpt lat="39.7428854" lon="-105.234913"><ele>1892.86</ele></trkpt>
<trkpt lat="39.7429904" lon="-105.2349284"><ele>1893.58</ele></trkpt>
<trkpt lat="39.7431042" lon="-105.23488459999999"><ele>1894.37</ele></trkpt>
<trkpt lat="39.7436352" lon="-105.23459330000001"><ele>1898.28</ele></trkpt>
<trkpt lat="39.7437398" lon="-105.23455219999998"><ele>1899.05</ele></trkpt>
<trkpt lat="39.7438351" lon="-105.23453199999999"><ele>1899.75</ele></trkpt>
<trkpt lat="39.7440571" lon="-105.2345259"><ele>1901.36</ele></trkpt>
<trkpt lat="39.7441612" lon="-105.23455099999998"><ele>1902.14</ele></trkpt>
<trkpt lat="39.7442551" lon="-105.23460190000002"><ele>1902.89</ele></trkpt>
<trkpt lat="39.7443879" lon="-105.23472500000001"><ele>1904.08</ele></trkpt>
<trkpt lat="39.7444606" lon="-105.23481390000002"><ele>1904.82</ele></trkpt>
<trkpt lat="39.7445038" lon="-105.2348886"><ele>1905.34</ele></trkpt>
<trkpt lat="39.7445373" lon="-105.2350557"><ele>1906.32</ele></trkpt>
<trkpt lat="39.7445427" lon="-105.2352589"><ele>1907.47</ele></trkpt>
<trkpt lat="39.7445247" lon="-105.23547080000002"><ele>1908.66</ele></trkpt>
<trkpt lat="39.7444393" lon="-105.2360022"><ele>1911.68</ele></trkpt>
<trkpt lat="39.7444236" lon="-105.2361358"><ele>1912.44</ele></trkpt>
<trkpt lat="39.7444351" lon="-105.2362666"><ele>1913.17</ele></trkpt>
<trkpt lat="39.7444696" lon="-105.23632940000002"><ele>1913.59</ele></trkpt>
<trkpt lat="39.7445262" lon="-105.2363699"><ele>1914.05</ele></trkpt>
<trkpt lat="39.7446164" lon="-105.2363773"><ele>1914.68</ele></trkpt>
<trkpt lat="39.745020499999995" lon="-105.2361376"><ele>1917.7</ele></trkpt>
<trkpt lat="39.7451503" lon="-105.23607490000002"><ele>1918.65</ele></trkpt>
<trkpt lat="39.7453445" lon="-105.23601490000001"><ele>1920.02</ele></trkpt>
<trkpt lat="39.7454684" lon="-105.23600310000003"><ele>1920.89</ele></trkpt>
<trkpt lat="39.7455814" lon="-105.23601370000002"><ele>1921.68</ele></trkpt>
<trkpt lat="39.7456838" lon="-105.23604870000001"><ele>1922.43</ele></trkpt>
<trkpt lat="39.7458246" lon="-105.2361181"><ele>1923.5</ele></trkpt>
<trkpt lat="39.7459603" lon="-105.2362242"><ele>1924.62</ele></trkpt>
<trkpt lat="39.746049600000006" lon="-105.23632460000002"><ele>1925.45</ele></trkpt>
<trkpt lat="39.74621739999999" lon="-105.23656699999998"><ele>1927.21</ele></trkpt>
<trkpt lat="39.746300899999994" lon="-105.23667410000002"><ele>1928.02</ele></trkpt>
<trkpt lat="39.7464434" lon="-105.2368199"><ele>1929.26</ele></trkpt>
<trkpt lat="39.7465331" lon="-105.236888"><ele>1929.97</ele></trkpt>
<trkpt lat="39.7466766" lon="-105.2369432"><ele>1931</ele></trkpt>
<trkpt lat="39.7467977" lon="-105.23694350000002"><ele>1931.84</ele></trkpt>
<trkpt lat="39.7470046" lon="-105.23691000000001"><ele>1933.3</ele></trkpt>
<trkpt lat="39.7471088" lon="-105.23694390000001"><ele>1934.07</ele></trkpt>
<trkpt lat="39.7472197" lon="-105.237053"><ele>1935.07</ele></trkpt>
<trkpt lat="39.7473201" lon="-105.23721990000001"><ele>1936.27</ele></trkpt>
<trkpt lat="39.7473548" lon="-105.23737440000001"><ele>1937.19</ele></trkpt>
<trkpt lat="39.747393599999995" lon="-105.2377432"><ele>1939.33</ele></trkpt>
<trkpt lat="39.7474184" lon="-105.2378856"><ele>1940.15</ele></trkpt>
<trkpt lat="39.7474912" lon="-105.2380621"><ele>1941.24</ele></trkpt>
<trkpt lat="39.747547" lon="-105.2381399"><ele>1941.8</ele></trkpt>
<trkpt lat="39.74761099999999" lon="-105.2381892"><ele>1942.31</ele></trkpt>
<trkpt lat="39.7477163" lon="-105.23822170000001"><ele>1943.02</ele></trkpt>
<trkpt lat="39.74833" lon="-105.2382321"><ele>1946.91</ele></trkpt>
<trkpt lat="39.7485339" lon="-105.23825330000003"><ele>1948.27</ele></trkpt>
<trkpt lat="39.7487031" lon="-105.23833030000002"><ele>1949.51</ele></trkpt>
<trkpt lat="39.74888210000001" lon="-105.23845409999998"><ele>1950.95</ele></trkpt>
<trkpt lat="39.7489437" lon="-105.23851349999998"><ele>1951.5</ele></trkpt>
<trkpt lat="39.7489957" lon="-105.23859680000001"><ele>1952.1</ele></trkpt>
<trkpt lat="39.749151700000006" lon="-105.23896800000003"><ele>1954.45</ele></trkpt>
<trkpt lat="39.7493219" lon="-105.23933159999999"><ele>1956.81</ele></trkpt>
<trkpt lat="39.7493688" lon="-105.23945730000003"><ele>1957.57</ele></trkpt>
<trkpt lat="39.7493924" lon="-105.2396422"><ele>1958.59</ele></trkpt>
<trkpt lat="39.7493731" lon="-105.23985770000002"><ele>1959.76</ele></trkpt>
<trkpt lat="39.7493328" lon="-105.2401411"><ele>1961.29</ele></trkpt>
<trkpt lat="39.7492946" lon="-105.2403511"><ele>1962.42</ele></trkpt>
<trkpt lat="39.7492271" lon="-105.240524"><ele>1963.44</ele></trkpt>
<trkpt lat="39.7491884" lon="-105.2405812"><ele>1963.84</ele></trkpt>
<trkpt lat="39.7489109" lon="-105.24092770000001"><ele>1966.43</ele></trkpt>
<trkpt lat="39.7488161" lon="-105.2411114"><ele>1967.57</ele></trkpt>
<trkpt lat="39.7487524" lon="-105.2412965"><ele>1968.6</ele></trkpt>
<trkpt lat="39.7486785" lon="-105.24154319999998"><ele>1969.95</ele></trkpt>
<trkpt lat="39.7486194" lon="-105.2417726"><ele>1971.19</ele></trkpt>
<trkpt lat="39.7485765" lon="-105.2419912"><ele>1972.35</ele></trkpt>
<trkpt lat="39.74853550000001" lon="-105.2422495"><ele>1973.72</ele></trkpt>
<trkpt lat="39.7485275" lon="-105.2424568"><ele>1974.8</ele></trkpt>
<trkpt lat="39.748555999999994" lon="-105.24266470000002"><ele>1975.9</ele></trkpt>
<trkpt lat="39.7486002" lon="-105.242835"><ele>1976.84</ele></trkpt>
<trkpt lat="39.7486835" lon="-105.24309679999999"><ele>1978.31</ele></trkpt>
<trkpt lat="39.7487278" lon="-105.24333170000001"><ele>1979.55</ele></trkpt>
<trkpt lat="39.7487601" lon="-105.24378010000002"><ele>1981.83</ele></trkpt>
<trkpt lat="39.7487843" lon="-105.2440176"><ele>1983.04</ele></trkpt>
<trkpt lat="39.7488516" lon="-105.2444158"><ele>1985.11</ele></trkpt>
<trkpt lat="39.7488623" lon="-105.24451810000001"><ele>1985.62</ele></trkpt>
<trkpt lat="39.7488317" lon="-105.2446272"><ele>1986.19</ele></trkpt>
<trkpt lat="39.74876760000001" lon="-105.24468479999999"><ele>1986.68</ele></trkpt>
<trkpt lat="39.7487014" lon="-105.24467620000001"><ele>1987.08</ele></trkpt>
<trkpt lat="39.7486501" lon="-105.2446025"><ele>1987.54</ele></trkpt>
<trkpt lat="39.7485896" lon="-105.2443865"><ele>1988.52</ele></trkpt>
<trkpt lat="39.74847" lon="-105.2439205"><ele>1990.49</ele></trkpt>
<trkpt lat="39.748358399999994" lon="-105.24353079999999"><ele>1992.21</ele></trkpt>
<trkpt lat="39.7482271" lon="-105.24313400000001"><ele>1994.04</ele></trkpt>
<trkpt lat="39.7481992" lon="-105.2430314"><ele>1994.53</ele></trkpt>
<trkpt lat="39.7481656" lon="-105.24281860000002"><ele>1995.54</ele></trkpt>
<trkpt lat="39.7481405" lon="-105.24250470000003"><ele>1997.14</ele></trkpt>
<trkpt lat="39.7481019" lon="-105.24239290000001"><ele>1997.8</ele></trkpt>
<trkpt lat="39.7480378" lon="-105.2423564"><ele>1998.28</ele></trkpt>
<trkpt lat="39.7479698" lon="-105.2423778"><ele>1998.74</ele></trkpt>
<trkpt lat="39.7479188" lon="-105.2424936"><ele>1999.42</ele></trkpt>
<trkpt lat="39.7479194" lon="-105.2427804"><ele>2000.66</ele></trkpt>
<trkpt lat="39.7479372" lon="-105.2429991"><ele>2001.47</ele></trkpt>
<trkpt lat="39.7479879" lon="-105.24350690000001"><ele>2003.15</ele></trkpt>
<trkpt lat="39.7480525" lon="-105.24392450000002"><ele>2004.6</ele></trkpt>
<trkpt lat="39.748059" lon="-105.24402370000001"><ele>2004.96</ele></trkpt>
<trkpt lat="39.74804199999999" lon="-105.24410550000002"><ele>2005.29</ele></trkpt>
<trkpt lat="39.7479966" lon="-105.24416579999999"><ele>2005.62</ele></trkpt>
<trkpt lat="39.7479371" lon="-105.24419330000003"><ele>2005.94</ele></trkpt>
<trkpt lat="39.7478835" lon="-105.2441861"><ele>2006.23</ele></trkpt>
<trkpt lat="39.7478331" lon="-105.2441148"><ele>2006.64</ele></trkpt>
<trkpt lat="39.74781269999999" lon="-105.24400950000002"><ele>2007.1</ele></trkpt>
<trkpt lat="39.7477767" lon="-105.2437176"><ele>2008.39</ele></trkpt>
<trkpt lat="39.7477423" lon="-105.24351190000002"><ele>2009.35</ele></trkpt>
<trkpt lat="39.7476835" lon="-105.2432696"><ele>2010.53</ele></trkpt>
<trkpt lat="39.7475519" lon="-105.24277770000003"><ele>2013.1</ele></trkpt>
<trkpt lat="39.747516" lon="-105.24256349999999"><ele>2014.24</ele></trkpt>
<trkpt lat="39.7475112" lon="-105.24227970000001"><ele>2015.75</ele></trkpt>
<trkpt lat="39.74753059999999" lon="-105.24200159999998"><ele>2017.23</ele></trkpt>
<trkpt lat="39.7475556" lon="-105.2418949"><ele>2017.82</ele></trkpt>
<trkpt lat="39.7476007" lon="-105.24180500000003"><ele>2018.39</ele></trkpt>
<trkpt lat="39.7478347" lon="-105.2414859"><ele>2020.75</ele></trkpt>
<trkpt lat="39.7479784" lon="-105.24126160000002"><ele>2022.32</ele></trkpt>
<trkpt lat="39.7480552" lon="-105.241061"><ele>2023.57</ele></trkpt>
<trkpt lat="39.7480775" lon="-105.24092379999999"><ele>2024.38</ele></trkpt>
<trkpt lat="39.7480825" lon="-105.240778"><ele>2025.24</ele></trkpt>
<trkpt lat="39.748065" lon="-105.240533"><ele>2026.75</ele></trkpt>
<trkpt lat="39.74803920000001" lon="-105.24038450000002"><ele>2027.72</ele></trkpt>
<trkpt lat="39.7479969" lon="-105.24025110000001"><ele>2028.63</ele></trkpt>
<trkpt lat="39.7479089" lon="-105.2401001"><ele>2029.81</ele></trkpt>
<trkpt lat="39.747819" lon="-105.24001850000002"><ele>2030.65</ele></trkpt>
<trkpt lat="39.7476803" lon="-105.23998439999998"><ele>2031.65</ele></trkpt>
<trkpt lat="39.7473061" lon="-105.23998739999999"><ele>2034.09</ele></trkpt>
<trkpt lat="39.7471229" lon="-105.2399574"><ele>2035.28</ele></trkpt>
<trkpt lat="39.7468422" lon="-105.2397326"><ele>2037.4</ele></trkpt>
<trkpt lat="39.7467043" lon="-105.23965810000003"><ele>2038.35</ele></trkpt>
<trkpt lat="39.7465332" lon="-105.2396452"><ele>2039.42</ele></trkpt>
<trkpt lat="39.7462558" lon="-105.23966130000001"><ele>2041.07</ele></trkpt>
<trkpt lat="39.7461265" lon="-105.2396371"><ele>2041.81</ele></trkpt>
<trkpt lat="39.7460087" lon="-105.23956829999999"><ele>2042.51</ele></trkpt>
<trkpt lat="39.7456823" lon="-105.2392687"><ele>2044.54</ele></trkpt>
<trkpt lat="39.7455485" lon="-105.2391549"><ele>2045.32</ele></trkpt>
<trkpt lat="39.7453898" lon="-105.23906390000002"><ele>2046.13</ele></trkpt>
<trkpt lat="39.74525150000001" lon="-105.23902180000002"><ele>2046.79</ele></trkpt>
<trkpt lat="39.745149" lon="-105.23902060000002"><ele>2047.25</ele></trkpt>
<trkpt lat="39.7448925" lon="-105.23905670000003"><ele>2048.42</ele></trkpt>
<trkpt lat="39.7443978" lon="-105.2391942"><ele>2050.68</ele></trkpt>
<trkpt lat="39.7442149" lon="-105.23926"><ele>2051.51</ele></trkpt>
<trkpt lat="39.7441234" lon="-105.23933130000003"><ele>2051.98</ele></trkpt>
<trkpt lat="39.7439226" lon="-105.23959100000002"><ele>2053.22</ele></trkpt>
<trkpt lat="39.74380860000001" lon="-105.2397031"><ele>2053.86</ele></trkpt>
<trkpt lat="39.74369370000001" lon="-105.23976569999999"><ele>2054.43</ele></trkpt>
<trkpt lat="39.7434056" lon="-105.23989220000001"><ele>2055.83</ele></trkpt>
<trkpt lat="39.7431107" lon="-105.2400034"><ele>2057.24</ele></trkpt>
<trkpt lat="39.74298159999999" lon="-105.2400049"><ele>2057.82</ele></trkpt>
<trkpt lat="39.742905" lon="-105.23997260000002"><ele>2058.17</ele></trkpt>
<trkpt lat="39.7428396" lon="-105.239923"><ele>2058.51</ele></trkpt>
<trkpt lat="39.7427696" lon="-105.2398321"><ele>2058.93</ele></trkpt>
<trkpt lat="39.742572" lon="-105.23950790000004"><ele>2060.3</ele></trkpt>
<trkpt lat="39.7425071" lon="-105.23941659999998"><ele>2060.7</ele></trkpt>
<trkpt lat="39.742413" lon="-105.23933399999999"><ele>2061.18</ele></trkpt>
<trkpt lat="39.7423326" lon="-105.2392838"><ele>2061.54</ele></trkpt>
<trkpt lat="39.742250399999996" lon="-105.23925510000002"><ele>2061.89</ele></trkpt>
<trkpt lat="39.7421712" lon="-105.2392544"><ele>2062.21</ele></trkpt>
<trkpt lat="39.7420956" lon="-105.2392822"><ele>2062.53</ele></trkpt>
<trkpt lat="39.7420101" lon="-105.23935359999999"><ele>2062.93</ele></trkpt>
<trkpt lat="39.7418165" lon="-105.2395513"><ele>2063.84</ele></trkpt>
<trkpt lat="39.7413979" lon="-105.2397232"><ele>2065.35</ele></trkpt>
<trkpt lat="39.7412858" lon="-105.23978930000001"><ele>2065.77</ele></trkpt>
<trkpt lat="39.741224100000004" lon="-105.23984409999998"><ele>2066.03</ele></trkpt>
<trkpt lat="39.7411398" lon="-105.23995700000002"><ele>2066.46</ele></trkpt>
<trkpt lat="39.7410398" lon="-105.2401435"><ele>2067.09</ele></trkpt>
<trkpt lat="39.7409668" lon="-105.2403486"><ele>2067.74</ele></trkpt>
<trkpt lat="39.7408425" lon="-105.24076240000001"><ele>2069.11</ele></trkpt>
<trkpt lat="39.7406349" lon="-105.241525"><ele>2072.26</ele></trkpt>
<trkpt lat="39.7405565" lon="-105.2417715"><ele>2073.52</ele></trkpt>
<trkpt lat="39.74047" lon="-105.24198040000002"><ele>2074.7</ele></trkpt>
<trkpt lat="39.7404006" lon="-105.24210800000002"><ele>2075.51</ele></trkpt>
<trkpt lat="39.7403305" lon="-105.24221060000004"><ele>2076.23</ele></trkpt>
<trkpt lat="39.74024639999999" lon="-105.24230260000002"><ele>2076.99</ele></trkpt>
<trkpt lat="39.7399864" lon="-105.24254540000001"><ele>2079.27</ele></trkpt>
<trkpt lat="39.73974849999999" lon="-105.2428194"><ele>2081.57</ele></trkpt>
<trkpt lat="39.73964660000001" lon="-105.24290190000004"><ele>2082.44</ele></trkpt>
<trkpt lat="39.7395423" lon="-105.24293580000003"><ele>2083.23</ele></trkpt>
<trkpt lat="39.7394731" lon="-105.2429361"><ele>2083.74</ele></trkpt>
<trkpt lat="39.739351" lon="-105.24291119999998"><ele>2084.63</ele></trkpt>
<trkpt lat="39.7390214" lon="-105.242791"><ele>2087.08</ele></trkpt>
<trkpt lat="39.7389053" lon="-105.24277979999998"><ele>2087.9</ele></trkpt>
<trkpt lat="39.7387727" lon="-105.2428438"><ele>2088.88</ele></trkpt>
<trkpt lat="39.738369500000005" lon="-105.2431942"><ele>2092.17</ele></trkpt>
<trkpt lat="39.738268100000006" lon="-105.2432968"><ele>2093.04</ele></trkpt>
<trkpt lat="39.7381534" lon="-105.24344240000002"><ele>2094.13</ele></trkpt>
<trkpt lat="39.7378874" lon="-105.2438177"><ele>2096.82</ele></trkpt>
<trkpt lat="39.7377538" lon="-105.244022"><ele>2098.22</ele></trkpt>
<trkpt lat="39.73752579999999" lon="-105.24443040000001"><ele>2100.86</ele></trkpt>
<trkpt lat="39.7372678" lon="-105.24496250000003"><ele>2104.17</ele></trkpt>
<trkpt lat="39.7371634" lon="-105.2451445"><ele>2105.39</ele></trkpt>
<trkpt lat="39.7370488" lon="-105.24526300000001"><ele>2106.41</ele></trkpt>
<trkpt lat="39.7369618" lon="-105.24529950000002"><ele>2107.06</ele></trkpt>
<trkpt lat="39.736873900000006" lon="-105.24530330000003"><ele>2107.67</ele></trkpt>
<trkpt lat="39.7367788" lon="-105.2452667"><ele>2108.37</ele></trkpt>
<trkpt lat="39.7364732" lon="-105.2449532"><ele>2111.11</ele></trkpt>
<trkpt lat="39.7362555" lon="-105.2447564"><ele>2112.97</ele></trkpt>
<trkpt lat="39.735876" lon="-105.24445980000002"><ele>2116.08</ele></trkpt>
<trkpt lat="39.7357793" lon="-105.24439980000001"><ele>2116.83</ele></trkpt>
<trkpt lat="39.7356972" lon="-105.24436620000002"><ele>2117.44</ele></trkpt>
<trkpt lat="39.7355256" lon="-105.24437110000001"><ele>2118.64</ele></trkpt>
<trkpt lat="39.7350783" lon="-105.2444483"><ele>2121.81</ele></trkpt>
<trkpt lat="39.7344728" lon="-105.2445259"><ele>2126.01</ele></trkpt>
<trkpt lat="39.7341965" lon="-105.2445491"><ele>2127.92</ele></trkpt>
<trkpt lat="39.733891" lon="-105.24453940000001"><ele>2130.1</ele></trkpt>
<trkpt lat="39.7335366" lon="-105.2445097"><ele>2132.81</ele></trkpt>
<trkpt lat="39.7332877" lon="-105.24448029999999"><ele>2134.82</ele></trkpt>
<trkpt lat="39.7332253" lon="-105.24452080000003"><ele>2135.39</ele></trkpt>
<trkpt lat="39.7331815" lon="-105.24464210000002"><ele>2136.24</ele></trkpt>
<trkpt lat="39.7332181" lon="-105.24476730000002"><ele>2137.07</ele></trkpt>
<trkpt lat="39.7332779" lon="-105.2448139"><ele>2137.61</ele></trkpt>
<trkpt lat="39.7334233" lon="-105.2448464"><ele>2138.72</ele></trkpt>
<trkpt lat="39.7336935" lon="-105.24480680000002"><ele>2140.69</ele></trkpt>
<trkpt lat="39.7338334" lon="-105.2447985"><ele>2141.69</ele></trkpt>
<trkpt lat="39.7338831" lon="-105.24483690000001"><ele>2142.1</ele></trkpt>
<trkpt lat="39.7339157" lon="-105.244911"><ele>2142.56</ele></trkpt>
<trkpt lat="39.733908099999994" lon="-105.2449953"><ele>2143.03</ele></trkpt>
<trkpt lat="39.73385869999999" lon="-105.24505859999998"><ele>2143.53</ele></trkpt>
<trkpt lat="39.7337979" lon="-105.2450836"><ele>2143.98</ele></trkpt>
<trkpt lat="39.7334481" lon="-105.24506769999999"><ele>2146.5</ele></trkpt>
<trkpt lat="39.7333218" lon="-105.2450798"><ele>2147.42</ele></trkpt>
<trkpt lat="39.7332402" lon="-105.2451443"><ele>2148.13</ele></trkpt>
<trkpt lat="39.73322420000001" lon="-105.24522000000002"><ele>2148.58</ele></trkpt>
<trkpt lat="39.73324170000001" lon="-105.24529650000001"><ele>2149.03</ele></trkpt>
<trkpt lat="39.7332818" lon="-105.24535260000003"><ele>2149.45</ele></trkpt>
<trkpt lat="39.73338780000001" lon="-105.24539620000002"><ele>2150.25</ele></trkpt>
<trkpt lat="39.7335281" lon="-105.24540020000003"><ele>2151.23</ele></trkpt>
<trkpt lat="39.7338685" lon="-105.24533200000002"><ele>2153.56</ele></trkpt>
<trkpt lat="39.7340449" lon="-105.24532269999999"><ele>2154.73</ele></trkpt>
<trkpt lat="39.7346304" lon="-105.24535420000001"><ele>2158.63</ele></trkpt>
<trkpt lat="39.7352524" lon="-105.2454497"><ele>2162.99</ele></trkpt>
<trkpt lat="39.7352859" lon="-105.24547380000001"><ele>2163.27</ele></trkpt>
<trkpt lat="39.7353304" lon="-105.24555339999999"><ele>2163.84</ele></trkpt>
<trkpt lat="39.7353338" lon="-105.2456517"><ele>2164.42</ele></trkpt>
<trkpt lat="39.73531919999999" lon="-105.24569770000001"><ele>2164.71</ele></trkpt>
<trkpt lat="39.7352633" lon="-105.24576410000003"><ele>2165.29</ele></trkpt>
<trkpt lat="39.7352055" lon="-105.24578339999998"><ele>2165.74</ele></trkpt>
<trkpt lat="39.7350625" lon="-105.24578200000003"><ele>2166.82</ele></trkpt>
<trkpt lat="39.7346964" lon="-105.24576290000003"><ele>2169.52</ele></trkpt>
<trkpt lat="39.7344622" lon="-105.24580010000001"><ele>2171.2</ele></trkpt>
<trkpt lat="39.734355599999994" lon="-105.2458426"><ele>2171.97</ele></trkpt>
<trkpt lat="39.7340031" lon="-105.2461088"><ele>2174.76</ele></trkpt>
<trkpt lat="39.7339027" lon="-105.24616430000002"><ele>2175.5</ele></trkpt>
<trkpt lat="39.73368580000001" lon="-105.246203"><ele>2176.97</ele></trkpt>
<trkpt lat="39.7335203" lon="-105.2462027"><ele>2178.08</ele></trkpt>
<trkpt lat="39.733418" lon="-105.246182"><ele>2178.77</ele></trkpt>
<trkpt lat="39.7331582" lon="-105.24607020000002"><ele>2180.57</ele></trkpt>
<trkpt lat="39.73300840000001" lon="-105.24597"><ele>2181.68</ele></trkpt>
<trkpt lat="39.7329059" lon="-105.24587310000001"><ele>2182.5</ele></trkpt>
<trkpt lat="39.7326144" lon="-105.2455548"><ele>2185.01</ele></trkpt>
<trkpt lat="39.7323024" lon="-105.2452404"><ele>2187.64</ele></trkpt>
<trkpt lat="39.7322333" lon="-105.2451482"><ele>2188.3</ele></trkpt>
<trkpt lat="39.7321873" lon="-105.24504319999998"><ele>2188.93</ele></trkpt>
<trkpt lat="39.7321212" lon="-105.24479949999998"><ele>2190.27</ele></trkpt>
<trkpt lat="39.7320736" lon="-105.244499"><ele>2191.9</ele></trkpt>
<trkpt lat="39.7320349" lon="-105.24415220000002"><ele>2193.82</ele></trkpt>
<trkpt lat="39.7319907" lon="-105.2439372"><ele>2195.06</ele></trkpt>
<trkpt lat="39.7319509" lon="-105.2438202"><ele>2195.77</ele></trkpt>
<trkpt lat="39.7318901" lon="-105.243691"><ele>2196.61</ele></trkpt>
<trkpt lat="39.7318424" lon="-105.2436286"><ele>2197.09</ele></trkpt>
<trkpt lat="39.7315812" lon="-105.24343559999998"><ele>2199.13</ele></trkpt>
<trkpt lat="39.7314931" lon="-105.24331750000002"><ele>2199.94</ele></trkpt>
<trkpt lat="39.7314774" lon="-105.24323900000002"><ele>2200.32</ele></trkpt>
<trkpt lat="39.73151450000001" lon="-105.2431164"><ele>2200.93</ele></trkpt>
<trkpt lat="39.731591" lon="-105.24301600000003"><ele>2201.56</ele></trkpt>
<trkpt lat="39.73196260000001" lon="-105.24268299999999"><ele>2204.12</ele></trkpt>
<trkpt lat="39.7320795" lon="-105.2426027"><ele>2204.88</ele></trkpt>
<trkpt lat="39.7325385" lon="-105.24238"><ele>2207.84</ele></trkpt>
<trkpt lat="39.7326387" lon="-105.24231210000002"><ele>2208.54</ele></trkpt>
<trkpt lat="39.732694699999996" lon="-105.24223960000002"><ele>2209.04</ele></trkpt>
<trkpt lat="39.7327328" lon="-105.2421199"><ele>2209.66</ele></trkpt>
<trkpt lat="39.7327506" lon="-105.2417373"><ele>2211.48</ele></trkpt>
<trkpt lat="39.7327722" lon="-105.2415503"><ele>2212.37</ele></trkpt>
<trkpt lat="39.7328622" lon="-105.24118070000002"><ele>2214.21</ele></trkpt>
<trkpt lat="39.7328807" lon="-105.2410502"><ele>2214.85</ele></trkpt>
<trkpt lat="39.7328717" lon="-105.2409266"><ele>2215.45</ele></trkpt>
<trkpt lat="39.7328167" lon="-105.2407346"><ele>2216.46</ele></trkpt>
<trkpt lat="39.7327025" lon="-105.24049060000003"><ele>2217.88</ele></trkpt>
<trkpt lat="39.7326928" lon="-105.24036200000002"><ele>2218.54</ele></trkpt>
<trkpt lat="39.7327639" lon="-105.24025259999999"><ele>2219.25</ele></trkpt>
<trkpt lat="39.7328519" lon="-105.2401969"><ele>2219.88</ele></trkpt>
<trkpt lat="39.7330912" lon="-105.24008760000001"><ele>2221.46</ele></trkpt>
<trkpt lat="39.733458" lon="-105.2398925"><ele>2223.84</ele></trkpt>
<trkpt lat="39.7336233" lon="-105.2398265"><ele>2224.82</ele></trkpt>
<trkpt lat="39.7338475" lon="-105.23978300000002"><ele>2226.01</ele></trkpt>
<trkpt lat="39.733948" lon="-105.2397469"><ele>2226.49</ele></trkpt>
<trkpt lat="39.7340283" lon="-105.2396656"><ele>2226.89</ele></trkpt>
<trkpt lat="39.7340353" lon="-105.2395096"><ele>2227.28</ele></trkpt>
<trkpt lat="39.7340144" lon="-105.23928420000003"><ele>2227.67</ele></trkpt>
<trkpt lat="39.7339784" lon="-105.2389713"><ele>2227.92</ele></trkpt>
<trkpt lat="39.733956799999994" lon="-105.23885430000003"><ele>2227.95</ele></trkpt>
<trkpt lat="39.7338941" lon="-105.23867829999999"><ele>2227.93</ele></trkpt>
<trkpt lat="39.7337935" lon="-105.2385336"><ele>2227.86</ele></trkpt>
<trkpt lat="39.7335036" lon="-105.23816640000001"><ele>2227.49</ele></trkpt>
<trkpt lat="39.7330733" lon="-105.2376264"><ele>2226.64</ele></trkpt>
<trkpt lat="39.7329174" lon="-105.2374495"><ele>2226.34</ele></trkpt>
<trkpt lat="39.7328134" lon="-105.2373681"><ele>2226.17</ele></trkpt>
<trkpt lat="39.7326867" lon="-105.2373176"><ele>2226.04</ele></trkpt>
<trkpt lat="39.732579400000006" lon="-105.2372946"><ele>2225.97</ele></trkpt>
<trkpt lat="39.732287" lon="-105.23727750000002"><ele>2226.03</ele></trkpt>
<trkpt lat="39.73205" lon="-105.237295"><ele>2226.46</ele></trkpt>
<trkpt lat="39.7318637" lon="-105.2373398"><ele>2227.08</ele></trkpt>
<trkpt lat="39.7317698" lon="-105.23739120000002"><ele>2227.5</ele></trkpt>
<trkpt lat="39.731668400000004" lon="-105.2375105"><ele>2228.13</ele></trkpt>
<trkpt lat="39.7316048" lon="-105.2376265"><ele>2228.69</ele></trkpt>
<trkpt lat="39.7315583" lon="-105.2377523"><ele>2229.24</ele></trkpt>
<trkpt lat="39.7315369" lon="-105.237932"><ele>2229.94</ele></trkpt>
<trkpt lat="39.7315531" lon="-105.23813130000002"><ele>2230.63</ele></trkpt>
<trkpt lat="39.7316401" lon="-105.2388891"><ele>2232.71</ele></trkpt>
<trkpt lat="39.7316491" lon="-105.23907680000003"><ele>2233.17</ele></trkpt>
<trkpt lat="39.731650699999996" lon="-105.23935200000003"><ele>2233.82</ele></trkpt>
<trkpt lat="39.7316655" lon="-105.2394366"><ele>2234.03</ele></trkpt>
<trkpt lat="39.731735300000004" lon="-105.2395579"><ele>2234.39</ele></trkpt>
<trkpt lat="39.731832399999995" lon="-105.2396151"><ele>2234.73</ele></trkpt>
<trkpt lat="39.7318881" lon="-105.23961749999998"><ele>2234.91</ele></trkpt>
<trkpt lat="39.7322118" lon="-105.23951100000001"><ele>2236</ele></trkpt>
<trkpt lat="39.73238" lon="-105.23949000000003"><ele>2236.57</ele></trkpt>
</trkseg>
</trk></gpx>
