<?xml version="1.0" encoding="UTF-8"?>
<gpx xmlns="http://www.topografix.com/GPX/1/1" version="1.1" creator="GPX Route Fixer (Virtual Cycling)"><trk><name>Fixed Route</name><trkseg><trkpt lat="39.778204" lon="-105.104038"><ele>1631.75</ele></trkpt><trkpt lat="39.778197" lon="-105.103674"><ele>1631.71</ele></trkpt><trkpt lat="39.778251" lon="-105.103643"><ele>1631.70</ele></trkpt><trkpt lat="39.778470" lon="-105.103642"><ele>1631.71</ele></trkpt><trkpt lat="39.778865" lon="-105.103640"><ele>1631.76</ele></trkpt><trkpt lat="39.779128" lon="-105.103638"><ele>1631.80</ele></trkpt><trkpt lat="39.779303" lon="-105.103637"><ele>1631.79</ele></trkpt><trkpt lat="39.779346" lon="-105.103624"><ele>1631.78</ele></trkpt><trkpt lat="39.779376" lon="-105.103587"><ele>1631.77</ele></trkpt><trkpt lat="39.779388" lon="-105.103524"><ele>1631.75</ele></trkpt><trkpt lat="39.779390" lon="-105.103464"><ele>1631.73</ele></trkpt><trkpt lat="39.779390" lon="-105.102988"><ele>1631.50</ele></trkpt><trkpt lat="39.779390" lon="-105.102750"><ele>1631.36</ele></trkpt><trkpt lat="39.779391" lon="-105.102333"><ele>1631.14</ele></trkpt><trkpt lat="39.779391" lon="-105.102035"><ele>1630.97</ele></trkpt><trkpt lat="39.779391" lon="-105.101797"><ele>1630.85</ele></trkpt><trkpt lat="39.779391" lon="-105.101499"><ele>1630.68</ele></trkpt><trkpt lat="39.779392" lon="-105.100904"><ele>1630.36</ele></trkpt><trkpt lat="39.779392" lon="-105.100427"><ele>1630.12</ele></trkpt><trkpt lat="39.779392" lon="-105.100368"><ele>1630.10</ele></trkpt><trkpt lat="39.779405" lon="-105.100312"><ele>1630.08</ele></trkpt><trkpt lat="39.779430" lon="-105.100280"><ele>1630.06</ele></trkpt><trkpt lat="39.779473" lon="-105.100262"><ele>1630.04</ele></trkpt><trkpt lat="39.779572" lon="-105.100259"><ele>1630.01</ele></trkpt><trkpt lat="39.779914" lon="-105.100258"><ele>1629.96</ele></trkpt><trkpt lat="39.780257" lon="-105.100257"><ele>1629.92</ele></trkpt><trkpt lat="39.780599" lon="-105.100256"><ele>1629.89</ele></trkpt><trkpt lat="39.780713" lon="-105.100255"><ele>1629.87</ele></trkpt><trkpt lat="39.781170" lon="-105.100253"><ele>1629.83</ele></trkpt><trkpt lat="39.781284" lon="-105.100253"><ele>1629.81</ele></trkpt><trkpt lat="39.781627" lon="-105.100252"><ele>1629.78</ele></trkpt><trkpt lat="39.781912" lon="-105.100251"><ele>1629.74</ele></trkpt><trkpt lat="39.782255" lon="-105.100249"><ele>1629.71</ele></trkpt><trkpt lat="39.782540" lon="-105.100248"><ele>1629.68</ele></trkpt><trkpt lat="39.782826" lon="-105.100247"><ele>1629.64</ele></trkpt><trkpt lat="39.782997" lon="-105.100247"><ele>1629.63</ele></trkpt><trkpt lat="39.783282" lon="-105.100246"><ele>1629.59</ele></trkpt><trkpt lat="39.783682" lon="-105.100244"><ele>1629.55</ele></trkpt><trkpt lat="39.783853" lon="-105.100244"><ele>1629.54</ele></trkpt><trkpt lat="39.783967" lon="-105.100243"><ele>1629.56</ele></trkpt><trkpt lat="39.784021" lon="-105.100271"><ele>1629.57</ele></trkpt><trkpt lat="39.784036" lon="-105.100295"><ele>1629.58</ele></trkpt><trkpt lat="39.784048" lon="-105.100346"><ele>1629.59</ele></trkpt><trkpt lat="39.784048" lon="-105.100603"><ele>1629.71</ele></trkpt><trkpt lat="39.784049" lon="-105.101118"><ele>1630.00</ele></trkpt><trkpt lat="39.784050" lon="-105.101503"><ele>1630.23</ele></trkpt><trkpt lat="39.784050" lon="-105.101760"><ele>1630.37</ele></trkpt><trkpt lat="39.784051" lon="-105.102146"><ele>1630.60</ele></trkpt><trkpt lat="39.784051" lon="-105.102532"><ele>1630.81</ele></trkpt><trkpt lat="39.784100" lon="-105.103137"><ele>1631.09</ele></trkpt><trkpt lat="39.784110" lon="-105.103257"><ele>1631.13</ele></trkpt><trkpt lat="39.784132" lon="-105.103442"><ele>1631.21</ele></trkpt><trkpt lat="39.784175" lon="-105.103810"><ele>1631.34</ele></trkpt><trkpt lat="39.784240" lon="-105.104363"><ele>1631.53</ele></trkpt><trkpt lat="39.784272" lon="-105.104640"><ele>1631.63</ele></trkpt><trkpt lat="39.784293" lon="-105.104728"><ele>1631.66</ele></trkpt><trkpt lat="39.784343" lon="-105.104843"><ele>1631.71</ele></trkpt><trkpt lat="39.784385" lon="-105.104892"><ele>1631.73</ele></trkpt><trkpt lat="39.784428" lon="-105.104918"><ele>1631.75</ele></trkpt><trkpt lat="39.784568" lon="-105.104948"><ele>1631.81</ele></trkpt><trkpt lat="39.784997" lon="-105.104937"><ele>1631.94</ele></trkpt><trkpt lat="39.785354" lon="-105.104928"><ele>1632.05</ele></trkpt><trkpt lat="39.785639" lon="-105.104920"><ele>1632.16</ele></trkpt><trkpt lat="39.785939" lon="-105.104924"><ele>1632.30</ele></trkpt><trkpt lat="39.786040" lon="-105.104925"><ele>1632.36</ele></trkpt><trkpt lat="39.786740" lon="-105.104933"><ele>1632.73</ele></trkpt><trkpt lat="39.787040" lon="-105.104936"><ele>1632.89</ele></trkpt><trkpt lat="39.787340" lon="-105.104940"><ele>1633.05</ele></trkpt><trkpt lat="39.787740" lon="-105.104944"><ele>1633.25</ele></trkpt><trkpt lat="39.787940" lon="-105.104947"><ele>1633.36</ele></trkpt><trkpt lat="39.788140" lon="-105.104949"><ele>1633.52</ele></trkpt><trkpt lat="39.788240" lon="-105.104950"><ele>1633.66</ele></trkpt><trkpt lat="39.788383" lon="-105.104950"><ele>1633.95</ele></trkpt><trkpt lat="39.788527" lon="-105.104949"><ele>1634.31</ele></trkpt><trkpt lat="39.788957" lon="-105.104948"><ele>1635.51</ele></trkpt><trkpt lat="39.789244" lon="-105.104948"><ele>1636.32</ele></trkpt><trkpt lat="39.789674" lon="-105.104947"><ele>1637.51</ele></trkpt><trkpt lat="39.790105" lon="-105.104946"><ele>1638.71</ele></trkpt><trkpt lat="39.790248" lon="-105.104946"><ele>1639.10</ele></trkpt><trkpt lat="39.790822" lon="-105.104945"><ele>1640.70</ele></trkpt><trkpt lat="39.791109" lon="-105.104944"><ele>1641.49</ele></trkpt><trkpt lat="39.791539" lon="-105.104943"><ele>1642.70</ele></trkpt><trkpt lat="39.791970" lon="-105.104942"><ele>1643.90</ele></trkpt><trkpt lat="39.792257" lon="-105.104942"><ele>1644.71</ele></trkpt><trkpt lat="39.792687" lon="-105.104941"><ele>1645.93</ele></trkpt><trkpt lat="39.793118" lon="-105.104940"><ele>1647.14</ele></trkpt><trkpt lat="39.793404" lon="-105.104940"><ele>1647.96</ele></trkpt><trkpt lat="39.793451" lon="-105.104942"><ele>1648.07</ele></trkpt><trkpt lat="39.793503" lon="-105.104964"><ele>1648.20</ele></trkpt><trkpt lat="39.793513" lon="-105.104977"><ele>1648.23</ele></trkpt><trkpt lat="39.793525" lon="-105.105011"><ele>1648.29</ele></trkpt><trkpt lat="39.793527" lon="-105.105054"><ele>1648.35</ele></trkpt><trkpt lat="39.793523" lon="-105.105113"><ele>1648.43</ele></trkpt><trkpt lat="39.793504" lon="-105.105293"><ele>1648.60</ele></trkpt><trkpt lat="39.793486" lon="-105.105473"><ele>1648.71</ele></trkpt><trkpt lat="39.793394" lon="-105.106373"><ele>1649.16</ele></trkpt><trkpt lat="39.793321" lon="-105.107093"><ele>1649.50</ele></trkpt><trkpt lat="39.793284" lon="-105.107453"><ele>1649.67</ele></trkpt><trkpt lat="39.793229" lon="-105.107993"><ele>1649.92</ele></trkpt><trkpt lat="39.793211" lon="-105.108173"><ele>1650.01</ele></trkpt><trkpt lat="39.793138" lon="-105.108892"><ele>1650.34</ele></trkpt><trkpt lat="39.793119" lon="-105.109072"><ele>1650.45</ele></trkpt><trkpt lat="39.793084" lon="-105.109326"><ele>1650.62</ele></trkpt><trkpt lat="39.793050" lon="-105.109579"><ele>1650.87</ele></trkpt><trkpt lat="39.793005" lon="-105.109839"><ele>1651.22</ele></trkpt><trkpt lat="39.792915" lon="-105.110359"><ele>1652.02</ele></trkpt><trkpt lat="39.792870" lon="-105.110618"><ele>1652.36</ele></trkpt><trkpt lat="39.792805" lon="-105.110923"><ele>1652.66</ele></trkpt><trkpt lat="39.792693" lon="-105.111456"><ele>1653.07</ele></trkpt><trkpt lat="39.792676" lon="-105.111532"><ele>1653.12</ele></trkpt><trkpt lat="39.792547" lon="-105.112141"><ele>1653.59</ele></trkpt><trkpt lat="39.792386" lon="-105.112903"><ele>1654.17</ele></trkpt><trkpt lat="39.792306" lon="-105.113284"><ele>1654.47</ele></trkpt><trkpt lat="39.792290" lon="-105.113360"><ele>1654.52</ele></trkpt><trkpt lat="39.792193" lon="-105.113817"><ele>1654.88</ele></trkpt><trkpt lat="39.792161" lon="-105.113969"><ele>1654.99</ele></trkpt><trkpt lat="39.792080" lon="-105.114350"><ele>1655.28</ele></trkpt><trkpt lat="39.792024" lon="-105.114637"><ele>1655.49</ele></trkpt><trkpt lat="39.791954" lon="-105.114997"><ele>1655.73</ele></trkpt><trkpt lat="39.791842" lon="-105.115573"><ele>1656.13</ele></trkpt><trkpt lat="39.791715" lon="-105.116220"><ele>1656.58</ele></trkpt><trkpt lat="39.791645" lon="-105.116580"><ele>1656.82</ele></trkpt><trkpt lat="39.791561" lon="-105.117012"><ele>1657.12</ele></trkpt><trkpt lat="39.791491" lon="-105.117371"><ele>1657.37</ele></trkpt><trkpt lat="39.791463" lon="-105.117515"><ele>1657.46</ele></trkpt><trkpt lat="39.791336" lon="-105.118163"><ele>1657.91</ele></trkpt><trkpt lat="39.791252" lon="-105.118594"><ele>1658.21</ele></trkpt><trkpt lat="39.791224" lon="-105.118738"><ele>1658.30</ele></trkpt><trkpt lat="39.791140" lon="-105.119170"><ele>1658.59</ele></trkpt><trkpt lat="39.791063" lon="-105.119528"><ele>1658.79</ele></trkpt><trkpt lat="39.790987" lon="-105.119887"><ele>1658.97</ele></trkpt><trkpt lat="39.790942" lon="-105.120102"><ele>1659.09</ele></trkpt><trkpt lat="39.790804" lon="-105.120747"><ele>1659.42</ele></trkpt><trkpt lat="39.790758" lon="-105.120962"><ele>1659.54</ele></trkpt><trkpt lat="39.790652" lon="-105.121464"><ele>1659.80</ele></trkpt><trkpt lat="39.790575" lon="-105.121822"><ele>1659.98</ele></trkpt><trkpt lat="39.790529" lon="-105.122037"><ele>1660.10</ele></trkpt><trkpt lat="39.790453" lon="-105.122396"><ele>1660.28</ele></trkpt><trkpt lat="39.790423" lon="-105.122539"><ele>1660.36</ele></trkpt><trkpt lat="39.790346" lon="-105.122897"><ele>1660.55</ele></trkpt><trkpt lat="39.790270" lon="-105.123256"><ele>1660.73</ele></trkpt><trkpt lat="39.790194" lon="-105.123614"><ele>1660.92</ele></trkpt><trkpt lat="39.790118" lon="-105.123973"><ele>1661.11</ele></trkpt><trkpt lat="39.790041" lon="-105.124331"><ele>1661.29</ele></trkpt><trkpt lat="39.790011" lon="-105.124474"><ele>1661.37</ele></trkpt><trkpt lat="39.789934" lon="-105.124833"><ele>1661.56</ele></trkpt><trkpt lat="39.789858" lon="-105.125191"><ele>1661.74</ele></trkpt><trkpt lat="39.789828" lon="-105.125334"><ele>1661.82</ele></trkpt><trkpt lat="39.789751" lon="-105.125693"><ele>1662.00</ele></trkpt><trkpt lat="39.789705" lon="-105.125908"><ele>1662.12</ele></trkpt><trkpt lat="39.789599" lon="-105.126410"><ele>1662.38</ele></trkpt><trkpt lat="39.789507" lon="-105.126840"><ele>1662.60</ele></trkpt><trkpt lat="39.789461" lon="-105.127055"><ele>1662.72</ele></trkpt><trkpt lat="39.789370" lon="-105.127485"><ele>1662.94</ele></trkpt><trkpt lat="39.789339" lon="-105.127628"><ele>1663.02</ele></trkpt><trkpt lat="39.789248" lon="-105.128058"><ele>1663.24</ele></trkpt><trkpt lat="39.789156" lon="-105.128489"><ele>1663.48</ele></trkpt><trkpt lat="39.789090" lon="-105.128769"><ele>1663.67</ele></trkpt><trkpt lat="39.789075" lon="-105.128857"><ele>1663.74</ele></trkpt><trkpt lat="39.789078" lon="-105.128890"><ele>1663.77</ele></trkpt><trkpt lat="39.789091" lon="-105.128921"><ele>1663.80</ele></trkpt><trkpt lat="39.789148" lon="-105.128948"><ele>1663.87</ele></trkpt><trkpt lat="39.789372" lon="-105.128950"><ele>1664.18</ele></trkpt><trkpt lat="39.789596" lon="-105.128952"><ele>1664.53</ele></trkpt><trkpt lat="39.790043" lon="-105.128955"><ele>1665.21</ele></trkpt><trkpt lat="39.790267" lon="-105.128957"><ele>1665.56</ele></trkpt><trkpt lat="39.790714" lon="-105.128960"><ele>1666.24</ele></trkpt><trkpt lat="39.790938" lon="-105.128962"><ele>1666.60</ele></trkpt><trkpt lat="39.790990" lon="-105.128991"><ele>1666.69</ele></trkpt><trkpt lat="39.791005" lon="-105.129014"><ele>1666.73</ele></trkpt><trkpt lat="39.791017" lon="-105.129068"><ele>1666.80</ele></trkpt><trkpt lat="39.791012" lon="-105.129548"><ele>1667.39</ele></trkpt><trkpt lat="39.791007" lon="-105.130028"><ele>1667.99</ele></trkpt><trkpt lat="39.791004" lon="-105.130268"><ele>1668.29</ele></trkpt><trkpt lat="39.790999" lon="-105.130748"><ele>1668.88</ele></trkpt><trkpt lat="39.790994" lon="-105.131229"><ele>1669.47</ele></trkpt><trkpt lat="39.790989" lon="-105.131709"><ele>1670.07</ele></trkpt><trkpt lat="39.790986" lon="-105.131949"><ele>1670.36</ele></trkpt><trkpt lat="39.790981" lon="-105.132429"><ele>1670.96</ele></trkpt><trkpt lat="39.790976" lon="-105.132909"><ele>1671.55</ele></trkpt><trkpt lat="39.790971" lon="-105.133389"><ele>1672.15</ele></trkpt><trkpt lat="39.790968" lon="-105.133630"><ele>1672.44</ele></trkpt><trkpt lat="39.790963" lon="-105.134110"><ele>1673.04</ele></trkpt><trkpt lat="39.790958" lon="-105.134590"><ele>1673.63</ele></trkpt><trkpt lat="39.790951" lon="-105.135310"><ele>1674.53</ele></trkpt><trkpt lat="39.790946" lon="-105.135790"><ele>1675.12</ele></trkpt><trkpt lat="39.790938" lon="-105.136511"><ele>1676.02</ele></trkpt><trkpt lat="39.790933" lon="-105.136991"><ele>1676.61</ele></trkpt><trkpt lat="39.790930" lon="-105.137231"><ele>1676.90</ele></trkpt><trkpt lat="39.790941" lon="-105.138015"><ele>1677.79</ele></trkpt><trkpt lat="39.790958" lon="-105.138255"><ele>1678.01</ele></trkpt><trkpt lat="39.790959" lon="-105.138376"><ele>1678.12</ele></trkpt><trkpt lat="39.790956" lon="-105.138616"><ele>1678.31</ele></trkpt><trkpt lat="39.790951" lon="-105.139094"><ele>1678.69</ele></trkpt><trkpt lat="39.790949" lon="-105.139334"><ele>1678.89</ele></trkpt><trkpt lat="39.790944" lon="-105.139812"><ele>1679.27</ele></trkpt><trkpt lat="39.790934" lon="-105.140770"><ele>1680.03</ele></trkpt><trkpt lat="39.790932" lon="-105.141009"><ele>1680.23</ele></trkpt><trkpt lat="39.790924" lon="-105.141727"><ele>1680.80</ele></trkpt><trkpt lat="39.790917" lon="-105.142445"><ele>1681.37</ele></trkpt><trkpt lat="39.790915" lon="-105.142684"><ele>1681.57</ele></trkpt><trkpt lat="39.790910" lon="-105.143163"><ele>1681.95</ele></trkpt><trkpt lat="39.790903" lon="-105.143881"><ele>1682.52</ele></trkpt><trkpt lat="39.790900" lon="-105.144120"><ele>1682.73</ele></trkpt><trkpt lat="39.790899" lon="-105.144366"><ele>1682.95</ele></trkpt><trkpt lat="39.790896" lon="-105.144857"><ele>1683.42</ele></trkpt><trkpt lat="39.790892" lon="-105.145594"><ele>1684.13</ele></trkpt><trkpt lat="39.790888" lon="-105.146331"><ele>1684.85</ele></trkpt><trkpt lat="39.790886" lon="-105.146822"><ele>1685.32</ele></trkpt><trkpt lat="39.790883" lon="-105.147313"><ele>1685.79</ele></trkpt><trkpt lat="39.790878" lon="-105.148296"><ele>1686.75</ele></trkpt><trkpt lat="39.790874" lon="-105.149033"><ele>1687.46</ele></trkpt><trkpt lat="39.790871" lon="-105.149524"><ele>1687.93</ele></trkpt><trkpt lat="39.790870" lon="-105.149770"><ele>1688.14</ele></trkpt><trkpt lat="39.790864" lon="-105.150279"><ele>1688.46</ele></trkpt><trkpt lat="39.790859" lon="-105.150788"><ele>1688.75</ele></trkpt><trkpt lat="39.790853" lon="-105.151297"><ele>1689.03</ele></trkpt><trkpt lat="39.790848" lon="-105.151806"><ele>1689.32</ele></trkpt><trkpt lat="39.790842" lon="-105.152315"><ele>1689.60</ele></trkpt><trkpt lat="39.790837" lon="-105.152823"><ele>1689.89</ele></trkpt><trkpt lat="39.790831" lon="-105.153332"><ele>1690.17</ele></trkpt><trkpt lat="39.790826" lon="-105.153841"><ele>1690.45</ele></trkpt><trkpt lat="39.790820" lon="-105.154350"><ele>1690.70</ele></trkpt><trkpt lat="39.790811" lon="-105.154844"><ele>1690.80</ele></trkpt><trkpt lat="39.790802" lon="-105.155339"><ele>1690.87</ele></trkpt><trkpt lat="39.790784" lon="-105.156328"><ele>1691.00</ele></trkpt><trkpt lat="39.790776" lon="-105.156822"><ele>1691.08</ele></trkpt><trkpt lat="39.790767" lon="-105.157316"><ele>1691.15</ele></trkpt><trkpt lat="39.790758" lon="-105.157811"><ele>1691.22</ele></trkpt><trkpt lat="39.790749" lon="-105.158305"><ele>1691.29</ele></trkpt><trkpt lat="39.790740" lon="-105.158800"><ele>1691.43</ele></trkpt><trkpt lat="39.790733" lon="-105.159615"><ele>1692.12</ele></trkpt><trkpt lat="39.790725" lon="-105.160430"><ele>1692.88</ele></trkpt><trkpt lat="39.790718" lon="-105.161245"><ele>1693.63</ele></trkpt><trkpt lat="39.790710" lon="-105.162060"><ele>1694.39</ele></trkpt><trkpt lat="39.790703" lon="-105.162875"><ele>1695.14</ele></trkpt><trkpt lat="39.790680" lon="-105.165320"><ele>1697.42</ele></trkpt><trkpt lat="39.790688" lon="-105.166160"><ele>1698.16</ele></trkpt><trkpt lat="39.790696" lon="-105.166999"><ele>1698.91</ele></trkpt><trkpt lat="39.790703" lon="-105.167839"><ele>1699.65</ele></trkpt><trkpt lat="39.790711" lon="-105.168679"><ele>1700.40</ele></trkpt><trkpt lat="39.790719" lon="-105.169518"><ele>1701.15</ele></trkpt><trkpt lat="39.790735" lon="-105.171198"><ele>1702.63</ele></trkpt><trkpt lat="39.790742" lon="-105.172037"><ele>1703.36</ele></trkpt><trkpt lat="39.790750" lon="-105.172877"><ele>1704.10</ele></trkpt><trkpt lat="39.790758" lon="-105.173717"><ele>1704.81</ele></trkpt><trkpt lat="39.790760" lon="-105.173953"><ele>1704.95</ele></trkpt><trkpt lat="39.790774" lon="-105.174454"><ele>1705.09</ele></trkpt><trkpt lat="39.790774" lon="-105.174565"><ele>1705.08</ele></trkpt><trkpt lat="39.790770" lon="-105.174590"><ele>1705.07</ele></trkpt><trkpt lat="39.790750" lon="-105.174630"><ele>1705.06</ele></trkpt><trkpt lat="39.790698" lon="-105.174658"><ele>1705.04</ele></trkpt><trkpt lat="39.789190" lon="-105.174669"><ele>1703.72</ele></trkpt><trkpt lat="39.788569" lon="-105.174630"><ele>1703.27</ele></trkpt><trkpt lat="39.788199" lon="-105.174627"><ele>1703.08</ele></trkpt><trkpt lat="39.787829" lon="-105.174624"><ele>1702.92</ele></trkpt><trkpt lat="39.787460" lon="-105.174621"><ele>1702.75</ele></trkpt><trkpt lat="39.786707" lon="-105.174660"><ele>1702.43</ele></trkpt><trkpt lat="39.786663" lon="-105.174685"><ele>1702.42</ele></trkpt><trkpt lat="39.786640" lon="-105.174726"><ele>1702.41</ele></trkpt><trkpt lat="39.786633" lon="-105.174768"><ele>1702.41</ele></trkpt><trkpt lat="39.786633" lon="-105.174897"><ele>1702.40</ele></trkpt><trkpt lat="39.786637" lon="-105.175232"><ele>1702.42</ele></trkpt><trkpt lat="39.786642" lon="-105.175568"><ele>1702.46</ele></trkpt><trkpt lat="39.786651" lon="-105.176240"><ele>1702.54</ele></trkpt><trkpt lat="39.786655" lon="-105.176575"><ele>1702.57</ele></trkpt><trkpt lat="39.786664" lon="-105.177247"><ele>1702.65</ele></trkpt><trkpt lat="39.786668" lon="-105.177582"><ele>1702.71</ele></trkpt><trkpt lat="39.786686" lon="-105.178266"><ele>1702.95</ele></trkpt><trkpt lat="39.786693" lon="-105.178419"><ele>1703.03</ele></trkpt><trkpt lat="39.786710" lon="-105.178525"><ele>1703.09</ele></trkpt><trkpt lat="39.786772" lon="-105.178842"><ele>1703.33</ele></trkpt><trkpt lat="39.786853" lon="-105.179119"><ele>1703.61</ele></trkpt><trkpt lat="39.787017" lon="-105.179672"><ele>1704.21</ele></trkpt><trkpt lat="39.787098" lon="-105.179949"><ele>1704.55</ele></trkpt><trkpt lat="39.787160" lon="-105.180295"><ele>1705.09</ele></trkpt><trkpt lat="39.787198" lon="-105.180656"><ele>1705.84</ele></trkpt><trkpt lat="39.787200" lon="-105.180809"><ele>1706.21</ele></trkpt><trkpt lat="39.787203" lon="-105.181116"><ele>1707.02</ele></trkpt><trkpt lat="39.787205" lon="-105.181269"><ele>1707.44</ele></trkpt><trkpt lat="39.787215" lon="-105.182189"><ele>1709.95</ele></trkpt><trkpt lat="39.787219" lon="-105.182495"><ele>1710.78</ele></trkpt><trkpt lat="39.787227" lon="-105.183262"><ele>1712.88</ele></trkpt><trkpt lat="39.787229" lon="-105.183415"><ele>1713.30</ele></trkpt><trkpt lat="39.787239" lon="-105.184334"><ele>1715.82</ele></trkpt><trkpt lat="39.787241" lon="-105.184488"><ele>1716.24</ele></trkpt><trkpt lat="39.787251" lon="-105.185407"><ele>1718.76</ele></trkpt><trkpt lat="39.787255" lon="-105.185714"><ele>1719.61</ele></trkpt><trkpt lat="39.787263" lon="-105.186480"><ele>1721.71</ele></trkpt><trkpt lat="39.787265" lon="-105.186634"><ele>1722.13</ele></trkpt><trkpt lat="39.787270" lon="-105.187093"><ele>1723.41</ele></trkpt><trkpt lat="39.787274" lon="-105.187400"><ele>1724.25</ele></trkpt><trkpt lat="39.787281" lon="-105.188013"><ele>1725.95</ele></trkpt><trkpt lat="39.787286" lon="-105.188473"><ele>1727.21</ele></trkpt><trkpt lat="39.787287" lon="-105.188626"><ele>1727.58</ele></trkpt><trkpt lat="39.787291" lon="-105.188753"><ele>1727.86</ele></trkpt><trkpt lat="39.787297" lon="-105.188788"><ele>1727.92</ele></trkpt><trkpt lat="39.787308" lon="-105.188813"><ele>1727.97</ele></trkpt><trkpt lat="39.787358" lon="-105.188851"><ele>1728.09</ele></trkpt><trkpt lat="39.787469" lon="-105.188851"><ele>1728.27</ele></trkpt><trkpt lat="39.787758" lon="-105.188836"><ele>1728.53</ele></trkpt><trkpt lat="39.788335" lon="-105.188806"><ele>1728.90</ele></trkpt><trkpt lat="39.789488" lon="-105.188746"><ele>1729.66</ele></trkpt><trkpt lat="39.790065" lon="-105.188716"><ele>1730.02</ele></trkpt><trkpt lat="39.790354" lon="-105.188701"><ele>1730.13</ele></trkpt><trkpt lat="39.790420" lon="-105.188665"><ele>1730.12</ele></trkpt><trkpt lat="39.790507" lon="-105.188573"><ele>1730.04</ele></trkpt><trkpt lat="39.790871" lon="-105.188102"><ele>1729.23</ele></trkpt><trkpt lat="39.791246" lon="-105.187707"><ele>1728.47</ele></trkpt><trkpt lat="39.791395" lon="-105.187583"><ele>1728.30</ele></trkpt><trkpt lat="39.791700" lon="-105.187423"><ele>1728.19</ele></trkpt><trkpt lat="39.792090" lon="-105.187311"><ele>1728.20</ele></trkpt><trkpt lat="39.792568" lon="-105.187221"><ele>1728.29</ele></trkpt><trkpt lat="39.793955" lon="-105.187027"><ele>1728.08</ele></trkpt><trkpt lat="39.794520" lon="-105.187071"><ele>1727.98</ele></trkpt><trkpt lat="39.795640" lon="-105.187310"><ele>1727.94</ele></trkpt><trkpt lat="39.796081" lon="-105.187420"><ele>1727.99</ele></trkpt><trkpt lat="39.797689" lon="-105.187731"><ele>1727.98</ele></trkpt><trkpt lat="39.797990" lon="-105.187817"><ele>1728.14</ele></trkpt><trkpt lat="39.798148" lon="-105.187911"><ele>1728.31</ele></trkpt><trkpt lat="39.798220" lon="-105.187985"><ele>1728.43</ele></trkpt><trkpt lat="39.798428" lon="-105.188261"><ele>1728.90</ele></trkpt><trkpt lat="39.799180" lon="-105.189312"><ele>1731.23</ele></trkpt><trkpt lat="39.799540" lon="-105.189849"><ele>1732.37</ele></trkpt><trkpt lat="39.799929" lon="-105.190379"><ele>1733.31</ele></trkpt><trkpt lat="39.800216" lon="-105.190798"><ele>1733.70</ele></trkpt><trkpt lat="39.800504" lon="-105.191217"><ele>1734.03</ele></trkpt><trkpt lat="39.800792" lon="-105.191636"><ele>1734.35</ele></trkpt><trkpt lat="39.801367" lon="-105.192474"><ele>1735.01</ele></trkpt><trkpt lat="39.801655" lon="-105.192893"><ele>1735.32</ele></trkpt><trkpt lat="39.801744" lon="-105.193004"><ele>1735.37</ele></trkpt><trkpt lat="39.801834" lon="-105.193097"><ele>1735.40</ele></trkpt><trkpt lat="39.801901" lon="-105.193144"><ele>1735.41</ele></trkpt><trkpt lat="39.801970" lon="-105.193174"><ele>1735.41</ele></trkpt><trkpt lat="39.802098" lon="-105.193200"><ele>1735.41</ele></trkpt><trkpt lat="39.803610" lon="-105.193220"><ele>1735.59</ele></trkpt><trkpt lat="39.804492" lon="-105.193247"><ele>1736.34</ele></trkpt><trkpt lat="39.805591" lon="-105.193301"><ele>1738.56</ele></trkpt><trkpt lat="39.806239" lon="-105.193362"><ele>1739.18</ele></trkpt><trkpt lat="39.806405" lon="-105.193368"><ele>1739.23</ele></trkpt><trkpt lat="39.806532" lon="-105.193365"><ele>1739.22</ele></trkpt><trkpt lat="39.806915" lon="-105.193357"><ele>1739.08</ele></trkpt><trkpt lat="39.807424" lon="-105.193346"><ele>1738.85</ele></trkpt><trkpt lat="39.807679" lon="-105.193340"><ele>1738.66</ele></trkpt><trkpt lat="39.807807" lon="-105.193340"><ele>1738.50</ele></trkpt><trkpt lat="39.807935" lon="-105.193340"><ele>1738.30</ele></trkpt><trkpt lat="39.808446" lon="-105.193340"><ele>1737.41</ele></trkpt><trkpt lat="39.810364" lon="-105.193340"><ele>1734.11</ele></trkpt><trkpt lat="39.810748" lon="-105.193340"><ele>1733.44</ele></trkpt><trkpt lat="39.810876" lon="-105.193340"><ele>1733.23</ele></trkpt><trkpt lat="39.811515" lon="-105.193340"><ele>1732.13</ele></trkpt><trkpt lat="39.811771" lon="-105.193340"><ele>1731.63</ele></trkpt><trkpt lat="39.812560" lon="-105.193310"><ele>1729.57</ele></trkpt><trkpt lat="39.812614" lon="-105.193277"><ele>1729.43</ele></trkpt><trkpt lat="39.812630" lon="-105.193245"><ele>1729.36</ele></trkpt><trkpt lat="39.812637" lon="-105.193204"><ele>1729.29</ele></trkpt><trkpt lat="39.812636" lon="-105.193052"><ele>1729.03</ele></trkpt><trkpt lat="39.812633" lon="-105.192594"><ele>1728.34</ele></trkpt><trkpt lat="39.812630" lon="-105.192137"><ele>1727.66</ele></trkpt><trkpt lat="39.812628" lon="-105.191680"><ele>1726.98</ele></trkpt><trkpt lat="39.812625" lon="-105.191222"><ele>1726.30</ele></trkpt><trkpt lat="39.812621" lon="-105.190612"><ele>1725.40</ele></trkpt><trkpt lat="39.812620" lon="-105.190459"><ele>1725.20</ele></trkpt><trkpt lat="39.812622" lon="-105.190237"><ele>1724.94</ele></trkpt><trkpt lat="39.812625" lon="-105.190014"><ele>1724.70</ele></trkpt><trkpt lat="39.812628" lon="-105.189680"><ele>1724.36</ele></trkpt><trkpt lat="39.812630" lon="-105.189626"><ele>1724.30</ele></trkpt><trkpt lat="39.812637" lon="-105.189573"><ele>1724.24</ele></trkpt><trkpt lat="39.812683" lon="-105.189437"><ele>1724.08</ele></trkpt><trkpt lat="39.812691" lon="-105.189353"><ele>1723.99</ele></trkpt><trkpt lat="39.812689" lon="-105.188811"><ele>1723.35</ele></trkpt><trkpt lat="39.812688" lon="-105.188703"><ele>1723.22</ele></trkpt><trkpt lat="39.812686" lon="-105.188162"><ele>1722.57</ele></trkpt><trkpt lat="39.812686" lon="-105.187945"><ele>1722.32</ele></trkpt><trkpt lat="39.812683" lon="-105.187295"><ele>1721.54</ele></trkpt><trkpt lat="39.812683" lon="-105.187078"><ele>1721.29</ele></trkpt><trkpt lat="39.812680" lon="-105.186537"><ele>1720.64</ele></trkpt><trkpt lat="39.812679" lon="-105.186212"><ele>1720.26</ele></trkpt><trkpt lat="39.812677" lon="-105.185670"><ele>1719.61</ele></trkpt><trkpt lat="39.812677" lon="-105.185562"><ele>1719.49</ele></trkpt><trkpt lat="39.812674" lon="-105.184804"><ele>1718.58</ele></trkpt><trkpt lat="39.812672" lon="-105.184154"><ele>1717.81</ele></trkpt><trkpt lat="39.812671" lon="-105.183937"><ele>1717.58</ele></trkpt><trkpt lat="39.812677" lon="-105.183885"><ele>1717.53</ele></trkpt><trkpt lat="39.812697" lon="-105.183837"><ele>1717.48</ele></trkpt><trkpt lat="39.812741" lon="-105.183797"><ele>1717.43</ele></trkpt><trkpt lat="39.812787" lon="-105.183775"><ele>1717.39</ele></trkpt><trkpt lat="39.812870" lon="-105.183761"><ele>1717.33</ele></trkpt><trkpt lat="39.813150" lon="-105.183768"><ele>1717.21</ele></trkpt><trkpt lat="39.813430" lon="-105.183775"><ele>1717.14</ele></trkpt><trkpt lat="39.814270" lon="-105.183796"><ele>1716.90</ele></trkpt><trkpt lat="39.814410" lon="-105.183800"><ele>1716.85</ele></trkpt><trkpt lat="39.815201" lon="-105.183800"><ele>1716.51</ele></trkpt><trkpt lat="39.816190" lon="-105.183831"><ele>1716.23</ele></trkpt><trkpt lat="39.816551" lon="-105.183835"><ele>1716.41</ele></trkpt><trkpt lat="39.817273" lon="-105.183843"><ele>1716.89</ele></trkpt><trkpt lat="39.817634" lon="-105.183847"><ele>1717.12</ele></trkpt><trkpt lat="39.817995" lon="-105.183851"><ele>1717.34</ele></trkpt><trkpt lat="39.818718" lon="-105.183859"><ele>1717.76</ele></trkpt><trkpt lat="39.819079" lon="-105.183863"><ele>1717.98</ele></trkpt><trkpt lat="39.819801" lon="-105.183871"><ele>1718.52</ele></trkpt><trkpt lat="39.820162" lon="-105.183876"><ele>1718.80</ele></trkpt><trkpt lat="39.820524" lon="-105.183880"><ele>1719.06</ele></trkpt><trkpt lat="39.820885" lon="-105.183884"><ele>1719.34</ele></trkpt><trkpt lat="39.821607" lon="-105.183892"><ele>1719.88</ele></trkpt><trkpt lat="39.822329" lon="-105.183900"><ele>1720.42</ele></trkpt><trkpt lat="39.822691" lon="-105.183904"><ele>1720.73</ele></trkpt><trkpt lat="39.823052" lon="-105.183908"><ele>1721.11</ele></trkpt><trkpt lat="39.823639" lon="-105.183900"><ele>1722.28</ele></trkpt><trkpt lat="39.823839" lon="-105.183904"><ele>1722.74</ele></trkpt><trkpt lat="39.824440" lon="-105.183915"><ele>1724.19</ele></trkpt><trkpt lat="39.824840" lon="-105.183921"><ele>1725.17</ele></trkpt><trkpt lat="39.825041" lon="-105.183925"><ele>1725.65</ele></trkpt><trkpt lat="39.825441" lon="-105.183932"><ele>1726.63</ele></trkpt><trkpt lat="39.825841" lon="-105.183939"><ele>1727.60</ele></trkpt><trkpt lat="39.826442" lon="-105.183950"><ele>1729.07</ele></trkpt><trkpt lat="39.826929" lon="-105.183941"><ele>1730.23</ele></trkpt><trkpt lat="39.827001" lon="-105.183957"><ele>1730.37</ele></trkpt><trkpt lat="39.827136" lon="-105.184018"><ele>1730.58</ele></trkpt><trkpt lat="39.827338" lon="-105.184027"><ele>1730.69</ele></trkpt><trkpt lat="39.827542" lon="-105.184030"><ele>1730.60</ele></trkpt><trkpt lat="39.828154" lon="-105.184036"><ele>1730.00</ele></trkpt><trkpt lat="39.828765" lon="-105.184042"><ele>1729.43</ele></trkpt><trkpt lat="39.829377" lon="-105.184049"><ele>1728.83</ele></trkpt><trkpt lat="39.829989" lon="-105.184055"><ele>1728.20</ele></trkpt><trkpt lat="39.830805" lon="-105.184063"><ele>1727.32</ele></trkpt><trkpt lat="39.831620" lon="-105.184072"><ele>1726.40</ele></trkpt><trkpt lat="39.832028" lon="-105.184076"><ele>1725.91</ele></trkpt><trkpt lat="39.832436" lon="-105.184080"><ele>1725.43</ele></trkpt><trkpt lat="39.832640" lon="-105.184082"><ele>1725.18</ele></trkpt><trkpt lat="39.833047" lon="-105.184086"><ele>1724.70</ele></trkpt><trkpt lat="39.833251" lon="-105.184089"><ele>1724.47</ele></trkpt><trkpt lat="39.833659" lon="-105.184093"><ele>1723.99</ele></trkpt><trkpt lat="39.833863" lon="-105.184095"><ele>1723.77</ele></trkpt><trkpt lat="39.834067" lon="-105.184097"><ele>1723.60</ele></trkpt><trkpt lat="39.834271" lon="-105.184099"><ele>1723.68</ele></trkpt><trkpt lat="39.834626" lon="-105.184101"><ele>1724.79</ele></trkpt><trkpt lat="39.834808" lon="-105.184101"><ele>1725.62</ele></trkpt><trkpt lat="39.835353" lon="-105.184102"><ele>1728.29</ele></trkpt><trkpt lat="39.835898" lon="-105.184104"><ele>1730.93</ele></trkpt><trkpt lat="39.836443" lon="-105.184105"><ele>1733.54</ele></trkpt><trkpt lat="39.836806" lon="-105.184106"><ele>1735.26</ele></trkpt><trkpt lat="39.836988" lon="-105.184107"><ele>1736.13</ele></trkpt><trkpt lat="39.837170" lon="-105.184107"><ele>1736.98</ele></trkpt><trkpt lat="39.837533" lon="-105.184108"><ele>1738.70</ele></trkpt><trkpt lat="39.837715" lon="-105.184108"><ele>1739.55</ele></trkpt><trkpt lat="39.838078" lon="-105.184109"><ele>1741.26</ele></trkpt><trkpt lat="39.838260" lon="-105.184110"><ele>1742.12</ele></trkpt><trkpt lat="39.838458" lon="-105.184100"><ele>1743.03</ele></trkpt><trkpt lat="39.838491" lon="-105.184120"><ele>1743.19</ele></trkpt><trkpt lat="39.838512" lon="-105.184153"><ele>1743.34</ele></trkpt><trkpt lat="39.838542" lon="-105.184241"><ele>1743.65</ele></trkpt><trkpt lat="39.838606" lon="-105.184466"><ele>1744.33</ele></trkpt><trkpt lat="39.838613" lon="-105.184511"><ele>1744.44</ele></trkpt><trkpt lat="39.838614" lon="-105.184572"><ele>1744.57</ele></trkpt><trkpt lat="39.838606" lon="-105.184641"><ele>1744.70</ele></trkpt><trkpt lat="39.838590" lon="-105.184715"><ele>1744.83</ele></trkpt><trkpt lat="39.838555" lon="-105.184823"><ele>1744.98</ele></trkpt><trkpt lat="39.838487" lon="-105.184993"><ele>1745.14</ele></trkpt><trkpt lat="39.838419" lon="-105.185163"><ele>1745.24</ele></trkpt><trkpt lat="39.838248" lon="-105.185587"><ele>1745.45</ele></trkpt><trkpt lat="39.838044" lon="-105.186096"><ele>1745.72</ele></trkpt><trkpt lat="39.837976" lon="-105.186265"><ele>1745.80</ele></trkpt><trkpt lat="39.837771" lon="-105.186774"><ele>1746.07</ele></trkpt><trkpt lat="39.837601" lon="-105.187198"><ele>1746.28</ele></trkpt><trkpt lat="39.837532" lon="-105.187368"><ele>1746.37</ele></trkpt><trkpt lat="39.837430" lon="-105.187622"><ele>1746.53</ele></trkpt><trkpt lat="39.837333" lon="-105.187905"><ele>1746.78</ele></trkpt><trkpt lat="39.837301" lon="-105.188002"><ele>1746.90</ele></trkpt><trkpt lat="39.837242" lon="-105.188268"><ele>1747.29</ele></trkpt><trkpt lat="39.837217" lon="-105.188494"><ele>1747.69</ele></trkpt><trkpt lat="39.837183" lon="-105.188795"><ele>1748.31</ele></trkpt><trkpt lat="39.837173" lon="-105.188927"><ele>1748.61</ele></trkpt><trkpt lat="39.837181" lon="-105.188965"><ele>1748.70</ele></trkpt><trkpt lat="39.837201" lon="-105.188997"><ele>1748.80</ele></trkpt><trkpt lat="39.837305" lon="-105.189053"><ele>1749.17</ele></trkpt><trkpt lat="39.837348" lon="-105.189106"><ele>1749.39</ele></trkpt><trkpt lat="39.837366" lon="-105.189156"><ele>1749.55</ele></trkpt><trkpt lat="39.837379" lon="-105.189225"><ele>1749.76</ele></trkpt><trkpt lat="39.837378" lon="-105.189377"><ele>1750.24</ele></trkpt><trkpt lat="39.837386" lon="-105.189404"><ele>1750.33</ele></trkpt><trkpt lat="39.837405" lon="-105.189436"><ele>1750.47</ele></trkpt><trkpt lat="39.837637" lon="-105.189669"><ele>1751.90</ele></trkpt><trkpt lat="39.837784" lon="-105.189851"><ele>1753.03</ele></trkpt><trkpt lat="39.838003" lon="-105.190123"><ele>1754.86</ele></trkpt><trkpt lat="39.838076" lon="-105.190214"><ele>1755.52</ele></trkpt><trkpt lat="39.838116" lon="-105.190294"><ele>1756.03</ele></trkpt><trkpt lat="39.838186" lon="-105.190455"><ele>1757.08</ele></trkpt><trkpt lat="39.838324" lon="-105.190865"><ele>1759.92</ele></trkpt><trkpt lat="39.838347" lon="-105.190956"><ele>1760.55</ele></trkpt><trkpt lat="39.838366" lon="-105.191090"><ele>1761.48</ele></trkpt><trkpt lat="39.838370" lon="-105.191390"><ele>1763.54</ele></trkpt><trkpt lat="39.838364" lon="-105.191541"><ele>1764.58</ele></trkpt><trkpt lat="39.838326" lon="-105.191808"><ele>1766.44</ele></trkpt><trkpt lat="39.838296" lon="-105.191916"><ele>1767.22</ele></trkpt><trkpt lat="39.838161" lon="-105.192340"><ele>1770.27</ele></trkpt><trkpt lat="39.838070" lon="-105.192716"><ele>1772.78</ele></trkpt><trkpt lat="39.838063" lon="-105.192795"><ele>1773.27</ele></trkpt><trkpt lat="39.838065" lon="-105.192885"><ele>1773.81</ele></trkpt><trkpt lat="39.838070" lon="-105.192975"><ele>1774.34</ele></trkpt><trkpt lat="39.838084" lon="-105.193080"><ele>1774.94</ele></trkpt><trkpt lat="39.838105" lon="-105.193169"><ele>1775.44</ele></trkpt><trkpt lat="39.838127" lon="-105.193230"><ele>1775.79</ele></trkpt><trkpt lat="39.838287" lon="-105.193573"><ele>1777.66</ele></trkpt><trkpt lat="39.838328" lon="-105.193702"><ele>1778.21</ele></trkpt><trkpt lat="39.838388" lon="-105.193919"><ele>1779.00</ele></trkpt><trkpt lat="39.838407" lon="-105.194048"><ele>1779.39</ele></trkpt><trkpt lat="39.838447" lon="-105.194308"><ele>1780.10</ele></trkpt><trkpt lat="39.838486" lon="-105.194567"><ele>1780.79</ele></trkpt><trkpt lat="39.838525" lon="-105.194827"><ele>1781.43</ele></trkpt><trkpt lat="39.838540" lon="-105.194881"><ele>1781.56</ele></trkpt><trkpt lat="39.838575" lon="-105.194933"><ele>1781.71</ele></trkpt><trkpt lat="39.838696" lon="-105.195015"><ele>1782.07</ele></trkpt><trkpt lat="39.838794" lon="-105.195189"><ele>1782.46</ele></trkpt><trkpt lat="39.838988" lon="-105.195392"><ele>1783.06</ele></trkpt><trkpt lat="39.839076" lon="-105.195510"><ele>1783.39</ele></trkpt><trkpt lat="39.839142" lon="-105.195613"><ele>1783.68</ele></trkpt><trkpt lat="39.839229" lon="-105.195780"><ele>1784.14</ele></trkpt><trkpt lat="39.839255" lon="-105.195843"><ele>1784.31</ele></trkpt><trkpt lat="39.839275" lon="-105.195932"><ele>1784.52</ele></trkpt><trkpt lat="39.839318" lon="-105.196209"><ele>1785.20</ele></trkpt><trkpt lat="39.839348" lon="-105.196926"><ele>1786.96</ele></trkpt><trkpt lat="39.839355" lon="-105.197105"><ele>1787.39</ele></trkpt><trkpt lat="39.839356" lon="-105.197277"><ele>1787.80</ele></trkpt><trkpt lat="39.839345" lon="-105.197467"><ele>1788.24</ele></trkpt><trkpt lat="39.839334" lon="-105.197548"><ele>1788.43</ele></trkpt><trkpt lat="39.839317" lon="-105.197615"><ele>1788.58</ele></trkpt><trkpt lat="39.839272" lon="-105.197745"><ele>1788.89</ele></trkpt><trkpt lat="39.839244" lon="-105.197803"><ele>1789.03</ele></trkpt><trkpt lat="39.839129" lon="-105.197908"><ele>1789.40</ele></trkpt><trkpt lat="39.839010" lon="-105.197990"><ele>1789.73</ele></trkpt><trkpt lat="39.838948" lon="-105.198020"><ele>1789.89</ele></trkpt><trkpt lat="39.838841" lon="-105.198043"><ele>1790.14</ele></trkpt><trkpt lat="39.838799" lon="-105.198091"><ele>1790.28</ele></trkpt><trkpt lat="39.838791" lon="-105.198129"><ele>1790.35</ele></trkpt><trkpt lat="39.838777" lon="-105.198580"><ele>1791.18</ele></trkpt><trkpt lat="39.838693" lon="-105.199071"><ele>1792.04</ele></trkpt><trkpt lat="39.838684" lon="-105.199314"><ele>1792.40</ele></trkpt><trkpt lat="39.838687" lon="-105.199363"><ele>1792.46</ele></trkpt><trkpt lat="39.838695" lon="-105.199403"><ele>1792.52</ele></trkpt><trkpt lat="39.838708" lon="-105.199428"><ele>1792.55</ele></trkpt><trkpt lat="39.838750" lon="-105.199457"><ele>1792.62</ele></trkpt><trkpt lat="39.839009" lon="-105.199470"><ele>1792.93</ele></trkpt><trkpt lat="39.839117" lon="-105.199497"><ele>1793.03</ele></trkpt><trkpt lat="39.839270" lon="-105.199581"><ele>1793.16</ele></trkpt><trkpt lat="39.839422" lon="-105.199714"><ele>1793.30</ele></trkpt><trkpt lat="39.839479" lon="-105.199792"><ele>1793.35</ele></trkpt><trkpt lat="39.839536" lon="-105.199912"><ele>1793.43</ele></trkpt><trkpt lat="39.839569" lon="-105.200023"><ele>1793.49</ele></trkpt><trkpt lat="39.839590" lon="-105.200151"><ele>1793.56</ele></trkpt><trkpt lat="39.839599" lon="-105.200295"><ele>1793.64</ele></trkpt><trkpt lat="39.839596" lon="-105.200705"><ele>1793.86</ele></trkpt><trkpt lat="39.839594" lon="-105.200841"><ele>1793.94</ele></trkpt><trkpt lat="39.839590" lon="-105.201387"><ele>1794.24</ele></trkpt><trkpt lat="39.839574" lon="-105.201604"><ele>1794.35</ele></trkpt><trkpt lat="39.839551" lon="-105.201724"><ele>1794.41</ele></trkpt><trkpt lat="39.839489" lon="-105.201943"><ele>1794.53</ele></trkpt><trkpt lat="39.839475" lon="-105.201976"><ele>1794.55</ele></trkpt><trkpt lat="39.839444" lon="-105.202027"><ele>1794.58</ele></trkpt><trkpt lat="39.839318" lon="-105.202184"><ele>1794.67</ele></trkpt><trkpt lat="39.839233" lon="-105.202250"><ele>1794.71</ele></trkpt><trkpt lat="39.839167" lon="-105.202279"><ele>1794.73</ele></trkpt><trkpt lat="39.838888" lon="-105.202305"><ele>1794.72</ele></trkpt><trkpt lat="39.838278" lon="-105.202265"><ele>1794.16</ele></trkpt><trkpt lat="39.837960" lon="-105.202326"><ele>1793.57</ele></trkpt><trkpt lat="39.837444" lon="-105.202329"><ele>1792.31</ele></trkpt><trkpt lat="39.837372" lon="-105.202317"><ele>1792.12</ele></trkpt><trkpt lat="39.837238" lon="-105.202258"><ele>1791.76</ele></trkpt><trkpt lat="39.836873" lon="-105.202045"><ele>1790.79</ele></trkpt><trkpt lat="39.836713" lon="-105.201870"><ele>1790.39</ele></trkpt><trkpt lat="39.836636" lon="-105.201766"><ele>1790.23</ele></trkpt><trkpt lat="39.836169" lon="-105.200946"><ele>1789.54</ele></trkpt><trkpt lat="39.836055" lon="-105.200756"><ele>1789.51</ele></trkpt><trkpt lat="39.836003" lon="-105.200622"><ele>1789.54</ele></trkpt><trkpt lat="39.835863" lon="-105.200209"><ele>1789.73</ele></trkpt><trkpt lat="39.835845" lon="-105.200139"><ele>1789.76</ele></trkpt><trkpt lat="39.835838" lon="-105.200088"><ele>1789.79</ele></trkpt><trkpt lat="39.835817" lon="-105.199730"><ele>1789.90</ele></trkpt><trkpt lat="39.835776" lon="-105.199505"><ele>1789.90</ele></trkpt><trkpt lat="39.835753" lon="-105.199402"><ele>1789.86</ele></trkpt><trkpt lat="39.835716" lon="-105.199324"><ele>1789.81</ele></trkpt><trkpt lat="39.835597" lon="-105.199164"><ele>1789.55</ele></trkpt><trkpt lat="39.835498" lon="-105.199088"><ele>1789.28</ele></trkpt><trkpt lat="39.835380" lon="-105.199067"><ele>1788.90</ele></trkpt><trkpt lat="39.835212" lon="-105.199108"><ele>1788.18</ele></trkpt><trkpt lat="39.835153" lon="-105.199148"><ele>1787.84</ele></trkpt><trkpt lat="39.835025" lon="-105.199278"><ele>1786.92</ele></trkpt><trkpt lat="39.834801" lon="-105.199562"><ele>1784.84</ele></trkpt><trkpt lat="39.834619" lon="-105.199868"><ele>1782.67</ele></trkpt><trkpt lat="39.834222" lon="-105.200357"><ele>1778.56</ele></trkpt><trkpt lat="39.833957" lon="-105.200624"><ele>1776.10</ele></trkpt><trkpt lat="39.833658" lon="-105.200750"><ele>1773.81</ele></trkpt><trkpt lat="39.833219" lon="-105.200894"><ele>1770.47</ele></trkpt><trkpt lat="39.833021" lon="-105.200892"><ele>1769.00</ele></trkpt><trkpt lat="39.832775" lon="-105.200785"><ele>1767.09</ele></trkpt><trkpt lat="39.832622" lon="-105.200678"><ele>1765.84</ele></trkpt><trkpt lat="39.832484" lon="-105.200536"><ele>1764.60</ele></trkpt><trkpt lat="39.832368" lon="-105.200307"><ele>1763.16</ele></trkpt><trkpt lat="39.832334" lon="-105.200227"><ele>1762.69</ele></trkpt><trkpt lat="39.832310" lon="-105.200140"><ele>1762.21</ele></trkpt><trkpt lat="39.832273" lon="-105.199965"><ele>1761.29</ele></trkpt><trkpt lat="39.832212" lon="-105.199477"><ele>1758.78</ele></trkpt><trkpt lat="39.832203" lon="-105.199333"><ele>1758.06</ele></trkpt><trkpt lat="39.832214" lon="-105.199191"><ele>1757.34</ele></trkpt><trkpt lat="39.832229" lon="-105.199118"><ele>1756.97</ele></trkpt><trkpt lat="39.832283" lon="-105.198903"><ele>1755.84</ele></trkpt><trkpt lat="39.832325" lon="-105.198763"><ele>1755.11</ele></trkpt><trkpt lat="39.832372" lon="-105.198668"><ele>1754.57</ele></trkpt><trkpt lat="39.832680" lon="-105.198118"><ele>1751.49</ele></trkpt><trkpt lat="39.832810" lon="-105.197848"><ele>1750.30</ele></trkpt><trkpt lat="39.832857" lon="-105.197714"><ele>1749.83</ele></trkpt><trkpt lat="39.832952" lon="-105.197372"><ele>1748.80</ele></trkpt><trkpt lat="39.832962" lon="-105.197308"><ele>1748.63</ele></trkpt><trkpt lat="39.832962" lon="-105.197292"><ele>1748.59</ele></trkpt><trkpt lat="39.832956" lon="-105.197262"><ele>1748.51</ele></trkpt><trkpt lat="39.832943" lon="-105.197237"><ele>1748.44</ele></trkpt><trkpt lat="39.832853" lon="-105.197153"><ele>1748.11</ele></trkpt><trkpt lat="39.832815" lon="-105.197089"><ele>1747.94</ele></trkpt><trkpt lat="39.832794" lon="-105.197036"><ele>1747.82</ele></trkpt><trkpt lat="39.832784" lon="-105.196993"><ele>1747.74</ele></trkpt><trkpt lat="39.832781" lon="-105.196927"><ele>1747.62</ele></trkpt><trkpt lat="39.832788" lon="-105.196873"><ele>1747.53</ele></trkpt><trkpt lat="39.832800" lon="-105.196836"><ele>1747.47</ele></trkpt><trkpt lat="39.832841" lon="-105.196756"><ele>1747.32</ele></trkpt><trkpt lat="39.832878" lon="-105.196705"><ele>1747.23</ele></trkpt><trkpt lat="39.832996" lon="-105.196627"><ele>1747.03</ele></trkpt><trkpt lat="39.833021" lon="-105.196594"><ele>1746.98</ele></trkpt><trkpt lat="39.833031" lon="-105.196567"><ele>1746.95</ele></trkpt><trkpt lat="39.833066" lon="-105.196384"><ele>1746.81</ele></trkpt><trkpt lat="39.833126" lon="-105.196196"><ele>1746.74</ele></trkpt><trkpt lat="39.833165" lon="-105.196102"><ele>1746.73</ele></trkpt><trkpt lat="39.833219" lon="-105.195994"><ele>1746.74</ele></trkpt><trkpt lat="39.833327" lon="-105.195776"><ele>1746.80</ele></trkpt><trkpt lat="39.833543" lon="-105.195341"><ele>1746.96</ele></trkpt><trkpt lat="39.833705" lon="-105.195015"><ele>1747.07</ele></trkpt><trkpt lat="39.833867" lon="-105.194688"><ele>1747.19</ele></trkpt><trkpt lat="39.834137" lon="-105.194145"><ele>1747.39</ele></trkpt><trkpt lat="39.834299" lon="-105.193818"><ele>1747.50</ele></trkpt><trkpt lat="39.834677" lon="-105.193057"><ele>1747.78</ele></trkpt><trkpt lat="39.834786" lon="-105.192840"><ele>1747.84</ele></trkpt><trkpt lat="39.834875" lon="-105.192680"><ele>1747.85</ele></trkpt><trkpt lat="39.834940" lon="-105.192601"><ele>1747.83</ele></trkpt><trkpt lat="39.835032" lon="-105.192547"><ele>1747.78</ele></trkpt><trkpt lat="39.835371" lon="-105.192476"><ele>1747.43</ele></trkpt><trkpt lat="39.835518" lon="-105.192416"><ele>1747.19</ele></trkpt><trkpt lat="39.835695" lon="-105.192280"><ele>1746.81</ele></trkpt><trkpt lat="39.835802" lon="-105.192161"><ele>1746.53</ele></trkpt><trkpt lat="39.835856" lon="-105.192079"><ele>1746.36</ele></trkpt><trkpt lat="39.835907" lon="-105.191957"><ele>1746.15</ele></trkpt><trkpt lat="39.835936" lon="-105.191859"><ele>1746.00</ele></trkpt><trkpt lat="39.835976" lon="-105.191698"><ele>1745.78</ele></trkpt><trkpt lat="39.836072" lon="-105.191230"><ele>1745.36</ele></trkpt><trkpt lat="39.836153" lon="-105.190959"><ele>1745.28</ele></trkpt><trkpt lat="39.836217" lon="-105.190772"><ele>1745.31</ele></trkpt><trkpt lat="39.836326" lon="-105.190481"><ele>1745.44</ele></trkpt><trkpt lat="39.836436" lon="-105.190189"><ele>1745.59</ele></trkpt><trkpt lat="39.836491" lon="-105.190043"><ele>1745.65</ele></trkpt><trkpt lat="39.836546" lon="-105.189898"><ele>1745.67</ele></trkpt><trkpt lat="39.836583" lon="-105.189790"><ele>1745.63</ele></trkpt><trkpt lat="39.836589" lon="-105.189760"><ele>1745.62</ele></trkpt><trkpt lat="39.836586" lon="-105.189718"><ele>1745.59</ele></trkpt><trkpt lat="39.836566" lon="-105.189678"><ele>1745.54</ele></trkpt><trkpt lat="39.836344" lon="-105.189514"><ele>1744.96</ele></trkpt><trkpt lat="39.836182" lon="-105.189311"><ele>1744.06</ele></trkpt><trkpt lat="39.836141" lon="-105.189232"><ele>1743.71</ele></trkpt><trkpt lat="39.836066" lon="-105.188969"><ele>1742.51</ele></trkpt><trkpt lat="39.836013" lon="-105.188834"><ele>1741.80</ele></trkpt><trkpt lat="39.835962" lon="-105.188750"><ele>1741.28</ele></trkpt><trkpt lat="39.835827" lon="-105.188597"><ele>1740.11</ele></trkpt><trkpt lat="39.835620" lon="-105.188493"><ele>1738.61</ele></trkpt><trkpt lat="39.835520" lon="-105.188463"><ele>1737.92</ele></trkpt><trkpt lat="39.835370" lon="-105.188466"><ele>1736.90</ele></trkpt><trkpt lat="39.835140" lon="-105.188533"><ele>1735.28</ele></trkpt><trkpt lat="39.834911" lon="-105.188505"><ele>1733.71</ele></trkpt><trkpt lat="39.834683" lon="-105.188403"><ele>1732.09</ele></trkpt><trkpt lat="39.834625" lon="-105.188346"><ele>1731.63</ele></trkpt><trkpt lat="39.834548" lon="-105.188247"><ele>1730.96</ele></trkpt><trkpt lat="39.834483" lon="-105.188148"><ele>1730.39</ele></trkpt><trkpt lat="39.834421" lon="-105.188014"><ele>1729.78</ele></trkpt><trkpt lat="39.834384" lon="-105.187906"><ele>1729.39</ele></trkpt><trkpt lat="39.834356" lon="-105.187779"><ele>1729.01</ele></trkpt><trkpt lat="39.834350" lon="-105.187635"><ele>1728.68</ele></trkpt><trkpt lat="39.834350" lon="-105.187479"><ele>1728.38</ele></trkpt><trkpt lat="39.834350" lon="-105.187323"><ele>1728.12</ele></trkpt><trkpt lat="39.834350" lon="-105.187012"><ele>1727.64</ele></trkpt><trkpt lat="39.834350" lon="-105.186856"><ele>1727.42</ele></trkpt><trkpt lat="39.834350" lon="-105.186700"><ele>1727.24</ele></trkpt><trkpt lat="39.834347" lon="-105.186581"><ele>1727.15</ele></trkpt><trkpt lat="39.834333" lon="-105.186532"><ele>1727.13</ele></trkpt><trkpt lat="39.834295" lon="-105.186496"><ele>1727.11</ele></trkpt><trkpt lat="39.833753" lon="-105.186541"><ele>1727.41</ele></trkpt><trkpt lat="39.833649" lon="-105.186608"><ele>1727.55</ele></trkpt><trkpt lat="39.833521" lon="-105.186756"><ele>1727.81</ele></trkpt><trkpt lat="39.833489" lon="-105.186814"><ele>1727.91</ele></trkpt><trkpt lat="39.833439" lon="-105.186946"><ele>1728.11</ele></trkpt><trkpt lat="39.833292" lon="-105.187340"><ele>1728.78</ele></trkpt><trkpt lat="39.833144" lon="-105.187735"><ele>1729.44</ele></trkpt><trkpt lat="39.832996" lon="-105.188130"><ele>1730.12</ele></trkpt><trkpt lat="39.832947" lon="-105.188261"><ele>1730.37</ele></trkpt><trkpt lat="39.832901" lon="-105.188406"><ele>1730.68</ele></trkpt><trkpt lat="39.832812" lon="-105.188819"><ele>1731.69</ele></trkpt><trkpt lat="39.832783" lon="-105.189111"><ele>1732.47</ele></trkpt><trkpt lat="39.832755" lon="-105.189402"><ele>1733.27</ele></trkpt><trkpt lat="39.832740" lon="-105.189548"><ele>1733.65</ele></trkpt><trkpt lat="39.832731" lon="-105.189663"><ele>1733.92</ele></trkpt><trkpt lat="39.832733" lon="-105.189711"><ele>1734.03</ele></trkpt><trkpt lat="39.832747" lon="-105.189758"><ele>1734.14</ele></trkpt><trkpt lat="39.832768" lon="-105.189787"><ele>1734.22</ele></trkpt><trkpt lat="39.832918" lon="-105.189911"><ele>1734.60</ele></trkpt><trkpt lat="39.833058" lon="-105.190063"><ele>1734.86</ele></trkpt><trkpt lat="39.833127" lon="-105.190166"><ele>1734.97</ele></trkpt><trkpt lat="39.833171" lon="-105.190251"><ele>1735.04</ele></trkpt><trkpt lat="39.833291" lon="-105.190542"><ele>1735.21</ele></trkpt><trkpt lat="39.833315" lon="-105.190612"><ele>1735.25</ele></trkpt><trkpt lat="39.833333" lon="-105.190697"><ele>1735.28</ele></trkpt><trkpt lat="39.833353" lon="-105.190827"><ele>1735.34</ele></trkpt><trkpt lat="39.833361" lon="-105.190915"><ele>1735.37</ele></trkpt><trkpt lat="39.833367" lon="-105.191050"><ele>1735.43</ele></trkpt><trkpt lat="39.833365" lon="-105.191140"><ele>1735.47</ele></trkpt><trkpt lat="39.833344" lon="-105.191242"><ele>1735.52</ele></trkpt><trkpt lat="39.833298" lon="-105.191414"><ele>1735.60</ele></trkpt><trkpt lat="39.833250" lon="-105.191515"><ele>1735.65</ele></trkpt><trkpt lat="39.833207" lon="-105.191575"><ele>1735.68</ele></trkpt><trkpt lat="39.833127" lon="-105.191654"><ele>1735.74</ele></trkpt><trkpt lat="39.832959" lon="-105.191755"><ele>1735.85</ele></trkpt><trkpt lat="39.832777" lon="-105.191801"><ele>1735.96</ele></trkpt><trkpt lat="39.832651" lon="-105.191814"><ele>1736.05</ele></trkpt><trkpt lat="39.832234" lon="-105.191829"><ele>1736.38</ele></trkpt><trkpt lat="39.831817" lon="-105.191844"><ele>1736.72</ele></trkpt><trkpt lat="39.831539" lon="-105.191854"><ele>1736.96</ele></trkpt><trkpt lat="39.831400" lon="-105.191859"><ele>1737.13</ele></trkpt><trkpt lat="39.831261" lon="-105.191864"><ele>1737.43</ele></trkpt><trkpt lat="39.831085" lon="-105.191787"><ele>1738.13</ele></trkpt><trkpt lat="39.830575" lon="-105.191463"><ele>1741.47</ele></trkpt><trkpt lat="39.830479" lon="-105.191358"><ele>1742.23</ele></trkpt><trkpt lat="39.830326" lon="-105.191144"><ele>1743.56</ele></trkpt><trkpt lat="39.830276" lon="-105.191117"><ele>1743.87</ele></trkpt><trkpt lat="39.830187" lon="-105.191156"><ele>1744.39</ele></trkpt><trkpt lat="39.829770" lon="-105.191428"><ele>1746.63</ele></trkpt><trkpt lat="39.829628" lon="-105.191512"><ele>1747.24</ele></trkpt><trkpt lat="39.829343" lon="-105.191680"><ele>1748.31</ele></trkpt><trkpt lat="39.829201" lon="-105.191764"><ele>1748.83</ele></trkpt><trkpt lat="39.829059" lon="-105.191848"><ele>1749.32</ele></trkpt><trkpt lat="39.828917" lon="-105.191932"><ele>1749.65</ele></trkpt><trkpt lat="39.828760" lon="-105.191957"><ele>1749.69</ele></trkpt><trkpt lat="39.828582" lon="-105.191934"><ele>1749.34</ele></trkpt><trkpt lat="39.828392" lon="-105.191820"><ele>1748.53</ele></trkpt><trkpt lat="39.828335" lon="-105.191773"><ele>1748.21</ele></trkpt><trkpt lat="39.828271" lon="-105.191675"><ele>1747.72</ele></trkpt><trkpt lat="39.828233" lon="-105.191592"><ele>1747.35</ele></trkpt><trkpt lat="39.828198" lon="-105.191497"><ele>1746.94</ele></trkpt><trkpt lat="39.828176" lon="-105.191412"><ele>1746.60</ele></trkpt><trkpt lat="39.828163" lon="-105.191340"><ele>1746.32</ele></trkpt><trkpt lat="39.828124" lon="-105.191087"><ele>1745.39</ele></trkpt><trkpt lat="39.828026" lon="-105.190455"><ele>1743.10</ele></trkpt><trkpt lat="39.827987" lon="-105.190202"><ele>1742.21</ele></trkpt><trkpt lat="39.827968" lon="-105.190075"><ele>1741.79</ele></trkpt><trkpt lat="39.827947" lon="-105.189983"><ele>1741.51</ele></trkpt><trkpt lat="39.827894" lon="-105.189811"><ele>1741.02</ele></trkpt><trkpt lat="39.827873" lon="-105.189753"><ele>1740.88</ele></trkpt><trkpt lat="39.827854" lon="-105.189718"><ele>1740.79</ele></trkpt><trkpt lat="39.827815" lon="-105.189675"><ele>1740.67</ele></trkpt><trkpt lat="39.827720" lon="-105.189602"><ele>1740.45</ele></trkpt><trkpt lat="39.827622" lon="-105.189552"><ele>1740.30</ele></trkpt><trkpt lat="39.827540" lon="-105.189526"><ele>1740.22</ele></trkpt><trkpt lat="39.827376" lon="-105.189474"><ele>1740.16</ele></trkpt><trkpt lat="39.827294" lon="-105.189448"><ele>1740.18</ele></trkpt><trkpt lat="39.827212" lon="-105.189422"><ele>1740.26</ele></trkpt><trkpt lat="39.827033" lon="-105.189391"><ele>1740.67</ele></trkpt><trkpt lat="39.826989" lon="-105.189407"><ele>1740.83</ele></trkpt><trkpt lat="39.826968" lon="-105.189444"><ele>1740.97</ele></trkpt><trkpt lat="39.826961" lon="-105.189481"><ele>1741.09</ele></trkpt><trkpt lat="39.826958" lon="-105.189537"><ele>1741.29</ele></trkpt><trkpt lat="39.826956" lon="-105.189690"><ele>1741.89</ele></trkpt><trkpt lat="39.826954" lon="-105.189844"><ele>1742.54</ele></trkpt><trkpt lat="39.826950" lon="-105.190152"><ele>1743.90</ele></trkpt><trkpt lat="39.826941" lon="-105.190768"><ele>1746.59</ele></trkpt><trkpt lat="39.826939" lon="-105.190921"><ele>1747.25</ele></trkpt><trkpt lat="39.826919" lon="-105.191229"><ele>1748.56</ele></trkpt><trkpt lat="39.826872" lon="-105.191588"><ele>1750.05</ele></trkpt><trkpt lat="39.826802" lon="-105.192127"><ele>1752.23</ele></trkpt><trkpt lat="39.826778" lon="-105.192307"><ele>1752.88</ele></trkpt><trkpt lat="39.826755" lon="-105.192415"><ele>1753.24</ele></trkpt><trkpt lat="39.826727" lon="-105.192516"><ele>1753.54</ele></trkpt><trkpt lat="39.826613" lon="-105.192785"><ele>1754.10</ele></trkpt><trkpt lat="39.826520" lon="-105.192925"><ele>1754.20</ele></trkpt><trkpt lat="39.826406" lon="-105.193060"><ele>1754.07</ele></trkpt><trkpt lat="39.826248" lon="-105.193206"><ele>1753.65</ele></trkpt><trkpt lat="39.826089" lon="-105.193352"><ele>1753.08</ele></trkpt><trkpt lat="39.825931" lon="-105.193498"><ele>1752.49</ele></trkpt><trkpt lat="39.825772" lon="-105.193644"><ele>1751.88</ele></trkpt><trkpt lat="39.825614" lon="-105.193790"><ele>1751.15</ele></trkpt><trkpt lat="39.825489" lon="-105.193938"><ele>1750.33</ele></trkpt><trkpt lat="39.825415" lon="-105.194059"><ele>1749.64</ele></trkpt><trkpt lat="39.825006" lon="-105.194861"><ele>1744.99</ele></trkpt><trkpt lat="39.824946" lon="-105.195000"><ele>1744.37</ele></trkpt><trkpt lat="39.824811" lon="-105.195439"><ele>1743.15</ele></trkpt><trkpt lat="39.824745" lon="-105.195678"><ele>1742.88</ele></trkpt><trkpt lat="39.824679" lon="-105.195916"><ele>1742.74</ele></trkpt><trkpt lat="39.824613" lon="-105.196155"><ele>1742.62</ele></trkpt><trkpt lat="39.824480" lon="-105.196632"><ele>1742.38</ele></trkpt><trkpt lat="39.824414" lon="-105.196871"><ele>1742.24</ele></trkpt><trkpt lat="39.824348" lon="-105.197109"><ele>1742.07</ele></trkpt><trkpt lat="39.824233" lon="-105.197393"><ele>1741.74</ele></trkpt><trkpt lat="39.824188" lon="-105.197471"><ele>1741.59</ele></trkpt><trkpt lat="39.824050" lon="-105.197626"><ele>1741.14</ele></trkpt><trkpt lat="39.823879" lon="-105.197781"><ele>1740.43</ele></trkpt><trkpt lat="39.823821" lon="-105.197822"><ele>1740.16</ele></trkpt><trkpt lat="39.823133" lon="-105.198149"><ele>1736.78</ele></trkpt><trkpt lat="39.822963" lon="-105.198203"><ele>1736.02</ele></trkpt><trkpt lat="39.822856" lon="-105.198219"><ele>1735.61</ele></trkpt><trkpt lat="39.822652" lon="-105.198219"><ele>1734.96</ele></trkpt><trkpt lat="39.822448" lon="-105.198219"><ele>1734.41</ele></trkpt><trkpt lat="39.821836" lon="-105.198220"><ele>1732.79</ele></trkpt><trkpt lat="39.821429" lon="-105.198220"><ele>1731.73</ele></trkpt><trkpt lat="39.821224" lon="-105.198220"><ele>1731.26</ele></trkpt><trkpt lat="39.820870" lon="-105.198219"><ele>1730.79</ele></trkpt><trkpt lat="39.820663" lon="-105.198218"><ele>1730.75</ele></trkpt><trkpt lat="39.820248" lon="-105.198214"><ele>1730.90</ele></trkpt><trkpt lat="39.820041" lon="-105.198213"><ele>1730.97</ele></trkpt><trkpt lat="39.819626" lon="-105.198209"><ele>1731.13</ele></trkpt><trkpt lat="39.819418" lon="-105.198208"><ele>1731.20</ele></trkpt><trkpt lat="39.819003" lon="-105.198204"><ele>1731.36</ele></trkpt><trkpt lat="39.818796" lon="-105.198203"><ele>1731.45</ele></trkpt><trkpt lat="39.817966" lon="-105.198196"><ele>1731.77</ele></trkpt><trkpt lat="39.817759" lon="-105.198195"><ele>1731.86</ele></trkpt><trkpt lat="39.817344" lon="-105.198191"><ele>1732.02</ele></trkpt><trkpt lat="39.816929" lon="-105.198188"><ele>1732.19</ele></trkpt><trkpt lat="39.816307" lon="-105.198183"><ele>1732.43</ele></trkpt><trkpt lat="39.815892" lon="-105.198180"><ele>1732.58</ele></trkpt><trkpt lat="39.815062" lon="-105.198173"><ele>1732.90</ele></trkpt><trkpt lat="39.814647" lon="-105.198170"><ele>1733.06</ele></trkpt><trkpt lat="39.814440" lon="-105.198168"><ele>1733.17</ele></trkpt><trkpt lat="39.814202" lon="-105.198094"><ele>1733.35</ele></trkpt><trkpt lat="39.814056" lon="-105.198012"><ele>1733.52</ele></trkpt><trkpt lat="39.813985" lon="-105.197954"><ele>1733.62</ele></trkpt><trkpt lat="39.813448" lon="-105.197434"><ele>1734.58</ele></trkpt><trkpt lat="39.813259" lon="-105.197322"><ele>1735.00</ele></trkpt><trkpt lat="39.813148" lon="-105.197281"><ele>1735.28</ele></trkpt><trkpt lat="39.812979" lon="-105.197311"><ele>1735.72</ele></trkpt><trkpt lat="39.812545" lon="-105.197319"><ele>1736.90</ele></trkpt><trkpt lat="39.812334" lon="-105.197281"><ele>1737.54</ele></trkpt><trkpt lat="39.812170" lon="-105.197285"><ele>1738.05</ele></trkpt><trkpt lat="39.811514" lon="-105.197300"><ele>1740.14</ele></trkpt><trkpt lat="39.811350" lon="-105.197304"><ele>1740.65</ele></trkpt><trkpt lat="39.811186" lon="-105.197308"><ele>1741.07</ele></trkpt><trkpt lat="39.811104" lon="-105.197299"><ele>1741.24</ele></trkpt><trkpt lat="39.810863" lon="-105.197235"><ele>1741.57</ele></trkpt><trkpt lat="39.810832" lon="-105.197244"><ele>1741.60</ele></trkpt><trkpt lat="39.810807" lon="-105.197269"><ele>1741.63</ele></trkpt><trkpt lat="39.810739" lon="-105.197392"><ele>1741.75</ele></trkpt><trkpt lat="39.810609" lon="-105.197560"><ele>1741.93</ele></trkpt><trkpt lat="39.810564" lon="-105.197602"><ele>1741.99</ele></trkpt><trkpt lat="39.810524" lon="-105.197612"><ele>1742.03</ele></trkpt><trkpt lat="39.810474" lon="-105.197583"><ele>1742.08</ele></trkpt><trkpt lat="39.810136" lon="-105.197151"><ele>1742.53</ele></trkpt><trkpt lat="39.809967" lon="-105.196935"><ele>1742.74</ele></trkpt><trkpt lat="39.809828" lon="-105.196836"><ele>1742.86</ele></trkpt><trkpt lat="39.809681" lon="-105.196789"><ele>1742.95</ele></trkpt><trkpt lat="39.809474" lon="-105.196789"><ele>1743.01</ele></trkpt><trkpt lat="39.809198" lon="-105.196789"><ele>1743.04</ele></trkpt><trkpt lat="39.808784" lon="-105.196789"><ele>1743.09</ele></trkpt><trkpt lat="39.808439" lon="-105.196789"><ele>1743.14</ele></trkpt><trkpt lat="39.808370" lon="-105.196789"><ele>1743.14</ele></trkpt><trkpt lat="39.807956" lon="-105.196789"><ele>1743.20</ele></trkpt><trkpt lat="39.807474" lon="-105.196789"><ele>1743.26</ele></trkpt><trkpt lat="39.807060" lon="-105.196789"><ele>1743.31</ele></trkpt><trkpt lat="39.806784" lon="-105.196789"><ele>1743.34</ele></trkpt><trkpt lat="39.806577" lon="-105.196789"><ele>1743.35</ele></trkpt><trkpt lat="39.806439" lon="-105.196789"><ele>1743.33</ele></trkpt><trkpt lat="39.806253" lon="-105.196745"><ele>1743.22</ele></trkpt><trkpt lat="39.806191" lon="-105.196705"><ele>1743.17</ele></trkpt><trkpt lat="39.806134" lon="-105.196635"><ele>1743.09</ele></trkpt><trkpt lat="39.806100" lon="-105.196567"><ele>1743.02</ele></trkpt><trkpt lat="39.806053" lon="-105.196443"><ele>1742.90</ele></trkpt><trkpt lat="39.806042" lon="-105.196391"><ele>1742.84</ele></trkpt><trkpt lat="39.806038" lon="-105.196338"><ele>1742.79</ele></trkpt><trkpt lat="39.806029" lon="-105.195970"><ele>1742.37</ele></trkpt><trkpt lat="39.806021" lon="-105.195931"><ele>1742.32</ele></trkpt><trkpt lat="39.806007" lon="-105.195905"><ele>1742.28</ele></trkpt><trkpt lat="39.805943" lon="-105.195873"><ele>1742.17</ele></trkpt><trkpt lat="39.805814" lon="-105.195870"><ele>1741.95</ele></trkpt><trkpt lat="39.805668" lon="-105.195920"><ele>1741.68</ele></trkpt><trkpt lat="39.805598" lon="-105.195921"><ele>1741.55</ele></trkpt><trkpt lat="39.805497" lon="-105.195893"><ele>1741.38</ele></trkpt><trkpt lat="39.805471" lon="-105.195865"><ele>1741.32</ele></trkpt><trkpt lat="39.805457" lon="-105.195829"><ele>1741.27</ele></trkpt><trkpt lat="39.805452" lon="-105.195795"><ele>1741.22</ele></trkpt><trkpt lat="39.805451" lon="-105.195670"><ele>1741.07</ele></trkpt><trkpt lat="39.805453" lon="-105.195098"><ele>1740.40</ele></trkpt><trkpt lat="39.805454" lon="-105.194812"><ele>1740.07</ele></trkpt><trkpt lat="39.805456" lon="-105.194382"><ele>1739.57</ele></trkpt><trkpt lat="39.805457" lon="-105.194096"><ele>1739.24</ele></trkpt><trkpt lat="39.805459" lon="-105.193666"><ele>1738.73</ele></trkpt><trkpt lat="39.805459" lon="-105.193523"><ele>1738.55</ele></trkpt><trkpt lat="39.805591" lon="-105.193301"><ele>1738.56</ele></trkpt><trkpt lat="39.805298" lon="-105.193286"><ele>1737.97</ele></trkpt><trkpt lat="39.804851" lon="-105.193265"><ele>1737.07</ele></trkpt><trkpt lat="39.804492" lon="-105.193247"><ele>1736.34</ele></trkpt><trkpt lat="39.803927" lon="-105.193230"><ele>1735.86</ele></trkpt><trkpt lat="39.803610" lon="-105.193220"><ele>1735.59</ele></trkpt><trkpt lat="39.803156" lon="-105.193214"><ele>1735.54</ele></trkpt><trkpt lat="39.802552" lon="-105.193206"><ele>1735.46</ele></trkpt><trkpt lat="39.802098" lon="-105.193200"><ele>1735.41</ele></trkpt><trkpt lat="39.801970" lon="-105.193174"><ele>1735.41</ele></trkpt><trkpt lat="39.801901" lon="-105.193144"><ele>1735.41</ele></trkpt><trkpt lat="39.801834" lon="-105.193097"><ele>1735.40</ele></trkpt><trkpt lat="39.801744" lon="-105.193004"><ele>1735.37</ele></trkpt><trkpt lat="39.801655" lon="-105.192893"><ele>1735.32</ele></trkpt><trkpt lat="39.801367" lon="-105.192474"><ele>1735.01</ele></trkpt><trkpt lat="39.801080" lon="-105.192055"><ele>1734.68</ele></trkpt><trkpt lat="39.800792" lon="-105.191636"><ele>1734.35</ele></trkpt><trkpt lat="39.800504" lon="-105.191217"><ele>1734.03</ele></trkpt><trkpt lat="39.800216" lon="-105.190798"><ele>1733.70</ele></trkpt><trkpt lat="39.799929" lon="-105.190379"><ele>1733.31</ele></trkpt><trkpt lat="39.799540" lon="-105.189849"><ele>1732.37</ele></trkpt><trkpt lat="39.799180" lon="-105.189312"><ele>1731.23</ele></trkpt><trkpt lat="39.798428" lon="-105.188261"><ele>1728.90</ele></trkpt><trkpt lat="39.798220" lon="-105.187985"><ele>1728.43</ele></trkpt><trkpt lat="39.798148" lon="-105.187911"><ele>1728.31</ele></trkpt><trkpt lat="39.797990" lon="-105.187817"><ele>1728.14</ele></trkpt><trkpt lat="39.797689" lon="-105.187731"><ele>1727.98</ele></trkpt><trkpt lat="39.796081" lon="-105.187420"><ele>1727.99</ele></trkpt><trkpt lat="39.795640" lon="-105.187310"><ele>1727.94</ele></trkpt><trkpt lat="39.794520" lon="-105.187071"><ele>1727.98</ele></trkpt><trkpt lat="39.793955" lon="-105.187027"><ele>1728.08</ele></trkpt><trkpt lat="39.792568" lon="-105.187221"><ele>1728.29</ele></trkpt><trkpt lat="39.792090" lon="-105.187311"><ele>1728.20</ele></trkpt><trkpt lat="39.791700" lon="-105.187423"><ele>1728.19</ele></trkpt><trkpt lat="39.791395" lon="-105.187583"><ele>1728.30</ele></trkpt><trkpt lat="39.791246" lon="-105.187707"><ele>1728.47</ele></trkpt><trkpt lat="39.790871" lon="-105.188102"><ele>1729.23</ele></trkpt><trkpt lat="39.790507" lon="-105.188573"><ele>1730.04</ele></trkpt><trkpt lat="39.790420" lon="-105.188665"><ele>1730.12</ele></trkpt><trkpt lat="39.790354" lon="-105.188701"><ele>1730.13</ele></trkpt><trkpt lat="39.790065" lon="-105.188716"><ele>1730.02</ele></trkpt><trkpt lat="39.789488" lon="-105.188746"><ele>1729.66</ele></trkpt><trkpt lat="39.788955" lon="-105.188773"><ele>1729.31</ele></trkpt><trkpt lat="39.788335" lon="-105.188806"><ele>1728.90</ele></trkpt><trkpt lat="39.788022" lon="-105.188822"><ele>1728.70</ele></trkpt><trkpt lat="39.787469" lon="-105.188851"><ele>1728.27</ele></trkpt><trkpt lat="39.787358" lon="-105.188851"><ele>1728.09</ele></trkpt><trkpt lat="39.787308" lon="-105.188813"><ele>1727.97</ele></trkpt><trkpt lat="39.787297" lon="-105.188788"><ele>1727.92</ele></trkpt><trkpt lat="39.786892" lon="-105.188897"><ele>1729.61</ele></trkpt><trkpt lat="39.786569" lon="-105.188928"><ele>1730.72</ele></trkpt><trkpt lat="39.785924" lon="-105.188988"><ele>1732.92</ele></trkpt><trkpt lat="39.785601" lon="-105.189019"><ele>1734.03</ele></trkpt><trkpt lat="39.784956" lon="-105.189080"><ele>1736.23</ele></trkpt><trkpt lat="39.784633" lon="-105.189111"><ele>1737.32</ele></trkpt><trkpt lat="39.784310" lon="-105.189141"><ele>1738.18</ele></trkpt><trkpt lat="39.784022" lon="-105.189202"><ele>1738.41</ele></trkpt><trkpt lat="39.783733" lon="-105.189264"><ele>1738.46</ele></trkpt><trkpt lat="39.783155" lon="-105.189387"><ele>1738.57</ele></trkpt><trkpt lat="39.782578" lon="-105.189510"><ele>1738.68</ele></trkpt><trkpt lat="39.782289" lon="-105.189571"><ele>1738.54</ele></trkpt><trkpt lat="39.780970" lon="-105.189969"><ele>1734.76</ele></trkpt><trkpt lat="39.779961" lon="-105.190161"><ele>1731.96</ele></trkpt><trkpt lat="39.779702" lon="-105.190227"><ele>1731.68</ele></trkpt><trkpt lat="39.777719" lon="-105.190741"><ele>1732.00</ele></trkpt><trkpt lat="39.777161" lon="-105.190931"><ele>1732.08</ele></trkpt><trkpt lat="39.776405" lon="-105.191280"><ele>1731.79</ele></trkpt><trkpt lat="39.776293" lon="-105.191317"><ele>1731.76</ele></trkpt><trkpt lat="39.776011" lon="-105.191364"><ele>1731.73</ele></trkpt><trkpt lat="39.775810" lon="-105.191439"><ele>1731.74</ele></trkpt><trkpt lat="39.775702" lon="-105.191499"><ele>1731.76</ele></trkpt><trkpt lat="39.775469" lon="-105.191655"><ele>1731.82</ele></trkpt><trkpt lat="39.774630" lon="-105.192551"><ele>1732.37</ele></trkpt><trkpt lat="39.774190" lon="-105.193048"><ele>1732.99</ele></trkpt><trkpt lat="39.773472" lon="-105.193668"><ele>1734.78</ele></trkpt><trkpt lat="39.773404" lon="-105.193735"><ele>1734.97</ele></trkpt><trkpt lat="39.773350" lon="-105.193814"><ele>1735.15</ele></trkpt><trkpt lat="39.773100" lon="-105.194232"><ele>1735.91</ele></trkpt><trkpt lat="39.772943" lon="-105.194489"><ele>1736.00</ele></trkpt><trkpt lat="39.772781" lon="-105.194739"><ele>1735.71</ele></trkpt><trkpt lat="39.772618" lon="-105.194990"><ele>1735.29</ele></trkpt><trkpt lat="39.772294" lon="-105.195491"><ele>1734.41</ele></trkpt><trkpt lat="39.772132" lon="-105.195741"><ele>1733.96</ele></trkpt><trkpt lat="39.771970" lon="-105.195992"><ele>1733.57</ele></trkpt><trkpt lat="39.771501" lon="-105.196891"><ele>1733.07</ele></trkpt><trkpt lat="39.771391" lon="-105.197183"><ele>1733.08</ele></trkpt><trkpt lat="39.771342" lon="-105.197357"><ele>1733.13</ele></trkpt><trkpt lat="39.771321" lon="-105.197473"><ele>1733.19</ele></trkpt><trkpt lat="39.771284" lon="-105.197703"><ele>1733.32</ele></trkpt><trkpt lat="39.771170" lon="-105.198395"><ele>1733.77</ele></trkpt><trkpt lat="39.771132" lon="-105.198625"><ele>1733.93</ele></trkpt><trkpt lat="39.771115" lon="-105.198697"><ele>1733.98</ele></trkpt><trkpt lat="39.771036" lon="-105.198891"><ele>1734.15</ele></trkpt><trkpt lat="39.770998" lon="-105.198952"><ele>1734.20</ele></trkpt><trkpt lat="39.770642" lon="-105.199341"><ele>1734.58</ele></trkpt><trkpt lat="39.770471" lon="-105.199602"><ele>1734.60</ele></trkpt><trkpt lat="39.770389" lon="-105.199771"><ele>1734.53</ele></trkpt><trkpt lat="39.770308" lon="-105.199940"><ele>1734.42</ele></trkpt><trkpt lat="39.770144" lon="-105.200279"><ele>1734.17</ele></trkpt><trkpt lat="39.770062" lon="-105.200448"><ele>1733.98</ele></trkpt><trkpt lat="39.769993" lon="-105.200573"><ele>1733.77</ele></trkpt><trkpt lat="39.769953" lon="-105.200592"><ele>1733.67</ele></trkpt><trkpt lat="39.769915" lon="-105.200580"><ele>1733.56</ele></trkpt><trkpt lat="39.769770" lon="-105.200446"><ele>1732.92</ele></trkpt><trkpt lat="39.769708" lon="-105.200360"><ele>1732.47</ele></trkpt><trkpt lat="39.769685" lon="-105.200299"><ele>1732.17</ele></trkpt><trkpt lat="39.769676" lon="-105.200239"><ele>1731.88</ele></trkpt><trkpt lat="39.769680" lon="-105.200136"><ele>1731.35</ele></trkpt><trkpt lat="39.769712" lon="-105.199818"><ele>1729.48</ele></trkpt><trkpt lat="39.769757" lon="-105.199613"><ele>1728.14</ele></trkpt><trkpt lat="39.769781" lon="-105.199510"><ele>1727.45</ele></trkpt><trkpt lat="39.769811" lon="-105.199411"><ele>1726.78</ele></trkpt><trkpt lat="39.769850" lon="-105.199286"><ele>1725.93</ele></trkpt><trkpt lat="39.769949" lon="-105.198972"><ele>1723.84</ele></trkpt><trkpt lat="39.770028" lon="-105.198721"><ele>1722.22</ele></trkpt><trkpt lat="39.770067" lon="-105.198595"><ele>1721.49</ele></trkpt><trkpt lat="39.770082" lon="-105.198519"><ele>1721.10</ele></trkpt><trkpt lat="39.770080" lon="-105.198450"><ele>1720.79</ele></trkpt><trkpt lat="39.770070" lon="-105.198399"><ele>1720.57</ele></trkpt><trkpt lat="39.770051" lon="-105.198352"><ele>1720.38</ele></trkpt><trkpt lat="39.770024" lon="-105.198310"><ele>1720.20</ele></trkpt><trkpt lat="39.769953" lon="-105.198239"><ele>1719.88</ele></trkpt><trkpt lat="39.769915" lon="-105.198239"><ele>1719.78</ele></trkpt><trkpt lat="39.769890" lon="-105.198264"><ele>1719.71</ele></trkpt><trkpt lat="39.769874" lon="-105.198301"><ele>1719.65</ele></trkpt><trkpt lat="39.769864" lon="-105.198369"><ele>1719.57</ele></trkpt><trkpt lat="39.769870" lon="-105.198568"><ele>1719.52</ele></trkpt><trkpt lat="39.769869" lon="-105.198672"><ele>1719.57</ele></trkpt><trkpt lat="39.769858" lon="-105.198742"><ele>1719.63</ele></trkpt><trkpt lat="39.769824" lon="-105.198853"><ele>1719.76</ele></trkpt><trkpt lat="39.769791" lon="-105.198938"><ele>1719.88</ele></trkpt><trkpt lat="39.769663" lon="-105.199210"><ele>1720.26</ele></trkpt><trkpt lat="39.769583" lon="-105.199436"><ele>1720.46</ele></trkpt><trkpt lat="39.769546" lon="-105.199490"><ele>1720.50</ele></trkpt><trkpt lat="39.769449" lon="-105.199588"><ele>1720.59</ele></trkpt><trkpt lat="39.769412" lon="-105.199654"><ele>1720.64</ele></trkpt><trkpt lat="39.769377" lon="-105.199762"><ele>1720.71</ele></trkpt><trkpt lat="39.769306" lon="-105.199980"><ele>1720.91</ele></trkpt><trkpt lat="39.769234" lon="-105.200197"><ele>1721.15</ele></trkpt><trkpt lat="39.769163" lon="-105.200415"><ele>1721.48</ele></trkpt><trkpt lat="39.769155" lon="-105.200452"><ele>1721.54</ele></trkpt><trkpt lat="39.769148" lon="-105.200524"><ele>1721.68</ele></trkpt><trkpt lat="39.769141" lon="-105.200844"><ele>1722.40</ele></trkpt><trkpt lat="39.769128" lon="-105.200956"><ele>1722.69</ele></trkpt><trkpt lat="39.769007" lon="-105.201587"><ele>1724.30</ele></trkpt><trkpt lat="39.768946" lon="-105.201902"><ele>1725.12</ele></trkpt><trkpt lat="39.768904" lon="-105.202081"><ele>1725.64</ele></trkpt><trkpt lat="39.768887" lon="-105.202366"><ele>1726.49</ele></trkpt><trkpt lat="39.769067" lon="-105.202121"><ele>1727.18</ele></trkpt><trkpt lat="39.769083" lon="-105.202067"><ele>1727.31</ele></trkpt><trkpt lat="39.769161" lon="-105.201522"><ele>1728.80</ele></trkpt><trkpt lat="39.769267" lon="-105.200992"><ele>1730.40</ele></trkpt><trkpt lat="39.769280" lon="-105.200875"><ele>1730.74</ele></trkpt><trkpt lat="39.769286" lon="-105.200759"><ele>1731.07</ele></trkpt><trkpt lat="39.769264" lon="-105.200446"><ele>1731.41</ele></trkpt><trkpt lat="39.769246" lon="-105.200311"><ele>1730.97</ele></trkpt><trkpt lat="39.769214" lon="-105.200105"><ele>1730.17</ele></trkpt><trkpt lat="39.769197" lon="-105.200002"><ele>1729.67</ele></trkpt><trkpt lat="39.769028" lon="-105.198924"><ele>1722.65</ele></trkpt><trkpt lat="39.768997" lon="-105.198697"><ele>1721.14</ele></trkpt><trkpt lat="39.768931" lon="-105.198129"><ele>1717.56</ele></trkpt><trkpt lat="39.768921" lon="-105.197690"><ele>1715.46</ele></trkpt><trkpt lat="39.768937" lon="-105.196902"><ele>1712.11</ele></trkpt><trkpt lat="39.768940" lon="-105.196790"><ele>1711.74</ele></trkpt><trkpt lat="39.768953" lon="-105.196562"><ele>1711.13</ele></trkpt><trkpt lat="39.768983" lon="-105.196048"><ele>1710.18</ele></trkpt><trkpt lat="39.769073" lon="-105.194508"><ele>1707.57</ele></trkpt><trkpt lat="39.769103" lon="-105.193995"><ele>1706.69</ele></trkpt><trkpt lat="39.769133" lon="-105.193482"><ele>1705.82</ele></trkpt><trkpt lat="39.769163" lon="-105.192968"><ele>1704.94</ele></trkpt><trkpt lat="39.769193" lon="-105.192455"><ele>1704.14</ele></trkpt><trkpt lat="39.769240" lon="-105.191853"><ele>1703.54</ele></trkpt><trkpt lat="39.769301" lon="-105.191399"><ele>1703.20</ele></trkpt><trkpt lat="39.769400" lon="-105.190884"><ele>1702.80</ele></trkpt><trkpt lat="39.769445" lon="-105.190685"><ele>1702.63</ele></trkpt><trkpt lat="39.769570" lon="-105.190213"><ele>1702.20</ele></trkpt><trkpt lat="39.769724" lon="-105.189735"><ele>1701.62</ele></trkpt><trkpt lat="39.770033" lon="-105.188778"><ele>1700.40</ele></trkpt><trkpt lat="39.770188" lon="-105.188300"><ele>1699.79</ele></trkpt><trkpt lat="39.770342" lon="-105.187822"><ele>1699.18</ele></trkpt><trkpt lat="39.770497" lon="-105.187344"><ele>1698.57</ele></trkpt><trkpt lat="39.770651" lon="-105.186865"><ele>1697.95</ele></trkpt><trkpt lat="39.770805" lon="-105.186387"><ele>1697.34</ele></trkpt><trkpt lat="39.770960" lon="-105.185909"><ele>1696.71</ele></trkpt><trkpt lat="39.771309" lon="-105.184661"><ele>1695.06</ele></trkpt><trkpt lat="39.771585" lon="-105.183432"><ele>1693.82</ele></trkpt><trkpt lat="39.771628" lon="-105.183215"><ele>1693.63</ele></trkpt><trkpt lat="39.771739" lon="-105.182581"><ele>1693.08</ele></trkpt><trkpt lat="39.771754" lon="-105.182465"><ele>1692.98</ele></trkpt><trkpt lat="39.771803" lon="-105.182069"><ele>1692.63</ele></trkpt><trkpt lat="39.772240" lon="-105.178503"><ele>1689.48</ele></trkpt><trkpt lat="39.772289" lon="-105.178107"><ele>1689.18</ele></trkpt><trkpt lat="39.772299" lon="-105.177712"><ele>1689.11</ele></trkpt><trkpt lat="39.772274" lon="-105.176725"><ele>1689.84</ele></trkpt><trkpt lat="39.772280" lon="-105.176662"><ele>1689.93</ele></trkpt><trkpt lat="39.772311" lon="-105.176568"><ele>1690.10</ele></trkpt><trkpt lat="39.772315" lon="-105.176493"><ele>1690.24</ele></trkpt><trkpt lat="39.772293" lon="-105.176030"><ele>1691.32</ele></trkpt><trkpt lat="39.772278" lon="-105.175926"><ele>1691.59</ele></trkpt><trkpt lat="39.772242" lon="-105.175784"><ele>1691.98</ele></trkpt><trkpt lat="39.772231" lon="-105.175715"><ele>1692.16</ele></trkpt><trkpt lat="39.772214" lon="-105.175317"><ele>1693.13</ele></trkpt><trkpt lat="39.772218" lon="-105.175267"><ele>1693.24</ele></trkpt><trkpt lat="39.772227" lon="-105.175227"><ele>1693.32</ele></trkpt><trkpt lat="39.772305" lon="-105.175038"><ele>1693.61</ele></trkpt><trkpt lat="39.772308" lon="-105.175012"><ele>1693.63</ele></trkpt><trkpt lat="39.772306" lon="-105.174997"><ele>1693.64</ele></trkpt><trkpt lat="39.772277" lon="-105.174939"><ele>1693.67</ele></trkpt><trkpt lat="39.772223" lon="-105.174890"><ele>1693.67</ele></trkpt><trkpt lat="39.772158" lon="-105.174857"><ele>1693.63</ele></trkpt><trkpt lat="39.771769" lon="-105.174841"><ele>1692.97</ele></trkpt><trkpt lat="39.771110" lon="-105.174859"><ele>1691.52</ele></trkpt><trkpt lat="39.770930" lon="-105.174851"><ele>1691.18</ele></trkpt><trkpt lat="39.770571" lon="-105.174836"><ele>1690.56</ele></trkpt><trkpt lat="39.770211" lon="-105.174821"><ele>1689.91</ele></trkpt><trkpt lat="39.769883" lon="-105.174823"><ele>1689.22</ele></trkpt><trkpt lat="39.769389" lon="-105.174827"><ele>1688.12</ele></trkpt><trkpt lat="39.769225" lon="-105.174828"><ele>1687.77</ele></trkpt><trkpt lat="39.769060" lon="-105.174830"><ele>1687.50</ele></trkpt><trkpt lat="39.768810" lon="-105.174822"><ele>1687.30</ele></trkpt><trkpt lat="39.768310" lon="-105.174806"><ele>1687.15</ele></trkpt><trkpt lat="39.768060" lon="-105.174798"><ele>1687.09</ele></trkpt><trkpt lat="39.767810" lon="-105.174790"><ele>1687.19</ele></trkpt><trkpt lat="39.767557" lon="-105.174791"><ele>1687.58</ele></trkpt><trkpt lat="39.767052" lon="-105.174793"><ele>1688.64</ele></trkpt><trkpt lat="39.766546" lon="-105.174794"><ele>1689.71</ele></trkpt><trkpt lat="39.766294" lon="-105.174795"><ele>1690.25</ele></trkpt><trkpt lat="39.765788" lon="-105.174796"><ele>1691.33</ele></trkpt><trkpt lat="39.765536" lon="-105.174797"><ele>1691.87</ele></trkpt><trkpt lat="39.765030" lon="-105.174798"><ele>1692.96</ele></trkpt><trkpt lat="39.764525" lon="-105.174800"><ele>1694.06</ele></trkpt><trkpt lat="39.764020" lon="-105.174801"><ele>1695.17</ele></trkpt><trkpt lat="39.763514" lon="-105.174803"><ele>1696.29</ele></trkpt><trkpt lat="39.763009" lon="-105.174804"><ele>1697.43</ele></trkpt><trkpt lat="39.762503" lon="-105.174806"><ele>1698.55</ele></trkpt><trkpt lat="39.761998" lon="-105.174807"><ele>1699.67</ele></trkpt><trkpt lat="39.761745" lon="-105.174808"><ele>1700.24</ele></trkpt><trkpt lat="39.761493" lon="-105.174809"><ele>1700.79</ele></trkpt><trkpt lat="39.761240" lon="-105.174809"><ele>1701.18</ele></trkpt><trkpt lat="39.761200" lon="-105.174773"><ele>1701.21</ele></trkpt><trkpt lat="39.761183" lon="-105.174724"><ele>1701.22</ele></trkpt><trkpt lat="39.761138" lon="-105.174283"><ele>1700.96</ele></trkpt><trkpt lat="39.761131" lon="-105.174078"><ele>1700.78</ele></trkpt><trkpt lat="39.761001" lon="-105.171929"><ele>1699.49</ele></trkpt><trkpt lat="39.760992" lon="-105.171259"><ele>1698.73</ele></trkpt><trkpt lat="39.761022" lon="-105.170937"><ele>1698.40</ele></trkpt><trkpt lat="39.761050" lon="-105.170775"><ele>1698.24</ele></trkpt><trkpt lat="39.761131" lon="-105.170447"><ele>1697.91</ele></trkpt><trkpt lat="39.761294" lon="-105.169790"><ele>1697.20</ele></trkpt><trkpt lat="39.761376" lon="-105.169461"><ele>1696.85</ele></trkpt><trkpt lat="39.761457" lon="-105.169133"><ele>1696.49</ele></trkpt><trkpt lat="39.761538" lon="-105.168804"><ele>1696.14</ele></trkpt><trkpt lat="39.761620" lon="-105.168475"><ele>1695.77</ele></trkpt><trkpt lat="39.761648" lon="-105.168302"><ele>1695.56</ele></trkpt><trkpt lat="39.761680" lon="-105.167452"><ele>1694.42</ele></trkpt><trkpt lat="39.761682" lon="-105.167097"><ele>1693.98</ele></trkpt><trkpt lat="39.761686" lon="-105.166565"><ele>1693.36</ele></trkpt><trkpt lat="39.761688" lon="-105.166388"><ele>1693.15</ele></trkpt><trkpt lat="39.761694" lon="-105.165501"><ele>1692.10</ele></trkpt><trkpt lat="39.761697" lon="-105.165147"><ele>1691.69</ele></trkpt><trkpt lat="39.761703" lon="-105.164260"><ele>1690.64</ele></trkpt><trkpt lat="39.761705" lon="-105.164083"><ele>1690.43</ele></trkpt><trkpt lat="39.761712" lon="-105.163019"><ele>1689.17</ele></trkpt><trkpt lat="39.761714" lon="-105.162841"><ele>1688.96</ele></trkpt><trkpt lat="39.761718" lon="-105.162309"><ele>1688.34</ele></trkpt><trkpt lat="39.761722" lon="-105.161777"><ele>1687.71</ele></trkpt><trkpt lat="39.761726" lon="-105.161245"><ele>1687.09</ele></trkpt><trkpt lat="39.761730" lon="-105.160713"><ele>1686.46</ele></trkpt><trkpt lat="39.761733" lon="-105.160181"><ele>1685.83</ele></trkpt><trkpt lat="39.761737" lon="-105.159649"><ele>1685.24</ele></trkpt><trkpt lat="39.761742" lon="-105.159189"><ele>1684.91</ele></trkpt><trkpt lat="39.761745" lon="-105.159012"><ele>1684.87</ele></trkpt><trkpt lat="39.761748" lon="-105.158836"><ele>1684.86</ele></trkpt><trkpt lat="39.761754" lon="-105.158483"><ele>1684.87</ele></trkpt><trkpt lat="39.761763" lon="-105.157954"><ele>1684.89</ele></trkpt><trkpt lat="39.761772" lon="-105.157425"><ele>1684.91</ele></trkpt><trkpt lat="39.761778" lon="-105.157072"><ele>1684.93</ele></trkpt><trkpt lat="39.761773" lon="-105.156950"><ele>1684.94</ele></trkpt><trkpt lat="39.761764" lon="-105.156892"><ele>1684.94</ele></trkpt><trkpt lat="39.761748" lon="-105.156833"><ele>1684.94</ele></trkpt><trkpt lat="39.761697" lon="-105.156691"><ele>1684.95</ele></trkpt><trkpt lat="39.761688" lon="-105.156631"><ele>1684.95</ele></trkpt><trkpt lat="39.761691" lon="-105.156600"><ele>1684.95</ele></trkpt><trkpt lat="39.761714" lon="-105.156508"><ele>1684.94</ele></trkpt><trkpt lat="39.761726" lon="-105.156432"><ele>1684.93</ele></trkpt><trkpt lat="39.761762" lon="-105.155944"><ele>1684.86</ele></trkpt><trkpt lat="39.761779" lon="-105.155700"><ele>1684.85</ele></trkpt><trkpt lat="39.761781" lon="-105.155584"><ele>1684.85</ele></trkpt><trkpt lat="39.761782" lon="-105.155339"><ele>1684.87</ele></trkpt><trkpt lat="39.761801" lon="-105.152518"><ele>1685.33</ele></trkpt><trkpt lat="39.761803" lon="-105.152150"><ele>1685.39</ele></trkpt><trkpt lat="39.761817" lon="-105.149943"><ele>1685.75</ele></trkpt><trkpt lat="39.761824" lon="-105.148961"><ele>1685.91</ele></trkpt><trkpt lat="39.761825" lon="-105.148839"><ele>1685.93</ele></trkpt><trkpt lat="39.761829" lon="-105.148226"><ele>1686.04</ele></trkpt><trkpt lat="39.761834" lon="-105.147367"><ele>1686.18</ele></trkpt><trkpt lat="39.761838" lon="-105.146754"><ele>1686.29</ele></trkpt><trkpt lat="39.761839" lon="-105.146631"><ele>1686.32</ele></trkpt><trkpt lat="39.761845" lon="-105.145650"><ele>1686.48</ele></trkpt><trkpt lat="39.761846" lon="-105.145527"><ele>1686.50</ele></trkpt><trkpt lat="39.761849" lon="-105.145037"><ele>1686.53</ele></trkpt><trkpt lat="39.761848" lon="-105.144916"><ele>1686.51</ele></trkpt><trkpt lat="39.761801" lon="-105.144442"><ele>1686.32</ele></trkpt><trkpt lat="39.761780" lon="-105.143670"><ele>1685.71</ele></trkpt><trkpt lat="39.761780" lon="-105.143183"><ele>1685.32</ele></trkpt><trkpt lat="39.761784" lon="-105.143020"><ele>1685.19</ele></trkpt><trkpt lat="39.761851" lon="-105.142588"><ele>1684.79</ele></trkpt><trkpt lat="39.761861" lon="-105.142482"><ele>1684.64</ele></trkpt><trkpt lat="39.761863" lon="-105.142364"><ele>1684.45</ele></trkpt><trkpt lat="39.761867" lon="-105.142197"><ele>1684.13</ele></trkpt><trkpt lat="39.761877" lon="-105.141697"><ele>1683.05</ele></trkpt><trkpt lat="39.761883" lon="-105.141363"><ele>1682.34</ele></trkpt><trkpt lat="39.761886" lon="-105.141196"><ele>1681.93</ele></trkpt><trkpt lat="39.761890" lon="-105.141029"><ele>1681.43</ele></trkpt><trkpt lat="39.761888" lon="-105.140824"><ele>1680.63</ele></trkpt><trkpt lat="39.761887" lon="-105.140618"><ele>1679.68</ele></trkpt><trkpt lat="39.761886" lon="-105.140412"><ele>1678.66</ele></trkpt><trkpt lat="39.761884" lon="-105.140206"><ele>1677.60</ele></trkpt><trkpt lat="39.761883" lon="-105.140001"><ele>1676.47</ele></trkpt><trkpt lat="39.761885" lon="-105.139741"><ele>1675.00</ele></trkpt><trkpt lat="39.761876" lon="-105.139704"><ele>1674.78</ele></trkpt><trkpt lat="39.761867" lon="-105.139690"><ele>1674.68</ele></trkpt><trkpt lat="39.761807" lon="-105.139645"><ele>1674.19</ele></trkpt><trkpt lat="39.761799" lon="-105.139628"><ele>1674.09</ele></trkpt><trkpt lat="39.761795" lon="-105.139608"><ele>1673.98</ele></trkpt><trkpt lat="39.761794" lon="-105.139585"><ele>1673.87</ele></trkpt><trkpt lat="39.761800" lon="-105.139398"><ele>1673.03</ele></trkpt><trkpt lat="39.761802" lon="-105.139200"><ele>1672.43</ele></trkpt><trkpt lat="39.761803" lon="-105.139002"><ele>1672.16</ele></trkpt><trkpt lat="39.761804" lon="-105.138803"><ele>1672.14</ele></trkpt><trkpt lat="39.761808" lon="-105.138209"><ele>1672.34</ele></trkpt><trkpt lat="39.761810" lon="-105.137813"><ele>1672.47</ele></trkpt><trkpt lat="39.761814" lon="-105.137020"><ele>1672.75</ele></trkpt><trkpt lat="39.761815" lon="-105.136822"><ele>1672.82</ele></trkpt><trkpt lat="39.761819" lon="-105.136030"><ele>1673.09</ele></trkpt><trkpt lat="39.761820" lon="-105.135832"><ele>1673.16</ele></trkpt><trkpt lat="39.761824" lon="-105.135039"><ele>1673.44</ele></trkpt><trkpt lat="39.761825" lon="-105.134841"><ele>1673.50</ele></trkpt><trkpt lat="39.761829" lon="-105.134049"><ele>1673.78</ele></trkpt><trkpt lat="39.761830" lon="-105.133850"><ele>1673.85</ele></trkpt><trkpt lat="39.761834" lon="-105.133058"><ele>1674.12</ele></trkpt><trkpt lat="39.761835" lon="-105.132860"><ele>1674.19</ele></trkpt><trkpt lat="39.761839" lon="-105.132067"><ele>1674.47</ele></trkpt><trkpt lat="39.761841" lon="-105.131671"><ele>1674.60</ele></trkpt><trkpt lat="39.761844" lon="-105.131077"><ele>1674.81</ele></trkpt><trkpt lat="39.761845" lon="-105.130879"><ele>1674.88</ele></trkpt><trkpt lat="39.761849" lon="-105.130086"><ele>1675.15</ele></trkpt><trkpt lat="39.761850" lon="-105.129888"><ele>1675.22</ele></trkpt><trkpt lat="39.761854" lon="-105.129096"><ele>1675.50</ele></trkpt><trkpt lat="39.761857" lon="-105.128699"><ele>1675.63</ele></trkpt><trkpt lat="39.761859" lon="-105.128105"><ele>1675.84</ele></trkpt><trkpt lat="39.761861" lon="-105.127907"><ele>1675.91</ele></trkpt><trkpt lat="39.761864" lon="-105.127313"><ele>1676.12</ele></trkpt><trkpt lat="39.761866" lon="-105.126916"><ele>1676.25</ele></trkpt><trkpt lat="39.761870" lon="-105.126124"><ele>1676.53</ele></trkpt><trkpt lat="39.761871" lon="-105.125926"><ele>1676.60</ele></trkpt><trkpt lat="39.761875" lon="-105.125133"><ele>1676.87</ele></trkpt><trkpt lat="39.761876" lon="-105.124935"><ele>1676.94</ele></trkpt><trkpt lat="39.761879" lon="-105.124341"><ele>1677.15</ele></trkpt><trkpt lat="39.761881" lon="-105.123945"><ele>1677.28</ele></trkpt><trkpt lat="39.761885" lon="-105.123152"><ele>1677.56</ele></trkpt><trkpt lat="39.761886" lon="-105.122954"><ele>1677.63</ele></trkpt><trkpt lat="39.761890" lon="-105.122162"><ele>1677.90</ele></trkpt><trkpt lat="39.761891" lon="-105.121964"><ele>1677.97</ele></trkpt><trkpt lat="39.761895" lon="-105.121171"><ele>1678.25</ele></trkpt><trkpt lat="39.761896" lon="-105.120973"><ele>1678.31</ele></trkpt><trkpt lat="39.761900" lon="-105.120181"><ele>1678.59</ele></trkpt><trkpt lat="39.761901" lon="-105.119982"><ele>1678.66</ele></trkpt><trkpt lat="39.761905" lon="-105.119190"><ele>1678.93</ele></trkpt><trkpt lat="39.761907" lon="-105.118794"><ele>1679.07</ele></trkpt><trkpt lat="39.761910" lon="-105.118199"><ele>1679.32</ele></trkpt><trkpt lat="39.761913" lon="-105.117803"><ele>1679.52</ele></trkpt><trkpt lat="39.761915" lon="-105.117407"><ele>1679.73</ele></trkpt><trkpt lat="39.761917" lon="-105.117011"><ele>1679.95</ele></trkpt><trkpt lat="39.761921" lon="-105.116218"><ele>1680.37</ele></trkpt><trkpt lat="39.761922" lon="-105.116020"><ele>1680.48</ele></trkpt><trkpt lat="39.761926" lon="-105.115228"><ele>1680.90</ele></trkpt><trkpt lat="39.761928" lon="-105.114831"><ele>1681.11</ele></trkpt><trkpt lat="39.761929" lon="-105.114633"><ele>1681.28</ele></trkpt><trkpt lat="39.761933" lon="-105.114482"><ele>1681.49</ele></trkpt><trkpt lat="39.761957" lon="-105.114371"><ele>1681.70</ele></trkpt><trkpt lat="39.761963" lon="-105.114275"><ele>1681.90</ele></trkpt><trkpt lat="39.761966" lon="-105.114104"><ele>1682.33</ele></trkpt><trkpt lat="39.761972" lon="-105.113763"><ele>1683.27</ele></trkpt><trkpt lat="39.761982" lon="-105.113250"><ele>1684.70</ele></trkpt><trkpt lat="39.761991" lon="-105.112737"><ele>1686.10</ele></trkpt><trkpt lat="39.761994" lon="-105.112567"><ele>1686.56</ele></trkpt><trkpt lat="39.762004" lon="-105.112054"><ele>1687.92</ele></trkpt><trkpt lat="39.762013" lon="-105.111541"><ele>1689.25</ele></trkpt><trkpt lat="39.762017" lon="-105.111371"><ele>1689.68</ele></trkpt><trkpt lat="39.762020" lon="-105.111200"><ele>1690.07</ele></trkpt><trkpt lat="39.762019" lon="-105.111017"><ele>1690.47</ele></trkpt><trkpt lat="39.762017" lon="-105.110469"><ele>1691.55</ele></trkpt><trkpt lat="39.762016" lon="-105.110286"><ele>1691.92</ele></trkpt><trkpt lat="39.762013" lon="-105.109738"><ele>1693.04</ele></trkpt><trkpt lat="39.762012" lon="-105.109555"><ele>1693.40</ele></trkpt><trkpt lat="39.762012" lon="-105.109373"><ele>1693.71</ele></trkpt><trkpt lat="39.762010" lon="-105.109031"><ele>1694.03</ele></trkpt><trkpt lat="39.762012" lon="-105.108681"><ele>1693.97</ele></trkpt><trkpt lat="39.762014" lon="-105.108340"><ele>1693.71</ele></trkpt><trkpt lat="39.762016" lon="-105.107999"><ele>1693.41</ele></trkpt><trkpt lat="39.762020" lon="-105.107318"><ele>1692.76</ele></trkpt><trkpt lat="39.762024" lon="-105.106636"><ele>1692.08</ele></trkpt><trkpt lat="39.762028" lon="-105.105955"><ele>1691.38</ele></trkpt><trkpt lat="39.762030" lon="-105.105614"><ele>1691.03</ele></trkpt><trkpt lat="39.762038" lon="-105.104251"><ele>1689.59</ele></trkpt><trkpt lat="39.762040" lon="-105.103910"><ele>1689.22</ele></trkpt><trkpt lat="39.762032" lon="-105.102399"><ele>1687.54</ele></trkpt><trkpt lat="39.762033" lon="-105.102157"><ele>1687.13</ele></trkpt><trkpt lat="39.762038" lon="-105.102122"><ele>1687.06</ele></trkpt><trkpt lat="39.762057" lon="-105.102084"><ele>1686.96</ele></trkpt><trkpt lat="39.762075" lon="-105.102066"><ele>1686.89</ele></trkpt><trkpt lat="39.762208" lon="-105.102049"><ele>1686.45</ele></trkpt><trkpt lat="39.762389" lon="-105.102048"><ele>1685.78</ele></trkpt><trkpt lat="39.762931" lon="-105.102044"><ele>1683.67</ele></trkpt><trkpt lat="39.763112" lon="-105.102043"><ele>1682.95</ele></trkpt><trkpt lat="39.763655" lon="-105.102040"><ele>1680.82</ele></trkpt><trkpt lat="39.764378" lon="-105.102035"><ele>1678.01</ele></trkpt><trkpt lat="39.764740" lon="-105.102033"><ele>1676.64</ele></trkpt><trkpt lat="39.764921" lon="-105.102032"><ele>1675.94</ele></trkpt><trkpt lat="39.765102" lon="-105.102031"><ele>1675.15</ele></trkpt><trkpt lat="39.765602" lon="-105.102038"><ele>1672.41</ele></trkpt><trkpt lat="39.765977" lon="-105.102010"><ele>1670.23</ele></trkpt><trkpt lat="39.766074" lon="-105.102010"><ele>1669.69</ele></trkpt><trkpt lat="39.766270" lon="-105.102010"><ele>1668.66</ele></trkpt><trkpt lat="39.766563" lon="-105.102010"><ele>1667.15</ele></trkpt><trkpt lat="39.767052" lon="-105.102010"><ele>1664.65</ele></trkpt><trkpt lat="39.767247" lon="-105.102010"><ele>1663.67</ele></trkpt><trkpt lat="39.767345" lon="-105.102010"><ele>1663.21</ele></trkpt><trkpt lat="39.767464" lon="-105.102020"><ele>1662.70</ele></trkpt><trkpt lat="39.767492" lon="-105.102040"><ele>1662.58</ele></trkpt><trkpt lat="39.767509" lon="-105.102073"><ele>1662.47</ele></trkpt><trkpt lat="39.767518" lon="-105.102123"><ele>1662.33</ele></trkpt><trkpt lat="39.767520" lon="-105.102181"><ele>1662.19</ele></trkpt><trkpt lat="39.767520" lon="-105.102309"><ele>1661.90</ele></trkpt><trkpt lat="39.767520" lon="-105.102564"><ele>1661.43</ele></trkpt><trkpt lat="39.767520" lon="-105.102946"><ele>1660.79</ele></trkpt><trkpt lat="39.767520" lon="-105.103328"><ele>1660.14</ele></trkpt><trkpt lat="39.767520" lon="-105.104093"><ele>1658.83</ele></trkpt><trkpt lat="39.767520" lon="-105.104348"><ele>1658.39</ele></trkpt><trkpt lat="39.767520" lon="-105.104730"><ele>1657.77</ele></trkpt><trkpt lat="39.767522" lon="-105.104855"><ele>1657.59</ele></trkpt><trkpt lat="39.767533" lon="-105.104903"><ele>1657.53</ele></trkpt><trkpt lat="39.767560" lon="-105.104940"><ele>1657.47</ele></trkpt><trkpt lat="39.767587" lon="-105.104954"><ele>1657.43</ele></trkpt><trkpt lat="39.767695" lon="-105.104961"><ele>1657.31</ele></trkpt><trkpt lat="39.767796" lon="-105.104962"><ele>1657.23</ele></trkpt><trkpt lat="39.767948" lon="-105.104963"><ele>1657.15</ele></trkpt><trkpt lat="39.768605" lon="-105.104969"><ele>1656.90</ele></trkpt><trkpt lat="39.768656" lon="-105.104970"><ele>1656.89</ele></trkpt><trkpt lat="39.769061" lon="-105.104974"><ele>1656.73</ele></trkpt><trkpt lat="39.769263" lon="-105.104976"><ele>1656.56</ele></trkpt><trkpt lat="39.769307" lon="-105.105008"><ele>1656.49</ele></trkpt><trkpt lat="39.769326" lon="-105.105058"><ele>1656.42</ele></trkpt><trkpt lat="39.769332" lon="-105.105435"><ele>1655.67</ele></trkpt><trkpt lat="39.769338" lon="-105.105469"><ele>1655.57</ele></trkpt><trkpt lat="39.769370" lon="-105.105520"><ele>1655.37</ele></trkpt><trkpt lat="39.769412" lon="-105.105538"><ele>1655.19</ele></trkpt><trkpt lat="39.769506" lon="-105.105538"><ele>1654.75</ele></trkpt><trkpt lat="39.769695" lon="-105.105539"><ele>1653.80</ele></trkpt><trkpt lat="39.770167" lon="-105.105541"><ele>1651.31</ele></trkpt><trkpt lat="39.770544" lon="-105.105543"><ele>1649.33</ele></trkpt><trkpt lat="39.770922" lon="-105.105545"><ele>1647.36</ele></trkpt><trkpt lat="39.771394" lon="-105.105547"><ele>1644.91</ele></trkpt><trkpt lat="39.771677" lon="-105.105549"><ele>1643.43</ele></trkpt><trkpt lat="39.772148" lon="-105.105551"><ele>1640.97</ele></trkpt><trkpt lat="39.772715" lon="-105.105554"><ele>1637.97</ele></trkpt><trkpt lat="39.773186" lon="-105.105556"><ele>1635.47</ele></trkpt><trkpt lat="39.773469" lon="-105.105557"><ele>1633.97</ele></trkpt><trkpt lat="39.773658" lon="-105.105558"><ele>1633.07</ele></trkpt><trkpt lat="39.773753" lon="-105.105559"><ele>1632.70</ele></trkpt><trkpt lat="39.774125" lon="-105.105526"><ele>1631.76</ele></trkpt><trkpt lat="39.774218" lon="-105.105506"><ele>1631.61</ele></trkpt><trkpt lat="39.774324" lon="-105.105452"><ele>1631.49</ele></trkpt><trkpt lat="39.774452" lon="-105.105320"><ele>1631.45</ele></trkpt><trkpt lat="39.774516" lon="-105.105285"><ele>1631.47</ele></trkpt><trkpt lat="39.774653" lon="-105.105302"><ele>1631.54</ele></trkpt><trkpt lat="39.774721" lon="-105.105332"><ele>1631.58</ele></trkpt><trkpt lat="39.774931" lon="-105.105524"><ele>1631.77</ele></trkpt><trkpt lat="39.775039" lon="-105.105645"><ele>1631.87</ele></trkpt><trkpt lat="39.775082" lon="-105.105667"><ele>1631.90</ele></trkpt><trkpt lat="39.775112" lon="-105.105658"><ele>1631.92</ele></trkpt><trkpt lat="39.775178" lon="-105.105604"><ele>1631.97</ele></trkpt><trkpt lat="39.775335" lon="-105.105589"><ele>1632.05</ele></trkpt><trkpt lat="39.775761" lon="-105.105586"><ele>1632.18</ele></trkpt><trkpt lat="39.776044" lon="-105.105584"><ele>1632.26</ele></trkpt><trkpt lat="39.776469" lon="-105.105580"><ele>1632.37</ele></trkpt><trkpt lat="39.776753" lon="-105.105578"><ele>1632.46</ele></trkpt><trkpt lat="39.777178" lon="-105.105574"><ele>1632.58</ele></trkpt><trkpt lat="39.777320" lon="-105.105573"><ele>1632.63</ele></trkpt><trkpt lat="39.777887" lon="-105.105569"><ele>1632.79</ele></trkpt><trkpt lat="39.778029" lon="-105.105568"><ele>1632.79</ele></trkpt><trkpt lat="39.778081" lon="-105.105539"><ele>1632.78</ele></trkpt><trkpt lat="39.778095" lon="-105.105516"><ele>1632.78</ele></trkpt><trkpt lat="39.778107" lon="-105.105463"><ele>1632.76</ele></trkpt><trkpt lat="39.778106" lon="-105.105318"><ele>1632.71</ele></trkpt><trkpt lat="39.778104" lon="-105.104884"><ele>1632.45</ele></trkpt><trkpt lat="39.778102" lon="-105.104376"><ele>1632.13</ele></trkpt><trkpt lat="39.778204" lon="-105.104038"><ele>1631.75</ele></trkpt></trkseg></trk></gpx>