<?xml version="1.0" encoding="UTF-8"?>
<gpx version="1.1" creator="GPX Segmenter" xmlns="http://www.topografix.com/GPX/1/1">
  <trk>
    <name>Baja - Segment 17 of 49</name>
    <trkseg>
      <trkpt lat="29.536730" lon="-114.508820">
        <ele>785.5</ele>
      </trkpt>
      <trkpt lat="29.535960" lon="-114.508440">
        <ele>785.0</ele>
      </trkpt>
      <trkpt lat="29.535180" lon="-114.508060">
        <ele>783.1</ele>
      </trkpt>
      <trkpt lat="29.534400" lon="-114.507690">
        <ele>779.6</ele>
      </trkpt>
      <trkpt lat="29.533620" lon="-114.507310">
        <ele>774.7</ele>
      </trkpt>
      <trkpt lat="29.532840" lon="-114.506930">
        <ele>770.2</ele>
      </trkpt>
      <trkpt lat="29.532060" lon="-114.506560">
        <ele>766.6</ele>
      </trkpt>
      <trkpt lat="29.531290" lon="-114.506180">
        <ele>764.4</ele>
      </trkpt>
      <trkpt lat="29.530510" lon="-114.505810">
        <ele>763.4</ele>
      </trkpt>
      <trkpt lat="29.529730" lon="-114.505430">
        <ele>763.6</ele>
      </trkpt>
      <trkpt lat="29.528950" lon="-114.505050">
        <ele>760.9</ele>
      </trkpt>
      <trkpt lat="29.528170" lon="-114.504680">
        <ele>757.7</ele>
      </trkpt>
      <trkpt lat="29.527350" lon="-114.504290">
        <ele>755.9</ele>
      </trkpt>
      <trkpt lat="29.526520" lon="-114.503910">
        <ele>755.0</ele>
      </trkpt>
      <trkpt lat="29.525700" lon="-114.503530">
        <ele>755.0</ele>
      </trkpt>
      <trkpt lat="29.524880" lon="-114.503140">
        <ele>756.1</ele>
      </trkpt>
      <trkpt lat="29.524060" lon="-114.502760">
        <ele>758.8</ele>
      </trkpt>
      <trkpt lat="29.523240" lon="-114.502370">
        <ele>760.4</ele>
      </trkpt>
      <trkpt lat="29.522420" lon="-114.501990">
        <ele>762.0</ele>
      </trkpt>
      <trkpt lat="29.521600" lon="-114.501610">
        <ele>761.0</ele>
      </trkpt>
      <trkpt lat="29.520780" lon="-114.501220">
        <ele>760.0</ele>
      </trkpt>
      <trkpt lat="29.519960" lon="-114.500840">
        <ele>757.8</ele>
      </trkpt>
      <trkpt lat="29.519140" lon="-114.500460">
        <ele>755.0</ele>
      </trkpt>
      <trkpt lat="29.518400" lon="-114.500140">
        <ele>756.4</ele>
      </trkpt>
      <trkpt lat="29.517670" lon="-114.499830">
        <ele>759.2</ele>
      </trkpt>
      <trkpt lat="29.516940" lon="-114.499520">
        <ele>761.5</ele>
      </trkpt>
      <trkpt lat="29.516310" lon="-114.499270">
        <ele>763.4</ele>
      </trkpt>
      <trkpt lat="29.515680" lon="-114.499020">
        <ele>764.6</ele>
      </trkpt>
      <trkpt lat="29.515050" lon="-114.498770">
        <ele>766.3</ele>
      </trkpt>
      <trkpt lat="29.514240" lon="-114.498480">
        <ele>770.2</ele>
      </trkpt>
      <trkpt lat="29.513440" lon="-114.498180">
        <ele>772.3</ele>
      </trkpt>
      <trkpt lat="29.512640" lon="-114.497890">
        <ele>769.7</ele>
      </trkpt>
      <trkpt lat="29.511890" lon="-114.497610">
        <ele>765.3</ele>
      </trkpt>
      <trkpt lat="29.511150" lon="-114.497340">
        <ele>761.8</ele>
      </trkpt>
      <trkpt lat="29.510400" lon="-114.497060">
        <ele>757.9</ele>
      </trkpt>
      <trkpt lat="29.509620" lon="-114.496780">
        <ele>755.7</ele>
      </trkpt>
      <trkpt lat="29.508840" lon="-114.496490">
        <ele>756.0</ele>
      </trkpt>
      <trkpt lat="29.508270" lon="-114.496260">
        <ele>755.9</ele>
      </trkpt>
      <trkpt lat="29.507700" lon="-114.496040">
        <ele>755.7</ele>
      </trkpt>
      <trkpt lat="29.507270" lon="-114.495790">
        <ele>755.9</ele>
      </trkpt>
      <trkpt lat="29.506890" lon="-114.495510">
        <ele>754.7</ele>
      </trkpt>
      <trkpt lat="29.506520" lon="-114.495220">
        <ele>752.6</ele>
      </trkpt>
      <trkpt lat="29.505810" lon="-114.494660">
        <ele>748.1</ele>
      </trkpt>
      <trkpt lat="29.505110" lon="-114.494100">
        <ele>746.1</ele>
      </trkpt>
      <trkpt lat="29.504400" lon="-114.493530">
        <ele>746.3</ele>
      </trkpt>
      <trkpt lat="29.503700" lon="-114.492970">
        <ele>748.5</ele>
      </trkpt>
      <trkpt lat="29.502990" lon="-114.492410">
        <ele>753.3</ele>
      </trkpt>
      <trkpt lat="29.502280" lon="-114.492070">
        <ele>760.9</ele>
      </trkpt>
      <trkpt lat="29.501570" lon="-114.491730">
        <ele>767.8</ele>
      </trkpt>
      <trkpt lat="29.500860" lon="-114.491390">
        <ele>772.0</ele>
      </trkpt>
      <trkpt lat="29.500530" lon="-114.491210">
        <ele>773.2</ele>
      </trkpt>
      <trkpt lat="29.500210" lon="-114.490750">
        <ele>777.9</ele>
      </trkpt>
      <trkpt lat="29.499970" lon="-114.490190">
        <ele>784.2</ele>
      </trkpt>
      <trkpt lat="29.499780" lon="-114.489920">
        <ele>787.0</ele>
      </trkpt>
      <trkpt lat="29.499520" lon="-114.489750">
        <ele>788.1</ele>
      </trkpt>
      <trkpt lat="29.498950" lon="-114.489560">
        <ele>791.1</ele>
      </trkpt>
      <trkpt lat="29.498540" lon="-114.489360">
        <ele>795.8</ele>
      </trkpt>
      <trkpt lat="29.498160" lon="-114.489010">
        <ele>800.5</ele>
      </trkpt>
      <trkpt lat="29.497770" lon="-114.488310">
        <ele>802.9</ele>
      </trkpt>
      <trkpt lat="29.497460" lon="-114.487540">
        <ele>798.7</ele>
      </trkpt>
      <trkpt lat="29.497170" lon="-114.487130">
        <ele>797.8</ele>
      </trkpt>
      <trkpt lat="29.496880" lon="-114.486960">
        <ele>796.2</ele>
      </trkpt>
      <trkpt lat="29.496270" lon="-114.486710">
        <ele>792.4</ele>
      </trkpt>
      <trkpt lat="29.495660" lon="-114.486470">
        <ele>788.0</ele>
      </trkpt>
      <trkpt lat="29.495050" lon="-114.485920">
        <ele>785.9</ele>
      </trkpt>
      <trkpt lat="29.494520" lon="-114.485360">
        <ele>781.5</ele>
      </trkpt>
      <trkpt lat="29.493980" lon="-114.484800">
        <ele>778.6</ele>
      </trkpt>
      <trkpt lat="29.493440" lon="-114.484240">
        <ele>777.4</ele>
      </trkpt>
      <trkpt lat="29.492910" lon="-114.483680">
        <ele>775.3</ele>
      </trkpt>
      <trkpt lat="29.492300" lon="-114.483010">
        <ele>774.4</ele>
      </trkpt>
      <trkpt lat="29.491700" lon="-114.482350">
        <ele>779.3</ele>
      </trkpt>
      <trkpt lat="29.491230" lon="-114.481640">
        <ele>784.6</ele>
      </trkpt>
      <trkpt lat="29.490810" lon="-114.480850">
        <ele>788.9</ele>
      </trkpt>
      <trkpt lat="29.490380" lon="-114.480060">
        <ele>790.7</ele>
      </trkpt>
      <trkpt lat="29.489960" lon="-114.479260">
        <ele>792.3</ele>
      </trkpt>
      <trkpt lat="29.489540" lon="-114.478470">
        <ele>791.9</ele>
      </trkpt>
      <trkpt lat="29.489110" lon="-114.477670">
        <ele>789.7</ele>
      </trkpt>
      <trkpt lat="29.488710" lon="-114.476940">
        <ele>787.6</ele>
      </trkpt>
      <trkpt lat="29.488310" lon="-114.476200">
        <ele>789.7</ele>
      </trkpt>
      <trkpt lat="29.487920" lon="-114.475460">
        <ele>792.0</ele>
      </trkpt>
      <trkpt lat="29.487520" lon="-114.474720">
        <ele>794.7</ele>
      </trkpt>
      <trkpt lat="29.487110" lon="-114.473950">
        <ele>796.8</ele>
      </trkpt>
      <trkpt lat="29.486700" lon="-114.473180">
        <ele>796.4</ele>
      </trkpt>
      <trkpt lat="29.486300" lon="-114.472410">
        <ele>795.0</ele>
      </trkpt>
      <trkpt lat="29.485890" lon="-114.471640">
        <ele>794.1</ele>
      </trkpt>
      <trkpt lat="29.485490" lon="-114.470860">
        <ele>786.7</ele>
      </trkpt>
      <trkpt lat="29.485080" lon="-114.470090">
        <ele>780.8</ele>
      </trkpt>
      <trkpt lat="29.484720" lon="-114.469440">
        <ele>778.7</ele>
      </trkpt>
      <trkpt lat="29.484370" lon="-114.468790">
        <ele>777.3</ele>
      </trkpt>
      <trkpt lat="29.484080" lon="-114.468100">
        <ele>776.9</ele>
      </trkpt>
      <trkpt lat="29.483790" lon="-114.467410">
        <ele>775.2</ele>
      </trkpt>
      <trkpt lat="29.483450" lon="-114.466530">
        <ele>770.8</ele>
      </trkpt>
      <trkpt lat="29.483110" lon="-114.465660">
        <ele>769.1</ele>
      </trkpt>
      <trkpt lat="29.482760" lon="-114.464780">
        <ele>769.0</ele>
      </trkpt>
      <trkpt lat="29.482420" lon="-114.463910">
        <ele>770.5</ele>
      </trkpt>
      <trkpt lat="29.482080" lon="-114.463030">
        <ele>769.8</ele>
      </trkpt>
      <trkpt lat="29.481740" lon="-114.462160">
        <ele>771.6</ele>
      </trkpt>
      <trkpt lat="29.481390" lon="-114.461280">
        <ele>774.6</ele>
      </trkpt>
      <trkpt lat="29.481050" lon="-114.460410">
        <ele>773.2</ele>
      </trkpt>
      <trkpt lat="29.480720" lon="-114.459780">
        <ele>772.3</ele>
      </trkpt>
      <trkpt lat="29.480380" lon="-114.459160">
        <ele>775.3</ele>
      </trkpt>
      <trkpt lat="29.480030" lon="-114.458550">
        <ele>769.2</ele>
      </trkpt>
      <trkpt lat="29.479480" lon="-114.457900">
        <ele>767.1</ele>
      </trkpt>
      <trkpt lat="29.478930" lon="-114.457250">
        <ele>763.1</ele>
      </trkpt>
      <trkpt lat="29.478380" lon="-114.456610">
        <ele>761.5</ele>
      </trkpt>
      <trkpt lat="29.477750" lon="-114.455960">
        <ele>762.7</ele>
      </trkpt>
      <trkpt lat="29.477120" lon="-114.455310">
        <ele>759.2</ele>
      </trkpt>
      <trkpt lat="29.476640" lon="-114.454870">
        <ele>757.4</ele>
      </trkpt>
      <trkpt lat="29.476160" lon="-114.454430">
        <ele>757.7</ele>
      </trkpt>
      <trkpt lat="29.475520" lon="-114.454010">
        <ele>759.1</ele>
      </trkpt>
      <trkpt lat="29.474870" lon="-114.453600">
        <ele>762.0</ele>
      </trkpt>
      <trkpt lat="29.474230" lon="-114.453180">
        <ele>762.6</ele>
      </trkpt>
      <trkpt lat="29.473580" lon="-114.452770">
        <ele>762.6</ele>
      </trkpt>
      <trkpt lat="29.473130" lon="-114.452580">
        <ele>760.3</ele>
      </trkpt>
      <trkpt lat="29.472690" lon="-114.452390">
        <ele>759.3</ele>
      </trkpt>
      <trkpt lat="29.471880" lon="-114.452220">
        <ele>761.7</ele>
      </trkpt>
      <trkpt lat="29.471060" lon="-114.452050">
        <ele>761.5</ele>
      </trkpt>
      <trkpt lat="29.470250" lon="-114.451870">
        <ele>758.6</ele>
      </trkpt>
      <trkpt lat="29.469440" lon="-114.451700">
        <ele>752.7</ele>
      </trkpt>
      <trkpt lat="29.468630" lon="-114.451530">
        <ele>750.6</ele>
      </trkpt>
      <trkpt lat="29.467760" lon="-114.451330">
        <ele>749.9</ele>
      </trkpt>
      <trkpt lat="29.466880" lon="-114.451140">
        <ele>749.2</ele>
      </trkpt>
      <trkpt lat="29.466010" lon="-114.450950">
        <ele>745.2</ele>
      </trkpt>
      <trkpt lat="29.465280" lon="-114.450800">
        <ele>744.0</ele>
      </trkpt>
      <trkpt lat="29.464560" lon="-114.450650">
        <ele>743.4</ele>
      </trkpt>
      <trkpt lat="29.463830" lon="-114.450510">
        <ele>743.2</ele>
      </trkpt>
      <trkpt lat="29.463150" lon="-114.450250">
        <ele>743.2</ele>
      </trkpt>
      <trkpt lat="29.462740" lon="-114.449980">
        <ele>741.8</ele>
      </trkpt>
      <trkpt lat="29.462270" lon="-114.449490">
        <ele>739.7</ele>
      </trkpt>
      <trkpt lat="29.461870" lon="-114.448790">
        <ele>738.5</ele>
      </trkpt>
      <trkpt lat="29.461450" lon="-114.447990">
        <ele>736.1</ele>
      </trkpt>
      <trkpt lat="29.461060" lon="-114.447490">
        <ele>734.1</ele>
      </trkpt>
      <trkpt lat="29.460430" lon="-114.446930">
        <ele>735.0</ele>
      </trkpt>
      <trkpt lat="29.459800" lon="-114.446380">
        <ele>734.8</ele>
      </trkpt>
      <trkpt lat="29.459170" lon="-114.445820">
        <ele>733.0</ele>
      </trkpt>
      <trkpt lat="29.458540" lon="-114.445260">
        <ele>733.3</ele>
      </trkpt>
      <trkpt lat="29.457910" lon="-114.444710">
        <ele>732.8</ele>
      </trkpt>
      <trkpt lat="29.457280" lon="-114.444150">
        <ele>732.6</ele>
      </trkpt>
      <trkpt lat="29.456650" lon="-114.443600">
        <ele>733.8</ele>
      </trkpt>
      <trkpt lat="29.455960" lon="-114.442990">
        <ele>739.0</ele>
      </trkpt>
      <trkpt lat="29.455260" lon="-114.442380">
        <ele>742.7</ele>
      </trkpt>
      <trkpt lat="29.454570" lon="-114.441770">
        <ele>741.4</ele>
      </trkpt>
      <trkpt lat="29.453880" lon="-114.441160">
        <ele>738.6</ele>
      </trkpt>
      <trkpt lat="29.453180" lon="-114.440550">
        <ele>737.4</ele>
      </trkpt>
      <trkpt lat="29.452490" lon="-114.439940">
        <ele>739.1</ele>
      </trkpt>
      <trkpt lat="29.451800" lon="-114.439330">
        <ele>738.1</ele>
      </trkpt>
      <trkpt lat="29.451110" lon="-114.438720">
        <ele>734.3</ele>
      </trkpt>
      <trkpt lat="29.450410" lon="-114.438110">
        <ele>731.1</ele>
      </trkpt>
      <trkpt lat="29.449750" lon="-114.437570">
        <ele>729.8</ele>
      </trkpt>
      <trkpt lat="29.449080" lon="-114.437030">
        <ele>731.0</ele>
      </trkpt>
      <trkpt lat="29.448420" lon="-114.436490">
        <ele>729.9</ele>
      </trkpt>
      <trkpt lat="29.447750" lon="-114.435960">
        <ele>728.0</ele>
      </trkpt>
      <trkpt lat="29.447090" lon="-114.435420">
        <ele>727.3</ele>
      </trkpt>
      <trkpt lat="29.446430" lon="-114.434880">
        <ele>725.2</ele>
      </trkpt>
      <trkpt lat="29.445760" lon="-114.434340">
        <ele>726.4</ele>
      </trkpt>
      <trkpt lat="29.445100" lon="-114.433800">
        <ele>725.7</ele>
      </trkpt>
      <trkpt lat="29.444430" lon="-114.433260">
        <ele>724.6</ele>
      </trkpt>
      <trkpt lat="29.443770" lon="-114.432720">
        <ele>724.7</ele>
      </trkpt>
      <trkpt lat="29.443150" lon="-114.432230">
        <ele>726.6</ele>
      </trkpt>
      <trkpt lat="29.442540" lon="-114.431730">
        <ele>729.7</ele>
      </trkpt>
      <trkpt lat="29.441920" lon="-114.431240">
        <ele>730.8</ele>
      </trkpt>
      <trkpt lat="29.441310" lon="-114.430740">
        <ele>729.4</ele>
      </trkpt>
      <trkpt lat="29.440690" lon="-114.430250">
        <ele>728.8</ele>
      </trkpt>
      <trkpt lat="29.440080" lon="-114.429730">
        <ele>731.5</ele>
      </trkpt>
      <trkpt lat="29.439460" lon="-114.429220">
        <ele>730.4</ele>
      </trkpt>
      <trkpt lat="29.438850" lon="-114.428700">
        <ele>729.7</ele>
      </trkpt>
      <trkpt lat="29.438230" lon="-114.428190">
        <ele>729.1</ele>
      </trkpt>
      <trkpt lat="29.437620" lon="-114.427670">
        <ele>724.8</ele>
      </trkpt>
      <trkpt lat="29.437280" lon="-114.427220">
        <ele>722.7</ele>
      </trkpt>
      <trkpt lat="29.436950" lon="-114.426770">
        <ele>720.7</ele>
      </trkpt>
      <trkpt lat="29.436610" lon="-114.426280">
        <ele>718.2</ele>
      </trkpt>
      <trkpt lat="29.436270" lon="-114.425800">
        <ele>715.6</ele>
      </trkpt>
      <trkpt lat="29.435870" lon="-114.424990">
        <ele>714.9</ele>
      </trkpt>
      <trkpt lat="29.435480" lon="-114.424180">
        <ele>717.7</ele>
      </trkpt>
      <trkpt lat="29.435080" lon="-114.423370">
        <ele>713.0</ele>
      </trkpt>
      <trkpt lat="29.434690" lon="-114.422560">
        <ele>708.8</ele>
      </trkpt>
      <trkpt lat="29.434290" lon="-114.421750">
        <ele>706.8</ele>
      </trkpt>
      <trkpt lat="29.433960" lon="-114.421010">
        <ele>711.2</ele>
      </trkpt>
      <trkpt lat="29.433620" lon="-114.420270">
        <ele>713.5</ele>
      </trkpt>
      <trkpt lat="29.433390" lon="-114.419590">
        <ele>713.3</ele>
      </trkpt>
      <trkpt lat="29.433200" lon="-114.418790">
        <ele>712.4</ele>
      </trkpt>
      <trkpt lat="29.433010" lon="-114.418000">
        <ele>713.0</ele>
      </trkpt>
      <trkpt lat="29.432810" lon="-114.417200">
        <ele>715.5</ele>
      </trkpt>
      <trkpt lat="29.432620" lon="-114.416410">
        <ele>714.1</ele>
      </trkpt>
      <trkpt lat="29.432370" lon="-114.415490">
        <ele>709.5</ele>
      </trkpt>
      <trkpt lat="29.432120" lon="-114.414580">
        <ele>706.0</ele>
      </trkpt>
      <trkpt lat="29.431910" lon="-114.414300">
        <ele>705.3</ele>
      </trkpt>
      <trkpt lat="29.431640" lon="-114.414030">
        <ele>704.6</ele>
      </trkpt>
      <trkpt lat="29.430920" lon="-114.413600">
        <ele>701.3</ele>
      </trkpt>
      <trkpt lat="29.430190" lon="-114.413170">
        <ele>696.8</ele>
      </trkpt>
      <trkpt lat="29.429470" lon="-114.412740">
        <ele>695.9</ele>
      </trkpt>
      <trkpt lat="29.428750" lon="-114.412320">
        <ele>695.8</ele>
      </trkpt>
      <trkpt lat="29.428030" lon="-114.411890">
        <ele>695.6</ele>
      </trkpt>
      <trkpt lat="29.427310" lon="-114.411460">
        <ele>695.1</ele>
      </trkpt>
      <trkpt lat="29.426590" lon="-114.411030">
        <ele>694.5</ele>
      </trkpt>
      <trkpt lat="29.425920" lon="-114.410640">
        <ele>692.4</ele>
      </trkpt>
      <trkpt lat="29.425250" lon="-114.410240">
        <ele>691.9</ele>
      </trkpt>
      <trkpt lat="29.424580" lon="-114.409850">
        <ele>692.5</ele>
      </trkpt>
      <trkpt lat="29.423910" lon="-114.409450">
        <ele>694.6</ele>
      </trkpt>
      <trkpt lat="29.423240" lon="-114.409060">
        <ele>693.7</ele>
      </trkpt>
      <trkpt lat="29.422500" lon="-114.408580">
        <ele>692.4</ele>
      </trkpt>
      <trkpt lat="29.421750" lon="-114.408100">
        <ele>696.0</ele>
      </trkpt>
      <trkpt lat="29.421000" lon="-114.407620">
        <ele>693.6</ele>
      </trkpt>
      <trkpt lat="29.420250" lon="-114.407140">
        <ele>691.7</ele>
      </trkpt>
      <trkpt lat="29.419500" lon="-114.406660">
        <ele>690.6</ele>
      </trkpt>
      <trkpt lat="29.418760" lon="-114.406190">
        <ele>691.3</ele>
      </trkpt>
      <trkpt lat="29.418190" lon="-114.405840">
        <ele>688.6</ele>
      </trkpt>
      <trkpt lat="29.417620" lon="-114.405500">
        <ele>688.2</ele>
      </trkpt>
      <trkpt lat="29.416880" lon="-114.405220">
        <ele>687.4</ele>
      </trkpt>
      <trkpt lat="29.416140" lon="-114.404950">
        <ele>684.8</ele>
      </trkpt>
      <trkpt lat="29.415470" lon="-114.404750">
        <ele>683.8</ele>
      </trkpt>
      <trkpt lat="29.414790" lon="-114.404550">
        <ele>684.3</ele>
      </trkpt>
      <trkpt lat="29.414110" lon="-114.404350">
        <ele>686.4</ele>
      </trkpt>
      <trkpt lat="29.413440" lon="-114.404150">
        <ele>683.1</ele>
      </trkpt>
      <trkpt lat="29.412550" lon="-114.404030">
        <ele>679.2</ele>
      </trkpt>
      <trkpt lat="29.411660" lon="-114.403910">
        <ele>680.4</ele>
      </trkpt>
      <trkpt lat="29.410770" lon="-114.403790">
        <ele>681.0</ele>
      </trkpt>
      <trkpt lat="29.409880" lon="-114.403660">
        <ele>680.8</ele>
      </trkpt>
      <trkpt lat="29.409000" lon="-114.403540">
        <ele>682.5</ele>
      </trkpt>
      <trkpt lat="29.408110" lon="-114.403420">
        <ele>682.3</ele>
      </trkpt>
      <trkpt lat="29.407220" lon="-114.403300">
        <ele>680.7</ele>
      </trkpt>
      <trkpt lat="29.406330" lon="-114.403170">
        <ele>679.5</ele>
      </trkpt>
      <trkpt lat="29.405680" lon="-114.403080">
        <ele>679.5</ele>
      </trkpt>
      <trkpt lat="29.405030" lon="-114.402990">
        <ele>680.7</ele>
      </trkpt>
      <trkpt lat="29.404390" lon="-114.402900">
        <ele>683.0</ele>
      </trkpt>
      <trkpt lat="29.403820" lon="-114.402780">
        <ele>684.4</ele>
      </trkpt>
      <trkpt lat="29.403300" lon="-114.402570">
        <ele>683.8</ele>
      </trkpt>
      <trkpt lat="29.402810" lon="-114.402260">
        <ele>680.7</ele>
      </trkpt>
      <trkpt lat="29.402370" lon="-114.401890">
        <ele>679.6</ele>
      </trkpt>
      <trkpt lat="29.401940" lon="-114.401530">
        <ele>679.6</ele>
      </trkpt>
      <trkpt lat="29.401360" lon="-114.401020">
        <ele>679.2</ele>
      </trkpt>
      <trkpt lat="29.400780" lon="-114.400500">
        <ele>678.8</ele>
      </trkpt>
      <trkpt lat="29.400580" lon="-114.400280">
        <ele>681.4</ele>
      </trkpt>
      <trkpt lat="29.400300" lon="-114.399920">
        <ele>683.8</ele>
      </trkpt>
      <trkpt lat="29.400020" lon="-114.399490">
        <ele>685.1</ele>
      </trkpt>
      <trkpt lat="29.399740" lon="-114.399050">
        <ele>684.1</ele>
      </trkpt>
      <trkpt lat="29.399230" lon="-114.398250">
        <ele>678.5</ele>
      </trkpt>
      <trkpt lat="29.398730" lon="-114.397440">
        <ele>679.7</ele>
      </trkpt>
      <trkpt lat="29.398220" lon="-114.396630">
        <ele>683.5</ele>
      </trkpt>
      <trkpt lat="29.397720" lon="-114.395830">
        <ele>678.7</ele>
      </trkpt>
      <trkpt lat="29.397210" lon="-114.395020">
        <ele>677.5</ele>
      </trkpt>
      <trkpt lat="29.396700" lon="-114.394220">
        <ele>674.3</ele>
      </trkpt>
      <trkpt lat="29.396200" lon="-114.393410">
        <ele>677.4</ele>
      </trkpt>
      <trkpt lat="29.395690" lon="-114.392600">
        <ele>682.1</ele>
      </trkpt>
      <trkpt lat="29.395190" lon="-114.391800">
        <ele>682.2</ele>
      </trkpt>
      <trkpt lat="29.394680" lon="-114.390990">
        <ele>682.6</ele>
      </trkpt>
      <trkpt lat="29.394390" lon="-114.390390">
        <ele>682.2</ele>
      </trkpt>
      <trkpt lat="29.393990" lon="-114.389510">
        <ele>679.6</ele>
      </trkpt>
      <trkpt lat="29.393810" lon="-114.389130">
        <ele>677.9</ele>
      </trkpt>
      <trkpt lat="29.393680" lon="-114.388920">
        <ele>677.1</ele>
      </trkpt>
      <trkpt lat="29.393550" lon="-114.388720">
        <ele>676.2</ele>
      </trkpt>
      <trkpt lat="29.393270" lon="-114.388380">
        <ele>674.8</ele>
      </trkpt>
      <trkpt lat="29.392930" lon="-114.388050">
        <ele>675.3</ele>
      </trkpt>
      <trkpt lat="29.392610" lon="-114.387810">
        <ele>674.5</ele>
      </trkpt>
      <trkpt lat="29.391930" lon="-114.387390">
        <ele>674.8</ele>
      </trkpt>
      <trkpt lat="29.391240" lon="-114.386960">
        <ele>677.3</ele>
      </trkpt>
      <trkpt lat="29.390650" lon="-114.386610">
        <ele>677.7</ele>
      </trkpt>
      <trkpt lat="29.390070" lon="-114.386260">
        <ele>676.0</ele>
      </trkpt>
      <trkpt lat="29.389350" lon="-114.385790">
        <ele>674.1</ele>
      </trkpt>
      <trkpt lat="29.388870" lon="-114.385430">
        <ele>674.6</ele>
      </trkpt>
      <trkpt lat="29.388440" lon="-114.385090">
        <ele>673.6</ele>
      </trkpt>
      <trkpt lat="29.387860" lon="-114.384590">
        <ele>671.4</ele>
      </trkpt>
      <trkpt lat="29.387280" lon="-114.384100">
        <ele>668.3</ele>
      </trkpt>
      <trkpt lat="29.386700" lon="-114.383610">
        <ele>668.0</ele>
      </trkpt>
      <trkpt lat="29.386120" lon="-114.383120">
        <ele>670.5</ele>
      </trkpt>
      <trkpt lat="29.385550" lon="-114.382630">
        <ele>668.7</ele>
      </trkpt>
      <trkpt lat="29.384980" lon="-114.382130">
        <ele>666.9</ele>
      </trkpt>
      <trkpt lat="29.384420" lon="-114.381630">
        <ele>662.2</ele>
      </trkpt>
      <trkpt lat="29.383740" lon="-114.381050">
        <ele>662.2</ele>
      </trkpt>
      <trkpt lat="29.383060" lon="-114.380460">
        <ele>662.0</ele>
      </trkpt>
      <trkpt lat="29.382380" lon="-114.379880">
        <ele>660.1</ele>
      </trkpt>
      <trkpt lat="29.381700" lon="-114.379300">
        <ele>660.0</ele>
      </trkpt>
      <trkpt lat="29.381030" lon="-114.378720">
        <ele>661.4</ele>
      </trkpt>
      <trkpt lat="29.380350" lon="-114.378130">
        <ele>661.1</ele>
      </trkpt>
      <trkpt lat="29.379670" lon="-114.377550">
        <ele>661.5</ele>
      </trkpt>
      <trkpt lat="29.378990" lon="-114.376970">
        <ele>659.5</ele>
      </trkpt>
      <trkpt lat="29.378310" lon="-114.376390">
        <ele>660.3</ele>
      </trkpt>
      <trkpt lat="29.377630" lon="-114.375810">
        <ele>661.5</ele>
      </trkpt>
      <trkpt lat="29.376950" lon="-114.375220">
        <ele>660.2</ele>
      </trkpt>
      <trkpt lat="29.376340" lon="-114.374690">
        <ele>660.2</ele>
      </trkpt>
      <trkpt lat="29.375730" lon="-114.374160">
        <ele>661.4</ele>
      </trkpt>
      <trkpt lat="29.375120" lon="-114.373630">
        <ele>664.9</ele>
      </trkpt>
      <trkpt lat="29.374490" lon="-114.373090">
        <ele>664.7</ele>
      </trkpt>
      <trkpt lat="29.373860" lon="-114.372550">
        <ele>664.0</ele>
      </trkpt>
      <trkpt lat="29.373230" lon="-114.372000">
        <ele>663.4</ele>
      </trkpt>
      <trkpt lat="29.372600" lon="-114.371460">
        <ele>663.6</ele>
      </trkpt>
      <trkpt lat="29.371970" lon="-114.370920">
        <ele>663.1</ele>
      </trkpt>
      <trkpt lat="29.371330" lon="-114.370370">
        <ele>663.5</ele>
      </trkpt>
      <trkpt lat="29.370640" lon="-114.369770">
        <ele>664.9</ele>
      </trkpt>
      <trkpt lat="29.369940" lon="-114.369170">
        <ele>663.9</ele>
      </trkpt>
      <trkpt lat="29.369240" lon="-114.368560">
        <ele>664.8</ele>
      </trkpt>
      <trkpt lat="29.368550" lon="-114.367960">
        <ele>666.9</ele>
      </trkpt>
      <trkpt lat="29.367850" lon="-114.367360">
        <ele>667.7</ele>
      </trkpt>
      <trkpt lat="29.367150" lon="-114.366760">
        <ele>669.8</ele>
      </trkpt>
      <trkpt lat="29.366460" lon="-114.366160">
        <ele>669.6</ele>
      </trkpt>
      <trkpt lat="29.366060" lon="-114.365770">
        <ele>668.2</ele>
      </trkpt>
      <trkpt lat="29.365660" lon="-114.365380">
        <ele>667.9</ele>
      </trkpt>
      <trkpt lat="29.365300" lon="-114.364840">
        <ele>667.2</ele>
      </trkpt>
      <trkpt lat="29.364890" lon="-114.364140">
        <ele>666.7</ele>
      </trkpt>
      <trkpt lat="29.364480" lon="-114.363440">
        <ele>666.3</ele>
      </trkpt>
      <trkpt lat="29.364080" lon="-114.362750">
        <ele>664.4</ele>
      </trkpt>
      <trkpt lat="29.363670" lon="-114.362050">
        <ele>662.4</ele>
      </trkpt>
      <trkpt lat="29.363260" lon="-114.361350">
        <ele>662.8</ele>
      </trkpt>
      <trkpt lat="29.362800" lon="-114.360540">
        <ele>662.3</ele>
      </trkpt>
      <trkpt lat="29.362340" lon="-114.359730">
        <ele>659.4</ele>
      </trkpt>
      <trkpt lat="29.361870" lon="-114.358920">
        <ele>661.1</ele>
      </trkpt>
      <trkpt lat="29.361410" lon="-114.358110">
        <ele>662.0</ele>
      </trkpt>
      <trkpt lat="29.360940" lon="-114.357300">
        <ele>661.5</ele>
      </trkpt>
      <trkpt lat="29.360480" lon="-114.356490">
        <ele>662.0</ele>
      </trkpt>
      <trkpt lat="29.360020" lon="-114.355680">
        <ele>665.3</ele>
      </trkpt>
      <trkpt lat="29.359700" lon="-114.355000">
        <ele>666.3</ele>
      </trkpt>
      <trkpt lat="29.359380" lon="-114.354320">
        <ele>664.5</ele>
      </trkpt>
      <trkpt lat="29.359060" lon="-114.353460">
        <ele>662.2</ele>
      </trkpt>
      <trkpt lat="29.358740" lon="-114.352600">
        <ele>662.4</ele>
      </trkpt>
      <trkpt lat="29.358420" lon="-114.351740">
        <ele>662.2</ele>
      </trkpt>
      <trkpt lat="29.358090" lon="-114.350880">
        <ele>661.2</ele>
      </trkpt>
      <trkpt lat="29.357770" lon="-114.350010">
        <ele>658.7</ele>
      </trkpt>
      <trkpt lat="29.357450" lon="-114.349150">
        <ele>662.9</ele>
      </trkpt>
      <trkpt lat="29.357130" lon="-114.348290">
        <ele>661.7</ele>
      </trkpt>
      <trkpt lat="29.356810" lon="-114.347430">
        <ele>662.8</ele>
      </trkpt>
      <trkpt lat="29.356490" lon="-114.346570">
        <ele>663.6</ele>
      </trkpt>
      <trkpt lat="29.356160" lon="-114.345710">
        <ele>662.1</ele>
      </trkpt>
      <trkpt lat="29.355830" lon="-114.344790">
        <ele>661.7</ele>
      </trkpt>
      <trkpt lat="29.355490" lon="-114.343880">
        <ele>662.4</ele>
      </trkpt>
      <trkpt lat="29.355150" lon="-114.342970">
        <ele>663.1</ele>
      </trkpt>
      <trkpt lat="29.354810" lon="-114.342060">
        <ele>665.2</ele>
      </trkpt>
      <trkpt lat="29.354470" lon="-114.341150">
        <ele>664.4</ele>
      </trkpt>
      <trkpt lat="29.354140" lon="-114.340240">
        <ele>664.8</ele>
      </trkpt>
      <trkpt lat="29.353800" lon="-114.339330">
        <ele>666.7</ele>
      </trkpt>
      <trkpt lat="29.353460" lon="-114.338420">
        <ele>669.4</ele>
      </trkpt>
      <trkpt lat="29.353120" lon="-114.337510">
        <ele>671.5</ele>
      </trkpt>
      <trkpt lat="29.352780" lon="-114.336600">
        <ele>672.8</ele>
      </trkpt>
      <trkpt lat="29.352450" lon="-114.335690">
        <ele>678.0</ele>
      </trkpt>
      <trkpt lat="29.352110" lon="-114.334780">
        <ele>683.4</ele>
      </trkpt>
      <trkpt lat="29.351800" lon="-114.333940">
        <ele>682.4</ele>
      </trkpt>
      <trkpt lat="29.351500" lon="-114.333090">
        <ele>681.2</ele>
      </trkpt>
      <trkpt lat="29.351200" lon="-114.332250">
        <ele>681.8</ele>
      </trkpt>
      <trkpt lat="29.350900" lon="-114.331410">
        <ele>682.3</ele>
      </trkpt>
      <trkpt lat="29.350590" lon="-114.330890">
        <ele>681.4</ele>
      </trkpt>
      <trkpt lat="29.349970" lon="-114.330270">
        <ele>677.8</ele>
      </trkpt>
      <trkpt lat="29.349350" lon="-114.329650">
        <ele>676.6</ele>
      </trkpt>
      <trkpt lat="29.348720" lon="-114.329040">
        <ele>675.6</ele>
      </trkpt>
      <trkpt lat="29.348100" lon="-114.328420">
        <ele>673.8</ele>
      </trkpt>
      <trkpt lat="29.347480" lon="-114.327800">
        <ele>671.4</ele>
      </trkpt>
      <trkpt lat="29.346860" lon="-114.327180">
        <ele>672.5</ele>
      </trkpt>
      <trkpt lat="29.346240" lon="-114.326570">
        <ele>672.8</ele>
      </trkpt>
      <trkpt lat="29.345620" lon="-114.325950">
        <ele>674.8</ele>
      </trkpt>
      <trkpt lat="29.344990" lon="-114.325330">
        <ele>675.0</ele>
      </trkpt>
      <trkpt lat="29.344370" lon="-114.324720">
        <ele>677.4</ele>
      </trkpt>
      <trkpt lat="29.343750" lon="-114.324100">
        <ele>676.8</ele>
      </trkpt>
      <trkpt lat="29.343110" lon="-114.323460">
        <ele>680.8</ele>
      </trkpt>
      <trkpt lat="29.342470" lon="-114.322820">
        <ele>681.3</ele>
      </trkpt>
      <trkpt lat="29.341820" lon="-114.322180">
        <ele>684.1</ele>
      </trkpt>
      <trkpt lat="29.341180" lon="-114.321530">
        <ele>683.8</ele>
      </trkpt>
      <trkpt lat="29.340540" lon="-114.320890">
        <ele>684.8</ele>
      </trkpt>
      <trkpt lat="29.339890" lon="-114.320250">
        <ele>684.2</ele>
      </trkpt>
      <trkpt lat="29.339250" lon="-114.319610">
        <ele>684.7</ele>
      </trkpt>
      <trkpt lat="29.338640" lon="-114.319010">
        <ele>686.2</ele>
      </trkpt>
      <trkpt lat="29.338030" lon="-114.318400">
        <ele>687.3</ele>
      </trkpt>
      <trkpt lat="29.337420" lon="-114.317800">
        <ele>687.9</ele>
      </trkpt>
      <trkpt lat="29.336800" lon="-114.317200">
        <ele>688.8</ele>
      </trkpt>
      <trkpt lat="29.336190" lon="-114.316590">
        <ele>690.6</ele>
      </trkpt>
      <trkpt lat="29.335580" lon="-114.315990">
        <ele>694.6</ele>
      </trkpt>
      <trkpt lat="29.334970" lon="-114.315390">
        <ele>695.1</ele>
      </trkpt>
      <trkpt lat="29.334360" lon="-114.314780">
        <ele>697.7</ele>
      </trkpt>
      <trkpt lat="29.333930" lon="-114.314210">
        <ele>701.2</ele>
      </trkpt>
      <trkpt lat="29.333620" lon="-114.313570">
        <ele>704.8</ele>
      </trkpt>
      <trkpt lat="29.333400" lon="-114.312830">
        <ele>707.3</ele>
      </trkpt>
      <trkpt lat="29.333230" lon="-114.311990">
        <ele>708.2</ele>
      </trkpt>
      <trkpt lat="29.333050" lon="-114.311140">
        <ele>709.4</ele>
      </trkpt>
      <trkpt lat="29.332870" lon="-114.310290">
        <ele>712.5</ele>
      </trkpt>
      <trkpt lat="29.332720" lon="-114.309650">
        <ele>714.4</ele>
      </trkpt>
      <trkpt lat="29.332610" lon="-114.309340">
        <ele>714.7</ele>
      </trkpt>
      <trkpt lat="29.332460" lon="-114.309040">
        <ele>715.3</ele>
      </trkpt>
      <trkpt lat="29.332340" lon="-114.308870">
        <ele>716.6</ele>
      </trkpt>
      <trkpt lat="29.332180" lon="-114.308700">
        <ele>718.1</ele>
      </trkpt>
      <trkpt lat="29.331510" lon="-114.308040">
        <ele>721.3</ele>
      </trkpt>
      <trkpt lat="29.331380" lon="-114.307860">
        <ele>721.9</ele>
      </trkpt>
      <trkpt lat="29.331300" lon="-114.307670">
        <ele>722.3</ele>
      </trkpt>
      <trkpt lat="29.331230" lon="-114.307460">
        <ele>722.9</ele>
      </trkpt>
      <trkpt lat="29.331180" lon="-114.307180">
        <ele>725.1</ele>
      </trkpt>
      <trkpt lat="29.331180" lon="-114.306850">
        <ele>727.0</ele>
      </trkpt>
      <trkpt lat="29.331250" lon="-114.306310">
        <ele>729.4</ele>
      </trkpt>
      <trkpt lat="29.331310" lon="-114.305770">
        <ele>731.8</ele>
      </trkpt>
      <trkpt lat="29.331280" lon="-114.305430">
        <ele>736.5</ele>
      </trkpt>
      <trkpt lat="29.331170" lon="-114.304920">
        <ele>743.0</ele>
      </trkpt>
      <trkpt lat="29.330890" lon="-114.304040">
        <ele>738.4</ele>
      </trkpt>
      <trkpt lat="29.330740" lon="-114.303730">
        <ele>734.7</ele>
      </trkpt>
      <trkpt lat="29.330550" lon="-114.303440">
        <ele>732.5</ele>
      </trkpt>
      <trkpt lat="29.330230" lon="-114.303070">
        <ele>729.5</ele>
      </trkpt>
      <trkpt lat="29.329580" lon="-114.302500">
        <ele>720.5</ele>
      </trkpt>
      <trkpt lat="29.328940" lon="-114.301940">
        <ele>712.4</ele>
      </trkpt>
      <trkpt lat="29.328730" lon="-114.301720">
        <ele>709.3</ele>
      </trkpt>
      <trkpt lat="29.328580" lon="-114.301450">
        <ele>708.1</ele>
      </trkpt>
      <trkpt lat="29.328490" lon="-114.301120">
        <ele>707.1</ele>
      </trkpt>
      <trkpt lat="29.328450" lon="-114.300710">
        <ele>704.8</ele>
      </trkpt>
      <trkpt lat="29.328430" lon="-114.299860">
        <ele>696.9</ele>
      </trkpt>
      <trkpt lat="29.328370" lon="-114.299460">
        <ele>694.7</ele>
      </trkpt>
      <trkpt lat="29.328260" lon="-114.298990">
        <ele>692.3</ele>
      </trkpt>
      <trkpt lat="29.328020" lon="-114.298490">
        <ele>689.6</ele>
      </trkpt>
      <trkpt lat="29.327530" lon="-114.297820">
        <ele>686.2</ele>
      </trkpt>
      <trkpt lat="29.327030" lon="-114.297210">
        <ele>688.2</ele>
      </trkpt>
      <trkpt lat="29.326530" lon="-114.296590">
        <ele>683.3</ele>
      </trkpt>
      <trkpt lat="29.326130" lon="-114.296070">
        <ele>678.4</ele>
      </trkpt>
      <trkpt lat="29.325720" lon="-114.295560">
        <ele>673.9</ele>
      </trkpt>
      <trkpt lat="29.325330" lon="-114.294870">
        <ele>671.1</ele>
      </trkpt>
      <trkpt lat="29.324930" lon="-114.294190">
        <ele>669.9</ele>
      </trkpt>
      <trkpt lat="29.324620" lon="-114.293640">
        <ele>667.0</ele>
      </trkpt>
      <trkpt lat="29.324300" lon="-114.293090">
        <ele>665.3</ele>
      </trkpt>
      <trkpt lat="29.323820" lon="-114.292240">
        <ele>662.4</ele>
      </trkpt>
      <trkpt lat="29.323340" lon="-114.291400">
        <ele>658.0</ele>
      </trkpt>
      <trkpt lat="29.322860" lon="-114.290560">
        <ele>658.4</ele>
      </trkpt>
      <trkpt lat="29.322380" lon="-114.289710">
        <ele>657.5</ele>
      </trkpt>
      <trkpt lat="29.321910" lon="-114.289010">
        <ele>655.3</ele>
      </trkpt>
      <trkpt lat="29.321440" lon="-114.288300">
        <ele>653.1</ele>
      </trkpt>
      <trkpt lat="29.320970" lon="-114.287590">
        <ele>651.1</ele>
      </trkpt>
      <trkpt lat="29.320510" lon="-114.286890">
        <ele>651.2</ele>
      </trkpt>
      <trkpt lat="29.320280" lon="-114.286420">
        <ele>649.9</ele>
      </trkpt>
      <trkpt lat="29.319980" lon="-114.285710">
        <ele>647.7</ele>
      </trkpt>
      <trkpt lat="29.319670" lon="-114.284990">
        <ele>645.6</ele>
      </trkpt>
      <trkpt lat="29.319360" lon="-114.284280">
        <ele>644.6</ele>
      </trkpt>
      <trkpt lat="29.319050" lon="-114.283570">
        <ele>642.9</ele>
      </trkpt>
      <trkpt lat="29.318740" lon="-114.282870">
        <ele>642.7</ele>
      </trkpt>
      <trkpt lat="29.318420" lon="-114.282180">
        <ele>642.4</ele>
      </trkpt>
      <trkpt lat="29.318110" lon="-114.281480">
        <ele>641.3</ele>
      </trkpt>
      <trkpt lat="29.317750" lon="-114.280800">
        <ele>640.0</ele>
      </trkpt>
      <trkpt lat="29.317390" lon="-114.280120">
        <ele>637.8</ele>
      </trkpt>
      <trkpt lat="29.317030" lon="-114.279430">
        <ele>637.4</ele>
      </trkpt>
      <trkpt lat="29.316670" lon="-114.278750">
        <ele>637.0</ele>
      </trkpt>
      <trkpt lat="29.316250" lon="-114.277980">
        <ele>638.9</ele>
      </trkpt>
      <trkpt lat="29.315840" lon="-114.277210">
        <ele>640.3</ele>
      </trkpt>
      <trkpt lat="29.315540" lon="-114.276620">
        <ele>642.6</ele>
      </trkpt>
      <trkpt lat="29.315230" lon="-114.276040">
        <ele>642.9</ele>
      </trkpt>
      <trkpt lat="29.314890" lon="-114.275400">
        <ele>639.6</ele>
      </trkpt>
      <trkpt lat="29.314550" lon="-114.274760">
        <ele>636.1</ele>
      </trkpt>
      <trkpt lat="29.314270" lon="-114.274220">
        <ele>631.5</ele>
      </trkpt>
      <trkpt lat="29.313990" lon="-114.273680">
        <ele>629.2</ele>
      </trkpt>
      <trkpt lat="29.313710" lon="-114.273170">
        <ele>626.9</ele>
      </trkpt>
      <trkpt lat="29.313430" lon="-114.272650">
        <ele>628.2</ele>
      </trkpt>
      <trkpt lat="29.313190" lon="-114.272170">
        <ele>628.7</ele>
      </trkpt>
      <trkpt lat="29.312940" lon="-114.271690">
        <ele>628.0</ele>
      </trkpt>
      <trkpt lat="29.312610" lon="-114.271110">
        <ele>627.8</ele>
      </trkpt>
      <trkpt lat="29.312290" lon="-114.270530">
        <ele>627.5</ele>
      </trkpt>
      <trkpt lat="29.311800" lon="-114.269810">
        <ele>625.1</ele>
      </trkpt>
      <trkpt lat="29.311300" lon="-114.269090">
        <ele>622.0</ele>
      </trkpt>
      <trkpt lat="29.310810" lon="-114.268370">
        <ele>619.2</ele>
      </trkpt>
      <trkpt lat="29.310270" lon="-114.267570">
        <ele>616.6</ele>
      </trkpt>
      <trkpt lat="29.309740" lon="-114.266780">
        <ele>616.1</ele>
      </trkpt>
      <trkpt lat="29.309200" lon="-114.265980">
        <ele>615.9</ele>
      </trkpt>
      <trkpt lat="29.308660" lon="-114.265190">
        <ele>616.7</ele>
      </trkpt>
      <trkpt lat="29.308130" lon="-114.264390">
        <ele>613.4</ele>
      </trkpt>
      <trkpt lat="29.307590" lon="-114.263600">
        <ele>612.8</ele>
      </trkpt>
    </trkseg>
  </trk>
</gpx>