<?xml version="1.0" encoding="UTF-8"?>
<gpx version="1.1" creator="GPX Segmenter" xmlns="http://www.topografix.com/GPX/1/1">
  <trk>
    <name>Baja - Segment 12 of 49</name>
    <trkseg>
      <trkpt lat="30.072020" lon="-115.733180">
        <ele>127.6</ele>
      </trkpt>
      <trkpt lat="30.071900" lon="-115.732920">
        <ele>125.4</ele>
      </trkpt>
      <trkpt lat="30.071770" lon="-115.732350">
        <ele>120.4</ele>
      </trkpt>
      <trkpt lat="30.071570" lon="-115.732060">
        <ele>117.0</ele>
      </trkpt>
      <trkpt lat="30.071320" lon="-115.731940">
        <ele>117.2</ele>
      </trkpt>
      <trkpt lat="30.070620" lon="-115.731820">
        <ele>117.3</ele>
      </trkpt>
      <trkpt lat="30.069930" lon="-115.731710">
        <ele>114.4</ele>
      </trkpt>
      <trkpt lat="30.069690" lon="-115.731730">
        <ele>113.2</ele>
      </trkpt>
      <trkpt lat="30.069460" lon="-115.731780">
        <ele>112.8</ele>
      </trkpt>
      <trkpt lat="30.068710" lon="-115.732010">
        <ele>110.5</ele>
      </trkpt>
      <trkpt lat="30.068510" lon="-115.732050">
        <ele>108.7</ele>
      </trkpt>
      <trkpt lat="30.068330" lon="-115.732050">
        <ele>106.2</ele>
      </trkpt>
      <trkpt lat="30.068130" lon="-115.732010">
        <ele>101.9</ele>
      </trkpt>
      <trkpt lat="30.067520" lon="-115.731760">
        <ele>87.6</ele>
      </trkpt>
      <trkpt lat="30.066900" lon="-115.731510">
        <ele>87.4</ele>
      </trkpt>
      <trkpt lat="30.066290" lon="-115.731250">
        <ele>85.1</ele>
      </trkpt>
      <trkpt lat="30.065860" lon="-115.730970">
        <ele>78.7</ele>
      </trkpt>
      <trkpt lat="30.065460" lon="-115.730630">
        <ele>79.0</ele>
      </trkpt>
      <trkpt lat="30.064830" lon="-115.729930">
        <ele>75.8</ele>
      </trkpt>
      <trkpt lat="30.064370" lon="-115.729470">
        <ele>71.9</ele>
      </trkpt>
      <trkpt lat="30.063970" lon="-115.729150">
        <ele>66.6</ele>
      </trkpt>
      <trkpt lat="30.063730" lon="-115.729010">
        <ele>66.4</ele>
      </trkpt>
      <trkpt lat="30.063290" lon="-115.728760">
        <ele>64.8</ele>
      </trkpt>
      <trkpt lat="30.063020" lon="-115.728560">
        <ele>63.4</ele>
      </trkpt>
      <trkpt lat="30.062570" lon="-115.728210">
        <ele>59.3</ele>
      </trkpt>
      <trkpt lat="30.062110" lon="-115.727860">
        <ele>58.5</ele>
      </trkpt>
      <trkpt lat="30.061440" lon="-115.727310">
        <ele>56.4</ele>
      </trkpt>
      <trkpt lat="30.060760" lon="-115.726760">
        <ele>51.9</ele>
      </trkpt>
      <trkpt lat="30.060080" lon="-115.726200">
        <ele>51.6</ele>
      </trkpt>
      <trkpt lat="30.059410" lon="-115.725650">
        <ele>46.5</ele>
      </trkpt>
      <trkpt lat="30.059140" lon="-115.725480">
        <ele>45.6</ele>
      </trkpt>
      <trkpt lat="30.058520" lon="-115.725180">
        <ele>41.6</ele>
      </trkpt>
      <trkpt lat="30.058410" lon="-115.725070">
        <ele>39.6</ele>
      </trkpt>
      <trkpt lat="30.058380" lon="-115.724990">
        <ele>38.5</ele>
      </trkpt>
      <trkpt lat="30.058480" lon="-115.724750">
        <ele>38.7</ele>
      </trkpt>
      <trkpt lat="30.058770" lon="-115.724430">
        <ele>40.1</ele>
      </trkpt>
      <trkpt lat="30.059050" lon="-115.724180">
        <ele>41.1</ele>
      </trkpt>
      <trkpt lat="30.059540" lon="-115.723920">
        <ele>39.3</ele>
      </trkpt>
      <trkpt lat="30.060020" lon="-115.723660">
        <ele>37.4</ele>
      </trkpt>
      <trkpt lat="30.060520" lon="-115.723350">
        <ele>37.0</ele>
      </trkpt>
      <trkpt lat="30.061120" lon="-115.722920">
        <ele>38.8</ele>
      </trkpt>
      <trkpt lat="30.061730" lon="-115.722500">
        <ele>39.4</ele>
      </trkpt>
      <trkpt lat="30.062330" lon="-115.722070">
        <ele>39.1</ele>
      </trkpt>
      <trkpt lat="30.062940" lon="-115.721640">
        <ele>38.0</ele>
      </trkpt>
      <trkpt lat="30.063160" lon="-115.721450">
        <ele>38.1</ele>
      </trkpt>
      <trkpt lat="30.063470" lon="-115.721140">
        <ele>39.1</ele>
      </trkpt>
      <trkpt lat="30.063620" lon="-115.720910">
        <ele>39.6</ele>
      </trkpt>
      <trkpt lat="30.063910" lon="-115.720440">
        <ele>41.1</ele>
      </trkpt>
      <trkpt lat="30.064230" lon="-115.719930">
        <ele>42.2</ele>
      </trkpt>
      <trkpt lat="30.064560" lon="-115.719430">
        <ele>41.8</ele>
      </trkpt>
      <trkpt lat="30.064800" lon="-115.719120">
        <ele>41.1</ele>
      </trkpt>
      <trkpt lat="30.064970" lon="-115.718920">
        <ele>40.7</ele>
      </trkpt>
      <trkpt lat="30.065460" lon="-115.718490">
        <ele>41.4</ele>
      </trkpt>
      <trkpt lat="30.065610" lon="-115.718320">
        <ele>41.6</ele>
      </trkpt>
      <trkpt lat="30.065750" lon="-115.718130">
        <ele>42.0</ele>
      </trkpt>
      <trkpt lat="30.065930" lon="-115.717700">
        <ele>42.5</ele>
      </trkpt>
      <trkpt lat="30.066080" lon="-115.716890">
        <ele>42.2</ele>
      </trkpt>
      <trkpt lat="30.066240" lon="-115.716120">
        <ele>42.4</ele>
      </trkpt>
      <trkpt lat="30.066320" lon="-115.715860">
        <ele>42.6</ele>
      </trkpt>
      <trkpt lat="30.066480" lon="-115.715540">
        <ele>43.3</ele>
      </trkpt>
      <trkpt lat="30.066990" lon="-115.714840">
        <ele>44.9</ele>
      </trkpt>
      <trkpt lat="30.067500" lon="-115.714150">
        <ele>47.0</ele>
      </trkpt>
      <trkpt lat="30.067970" lon="-115.713530">
        <ele>46.7</ele>
      </trkpt>
      <trkpt lat="30.068440" lon="-115.712900">
        <ele>46.0</ele>
      </trkpt>
      <trkpt lat="30.068840" lon="-115.712460">
        <ele>45.6</ele>
      </trkpt>
      <trkpt lat="30.069250" lon="-115.712010">
        <ele>46.6</ele>
      </trkpt>
      <trkpt lat="30.069870" lon="-115.711310">
        <ele>47.3</ele>
      </trkpt>
      <trkpt lat="30.070480" lon="-115.710610">
        <ele>49.2</ele>
      </trkpt>
      <trkpt lat="30.071100" lon="-115.709910">
        <ele>51.3</ele>
      </trkpt>
      <trkpt lat="30.071540" lon="-115.709380">
        <ele>53.4</ele>
      </trkpt>
      <trkpt lat="30.071990" lon="-115.708840">
        <ele>55.0</ele>
      </trkpt>
      <trkpt lat="30.072430" lon="-115.708160">
        <ele>55.4</ele>
      </trkpt>
      <trkpt lat="30.072920" lon="-115.707300">
        <ele>53.5</ele>
      </trkpt>
      <trkpt lat="30.073420" lon="-115.706430">
        <ele>51.4</ele>
      </trkpt>
      <trkpt lat="30.073870" lon="-115.705650">
        <ele>49.5</ele>
      </trkpt>
      <trkpt lat="30.074330" lon="-115.704860">
        <ele>50.0</ele>
      </trkpt>
      <trkpt lat="30.074790" lon="-115.704070">
        <ele>54.9</ele>
      </trkpt>
      <trkpt lat="30.075140" lon="-115.703460">
        <ele>58.2</ele>
      </trkpt>
      <trkpt lat="30.075480" lon="-115.702840">
        <ele>63.1</ele>
      </trkpt>
      <trkpt lat="30.075880" lon="-115.701980">
        <ele>65.6</ele>
      </trkpt>
      <trkpt lat="30.076280" lon="-115.701120">
        <ele>63.4</ele>
      </trkpt>
      <trkpt lat="30.076680" lon="-115.700260">
        <ele>61.8</ele>
      </trkpt>
      <trkpt lat="30.077070" lon="-115.699400">
        <ele>61.0</ele>
      </trkpt>
      <trkpt lat="30.077470" lon="-115.698540">
        <ele>60.1</ele>
      </trkpt>
      <trkpt lat="30.077870" lon="-115.697680">
        <ele>69.0</ele>
      </trkpt>
      <trkpt lat="30.078260" lon="-115.696820">
        <ele>71.5</ele>
      </trkpt>
      <trkpt lat="30.078660" lon="-115.695960">
        <ele>59.3</ele>
      </trkpt>
      <trkpt lat="30.079060" lon="-115.695100">
        <ele>60.3</ele>
      </trkpt>
      <trkpt lat="30.079450" lon="-115.694470">
        <ele>65.0</ele>
      </trkpt>
      <trkpt lat="30.079960" lon="-115.693930">
        <ele>68.4</ele>
      </trkpt>
      <trkpt lat="30.080650" lon="-115.693320">
        <ele>60.5</ele>
      </trkpt>
      <trkpt lat="30.081330" lon="-115.692720">
        <ele>59.1</ele>
      </trkpt>
      <trkpt lat="30.082020" lon="-115.692110">
        <ele>58.6</ele>
      </trkpt>
      <trkpt lat="30.082710" lon="-115.691500">
        <ele>59.3</ele>
      </trkpt>
      <trkpt lat="30.083400" lon="-115.690900">
        <ele>55.4</ele>
      </trkpt>
      <trkpt lat="30.084090" lon="-115.690290">
        <ele>55.4</ele>
      </trkpt>
      <trkpt lat="30.084780" lon="-115.689680">
        <ele>59.0</ele>
      </trkpt>
      <trkpt lat="30.085460" lon="-115.689080">
        <ele>57.6</ele>
      </trkpt>
      <trkpt lat="30.086150" lon="-115.688470">
        <ele>58.1</ele>
      </trkpt>
      <trkpt lat="30.086840" lon="-115.687870">
        <ele>59.7</ele>
      </trkpt>
      <trkpt lat="30.087530" lon="-115.687260">
        <ele>60.8</ele>
      </trkpt>
      <trkpt lat="30.088220" lon="-115.686650">
        <ele>67.0</ele>
      </trkpt>
      <trkpt lat="30.088900" lon="-115.686050">
        <ele>67.4</ele>
      </trkpt>
      <trkpt lat="30.089430" lon="-115.685480">
        <ele>69.9</ele>
      </trkpt>
      <trkpt lat="30.089940" lon="-115.684770">
        <ele>76.1</ele>
      </trkpt>
      <trkpt lat="30.090460" lon="-115.683970">
        <ele>75.6</ele>
      </trkpt>
      <trkpt lat="30.090980" lon="-115.683180">
        <ele>70.3</ele>
      </trkpt>
      <trkpt lat="30.091500" lon="-115.682380">
        <ele>73.2</ele>
      </trkpt>
      <trkpt lat="30.092010" lon="-115.681580">
        <ele>71.5</ele>
      </trkpt>
      <trkpt lat="30.092530" lon="-115.680790">
        <ele>76.9</ele>
      </trkpt>
      <trkpt lat="30.093050" lon="-115.679990">
        <ele>71.0</ele>
      </trkpt>
      <trkpt lat="30.093570" lon="-115.679190">
        <ele>76.5</ele>
      </trkpt>
      <trkpt lat="30.094090" lon="-115.678390">
        <ele>74.9</ele>
      </trkpt>
      <trkpt lat="30.094600" lon="-115.677600">
        <ele>69.9</ele>
      </trkpt>
      <trkpt lat="30.095120" lon="-115.676800">
        <ele>69.3</ele>
      </trkpt>
      <trkpt lat="30.095510" lon="-115.676170">
        <ele>69.3</ele>
      </trkpt>
      <trkpt lat="30.095930" lon="-115.675400">
        <ele>70.8</ele>
      </trkpt>
      <trkpt lat="30.096270" lon="-115.674690">
        <ele>69.9</ele>
      </trkpt>
      <trkpt lat="30.096620" lon="-115.673980">
        <ele>70.7</ele>
      </trkpt>
      <trkpt lat="30.096960" lon="-115.673270">
        <ele>70.1</ele>
      </trkpt>
      <trkpt lat="30.097300" lon="-115.672570">
        <ele>69.0</ele>
      </trkpt>
      <trkpt lat="30.097580" lon="-115.671710">
        <ele>75.3</ele>
      </trkpt>
      <trkpt lat="30.097610" lon="-115.670990">
        <ele>77.5</ele>
      </trkpt>
      <trkpt lat="30.097450" lon="-115.670000">
        <ele>75.8</ele>
      </trkpt>
      <trkpt lat="30.097270" lon="-115.669010">
        <ele>74.2</ele>
      </trkpt>
      <trkpt lat="30.097090" lon="-115.668020">
        <ele>72.5</ele>
      </trkpt>
      <trkpt lat="30.096910" lon="-115.667030">
        <ele>70.9</ele>
      </trkpt>
      <trkpt lat="30.096730" lon="-115.666040">
        <ele>69.2</ele>
      </trkpt>
      <trkpt lat="30.096550" lon="-115.665050">
        <ele>67.6</ele>
      </trkpt>
      <trkpt lat="30.096370" lon="-115.664070">
        <ele>65.9</ele>
      </trkpt>
      <trkpt lat="30.096190" lon="-115.663080">
        <ele>64.3</ele>
      </trkpt>
      <trkpt lat="30.096010" lon="-115.662090">
        <ele>62.6</ele>
      </trkpt>
      <trkpt lat="30.095830" lon="-115.661100">
        <ele>61.0</ele>
      </trkpt>
      <trkpt lat="30.095710" lon="-115.660420">
        <ele>59.9</ele>
      </trkpt>
      <trkpt lat="30.095290" lon="-115.659530">
        <ele>64.9</ele>
      </trkpt>
      <trkpt lat="30.094710" lon="-115.658990">
        <ele>68.3</ele>
      </trkpt>
      <trkpt lat="30.094040" lon="-115.658710">
        <ele>71.6</ele>
      </trkpt>
      <trkpt lat="30.093270" lon="-115.658580">
        <ele>76.1</ele>
      </trkpt>
      <trkpt lat="30.092490" lon="-115.658440">
        <ele>85.6</ele>
      </trkpt>
      <trkpt lat="30.092050" lon="-115.658260">
        <ele>87.5</ele>
      </trkpt>
      <trkpt lat="30.091610" lon="-115.658080">
        <ele>88.3</ele>
      </trkpt>
      <trkpt lat="30.091240" lon="-115.657740">
        <ele>90.0</ele>
      </trkpt>
      <trkpt lat="30.090880" lon="-115.657400">
        <ele>92.2</ele>
      </trkpt>
      <trkpt lat="30.090630" lon="-115.656890">
        <ele>95.2</ele>
      </trkpt>
      <trkpt lat="30.090390" lon="-115.656380">
        <ele>98.6</ele>
      </trkpt>
      <trkpt lat="30.090210" lon="-115.655500">
        <ele>104.0</ele>
      </trkpt>
      <trkpt lat="30.090040" lon="-115.654630">
        <ele>108.1</ele>
      </trkpt>
      <trkpt lat="30.089870" lon="-115.654180">
        <ele>110.7</ele>
      </trkpt>
      <trkpt lat="30.089400" lon="-115.653320">
        <ele>115.8</ele>
      </trkpt>
      <trkpt lat="30.088930" lon="-115.652470">
        <ele>119.4</ele>
      </trkpt>
      <trkpt lat="30.088470" lon="-115.651610">
        <ele>125.7</ele>
      </trkpt>
      <trkpt lat="30.087990" lon="-115.650880">
        <ele>130.2</ele>
      </trkpt>
      <trkpt lat="30.087510" lon="-115.650150">
        <ele>137.3</ele>
      </trkpt>
      <trkpt lat="30.087030" lon="-115.649420">
        <ele>141.5</ele>
      </trkpt>
      <trkpt lat="30.086550" lon="-115.648690">
        <ele>147.4</ele>
      </trkpt>
      <trkpt lat="30.086140" lon="-115.648120">
        <ele>147.3</ele>
      </trkpt>
      <trkpt lat="30.085580" lon="-115.647540">
        <ele>144.8</ele>
      </trkpt>
      <trkpt lat="30.085030" lon="-115.646950">
        <ele>139.9</ele>
      </trkpt>
      <trkpt lat="30.084470" lon="-115.646370">
        <ele>143.9</ele>
      </trkpt>
      <trkpt lat="30.083920" lon="-115.645900">
        <ele>150.0</ele>
      </trkpt>
      <trkpt lat="30.083430" lon="-115.645610">
        <ele>154.7</ele>
      </trkpt>
      <trkpt lat="30.082750" lon="-115.645240">
        <ele>159.4</ele>
      </trkpt>
      <trkpt lat="30.082080" lon="-115.644870">
        <ele>160.7</ele>
      </trkpt>
      <trkpt lat="30.081400" lon="-115.644510">
        <ele>162.6</ele>
      </trkpt>
      <trkpt lat="30.080790" lon="-115.644140">
        <ele>162.6</ele>
      </trkpt>
      <trkpt lat="30.080230" lon="-115.643650">
        <ele>171.9</ele>
      </trkpt>
      <trkpt lat="30.079670" lon="-115.643160">
        <ele>177.0</ele>
      </trkpt>
      <trkpt lat="30.079310" lon="-115.642600">
        <ele>184.1</ele>
      </trkpt>
      <trkpt lat="30.078950" lon="-115.642040">
        <ele>185.7</ele>
      </trkpt>
      <trkpt lat="30.078530" lon="-115.641370">
        <ele>184.6</ele>
      </trkpt>
      <trkpt lat="30.077950" lon="-115.640740">
        <ele>180.7</ele>
      </trkpt>
      <trkpt lat="30.077360" lon="-115.640110">
        <ele>181.3</ele>
      </trkpt>
      <trkpt lat="30.076780" lon="-115.639480">
        <ele>181.1</ele>
      </trkpt>
      <trkpt lat="30.076190" lon="-115.638850">
        <ele>181.8</ele>
      </trkpt>
      <trkpt lat="30.075650" lon="-115.638060">
        <ele>182.7</ele>
      </trkpt>
      <trkpt lat="30.075530" lon="-115.637610">
        <ele>180.0</ele>
      </trkpt>
      <trkpt lat="30.075390" lon="-115.636710">
        <ele>173.1</ele>
      </trkpt>
      <trkpt lat="30.075260" lon="-115.635810">
        <ele>173.1</ele>
      </trkpt>
      <trkpt lat="30.075120" lon="-115.634910">
        <ele>170.1</ele>
      </trkpt>
      <trkpt lat="30.075090" lon="-115.634420">
        <ele>168.2</ele>
      </trkpt>
      <trkpt lat="30.075140" lon="-115.634050">
        <ele>166.6</ele>
      </trkpt>
      <trkpt lat="30.075450" lon="-115.633270">
        <ele>162.8</ele>
      </trkpt>
      <trkpt lat="30.075760" lon="-115.632490">
        <ele>158.5</ele>
      </trkpt>
      <trkpt lat="30.076070" lon="-115.631710">
        <ele>158.5</ele>
      </trkpt>
      <trkpt lat="30.076160" lon="-115.631350">
        <ele>158.3</ele>
      </trkpt>
      <trkpt lat="30.076090" lon="-115.630920">
        <ele>159.1</ele>
      </trkpt>
      <trkpt lat="30.075900" lon="-115.630620">
        <ele>160.3</ele>
      </trkpt>
      <trkpt lat="30.075490" lon="-115.630140">
        <ele>161.2</ele>
      </trkpt>
      <trkpt lat="30.075340" lon="-115.629850">
        <ele>162.1</ele>
      </trkpt>
      <trkpt lat="30.075240" lon="-115.629530">
        <ele>164.5</ele>
      </trkpt>
      <trkpt lat="30.075090" lon="-115.628710">
        <ele>167.6</ele>
      </trkpt>
      <trkpt lat="30.074900" lon="-115.628200">
        <ele>167.3</ele>
      </trkpt>
      <trkpt lat="30.074500" lon="-115.627430">
        <ele>162.9</ele>
      </trkpt>
      <trkpt lat="30.074110" lon="-115.626650">
        <ele>163.3</ele>
      </trkpt>
      <trkpt lat="30.073720" lon="-115.625880">
        <ele>167.2</ele>
      </trkpt>
      <trkpt lat="30.073560" lon="-115.625680">
        <ele>169.5</ele>
      </trkpt>
      <trkpt lat="30.073350" lon="-115.625470">
        <ele>172.2</ele>
      </trkpt>
      <trkpt lat="30.072870" lon="-115.625140">
        <ele>177.2</ele>
      </trkpt>
      <trkpt lat="30.072620" lon="-115.624900">
        <ele>180.5</ele>
      </trkpt>
      <trkpt lat="30.072430" lon="-115.624430">
        <ele>187.0</ele>
      </trkpt>
      <trkpt lat="30.072240" lon="-115.623620">
        <ele>188.3</ele>
      </trkpt>
      <trkpt lat="30.072060" lon="-115.622820">
        <ele>178.9</ele>
      </trkpt>
      <trkpt lat="30.071880" lon="-115.622010">
        <ele>169.4</ele>
      </trkpt>
      <trkpt lat="30.071880" lon="-115.621700">
        <ele>167.9</ele>
      </trkpt>
      <trkpt lat="30.071920" lon="-115.621300">
        <ele>167.8</ele>
      </trkpt>
      <trkpt lat="30.072060" lon="-115.620330">
        <ele>170.5</ele>
      </trkpt>
      <trkpt lat="30.072060" lon="-115.620040">
        <ele>172.9</ele>
      </trkpt>
      <trkpt lat="30.072050" lon="-115.619840">
        <ele>173.3</ele>
      </trkpt>
      <trkpt lat="30.071920" lon="-115.618990">
        <ele>174.8</ele>
      </trkpt>
      <trkpt lat="30.071800" lon="-115.618140">
        <ele>175.7</ele>
      </trkpt>
      <trkpt lat="30.071680" lon="-115.617290">
        <ele>173.3</ele>
      </trkpt>
      <trkpt lat="30.071560" lon="-115.616440">
        <ele>172.3</ele>
      </trkpt>
      <trkpt lat="30.071450" lon="-115.616060">
        <ele>173.2</ele>
      </trkpt>
      <trkpt lat="30.071310" lon="-115.615820">
        <ele>173.6</ele>
      </trkpt>
      <trkpt lat="30.071210" lon="-115.615700">
        <ele>173.5</ele>
      </trkpt>
      <trkpt lat="30.070860" lon="-115.615310">
        <ele>173.3</ele>
      </trkpt>
      <trkpt lat="30.070500" lon="-115.614920">
        <ele>175.6</ele>
      </trkpt>
      <trkpt lat="30.070310" lon="-115.614640">
        <ele>179.9</ele>
      </trkpt>
      <trkpt lat="30.070190" lon="-115.614420">
        <ele>183.0</ele>
      </trkpt>
      <trkpt lat="30.069820" lon="-115.613620">
        <ele>197.1</ele>
      </trkpt>
      <trkpt lat="30.069450" lon="-115.612820">
        <ele>202.5</ele>
      </trkpt>
      <trkpt lat="30.069080" lon="-115.612030">
        <ele>196.8</ele>
      </trkpt>
      <trkpt lat="30.068710" lon="-115.611230">
        <ele>191.9</ele>
      </trkpt>
      <trkpt lat="30.068340" lon="-115.610440">
        <ele>196.3</ele>
      </trkpt>
      <trkpt lat="30.067980" lon="-115.609640">
        <ele>197.2</ele>
      </trkpt>
      <trkpt lat="30.067850" lon="-115.609280">
        <ele>194.7</ele>
      </trkpt>
      <trkpt lat="30.067800" lon="-115.609040">
        <ele>192.8</ele>
      </trkpt>
      <trkpt lat="30.067800" lon="-115.608720">
        <ele>190.0</ele>
      </trkpt>
      <trkpt lat="30.067930" lon="-115.607930">
        <ele>184.5</ele>
      </trkpt>
      <trkpt lat="30.068110" lon="-115.607040">
        <ele>182.2</ele>
      </trkpt>
      <trkpt lat="30.068300" lon="-115.606150">
        <ele>181.2</ele>
      </trkpt>
      <trkpt lat="30.068480" lon="-115.605260">
        <ele>181.8</ele>
      </trkpt>
      <trkpt lat="30.068660" lon="-115.604370">
        <ele>186.8</ele>
      </trkpt>
      <trkpt lat="30.068840" lon="-115.603480">
        <ele>186.0</ele>
      </trkpt>
      <trkpt lat="30.069020" lon="-115.602600">
        <ele>185.6</ele>
      </trkpt>
      <trkpt lat="30.069090" lon="-115.602310">
        <ele>184.2</ele>
      </trkpt>
      <trkpt lat="30.069150" lon="-115.602150">
        <ele>182.7</ele>
      </trkpt>
      <trkpt lat="30.069230" lon="-115.601950">
        <ele>180.2</ele>
      </trkpt>
      <trkpt lat="30.069520" lon="-115.601440">
        <ele>175.3</ele>
      </trkpt>
      <trkpt lat="30.069800" lon="-115.600920">
        <ele>173.2</ele>
      </trkpt>
      <trkpt lat="30.069880" lon="-115.600730">
        <ele>172.2</ele>
      </trkpt>
      <trkpt lat="30.069930" lon="-115.600430">
        <ele>170.5</ele>
      </trkpt>
      <trkpt lat="30.069920" lon="-115.600140">
        <ele>169.2</ele>
      </trkpt>
      <trkpt lat="30.069840" lon="-115.599750">
        <ele>167.9</ele>
      </trkpt>
      <trkpt lat="30.069530" lon="-115.598810">
        <ele>166.0</ele>
      </trkpt>
      <trkpt lat="30.069210" lon="-115.597870">
        <ele>166.2</ele>
      </trkpt>
      <trkpt lat="30.068970" lon="-115.597290">
        <ele>167.5</ele>
      </trkpt>
      <trkpt lat="30.068820" lon="-115.596970">
        <ele>167.5</ele>
      </trkpt>
      <trkpt lat="30.068520" lon="-115.596390">
        <ele>167.8</ele>
      </trkpt>
      <trkpt lat="30.068230" lon="-115.595820">
        <ele>170.8</ele>
      </trkpt>
      <trkpt lat="30.067800" lon="-115.595010">
        <ele>172.9</ele>
      </trkpt>
      <trkpt lat="30.067380" lon="-115.594200">
        <ele>171.5</ele>
      </trkpt>
      <trkpt lat="30.066950" lon="-115.593390">
        <ele>171.9</ele>
      </trkpt>
      <trkpt lat="30.066530" lon="-115.592580">
        <ele>173.7</ele>
      </trkpt>
      <trkpt lat="30.066100" lon="-115.591770">
        <ele>176.6</ele>
      </trkpt>
      <trkpt lat="30.065830" lon="-115.591310">
        <ele>177.6</ele>
      </trkpt>
      <trkpt lat="30.065540" lon="-115.590880">
        <ele>179.3</ele>
      </trkpt>
      <trkpt lat="30.065080" lon="-115.590240">
        <ele>179.8</ele>
      </trkpt>
      <trkpt lat="30.064630" lon="-115.589600">
        <ele>179.6</ele>
      </trkpt>
      <trkpt lat="30.064180" lon="-115.588960">
        <ele>178.7</ele>
      </trkpt>
      <trkpt lat="30.063720" lon="-115.588330">
        <ele>179.1</ele>
      </trkpt>
      <trkpt lat="30.063140" lon="-115.587590">
        <ele>183.2</ele>
      </trkpt>
      <trkpt lat="30.062670" lon="-115.587050">
        <ele>183.9</ele>
      </trkpt>
      <trkpt lat="30.062200" lon="-115.586510">
        <ele>186.3</ele>
      </trkpt>
      <trkpt lat="30.061890" lon="-115.586140">
        <ele>186.9</ele>
      </trkpt>
      <trkpt lat="30.061430" lon="-115.585530">
        <ele>187.2</ele>
      </trkpt>
      <trkpt lat="30.060970" lon="-115.584960">
        <ele>185.8</ele>
      </trkpt>
      <trkpt lat="30.060520" lon="-115.584400">
        <ele>189.3</ele>
      </trkpt>
      <trkpt lat="30.059990" lon="-115.583860">
        <ele>190.1</ele>
      </trkpt>
      <trkpt lat="30.059390" lon="-115.583140">
        <ele>191.9</ele>
      </trkpt>
      <trkpt lat="30.058790" lon="-115.582420">
        <ele>193.1</ele>
      </trkpt>
      <trkpt lat="30.058200" lon="-115.581700">
        <ele>193.0</ele>
      </trkpt>
      <trkpt lat="30.057830" lon="-115.581270">
        <ele>194.5</ele>
      </trkpt>
      <trkpt lat="30.057640" lon="-115.581090">
        <ele>194.7</ele>
      </trkpt>
      <trkpt lat="30.057280" lon="-115.580770">
        <ele>195.3</ele>
      </trkpt>
      <trkpt lat="30.056560" lon="-115.580180">
        <ele>197.7</ele>
      </trkpt>
      <trkpt lat="30.055830" lon="-115.579590">
        <ele>202.5</ele>
      </trkpt>
      <trkpt lat="30.055110" lon="-115.579000">
        <ele>203.5</ele>
      </trkpt>
      <trkpt lat="30.054860" lon="-115.578780">
        <ele>203.2</ele>
      </trkpt>
      <trkpt lat="30.054460" lon="-115.578360">
        <ele>203.1</ele>
      </trkpt>
      <trkpt lat="30.053970" lon="-115.577740">
        <ele>204.6</ele>
      </trkpt>
      <trkpt lat="30.053470" lon="-115.577130">
        <ele>204.3</ele>
      </trkpt>
      <trkpt lat="30.052980" lon="-115.576510">
        <ele>204.2</ele>
      </trkpt>
      <trkpt lat="30.052490" lon="-115.575900">
        <ele>204.2</ele>
      </trkpt>
      <trkpt lat="30.051960" lon="-115.575270">
        <ele>206.4</ele>
      </trkpt>
      <trkpt lat="30.051830" lon="-115.575060">
        <ele>206.5</ele>
      </trkpt>
      <trkpt lat="30.051720" lon="-115.574820">
        <ele>207.0</ele>
      </trkpt>
      <trkpt lat="30.051520" lon="-115.573890">
        <ele>208.7</ele>
      </trkpt>
      <trkpt lat="30.051320" lon="-115.572960">
        <ele>210.2</ele>
      </trkpt>
      <trkpt lat="30.051160" lon="-115.572400">
        <ele>211.2</ele>
      </trkpt>
      <trkpt lat="30.050850" lon="-115.571540">
        <ele>213.9</ele>
      </trkpt>
      <trkpt lat="30.050540" lon="-115.570680">
        <ele>215.2</ele>
      </trkpt>
      <trkpt lat="30.050230" lon="-115.569820">
        <ele>215.1</ele>
      </trkpt>
      <trkpt lat="30.049920" lon="-115.568910">
        <ele>216.5</ele>
      </trkpt>
      <trkpt lat="30.049610" lon="-115.568010">
        <ele>219.1</ele>
      </trkpt>
      <trkpt lat="30.049300" lon="-115.567110">
        <ele>219.5</ele>
      </trkpt>
      <trkpt lat="30.048990" lon="-115.566210">
        <ele>222.0</ele>
      </trkpt>
      <trkpt lat="30.048690" lon="-115.565300">
        <ele>222.3</ele>
      </trkpt>
      <trkpt lat="30.048570" lon="-115.565050">
        <ele>222.3</ele>
      </trkpt>
      <trkpt lat="30.048460" lon="-115.564870">
        <ele>222.4</ele>
      </trkpt>
      <trkpt lat="30.048070" lon="-115.564360">
        <ele>224.4</ele>
      </trkpt>
      <trkpt lat="30.047680" lon="-115.563860">
        <ele>225.4</ele>
      </trkpt>
      <trkpt lat="30.047360" lon="-115.563500">
        <ele>226.9</ele>
      </trkpt>
      <trkpt lat="30.047030" lon="-115.563140">
        <ele>227.9</ele>
      </trkpt>
      <trkpt lat="30.046900" lon="-115.562930">
        <ele>227.9</ele>
      </trkpt>
      <trkpt lat="30.046820" lon="-115.562680">
        <ele>227.3</ele>
      </trkpt>
      <trkpt lat="30.046740" lon="-115.561980">
        <ele>230.5</ele>
      </trkpt>
      <trkpt lat="30.046670" lon="-115.561280">
        <ele>240.9</ele>
      </trkpt>
      <trkpt lat="30.046590" lon="-115.560580">
        <ele>253.0</ele>
      </trkpt>
      <trkpt lat="30.046540" lon="-115.560350">
        <ele>255.9</ele>
      </trkpt>
      <trkpt lat="30.046470" lon="-115.560100">
        <ele>258.7</ele>
      </trkpt>
      <trkpt lat="30.046220" lon="-115.559420">
        <ele>264.0</ele>
      </trkpt>
      <trkpt lat="30.045970" lon="-115.558730">
        <ele>274.7</ele>
      </trkpt>
      <trkpt lat="30.045710" lon="-115.558050">
        <ele>281.8</ele>
      </trkpt>
      <trkpt lat="30.045600" lon="-115.557830">
        <ele>280.7</ele>
      </trkpt>
      <trkpt lat="30.045500" lon="-115.557680">
        <ele>279.4</ele>
      </trkpt>
      <trkpt lat="30.044900" lon="-115.556980">
        <ele>276.7</ele>
      </trkpt>
      <trkpt lat="30.044290" lon="-115.556280">
        <ele>279.3</ele>
      </trkpt>
      <trkpt lat="30.043690" lon="-115.555580">
        <ele>283.5</ele>
      </trkpt>
      <trkpt lat="30.043430" lon="-115.555130">
        <ele>285.0</ele>
      </trkpt>
      <trkpt lat="30.043320" lon="-115.554610">
        <ele>288.6</ele>
      </trkpt>
      <trkpt lat="30.043310" lon="-115.553960">
        <ele>293.8</ele>
      </trkpt>
      <trkpt lat="30.043230" lon="-115.553610">
        <ele>294.6</ele>
      </trkpt>
      <trkpt lat="30.043030" lon="-115.553370">
        <ele>293.6</ele>
      </trkpt>
      <trkpt lat="30.042350" lon="-115.552790">
        <ele>291.4</ele>
      </trkpt>
      <trkpt lat="30.042200" lon="-115.552630">
        <ele>293.0</ele>
      </trkpt>
      <trkpt lat="30.042020" lon="-115.552370">
        <ele>296.0</ele>
      </trkpt>
      <trkpt lat="30.041560" lon="-115.551600">
        <ele>305.5</ele>
      </trkpt>
      <trkpt lat="30.041110" lon="-115.550830">
        <ele>308.3</ele>
      </trkpt>
      <trkpt lat="30.040650" lon="-115.550070">
        <ele>310.8</ele>
      </trkpt>
      <trkpt lat="30.040190" lon="-115.549260">
        <ele>311.3</ele>
      </trkpt>
      <trkpt lat="30.039730" lon="-115.548460">
        <ele>309.4</ele>
      </trkpt>
      <trkpt lat="30.039510" lon="-115.548150">
        <ele>310.9</ele>
      </trkpt>
      <trkpt lat="30.039230" lon="-115.547860">
        <ele>315.1</ele>
      </trkpt>
      <trkpt lat="30.038930" lon="-115.547630">
        <ele>318.9</ele>
      </trkpt>
      <trkpt lat="30.038510" lon="-115.547340">
        <ele>320.8</ele>
      </trkpt>
      <trkpt lat="30.038090" lon="-115.547050">
        <ele>319.6</ele>
      </trkpt>
      <trkpt lat="30.037430" lon="-115.546630">
        <ele>320.9</ele>
      </trkpt>
      <trkpt lat="30.037010" lon="-115.546320">
        <ele>320.3</ele>
      </trkpt>
      <trkpt lat="30.036590" lon="-115.546000">
        <ele>321.0</ele>
      </trkpt>
      <trkpt lat="30.036100" lon="-115.545570">
        <ele>324.4</ele>
      </trkpt>
      <trkpt lat="30.035620" lon="-115.545140">
        <ele>327.8</ele>
      </trkpt>
      <trkpt lat="30.034970" lon="-115.544530">
        <ele>331.6</ele>
      </trkpt>
      <trkpt lat="30.034320" lon="-115.543930">
        <ele>334.3</ele>
      </trkpt>
      <trkpt lat="30.033670" lon="-115.543320">
        <ele>336.0</ele>
      </trkpt>
      <trkpt lat="30.033020" lon="-115.542710">
        <ele>334.8</ele>
      </trkpt>
      <trkpt lat="30.032360" lon="-115.542100">
        <ele>332.2</ele>
      </trkpt>
      <trkpt lat="30.031710" lon="-115.541500">
        <ele>330.9</ele>
      </trkpt>
      <trkpt lat="30.031060" lon="-115.540890">
        <ele>328.7</ele>
      </trkpt>
      <trkpt lat="30.030410" lon="-115.540280">
        <ele>327.2</ele>
      </trkpt>
      <trkpt lat="30.029760" lon="-115.539670">
        <ele>328.5</ele>
      </trkpt>
      <trkpt lat="30.029110" lon="-115.539070">
        <ele>331.2</ele>
      </trkpt>
      <trkpt lat="30.028450" lon="-115.538460">
        <ele>334.2</ele>
      </trkpt>
      <trkpt lat="30.027800" lon="-115.537850">
        <ele>335.6</ele>
      </trkpt>
      <trkpt lat="30.027640" lon="-115.537650">
        <ele>336.3</ele>
      </trkpt>
      <trkpt lat="30.027450" lon="-115.537360">
        <ele>337.7</ele>
      </trkpt>
      <trkpt lat="30.027220" lon="-115.536690">
        <ele>339.6</ele>
      </trkpt>
      <trkpt lat="30.026980" lon="-115.536030">
        <ele>334.4</ele>
      </trkpt>
      <trkpt lat="30.026740" lon="-115.535360">
        <ele>331.7</ele>
      </trkpt>
      <trkpt lat="30.026690" lon="-115.535040">
        <ele>332.0</ele>
      </trkpt>
      <trkpt lat="30.026680" lon="-115.534560">
        <ele>333.1</ele>
      </trkpt>
      <trkpt lat="30.026750" lon="-115.534190">
        <ele>334.1</ele>
      </trkpt>
      <trkpt lat="30.026940" lon="-115.533700">
        <ele>331.2</ele>
      </trkpt>
      <trkpt lat="30.027390" lon="-115.532820">
        <ele>325.9</ele>
      </trkpt>
      <trkpt lat="30.027830" lon="-115.531940">
        <ele>319.7</ele>
      </trkpt>
      <trkpt lat="30.028280" lon="-115.531070">
        <ele>310.6</ele>
      </trkpt>
      <trkpt lat="30.028440" lon="-115.530820">
        <ele>306.9</ele>
      </trkpt>
      <trkpt lat="30.028600" lon="-115.530630">
        <ele>305.9</ele>
      </trkpt>
      <trkpt lat="30.028950" lon="-115.530320">
        <ele>303.6</ele>
      </trkpt>
      <trkpt lat="30.029560" lon="-115.529810">
        <ele>300.0</ele>
      </trkpt>
      <trkpt lat="30.030130" lon="-115.529350">
        <ele>299.3</ele>
      </trkpt>
      <trkpt lat="30.030690" lon="-115.528900">
        <ele>299.5</ele>
      </trkpt>
      <trkpt lat="30.031260" lon="-115.528440">
        <ele>298.6</ele>
      </trkpt>
      <trkpt lat="30.031610" lon="-115.528060">
        <ele>298.3</ele>
      </trkpt>
      <trkpt lat="30.032000" lon="-115.527380">
        <ele>301.3</ele>
      </trkpt>
      <trkpt lat="30.032170" lon="-115.526930">
        <ele>303.5</ele>
      </trkpt>
      <trkpt lat="30.032460" lon="-115.526130">
        <ele>306.9</ele>
      </trkpt>
      <trkpt lat="30.032740" lon="-115.525330">
        <ele>312.9</ele>
      </trkpt>
      <trkpt lat="30.033030" lon="-115.524530">
        <ele>314.3</ele>
      </trkpt>
      <trkpt lat="30.033320" lon="-115.523730">
        <ele>311.4</ele>
      </trkpt>
      <trkpt lat="30.033550" lon="-115.523190">
        <ele>311.4</ele>
      </trkpt>
      <trkpt lat="30.033690" lon="-115.523020">
        <ele>311.8</ele>
      </trkpt>
      <trkpt lat="30.033870" lon="-115.522870">
        <ele>311.7</ele>
      </trkpt>
      <trkpt lat="30.034350" lon="-115.522550">
        <ele>311.6</ele>
      </trkpt>
      <trkpt lat="30.034430" lon="-115.522450">
        <ele>311.7</ele>
      </trkpt>
      <trkpt lat="30.034490" lon="-115.522360">
        <ele>311.5</ele>
      </trkpt>
      <trkpt lat="30.034720" lon="-115.521760">
        <ele>306.5</ele>
      </trkpt>
      <trkpt lat="30.034820" lon="-115.521570">
        <ele>305.7</ele>
      </trkpt>
      <trkpt lat="30.034940" lon="-115.521450">
        <ele>305.6</ele>
      </trkpt>
      <trkpt lat="30.035080" lon="-115.521370">
        <ele>304.2</ele>
      </trkpt>
      <trkpt lat="30.035820" lon="-115.521110">
        <ele>291.2</ele>
      </trkpt>
      <trkpt lat="30.036040" lon="-115.520910">
        <ele>287.4</ele>
      </trkpt>
      <trkpt lat="30.036140" lon="-115.520640">
        <ele>286.0</ele>
      </trkpt>
      <trkpt lat="30.036150" lon="-115.520370">
        <ele>285.8</ele>
      </trkpt>
      <trkpt lat="30.036010" lon="-115.519770">
        <ele>285.6</ele>
      </trkpt>
      <trkpt lat="30.036000" lon="-115.519530">
        <ele>285.5</ele>
      </trkpt>
      <trkpt lat="30.036020" lon="-115.519310">
        <ele>285.4</ele>
      </trkpt>
      <trkpt lat="30.036080" lon="-115.519120">
        <ele>286.2</ele>
      </trkpt>
      <trkpt lat="30.036210" lon="-115.518870">
        <ele>290.1</ele>
      </trkpt>
      <trkpt lat="30.036570" lon="-115.518180">
        <ele>294.4</ele>
      </trkpt>
      <trkpt lat="30.036890" lon="-115.517570">
        <ele>298.3</ele>
      </trkpt>
      <trkpt lat="30.037210" lon="-115.516950">
        <ele>302.2</ele>
      </trkpt>
      <trkpt lat="30.037540" lon="-115.516330">
        <ele>306.2</ele>
      </trkpt>
      <trkpt lat="30.037600" lon="-115.516170">
        <ele>307.1</ele>
      </trkpt>
      <trkpt lat="30.037630" lon="-115.516050">
        <ele>307.8</ele>
      </trkpt>
      <trkpt lat="30.037670" lon="-115.515680">
        <ele>309.9</ele>
      </trkpt>
      <trkpt lat="30.037700" lon="-115.515480">
        <ele>310.4</ele>
      </trkpt>
      <trkpt lat="30.037740" lon="-115.515330">
        <ele>310.9</ele>
      </trkpt>
      <trkpt lat="30.037880" lon="-115.514950">
        <ele>313.0</ele>
      </trkpt>
      <trkpt lat="30.037910" lon="-115.514830">
        <ele>313.1</ele>
      </trkpt>
      <trkpt lat="30.037900" lon="-115.514680">
        <ele>312.8</ele>
      </trkpt>
      <trkpt lat="30.037780" lon="-115.513850">
        <ele>315.7</ele>
      </trkpt>
      <trkpt lat="30.037780" lon="-115.513580">
        <ele>318.8</ele>
      </trkpt>
      <trkpt lat="30.037820" lon="-115.513380">
        <ele>321.2</ele>
      </trkpt>
      <trkpt lat="30.037900" lon="-115.513150">
        <ele>323.2</ele>
      </trkpt>
      <trkpt lat="30.038020" lon="-115.512950">
        <ele>324.8</ele>
      </trkpt>
      <trkpt lat="30.038570" lon="-115.512460">
        <ele>328.8</ele>
      </trkpt>
      <trkpt lat="30.039120" lon="-115.511960">
        <ele>333.4</ele>
      </trkpt>
      <trkpt lat="30.039670" lon="-115.511460">
        <ele>341.3</ele>
      </trkpt>
      <trkpt lat="30.040230" lon="-115.510970">
        <ele>348.5</ele>
      </trkpt>
    </trkseg>
  </trk>
</gpx>