<?xml version="1.0" encoding="UTF-8"?>
<gpx version="1.1" creator="GPX Segmenter" xmlns="http://www.topografix.com/GPX/1/1">
  <trk>
    <name>Baja - Segment 49 of 49</name>
    <trkseg>
      <trkpt lat="22.890780" lon="-109.906830">
        <ele>10.8</ele>
      </trkpt>
      <trkpt lat="22.890810" lon="-109.906200">
        <ele>11.6</ele>
      </trkpt>
      <trkpt lat="22.890870" lon="-109.905910">
        <ele>11.8</ele>
      </trkpt>
      <trkpt lat="22.891130" lon="-109.905250">
        <ele>11.2</ele>
      </trkpt>
      <trkpt lat="22.891390" lon="-109.904590">
        <ele>10.0</ele>
      </trkpt>
      <trkpt lat="22.891650" lon="-109.903930">
        <ele>9.9</ele>
      </trkpt>
      <trkpt lat="22.891820" lon="-109.903470">
        <ele>11.1</ele>
      </trkpt>
      <trkpt lat="22.891980" lon="-109.903010">
        <ele>10.8</ele>
      </trkpt>
      <trkpt lat="22.892240" lon="-109.902260">
        <ele>9.9</ele>
      </trkpt>
      <trkpt lat="22.892370" lon="-109.902000">
        <ele>9.5</ele>
      </trkpt>
      <trkpt lat="22.892690" lon="-109.901560">
        <ele>8.3</ele>
      </trkpt>
      <trkpt lat="22.893000" lon="-109.901110">
        <ele>7.7</ele>
      </trkpt>
      <trkpt lat="22.893110" lon="-109.900970">
        <ele>7.8</ele>
      </trkpt>
      <trkpt lat="22.893190" lon="-109.900880">
        <ele>7.9</ele>
      </trkpt>
      <trkpt lat="22.893710" lon="-109.900370">
        <ele>8.8</ele>
      </trkpt>
      <trkpt lat="22.894220" lon="-109.899870">
        <ele>9.8</ele>
      </trkpt>
      <trkpt lat="22.894730" lon="-109.899370">
        <ele>8.0</ele>
      </trkpt>
      <trkpt lat="22.894780" lon="-109.899310">
        <ele>7.8</ele>
      </trkpt>
      <trkpt lat="22.894800" lon="-109.899260">
        <ele>7.7</ele>
      </trkpt>
      <trkpt lat="22.894820" lon="-109.899200">
        <ele>7.6</ele>
      </trkpt>
      <trkpt lat="22.894820" lon="-109.899160">
        <ele>7.7</ele>
      </trkpt>
      <trkpt lat="22.894810" lon="-109.899110">
        <ele>7.9</ele>
      </trkpt>
      <trkpt lat="22.894600" lon="-109.898740">
        <ele>10.4</ele>
      </trkpt>
      <trkpt lat="22.894560" lon="-109.898760">
        <ele>10.6</ele>
      </trkpt>
      <trkpt lat="22.894510" lon="-109.898750">
        <ele>10.9</ele>
      </trkpt>
      <trkpt lat="22.894480" lon="-109.898720">
        <ele>11.3</ele>
      </trkpt>
      <trkpt lat="22.894470" lon="-109.898680">
        <ele>11.6</ele>
      </trkpt>
      <trkpt lat="22.894470" lon="-109.898640">
        <ele>11.8</ele>
      </trkpt>
      <trkpt lat="22.894480" lon="-109.898600">
        <ele>11.9</ele>
      </trkpt>
      <trkpt lat="22.894510" lon="-109.898570">
        <ele>11.9</ele>
      </trkpt>
      <trkpt lat="22.894540" lon="-109.898570">
        <ele>11.7</ele>
      </trkpt>
      <trkpt lat="22.894620" lon="-109.898540">
        <ele>11.2</ele>
      </trkpt>
      <trkpt lat="22.894660" lon="-109.898520">
        <ele>11.0</ele>
      </trkpt>
      <trkpt lat="22.895260" lon="-109.898100">
        <ele>11.2</ele>
      </trkpt>
      <trkpt lat="22.895290" lon="-109.898050">
        <ele>11.6</ele>
      </trkpt>
      <trkpt lat="22.895350" lon="-109.897920">
        <ele>12.6</ele>
      </trkpt>
      <trkpt lat="22.895410" lon="-109.897850">
        <ele>13.0</ele>
      </trkpt>
      <trkpt lat="22.896050" lon="-109.897460">
        <ele>13.6</ele>
      </trkpt>
      <trkpt lat="22.896120" lon="-109.897440">
        <ele>13.5</ele>
      </trkpt>
      <trkpt lat="22.896290" lon="-109.897330">
        <ele>13.4</ele>
      </trkpt>
      <trkpt lat="22.896650" lon="-109.897030">
        <ele>12.6</ele>
      </trkpt>
      <trkpt lat="22.896670" lon="-109.896990">
        <ele>12.6</ele>
      </trkpt>
      <trkpt lat="22.896670" lon="-109.896940">
        <ele>12.7</ele>
      </trkpt>
      <trkpt lat="22.896790" lon="-109.896800">
        <ele>12.8</ele>
      </trkpt>
      <trkpt lat="22.896830" lon="-109.896770">
        <ele>12.9</ele>
      </trkpt>
      <trkpt lat="22.896930" lon="-109.896720">
        <ele>12.9</ele>
      </trkpt>
      <trkpt lat="22.897020" lon="-109.896700">
        <ele>13.0</ele>
      </trkpt>
      <trkpt lat="22.897180" lon="-109.896470">
        <ele>12.7</ele>
      </trkpt>
      <trkpt lat="22.897200" lon="-109.896420">
        <ele>12.6</ele>
      </trkpt>
      <trkpt lat="22.897200" lon="-109.896370">
        <ele>12.5</ele>
      </trkpt>
      <trkpt lat="22.897150" lon="-109.896360">
        <ele>12.5</ele>
      </trkpt>
      <trkpt lat="22.897120" lon="-109.896320">
        <ele>12.4</ele>
      </trkpt>
      <trkpt lat="22.897100" lon="-109.896260">
        <ele>12.3</ele>
      </trkpt>
      <trkpt lat="22.897110" lon="-109.896210">
        <ele>12.2</ele>
      </trkpt>
      <trkpt lat="22.897140" lon="-109.896170">
        <ele>12.1</ele>
      </trkpt>
      <trkpt lat="22.897190" lon="-109.896140">
        <ele>12.1</ele>
      </trkpt>
      <trkpt lat="22.897240" lon="-109.896150">
        <ele>12.2</ele>
      </trkpt>
      <trkpt lat="22.897280" lon="-109.896180">
        <ele>12.3</ele>
      </trkpt>
      <trkpt lat="22.897310" lon="-109.896220">
        <ele>12.4</ele>
      </trkpt>
      <trkpt lat="22.897310" lon="-109.896280">
        <ele>12.5</ele>
      </trkpt>
      <trkpt lat="22.897420" lon="-109.896290">
        <ele>12.8</ele>
      </trkpt>
      <trkpt lat="22.898290" lon="-109.896410">
        <ele>15.1</ele>
      </trkpt>
      <trkpt lat="22.898380" lon="-109.896420">
        <ele>15.3</ele>
      </trkpt>
      <trkpt lat="22.898460" lon="-109.896400">
        <ele>15.5</ele>
      </trkpt>
      <trkpt lat="22.898510" lon="-109.896390">
        <ele>15.7</ele>
      </trkpt>
      <trkpt lat="22.898980" lon="-109.896110">
        <ele>16.3</ele>
      </trkpt>
      <trkpt lat="22.899110" lon="-109.896060">
        <ele>16.5</ele>
      </trkpt>
      <trkpt lat="22.899200" lon="-109.896050">
        <ele>16.5</ele>
      </trkpt>
      <trkpt lat="22.899280" lon="-109.896040">
        <ele>16.4</ele>
      </trkpt>
      <trkpt lat="22.899410" lon="-109.896060">
        <ele>16.3</ele>
      </trkpt>
      <trkpt lat="22.899460" lon="-109.896070">
        <ele>16.3</ele>
      </trkpt>
      <trkpt lat="22.899520" lon="-109.896110">
        <ele>16.2</ele>
      </trkpt>
      <trkpt lat="22.899650" lon="-109.896210">
        <ele>16.0</ele>
      </trkpt>
      <trkpt lat="22.900170" lon="-109.896700">
        <ele>16.1</ele>
      </trkpt>
      <trkpt lat="22.900690" lon="-109.897180">
        <ele>16.2</ele>
      </trkpt>
      <trkpt lat="22.901140" lon="-109.896380">
        <ele>17.2</ele>
      </trkpt>
      <trkpt lat="22.901590" lon="-109.895580">
        <ele>18.4</ele>
      </trkpt>
      <trkpt lat="22.902040" lon="-109.894780">
        <ele>19.0</ele>
      </trkpt>
      <trkpt lat="22.902480" lon="-109.893980">
        <ele>18.7</ele>
      </trkpt>
      <trkpt lat="22.902740" lon="-109.893520">
        <ele>18.4</ele>
      </trkpt>
      <trkpt lat="22.902990" lon="-109.893050">
        <ele>18.4</ele>
      </trkpt>
      <trkpt lat="22.903120" lon="-109.892790">
        <ele>18.6</ele>
      </trkpt>
      <trkpt lat="22.903270" lon="-109.892390">
        <ele>19.0</ele>
      </trkpt>
      <trkpt lat="22.903340" lon="-109.892130">
        <ele>19.5</ele>
      </trkpt>
      <trkpt lat="22.903400" lon="-109.891880">
        <ele>19.9</ele>
      </trkpt>
      <trkpt lat="22.903420" lon="-109.891700">
        <ele>20.2</ele>
      </trkpt>
      <trkpt lat="22.903450" lon="-109.891320">
        <ele>20.0</ele>
      </trkpt>
      <trkpt lat="22.903440" lon="-109.891010">
        <ele>19.8</ele>
      </trkpt>
      <trkpt lat="22.903390" lon="-109.890460">
        <ele>18.9</ele>
      </trkpt>
      <trkpt lat="22.903330" lon="-109.889920">
        <ele>18.1</ele>
      </trkpt>
      <trkpt lat="22.903240" lon="-109.889140">
        <ele>18.7</ele>
      </trkpt>
      <trkpt lat="22.903150" lon="-109.888350">
        <ele>18.3</ele>
      </trkpt>
      <trkpt lat="22.903090" lon="-109.887780">
        <ele>20.8</ele>
      </trkpt>
      <trkpt lat="22.903030" lon="-109.887200">
        <ele>22.8</ele>
      </trkpt>
      <trkpt lat="22.902920" lon="-109.886320">
        <ele>24.6</ele>
      </trkpt>
      <trkpt lat="22.902820" lon="-109.885440">
        <ele>25.8</ele>
      </trkpt>
      <trkpt lat="22.902710" lon="-109.884560">
        <ele>26.8</ele>
      </trkpt>
      <trkpt lat="22.902630" lon="-109.883730">
        <ele>27.2</ele>
      </trkpt>
      <trkpt lat="22.902540" lon="-109.882900">
        <ele>27.2</ele>
      </trkpt>
      <trkpt lat="22.902530" lon="-109.882400">
        <ele>28.0</ele>
      </trkpt>
      <trkpt lat="22.902540" lon="-109.882030">
        <ele>28.1</ele>
      </trkpt>
      <trkpt lat="22.902580" lon="-109.881650">
        <ele>28.1</ele>
      </trkpt>
      <trkpt lat="22.902630" lon="-109.881330">
        <ele>27.4</ele>
      </trkpt>
      <trkpt lat="22.902750" lon="-109.880840">
        <ele>26.8</ele>
      </trkpt>
      <trkpt lat="22.902970" lon="-109.880020">
        <ele>30.2</ele>
      </trkpt>
      <trkpt lat="22.903190" lon="-109.879200">
        <ele>34.0</ele>
      </trkpt>
      <trkpt lat="22.903410" lon="-109.878380">
        <ele>39.1</ele>
      </trkpt>
      <trkpt lat="22.903630" lon="-109.877560">
        <ele>38.9</ele>
      </trkpt>
      <trkpt lat="22.903850" lon="-109.876740">
        <ele>41.7</ele>
      </trkpt>
      <trkpt lat="22.904100" lon="-109.875850">
        <ele>45.4</ele>
      </trkpt>
      <trkpt lat="22.904340" lon="-109.874950">
        <ele>49.1</ele>
      </trkpt>
      <trkpt lat="22.904540" lon="-109.874190">
        <ele>50.8</ele>
      </trkpt>
      <trkpt lat="22.904740" lon="-109.873420">
        <ele>54.5</ele>
      </trkpt>
      <trkpt lat="22.904940" lon="-109.872660">
        <ele>56.6</ele>
      </trkpt>
      <trkpt lat="22.905140" lon="-109.871900">
        <ele>57.9</ele>
      </trkpt>
      <trkpt lat="22.905370" lon="-109.871040">
        <ele>61.6</ele>
      </trkpt>
      <trkpt lat="22.905610" lon="-109.870180">
        <ele>63.5</ele>
      </trkpt>
      <trkpt lat="22.905860" lon="-109.869320">
        <ele>65.0</ele>
      </trkpt>
      <trkpt lat="22.906090" lon="-109.868440">
        <ele>68.4</ele>
      </trkpt>
      <trkpt lat="22.906330" lon="-109.867560">
        <ele>69.4</ele>
      </trkpt>
      <trkpt lat="22.906560" lon="-109.866690">
        <ele>66.0</ele>
      </trkpt>
      <trkpt lat="22.906800" lon="-109.865810">
        <ele>71.1</ele>
      </trkpt>
      <trkpt lat="22.907040" lon="-109.864930">
        <ele>71.3</ele>
      </trkpt>
      <trkpt lat="22.907270" lon="-109.864060">
        <ele>73.2</ele>
      </trkpt>
      <trkpt lat="22.907510" lon="-109.863180">
        <ele>70.5</ele>
      </trkpt>
      <trkpt lat="22.907740" lon="-109.862300">
        <ele>69.8</ele>
      </trkpt>
      <trkpt lat="22.907980" lon="-109.861430">
        <ele>69.8</ele>
      </trkpt>
      <trkpt lat="22.908240" lon="-109.860500">
        <ele>69.4</ele>
      </trkpt>
      <trkpt lat="22.908500" lon="-109.859570">
        <ele>68.5</ele>
      </trkpt>
      <trkpt lat="22.908770" lon="-109.858640">
        <ele>66.2</ele>
      </trkpt>
      <trkpt lat="22.909010" lon="-109.857760">
        <ele>66.4</ele>
      </trkpt>
      <trkpt lat="22.909250" lon="-109.856880">
        <ele>63.8</ele>
      </trkpt>
      <trkpt lat="22.909490" lon="-109.856000">
        <ele>65.7</ele>
      </trkpt>
      <trkpt lat="22.909730" lon="-109.855120">
        <ele>62.8</ele>
      </trkpt>
      <trkpt lat="22.909970" lon="-109.854240">
        <ele>60.2</ele>
      </trkpt>
      <trkpt lat="22.910110" lon="-109.853760">
        <ele>58.8</ele>
      </trkpt>
      <trkpt lat="22.910250" lon="-109.853280">
        <ele>57.2</ele>
      </trkpt>
      <trkpt lat="22.910360" lon="-109.853040">
        <ele>56.7</ele>
      </trkpt>
      <trkpt lat="22.910580" lon="-109.852230">
        <ele>54.8</ele>
      </trkpt>
      <trkpt lat="22.910720" lon="-109.851740">
        <ele>53.7</ele>
      </trkpt>
      <trkpt lat="22.910860" lon="-109.851350">
        <ele>52.4</ele>
      </trkpt>
      <trkpt lat="22.910960" lon="-109.851130">
        <ele>51.1</ele>
      </trkpt>
      <trkpt lat="22.911230" lon="-109.850570">
        <ele>47.2</ele>
      </trkpt>
      <trkpt lat="22.911420" lon="-109.850270">
        <ele>46.3</ele>
      </trkpt>
      <trkpt lat="22.911600" lon="-109.850010">
        <ele>46.6</ele>
      </trkpt>
      <trkpt lat="22.911840" lon="-109.849720">
        <ele>48.5</ele>
      </trkpt>
      <trkpt lat="22.911920" lon="-109.849640">
        <ele>49.1</ele>
      </trkpt>
      <trkpt lat="22.911990" lon="-109.849470">
        <ele>49.7</ele>
      </trkpt>
      <trkpt lat="22.912000" lon="-109.849370">
        <ele>49.8</ele>
      </trkpt>
      <trkpt lat="22.911980" lon="-109.849210">
        <ele>49.6</ele>
      </trkpt>
      <trkpt lat="22.911960" lon="-109.849140">
        <ele>49.4</ele>
      </trkpt>
      <trkpt lat="22.911930" lon="-109.849100">
        <ele>49.1</ele>
      </trkpt>
      <trkpt lat="22.911740" lon="-109.848870">
        <ele>47.2</ele>
      </trkpt>
      <trkpt lat="22.911620" lon="-109.848700">
        <ele>46.1</ele>
      </trkpt>
      <trkpt lat="22.911330" lon="-109.848280">
        <ele>43.4</ele>
      </trkpt>
      <trkpt lat="22.911270" lon="-109.848180">
        <ele>42.6</ele>
      </trkpt>
      <trkpt lat="22.911220" lon="-109.848040">
        <ele>41.7</ele>
      </trkpt>
      <trkpt lat="22.911170" lon="-109.847850">
        <ele>40.5</ele>
      </trkpt>
      <trkpt lat="22.911140" lon="-109.847680">
        <ele>39.4</ele>
      </trkpt>
      <trkpt lat="22.911140" lon="-109.847590">
        <ele>39.1</ele>
      </trkpt>
      <trkpt lat="22.911140" lon="-109.847510">
        <ele>38.7</ele>
      </trkpt>
      <trkpt lat="22.911150" lon="-109.847310">
        <ele>38.1</ele>
      </trkpt>
      <trkpt lat="22.911180" lon="-109.847190">
        <ele>38.0</ele>
      </trkpt>
      <trkpt lat="22.911210" lon="-109.847070">
        <ele>37.8</ele>
      </trkpt>
      <trkpt lat="22.911250" lon="-109.846990">
        <ele>37.9</ele>
      </trkpt>
      <trkpt lat="22.911330" lon="-109.846840">
        <ele>37.8</ele>
      </trkpt>
      <trkpt lat="22.911460" lon="-109.846660">
        <ele>37.7</ele>
      </trkpt>
      <trkpt lat="22.911550" lon="-109.846510">
        <ele>37.8</ele>
      </trkpt>
      <trkpt lat="22.911590" lon="-109.846420">
        <ele>37.7</ele>
      </trkpt>
      <trkpt lat="22.911620" lon="-109.846270">
        <ele>37.3</ele>
      </trkpt>
      <trkpt lat="22.911630" lon="-109.846140">
        <ele>36.9</ele>
      </trkpt>
      <trkpt lat="22.911630" lon="-109.846040">
        <ele>36.6</ele>
      </trkpt>
      <trkpt lat="22.911630" lon="-109.845910">
        <ele>36.1</ele>
      </trkpt>
      <trkpt lat="22.911590" lon="-109.845740">
        <ele>35.2</ele>
      </trkpt>
      <trkpt lat="22.911490" lon="-109.845550">
        <ele>34.0</ele>
      </trkpt>
      <trkpt lat="22.911340" lon="-109.845290">
        <ele>32.6</ele>
      </trkpt>
      <trkpt lat="22.911270" lon="-109.845160">
        <ele>32.1</ele>
      </trkpt>
      <trkpt lat="22.911210" lon="-109.845020">
        <ele>31.6</ele>
      </trkpt>
      <trkpt lat="22.911180" lon="-109.844900">
        <ele>30.9</ele>
      </trkpt>
      <trkpt lat="22.911150" lon="-109.844750">
        <ele>30.0</ele>
      </trkpt>
      <trkpt lat="22.911160" lon="-109.844520">
        <ele>28.5</ele>
      </trkpt>
      <trkpt lat="22.911210" lon="-109.844280">
        <ele>27.1</ele>
      </trkpt>
      <trkpt lat="22.911260" lon="-109.844160">
        <ele>26.5</ele>
      </trkpt>
      <trkpt lat="22.911360" lon="-109.843980">
        <ele>26.1</ele>
      </trkpt>
      <trkpt lat="22.911650" lon="-109.843650">
        <ele>26.1</ele>
      </trkpt>
      <trkpt lat="22.911740" lon="-109.843510">
        <ele>25.9</ele>
      </trkpt>
      <trkpt lat="22.911850" lon="-109.843310">
        <ele>25.6</ele>
      </trkpt>
      <trkpt lat="22.911870" lon="-109.843210">
        <ele>25.3</ele>
      </trkpt>
      <trkpt lat="22.911880" lon="-109.843150">
        <ele>25.1</ele>
      </trkpt>
      <trkpt lat="22.911870" lon="-109.842950">
        <ele>24.4</ele>
      </trkpt>
      <trkpt lat="22.912100" lon="-109.842900">
        <ele>25.0</ele>
      </trkpt>
      <trkpt lat="22.912160" lon="-109.842880">
        <ele>25.1</ele>
      </trkpt>
      <trkpt lat="22.912230" lon="-109.842820">
        <ele>25.2</ele>
      </trkpt>
      <trkpt lat="22.912390" lon="-109.842670">
        <ele>25.2</ele>
      </trkpt>
      <trkpt lat="22.912590" lon="-109.842550">
        <ele>25.3</ele>
      </trkpt>
      <trkpt lat="22.912670" lon="-109.842520">
        <ele>25.3</ele>
      </trkpt>
      <trkpt lat="22.912740" lon="-109.842500">
        <ele>25.3</ele>
      </trkpt>
      <trkpt lat="22.913340" lon="-109.842470">
        <ele>26.0</ele>
      </trkpt>
      <trkpt lat="22.913430" lon="-109.842460">
        <ele>26.6</ele>
      </trkpt>
      <trkpt lat="22.913580" lon="-109.842420">
        <ele>27.5</ele>
      </trkpt>
      <trkpt lat="22.913810" lon="-109.842250">
        <ele>28.3</ele>
      </trkpt>
      <trkpt lat="22.913870" lon="-109.842220">
        <ele>28.5</ele>
      </trkpt>
      <trkpt lat="22.914060" lon="-109.842180">
        <ele>29.5</ele>
      </trkpt>
      <trkpt lat="22.914120" lon="-109.842160">
        <ele>29.7</ele>
      </trkpt>
      <trkpt lat="22.914350" lon="-109.842010">
        <ele>30.3</ele>
      </trkpt>
      <trkpt lat="22.914450" lon="-109.841910">
        <ele>30.5</ele>
      </trkpt>
      <trkpt lat="22.914530" lon="-109.841790">
        <ele>30.6</ele>
      </trkpt>
      <trkpt lat="22.914590" lon="-109.841660">
        <ele>30.5</ele>
      </trkpt>
      <trkpt lat="22.914610" lon="-109.841590">
        <ele>30.6</ele>
      </trkpt>
      <trkpt lat="22.914620" lon="-109.841530">
        <ele>30.5</ele>
      </trkpt>
      <trkpt lat="22.914640" lon="-109.841170">
        <ele>29.9</ele>
      </trkpt>
      <trkpt lat="22.914680" lon="-109.841060">
        <ele>29.8</ele>
      </trkpt>
      <trkpt lat="22.914750" lon="-109.840950">
        <ele>29.8</ele>
      </trkpt>
      <trkpt lat="22.914890" lon="-109.841020">
        <ele>30.5</ele>
      </trkpt>
      <trkpt lat="22.914980" lon="-109.841050">
        <ele>31.0</ele>
      </trkpt>
      <trkpt lat="22.914980" lon="-109.841050">
        <ele>31.0</ele>
      </trkpt>
      <trkpt lat="22.915080" lon="-109.841060">
        <ele>31.5</ele>
      </trkpt>
      <trkpt lat="22.915190" lon="-109.841060">
        <ele>32.1</ele>
      </trkpt>
      <trkpt lat="22.915310" lon="-109.841060">
        <ele>32.7</ele>
      </trkpt>
      <trkpt lat="22.915490" lon="-109.841030">
        <ele>33.6</ele>
      </trkpt>
      <trkpt lat="22.915640" lon="-109.840990">
        <ele>34.3</ele>
      </trkpt>
      <trkpt lat="22.915760" lon="-109.840930">
        <ele>34.8</ele>
      </trkpt>
      <trkpt lat="22.915820" lon="-109.840890">
        <ele>35.1</ele>
      </trkpt>
      <trkpt lat="22.915920" lon="-109.840780">
        <ele>35.3</ele>
      </trkpt>
      <trkpt lat="22.916090" lon="-109.840490">
        <ele>35.7</ele>
      </trkpt>
      <trkpt lat="22.916330" lon="-109.840180">
        <ele>36.8</ele>
      </trkpt>
      <trkpt lat="22.916390" lon="-109.840110">
        <ele>37.1</ele>
      </trkpt>
      <trkpt lat="22.916540" lon="-109.839980">
        <ele>38.0</ele>
      </trkpt>
      <trkpt lat="22.916860" lon="-109.839760">
        <ele>39.8</ele>
      </trkpt>
      <trkpt lat="22.917000" lon="-109.839660">
        <ele>40.6</ele>
      </trkpt>
      <trkpt lat="22.917140" lon="-109.839540">
        <ele>41.3</ele>
      </trkpt>
      <trkpt lat="22.917260" lon="-109.839420">
        <ele>41.9</ele>
      </trkpt>
      <trkpt lat="22.917380" lon="-109.839300">
        <ele>42.5</ele>
      </trkpt>
      <trkpt lat="22.917540" lon="-109.839080">
        <ele>42.6</ele>
      </trkpt>
      <trkpt lat="22.917610" lon="-109.838980">
        <ele>42.3</ele>
      </trkpt>
      <trkpt lat="22.917830" lon="-109.838590">
        <ele>41.0</ele>
      </trkpt>
      <trkpt lat="22.917940" lon="-109.838460">
        <ele>40.8</ele>
      </trkpt>
      <trkpt lat="22.918020" lon="-109.838370">
        <ele>40.7</ele>
      </trkpt>
      <trkpt lat="22.918170" lon="-109.838240">
        <ele>40.3</ele>
      </trkpt>
      <trkpt lat="22.918320" lon="-109.838150">
        <ele>40.0</ele>
      </trkpt>
      <trkpt lat="22.918490" lon="-109.838060">
        <ele>39.0</ele>
      </trkpt>
      <trkpt lat="22.918420" lon="-109.837980">
        <ele>38.2</ele>
      </trkpt>
      <trkpt lat="22.918370" lon="-109.837860">
        <ele>36.9</ele>
      </trkpt>
      <trkpt lat="22.918240" lon="-109.837650">
        <ele>34.5</ele>
      </trkpt>
      <trkpt lat="22.918160" lon="-109.837440">
        <ele>32.7</ele>
      </trkpt>
      <trkpt lat="22.918110" lon="-109.837370">
        <ele>32.3</ele>
      </trkpt>
      <trkpt lat="22.917970" lon="-109.837260">
        <ele>31.5</ele>
      </trkpt>
      <trkpt lat="22.917890" lon="-109.837170">
        <ele>30.8</ele>
      </trkpt>
      <trkpt lat="22.917820" lon="-109.837080">
        <ele>29.9</ele>
      </trkpt>
      <trkpt lat="22.917690" lon="-109.836850">
        <ele>27.6</ele>
      </trkpt>
      <trkpt lat="22.917850" lon="-109.836740">
        <ele>27.6</ele>
      </trkpt>
      <trkpt lat="22.918070" lon="-109.836520">
        <ele>28.1</ele>
      </trkpt>
      <trkpt lat="22.918120" lon="-109.836460">
        <ele>28.3</ele>
      </trkpt>
      <trkpt lat="22.918120" lon="-109.836460">
        <ele>28.3</ele>
      </trkpt>
      <trkpt lat="22.918180" lon="-109.836370">
        <ele>28.5</ele>
      </trkpt>
      <trkpt lat="22.918260" lon="-109.836230">
        <ele>28.9</ele>
      </trkpt>
      <trkpt lat="22.918380" lon="-109.835970">
        <ele>29.6</ele>
      </trkpt>
      <trkpt lat="22.918450" lon="-109.835730">
        <ele>30.2</ele>
      </trkpt>
      <trkpt lat="22.918610" lon="-109.834950">
        <ele>31.8</ele>
      </trkpt>
      <trkpt lat="22.918650" lon="-109.834820">
        <ele>31.5</ele>
      </trkpt>
      <trkpt lat="22.918700" lon="-109.834700">
        <ele>31.3</ele>
      </trkpt>
      <trkpt lat="22.918830" lon="-109.834440">
        <ele>30.6</ele>
      </trkpt>
      <trkpt lat="22.918950" lon="-109.834270">
        <ele>30.1</ele>
      </trkpt>
      <trkpt lat="22.919030" lon="-109.834170">
        <ele>29.7</ele>
      </trkpt>
      <trkpt lat="22.919170" lon="-109.834030">
        <ele>29.2</ele>
      </trkpt>
      <trkpt lat="22.919330" lon="-109.833880">
        <ele>28.9</ele>
      </trkpt>
      <trkpt lat="22.919500" lon="-109.833750">
        <ele>28.9</ele>
      </trkpt>
      <trkpt lat="22.919610" lon="-109.833680">
        <ele>29.0</ele>
      </trkpt>
      <trkpt lat="22.919810" lon="-109.833590">
        <ele>29.4</ele>
      </trkpt>
      <trkpt lat="22.920340" lon="-109.833360">
        <ele>29.1</ele>
      </trkpt>
      <trkpt lat="22.920440" lon="-109.833310">
        <ele>28.9</ele>
      </trkpt>
      <trkpt lat="22.920820" lon="-109.833050">
        <ele>29.0</ele>
      </trkpt>
      <trkpt lat="22.920920" lon="-109.832990">
        <ele>29.0</ele>
      </trkpt>
      <trkpt lat="22.921020" lon="-109.832950">
        <ele>29.1</ele>
      </trkpt>
      <trkpt lat="22.921110" lon="-109.832930">
        <ele>29.1</ele>
      </trkpt>
      <trkpt lat="22.921190" lon="-109.832910">
        <ele>29.1</ele>
      </trkpt>
      <trkpt lat="22.921320" lon="-109.832900">
        <ele>29.2</ele>
      </trkpt>
      <trkpt lat="22.921460" lon="-109.832910">
        <ele>29.8</ele>
      </trkpt>
      <trkpt lat="22.921600" lon="-109.832930">
        <ele>30.2</ele>
      </trkpt>
      <trkpt lat="22.921920" lon="-109.833020">
        <ele>32.4</ele>
      </trkpt>
      <trkpt lat="22.922480" lon="-109.833170">
        <ele>36.8</ele>
      </trkpt>
      <trkpt lat="22.923020" lon="-109.833280">
        <ele>41.4</ele>
      </trkpt>
      <trkpt lat="22.923560" lon="-109.833390">
        <ele>46.2</ele>
      </trkpt>
      <trkpt lat="22.924390" lon="-109.833560">
        <ele>52.7</ele>
      </trkpt>
      <trkpt lat="22.924730" lon="-109.833590">
        <ele>54.2</ele>
      </trkpt>
      <trkpt lat="22.924830" lon="-109.833580">
        <ele>54.6</ele>
      </trkpt>
      <trkpt lat="22.924950" lon="-109.833530">
        <ele>55.0</ele>
      </trkpt>
      <trkpt lat="22.925020" lon="-109.833490">
        <ele>55.3</ele>
      </trkpt>
      <trkpt lat="22.925090" lon="-109.833410">
        <ele>55.5</ele>
      </trkpt>
      <trkpt lat="22.925150" lon="-109.833280">
        <ele>55.6</ele>
      </trkpt>
      <trkpt lat="22.925340" lon="-109.832670">
        <ele>55.0</ele>
      </trkpt>
      <trkpt lat="22.925500" lon="-109.832370">
        <ele>55.5</ele>
      </trkpt>
      <trkpt lat="22.925560" lon="-109.832170">
        <ele>55.7</ele>
      </trkpt>
      <trkpt lat="22.925910" lon="-109.831290">
        <ele>52.9</ele>
      </trkpt>
      <trkpt lat="22.926090" lon="-109.830790">
        <ele>47.6</ele>
      </trkpt>
      <trkpt lat="22.926240" lon="-109.830330">
        <ele>42.9</ele>
      </trkpt>
      <trkpt lat="22.926410" lon="-109.829740">
        <ele>37.5</ele>
      </trkpt>
      <trkpt lat="22.926650" lon="-109.829000">
        <ele>31.9</ele>
      </trkpt>
      <trkpt lat="22.926860" lon="-109.828320">
        <ele>33.3</ele>
      </trkpt>
      <trkpt lat="22.927070" lon="-109.827640">
        <ele>32.5</ele>
      </trkpt>
      <trkpt lat="22.927160" lon="-109.827260">
        <ele>32.2</ele>
      </trkpt>
      <trkpt lat="22.927260" lon="-109.826910">
        <ele>32.3</ele>
      </trkpt>
      <trkpt lat="22.927310" lon="-109.826650">
        <ele>32.1</ele>
      </trkpt>
      <trkpt lat="22.927330" lon="-109.826510">
        <ele>32.0</ele>
      </trkpt>
      <trkpt lat="22.927360" lon="-109.826070">
        <ele>31.0</ele>
      </trkpt>
      <trkpt lat="22.927400" lon="-109.825870">
        <ele>30.6</ele>
      </trkpt>
      <trkpt lat="22.927470" lon="-109.825630">
        <ele>30.1</ele>
      </trkpt>
      <trkpt lat="22.927480" lon="-109.825490">
        <ele>29.7</ele>
      </trkpt>
      <trkpt lat="22.927460" lon="-109.825380">
        <ele>29.2</ele>
      </trkpt>
      <trkpt lat="22.927430" lon="-109.825300">
        <ele>28.7</ele>
      </trkpt>
      <trkpt lat="22.927350" lon="-109.825190">
        <ele>27.8</ele>
      </trkpt>
      <trkpt lat="22.927330" lon="-109.825140">
        <ele>27.5</ele>
      </trkpt>
      <trkpt lat="22.927330" lon="-109.825080">
        <ele>27.3</ele>
      </trkpt>
      <trkpt lat="22.927330" lon="-109.825020">
        <ele>27.1</ele>
      </trkpt>
      <trkpt lat="22.927510" lon="-109.824820">
        <ele>27.2</ele>
      </trkpt>
      <trkpt lat="22.927630" lon="-109.824710">
        <ele>27.3</ele>
      </trkpt>
      <trkpt lat="22.927580" lon="-109.824650">
        <ele>26.8</ele>
      </trkpt>
      <trkpt lat="22.927530" lon="-109.824560">
        <ele>26.1</ele>
      </trkpt>
      <trkpt lat="22.927510" lon="-109.824470">
        <ele>25.5</ele>
      </trkpt>
      <trkpt lat="22.927520" lon="-109.824360">
        <ele>25.1</ele>
      </trkpt>
      <trkpt lat="22.927560" lon="-109.824230">
        <ele>24.7</ele>
      </trkpt>
      <trkpt lat="22.927630" lon="-109.824090">
        <ele>24.8</ele>
      </trkpt>
      <trkpt lat="22.927730" lon="-109.823960">
        <ele>25.2</ele>
      </trkpt>
      <trkpt lat="22.927820" lon="-109.823880">
        <ele>25.6</ele>
      </trkpt>
      <trkpt lat="22.928100" lon="-109.823660">
        <ele>27.1</ele>
      </trkpt>
      <trkpt lat="22.928210" lon="-109.823540">
        <ele>27.6</ele>
      </trkpt>
      <trkpt lat="22.928300" lon="-109.823420">
        <ele>28.0</ele>
      </trkpt>
      <trkpt lat="22.928440" lon="-109.823150">
        <ele>29.3</ele>
      </trkpt>
      <trkpt lat="22.928470" lon="-109.823080">
        <ele>29.6</ele>
      </trkpt>
      <trkpt lat="22.928510" lon="-109.822980">
        <ele>30.1</ele>
      </trkpt>
      <trkpt lat="22.928780" lon="-109.822610">
        <ele>32.1</ele>
      </trkpt>
      <trkpt lat="22.928930" lon="-109.822470">
        <ele>32.7</ele>
      </trkpt>
      <trkpt lat="22.929100" lon="-109.822290">
        <ele>32.5</ele>
      </trkpt>
      <trkpt lat="22.929160" lon="-109.822200">
        <ele>32.2</ele>
      </trkpt>
      <trkpt lat="22.929210" lon="-109.822070">
        <ele>31.4</ele>
      </trkpt>
      <trkpt lat="22.929220" lon="-109.821950">
        <ele>30.6</ele>
      </trkpt>
      <trkpt lat="22.929210" lon="-109.821890">
        <ele>30.2</ele>
      </trkpt>
      <trkpt lat="22.929160" lon="-109.821790">
        <ele>29.7</ele>
      </trkpt>
      <trkpt lat="22.929100" lon="-109.821700">
        <ele>29.1</ele>
      </trkpt>
      <trkpt lat="22.929170" lon="-109.821630">
        <ele>28.8</ele>
      </trkpt>
      <trkpt lat="22.929320" lon="-109.821510">
        <ele>27.6</ele>
      </trkpt>
      <trkpt lat="22.929590" lon="-109.821210">
        <ele>25.6</ele>
      </trkpt>
      <trkpt lat="22.929800" lon="-109.820910">
        <ele>23.9</ele>
      </trkpt>
      <trkpt lat="22.929910" lon="-109.820780">
        <ele>23.1</ele>
      </trkpt>
      <trkpt lat="22.930000" lon="-109.820700">
        <ele>22.5</ele>
      </trkpt>
      <trkpt lat="22.930100" lon="-109.820620">
        <ele>21.9</ele>
      </trkpt>
      <trkpt lat="22.930280" lon="-109.820510">
        <ele>21.6</ele>
      </trkpt>
      <trkpt lat="22.930450" lon="-109.820390">
        <ele>21.1</ele>
      </trkpt>
      <trkpt lat="22.930550" lon="-109.820310">
        <ele>20.8</ele>
      </trkpt>
      <trkpt lat="22.930640" lon="-109.820190">
        <ele>20.1</ele>
      </trkpt>
      <trkpt lat="22.930730" lon="-109.820070">
        <ele>19.4</ele>
      </trkpt>
      <trkpt lat="22.931190" lon="-109.819280">
        <ele>19.2</ele>
      </trkpt>
      <trkpt lat="22.931400" lon="-109.818970">
        <ele>19.4</ele>
      </trkpt>
      <trkpt lat="22.931520" lon="-109.818810">
        <ele>19.8</ele>
      </trkpt>
      <trkpt lat="22.931850" lon="-109.818520">
        <ele>20.5</ele>
      </trkpt>
      <trkpt lat="22.931980" lon="-109.818400">
        <ele>20.3</ele>
      </trkpt>
      <trkpt lat="22.932110" lon="-109.818290">
        <ele>19.8</ele>
      </trkpt>
      <trkpt lat="22.932300" lon="-109.818150">
        <ele>19.5</ele>
      </trkpt>
      <trkpt lat="22.932590" lon="-109.817990">
        <ele>19.3</ele>
      </trkpt>
      <trkpt lat="22.932980" lon="-109.817690">
        <ele>19.2</ele>
      </trkpt>
      <trkpt lat="22.933190" lon="-109.817540">
        <ele>19.0</ele>
      </trkpt>
      <trkpt lat="22.933330" lon="-109.817470">
        <ele>18.9</ele>
      </trkpt>
      <trkpt lat="22.933620" lon="-109.817360">
        <ele>20.0</ele>
      </trkpt>
      <trkpt lat="22.933740" lon="-109.817300">
        <ele>20.4</ele>
      </trkpt>
      <trkpt lat="22.933880" lon="-109.817190">
        <ele>20.5</ele>
      </trkpt>
      <trkpt lat="22.934320" lon="-109.816880">
        <ele>21.2</ele>
      </trkpt>
      <trkpt lat="22.934510" lon="-109.816770">
        <ele>21.6</ele>
      </trkpt>
      <trkpt lat="22.934850" lon="-109.816640">
        <ele>23.1</ele>
      </trkpt>
      <trkpt lat="22.934930" lon="-109.816580">
        <ele>23.6</ele>
      </trkpt>
      <trkpt lat="22.935070" lon="-109.816460">
        <ele>24.4</ele>
      </trkpt>
      <trkpt lat="22.935180" lon="-109.816330">
        <ele>24.9</ele>
      </trkpt>
      <trkpt lat="22.935240" lon="-109.816240">
        <ele>25.1</ele>
      </trkpt>
      <trkpt lat="22.935310" lon="-109.816030">
        <ele>25.1</ele>
      </trkpt>
      <trkpt lat="22.935490" lon="-109.816040">
        <ele>25.8</ele>
      </trkpt>
      <trkpt lat="22.935540" lon="-109.816030">
        <ele>25.9</ele>
      </trkpt>
      <trkpt lat="22.935590" lon="-109.816020">
        <ele>26.1</ele>
      </trkpt>
      <trkpt lat="22.935770" lon="-109.815930">
        <ele>26.3</ele>
      </trkpt>
      <trkpt lat="22.935910" lon="-109.816140">
        <ele>27.9</ele>
      </trkpt>
      <trkpt lat="22.936000" lon="-109.816230">
        <ele>28.7</ele>
      </trkpt>
      <trkpt lat="22.936040" lon="-109.816260">
        <ele>29.0</ele>
      </trkpt>
      <trkpt lat="22.936080" lon="-109.816280">
        <ele>29.3</ele>
      </trkpt>
      <trkpt lat="22.936150" lon="-109.816310">
        <ele>29.8</ele>
      </trkpt>
      <trkpt lat="22.936220" lon="-109.816320">
        <ele>30.1</ele>
      </trkpt>
      <trkpt lat="22.936330" lon="-109.816310">
        <ele>30.6</ele>
      </trkpt>
      <trkpt lat="22.936560" lon="-109.816170">
        <ele>31.3</ele>
      </trkpt>
      <trkpt lat="22.936970" lon="-109.815960">
        <ele>32.0</ele>
      </trkpt>
      <trkpt lat="22.937270" lon="-109.815830">
        <ele>32.4</ele>
      </trkpt>
      <trkpt lat="22.937510" lon="-109.815740">
        <ele>32.7</ele>
      </trkpt>
      <trkpt lat="22.937980" lon="-109.815600">
        <ele>32.7</ele>
      </trkpt>
      <trkpt lat="22.938290" lon="-109.815540">
        <ele>32.9</ele>
      </trkpt>
      <trkpt lat="22.938500" lon="-109.815510">
        <ele>33.4</ele>
      </trkpt>
      <trkpt lat="22.938670" lon="-109.815490">
        <ele>33.9</ele>
      </trkpt>
      <trkpt lat="22.938950" lon="-109.815480">
        <ele>34.7</ele>
      </trkpt>
      <trkpt lat="22.939810" lon="-109.815480">
        <ele>38.2</ele>
      </trkpt>
      <trkpt lat="22.940670" lon="-109.815480">
        <ele>39.5</ele>
      </trkpt>
      <trkpt lat="22.941530" lon="-109.815480">
        <ele>42.9</ele>
      </trkpt>
      <trkpt lat="22.941830" lon="-109.815410">
        <ele>43.8</ele>
      </trkpt>
      <trkpt lat="22.942370" lon="-109.815220">
        <ele>44.3</ele>
      </trkpt>
      <trkpt lat="22.942990" lon="-109.814940">
        <ele>40.6</ele>
      </trkpt>
      <trkpt lat="22.943060" lon="-109.814920">
        <ele>40.2</ele>
      </trkpt>
      <trkpt lat="22.943250" lon="-109.814910">
        <ele>38.7</ele>
      </trkpt>
      <trkpt lat="22.943510" lon="-109.814890">
        <ele>37.6</ele>
      </trkpt>
      <trkpt lat="22.943570" lon="-109.814880">
        <ele>37.5</ele>
      </trkpt>
      <trkpt lat="22.943630" lon="-109.814850">
        <ele>37.3</ele>
      </trkpt>
      <trkpt lat="22.943680" lon="-109.814760">
        <ele>37.0</ele>
      </trkpt>
      <trkpt lat="22.943680" lon="-109.814670">
        <ele>36.8</ele>
      </trkpt>
      <trkpt lat="22.943640" lon="-109.814530">
        <ele>36.6</ele>
      </trkpt>
      <trkpt lat="22.943580" lon="-109.814340">
        <ele>36.5</ele>
      </trkpt>
      <trkpt lat="22.943650" lon="-109.814270">
        <ele>36.0</ele>
      </trkpt>
      <trkpt lat="22.943780" lon="-109.814060">
        <ele>34.3</ele>
      </trkpt>
      <trkpt lat="22.943900" lon="-109.813730">
        <ele>32.2</ele>
      </trkpt>
      <trkpt lat="22.943940" lon="-109.813570">
        <ele>31.3</ele>
      </trkpt>
      <trkpt lat="22.943960" lon="-109.813370">
        <ele>30.4</ele>
      </trkpt>
      <trkpt lat="22.943910" lon="-109.812630">
        <ele>27.2</ele>
      </trkpt>
      <trkpt lat="22.943880" lon="-109.812020">
        <ele>25.0</ele>
      </trkpt>
      <trkpt lat="22.944030" lon="-109.811990">
        <ele>24.0</ele>
      </trkpt>
      <trkpt lat="22.944250" lon="-109.811990">
        <ele>23.2</ele>
      </trkpt>
      <trkpt lat="22.944610" lon="-109.812010">
        <ele>23.4</ele>
      </trkpt>
      <trkpt lat="22.945030" lon="-109.812080">
        <ele>24.1</ele>
      </trkpt>
      <trkpt lat="22.945550" lon="-109.812150">
        <ele>26.7</ele>
      </trkpt>
      <trkpt lat="22.945780" lon="-109.812160">
        <ele>27.7</ele>
      </trkpt>
      <trkpt lat="22.946080" lon="-109.812140">
        <ele>28.2</ele>
      </trkpt>
      <trkpt lat="22.946380" lon="-109.812100">
        <ele>28.3</ele>
      </trkpt>
      <trkpt lat="22.946710" lon="-109.811990">
        <ele>27.6</ele>
      </trkpt>
      <trkpt lat="22.946940" lon="-109.811880">
        <ele>26.1</ele>
      </trkpt>
      <trkpt lat="22.947150" lon="-109.811740">
        <ele>24.0</ele>
      </trkpt>
      <trkpt lat="22.947240" lon="-109.811660">
        <ele>22.9</ele>
      </trkpt>
      <trkpt lat="22.947320" lon="-109.811540">
        <ele>22.0</ele>
      </trkpt>
      <trkpt lat="22.947350" lon="-109.811470">
        <ele>21.6</ele>
      </trkpt>
      <trkpt lat="22.947390" lon="-109.811420">
        <ele>21.3</ele>
      </trkpt>
      <trkpt lat="22.947440" lon="-109.811390">
        <ele>21.1</ele>
      </trkpt>
      <trkpt lat="22.947500" lon="-109.811370">
        <ele>20.9</ele>
      </trkpt>
      <trkpt lat="22.947620" lon="-109.811330">
        <ele>21.2</ele>
      </trkpt>
      <trkpt lat="22.947670" lon="-109.811310">
        <ele>21.3</ele>
      </trkpt>
      <trkpt lat="22.948050" lon="-109.811020">
        <ele>20.8</ele>
      </trkpt>
      <trkpt lat="22.948410" lon="-109.810830">
        <ele>20.3</ele>
      </trkpt>
      <trkpt lat="22.948610" lon="-109.810670">
        <ele>20.3</ele>
      </trkpt>
      <trkpt lat="22.948980" lon="-109.810300">
        <ele>20.3</ele>
      </trkpt>
      <trkpt lat="22.949260" lon="-109.810050">
        <ele>20.2</ele>
      </trkpt>
      <trkpt lat="22.949380" lon="-109.809980">
        <ele>19.7</ele>
      </trkpt>
      <trkpt lat="22.949570" lon="-109.809880">
        <ele>19.0</ele>
      </trkpt>
      <trkpt lat="22.949890" lon="-109.809770">
        <ele>18.3</ele>
      </trkpt>
      <trkpt lat="22.950150" lon="-109.810200">
        <ele>21.4</ele>
      </trkpt>
      <trkpt lat="22.950230" lon="-109.810310">
        <ele>22.5</ele>
      </trkpt>
      <trkpt lat="22.950290" lon="-109.810380">
        <ele>23.0</ele>
      </trkpt>
      <trkpt lat="22.950370" lon="-109.810410">
        <ele>23.2</ele>
      </trkpt>
      <trkpt lat="22.950460" lon="-109.810420">
        <ele>23.2</ele>
      </trkpt>
      <trkpt lat="22.950730" lon="-109.810480">
        <ele>23.3</ele>
      </trkpt>
      <trkpt lat="22.950850" lon="-109.810490">
        <ele>23.3</ele>
      </trkpt>
      <trkpt lat="22.950890" lon="-109.810600">
        <ele>23.7</ele>
      </trkpt>
      <trkpt lat="22.951050" lon="-109.810890">
        <ele>25.4</ele>
      </trkpt>
      <trkpt lat="22.951110" lon="-109.810910">
        <ele>25.8</ele>
      </trkpt>
      <trkpt lat="22.951160" lon="-109.810910">
        <ele>26.0</ele>
      </trkpt>
      <trkpt lat="22.951240" lon="-109.810890">
        <ele>26.3</ele>
      </trkpt>
      <trkpt lat="22.951300" lon="-109.810870">
        <ele>26.5</ele>
      </trkpt>
      <trkpt lat="22.951550" lon="-109.810710">
        <ele>27.1</ele>
      </trkpt>
      <trkpt lat="22.951610" lon="-109.810690">
        <ele>27.4</ele>
      </trkpt>
      <trkpt lat="22.951680" lon="-109.810680">
        <ele>27.7</ele>
      </trkpt>
      <trkpt lat="22.951750" lon="-109.810670">
        <ele>27.9</ele>
      </trkpt>
      <trkpt lat="22.952240" lon="-109.810710">
        <ele>30.0</ele>
      </trkpt>
      <trkpt lat="22.952370" lon="-109.810710">
        <ele>30.6</ele>
      </trkpt>
      <trkpt lat="22.952520" lon="-109.810690">
        <ele>31.0</ele>
      </trkpt>
      <trkpt lat="22.952620" lon="-109.810660">
        <ele>30.8</ele>
      </trkpt>
      <trkpt lat="22.952820" lon="-109.810590">
        <ele>30.4</ele>
      </trkpt>
      <trkpt lat="22.952920" lon="-109.810550">
        <ele>30.3</ele>
      </trkpt>
      <trkpt lat="22.953030" lon="-109.810480">
        <ele>30.2</ele>
      </trkpt>
      <trkpt lat="22.953250" lon="-109.810320">
        <ele>30.2</ele>
      </trkpt>
      <trkpt lat="22.953460" lon="-109.810190">
        <ele>30.3</ele>
      </trkpt>
      <trkpt lat="22.954090" lon="-109.809610">
        <ele>27.9</ele>
      </trkpt>
      <trkpt lat="22.954720" lon="-109.809030">
        <ele>32.1</ele>
      </trkpt>
      <trkpt lat="22.955350" lon="-109.808440">
        <ele>38.9</ele>
      </trkpt>
      <trkpt lat="22.955980" lon="-109.807860">
        <ele>42.7</ele>
      </trkpt>
      <trkpt lat="22.956610" lon="-109.807280">
        <ele>44.4</ele>
      </trkpt>
      <trkpt lat="22.956860" lon="-109.807030">
        <ele>43.5</ele>
      </trkpt>
      <trkpt lat="22.957490" lon="-109.806430">
        <ele>44.4</ele>
      </trkpt>
      <trkpt lat="22.958130" lon="-109.805830">
        <ele>36.2</ele>
      </trkpt>
      <trkpt lat="22.958770" lon="-109.805230">
        <ele>22.8</ele>
      </trkpt>
      <trkpt lat="22.959070" lon="-109.804920">
        <ele>16.7</ele>
      </trkpt>
      <trkpt lat="22.959340" lon="-109.804640">
        <ele>13.5</ele>
      </trkpt>
      <trkpt lat="22.959950" lon="-109.803970">
        <ele>9.4</ele>
      </trkpt>
      <trkpt lat="22.960060" lon="-109.803830">
        <ele>8.6</ele>
      </trkpt>
      <trkpt lat="22.960400" lon="-109.803410">
        <ele>6.2</ele>
      </trkpt>
      <trkpt lat="22.960740" lon="-109.803000">
        <ele>7.7</ele>
      </trkpt>
      <trkpt lat="22.961260" lon="-109.802410">
        <ele>9.9</ele>
      </trkpt>
      <trkpt lat="22.961770" lon="-109.801820">
        <ele>12.2</ele>
      </trkpt>
      <trkpt lat="22.962280" lon="-109.801230">
        <ele>14.4</ele>
      </trkpt>
      <trkpt lat="22.962800" lon="-109.800610">
        <ele>16.7</ele>
      </trkpt>
      <trkpt lat="22.963160" lon="-109.800140">
        <ele>18.4</ele>
      </trkpt>
      <trkpt lat="22.963250" lon="-109.800040">
        <ele>18.8</ele>
      </trkpt>
      <trkpt lat="22.963470" lon="-109.799830">
        <ele>19.7</ele>
      </trkpt>
      <trkpt lat="22.963580" lon="-109.799750">
        <ele>20.1</ele>
      </trkpt>
      <trkpt lat="22.964010" lon="-109.799490">
        <ele>21.6</ele>
      </trkpt>
      <trkpt lat="22.964360" lon="-109.799300">
        <ele>22.8</ele>
      </trkpt>
      <trkpt lat="22.964530" lon="-109.799210">
        <ele>24.4</ele>
      </trkpt>
      <trkpt lat="22.964670" lon="-109.799110">
        <ele>25.4</ele>
      </trkpt>
      <trkpt lat="22.964960" lon="-109.798870">
        <ele>25.8</ele>
      </trkpt>
      <trkpt lat="22.965200" lon="-109.798610">
        <ele>26.1</ele>
      </trkpt>
      <trkpt lat="22.965300" lon="-109.798470">
        <ele>25.9</ele>
      </trkpt>
      <trkpt lat="22.965500" lon="-109.798180">
        <ele>25.4</ele>
      </trkpt>
      <trkpt lat="22.965580" lon="-109.798040">
        <ele>25.4</ele>
      </trkpt>
      <trkpt lat="22.965980" lon="-109.797250">
        <ele>26.1</ele>
      </trkpt>
      <trkpt lat="22.966380" lon="-109.796460">
        <ele>27.9</ele>
      </trkpt>
      <trkpt lat="22.966790" lon="-109.795680">
        <ele>26.6</ele>
      </trkpt>
      <trkpt lat="22.966840" lon="-109.795560">
        <ele>26.4</ele>
      </trkpt>
      <trkpt lat="22.967220" lon="-109.794830">
        <ele>25.3</ele>
      </trkpt>
      <trkpt lat="22.967590" lon="-109.794100">
        <ele>26.4</ele>
      </trkpt>
      <trkpt lat="22.967690" lon="-109.793770">
        <ele>26.5</ele>
      </trkpt>
      <trkpt lat="22.967930" lon="-109.793260">
        <ele>27.7</ele>
      </trkpt>
      <trkpt lat="22.968280" lon="-109.792630">
        <ele>26.5</ele>
      </trkpt>
      <trkpt lat="22.968540" lon="-109.792190">
        <ele>28.4</ele>
      </trkpt>
      <trkpt lat="22.968790" lon="-109.791740">
        <ele>30.8</ele>
      </trkpt>
      <trkpt lat="22.968870" lon="-109.791630">
        <ele>31.3</ele>
      </trkpt>
      <trkpt lat="22.968900" lon="-109.791610">
        <ele>31.4</ele>
      </trkpt>
      <trkpt lat="22.969020" lon="-109.791520">
        <ele>31.9</ele>
      </trkpt>
      <trkpt lat="22.969380" lon="-109.790880">
        <ele>30.5</ele>
      </trkpt>
      <trkpt lat="22.969740" lon="-109.790230">
        <ele>26.9</ele>
      </trkpt>
      <trkpt lat="22.969780" lon="-109.790050">
        <ele>25.4</ele>
      </trkpt>
      <trkpt lat="22.969810" lon="-109.789960">
        <ele>24.7</ele>
      </trkpt>
      <trkpt lat="22.969890" lon="-109.789770">
        <ele>23.0</ele>
      </trkpt>
      <trkpt lat="22.970280" lon="-109.789060">
        <ele>20.3</ele>
      </trkpt>
      <trkpt lat="22.970670" lon="-109.788350">
        <ele>25.6</ele>
      </trkpt>
      <trkpt lat="22.971020" lon="-109.787720">
        <ele>24.9</ele>
      </trkpt>
      <trkpt lat="22.971370" lon="-109.787090">
        <ele>21.1</ele>
      </trkpt>
      <trkpt lat="22.971410" lon="-109.787020">
        <ele>20.7</ele>
      </trkpt>
      <trkpt lat="22.971680" lon="-109.786560">
        <ele>18.0</ele>
      </trkpt>
      <trkpt lat="22.971940" lon="-109.786100">
        <ele>18.7</ele>
      </trkpt>
      <trkpt lat="22.972060" lon="-109.785870">
        <ele>19.1</ele>
      </trkpt>
      <trkpt lat="22.972130" lon="-109.785750">
        <ele>19.4</ele>
      </trkpt>
      <trkpt lat="22.972450" lon="-109.785150">
        <ele>20.7</ele>
      </trkpt>
      <trkpt lat="22.972770" lon="-109.784550">
        <ele>20.7</ele>
      </trkpt>
      <trkpt lat="22.972910" lon="-109.784270">
        <ele>19.9</ele>
      </trkpt>
      <trkpt lat="22.973110" lon="-109.783900">
        <ele>18.9</ele>
      </trkpt>
      <trkpt lat="22.973500" lon="-109.783230">
        <ele>18.9</ele>
      </trkpt>
      <trkpt lat="22.973940" lon="-109.782440">
        <ele>19.3</ele>
      </trkpt>
      <trkpt lat="22.974390" lon="-109.781650">
        <ele>18.8</ele>
      </trkpt>
      <trkpt lat="22.974830" lon="-109.780860">
        <ele>19.0</ele>
      </trkpt>
      <trkpt lat="22.975280" lon="-109.780070">
        <ele>20.5</ele>
      </trkpt>
      <trkpt lat="22.975520" lon="-109.779670">
        <ele>20.4</ele>
      </trkpt>
      <trkpt lat="22.975580" lon="-109.779590">
        <ele>20.4</ele>
      </trkpt>
      <trkpt lat="22.975670" lon="-109.779490">
        <ele>20.3</ele>
      </trkpt>
      <trkpt lat="22.975790" lon="-109.779410">
        <ele>20.5</ele>
      </trkpt>
      <trkpt lat="22.976170" lon="-109.778730">
        <ele>20.2</ele>
      </trkpt>
      <trkpt lat="22.976550" lon="-109.778060">
        <ele>20.9</ele>
      </trkpt>
      <trkpt lat="22.976930" lon="-109.777370">
        <ele>19.1</ele>
      </trkpt>
      <trkpt lat="22.977310" lon="-109.776690">
        <ele>16.9</ele>
      </trkpt>
      <trkpt lat="22.977690" lon="-109.776010">
        <ele>14.4</ele>
      </trkpt>
      <trkpt lat="22.977830" lon="-109.775710">
        <ele>15.5</ele>
      </trkpt>
      <trkpt lat="22.977870" lon="-109.775630">
        <ele>15.8</ele>
      </trkpt>
      <trkpt lat="22.978050" lon="-109.775240">
        <ele>17.4</ele>
      </trkpt>
      <trkpt lat="22.978390" lon="-109.774380">
        <ele>20.6</ele>
      </trkpt>
      <trkpt lat="22.978740" lon="-109.773530">
        <ele>19.9</ele>
      </trkpt>
      <trkpt lat="22.979080" lon="-109.772670">
        <ele>17.7</ele>
      </trkpt>
      <trkpt lat="22.979420" lon="-109.771820">
        <ele>21.8</ele>
      </trkpt>
      <trkpt lat="22.979770" lon="-109.770960">
        <ele>24.2</ele>
      </trkpt>
      <trkpt lat="22.979750" lon="-109.770810">
        <ele>24.1</ele>
      </trkpt>
      <trkpt lat="22.979730" lon="-109.770760">
        <ele>23.9</ele>
      </trkpt>
      <trkpt lat="22.979700" lon="-109.770730">
        <ele>23.8</ele>
      </trkpt>
      <trkpt lat="22.979660" lon="-109.770710">
        <ele>23.6</ele>
      </trkpt>
      <trkpt lat="22.979580" lon="-109.770700">
        <ele>23.3</ele>
      </trkpt>
      <trkpt lat="22.979490" lon="-109.770720">
        <ele>23.0</ele>
      </trkpt>
      <trkpt lat="22.979430" lon="-109.770710">
        <ele>22.8</ele>
      </trkpt>
      <trkpt lat="22.979370" lon="-109.770670">
        <ele>22.5</ele>
      </trkpt>
      <trkpt lat="22.979330" lon="-109.770600">
        <ele>22.3</ele>
      </trkpt>
      <trkpt lat="22.979320" lon="-109.770530">
        <ele>22.2</ele>
      </trkpt>
      <trkpt lat="22.979330" lon="-109.770450">
        <ele>22.1</ele>
      </trkpt>
      <trkpt lat="22.979370" lon="-109.770390">
        <ele>22.2</ele>
      </trkpt>
      <trkpt lat="22.979390" lon="-109.770370">
        <ele>22.2</ele>
      </trkpt>
      <trkpt lat="22.979450" lon="-109.770340">
        <ele>22.4</ele>
      </trkpt>
      <trkpt lat="22.979500" lon="-109.770330">
        <ele>22.6</ele>
      </trkpt>
      <trkpt lat="22.979640" lon="-109.770090">
        <ele>22.8</ele>
      </trkpt>
      <trkpt lat="22.979900" lon="-109.769470">
        <ele>23.1</ele>
      </trkpt>
      <trkpt lat="22.980080" lon="-109.769000">
        <ele>23.4</ele>
      </trkpt>
      <trkpt lat="22.980200" lon="-109.768720">
        <ele>24.0</ele>
      </trkpt>
      <trkpt lat="22.980200" lon="-109.768720">
        <ele>24.0</ele>
      </trkpt>
      <trkpt lat="22.980390" lon="-109.768230">
        <ele>24.6</ele>
      </trkpt>
      <trkpt lat="22.980610" lon="-109.767700">
        <ele>23.0</ele>
      </trkpt>
      <trkpt lat="22.980920" lon="-109.767000">
        <ele>22.9</ele>
      </trkpt>
      <trkpt lat="22.981010" lon="-109.766750">
        <ele>23.5</ele>
      </trkpt>
      <trkpt lat="22.981000" lon="-109.766670">
        <ele>23.6</ele>
      </trkpt>
      <trkpt lat="22.981000" lon="-109.766600">
        <ele>23.8</ele>
      </trkpt>
      <trkpt lat="22.981020" lon="-109.766520">
        <ele>24.0</ele>
      </trkpt>
      <trkpt lat="22.981090" lon="-109.766430">
        <ele>24.4</ele>
      </trkpt>
      <trkpt lat="22.981160" lon="-109.766360">
        <ele>24.7</ele>
      </trkpt>
      <trkpt lat="22.981250" lon="-109.766400">
        <ele>24.8</ele>
      </trkpt>
      <trkpt lat="22.981300" lon="-109.766440">
        <ele>24.9</ele>
      </trkpt>
      <trkpt lat="22.981310" lon="-109.766520">
        <ele>24.8</ele>
      </trkpt>
      <trkpt lat="22.981300" lon="-109.766570">
        <ele>24.8</ele>
      </trkpt>
      <trkpt lat="22.981410" lon="-109.766600">
        <ele>25.1</ele>
      </trkpt>
      <trkpt lat="22.981470" lon="-109.766610">
        <ele>25.3</ele>
      </trkpt>
      <trkpt lat="22.981520" lon="-109.766590">
        <ele>25.4</ele>
      </trkpt>
      <trkpt lat="22.981580" lon="-109.766560">
        <ele>25.6</ele>
      </trkpt>
      <trkpt lat="22.981640" lon="-109.766390">
        <ele>25.6</ele>
      </trkpt>
      <trkpt lat="22.981960" lon="-109.765690">
        <ele>26.8</ele>
      </trkpt>
      <trkpt lat="22.982220" lon="-109.765200">
        <ele>27.6</ele>
      </trkpt>
      <trkpt lat="22.982470" lon="-109.764770">
        <ele>27.6</ele>
      </trkpt>
      <trkpt lat="22.982940" lon="-109.764000">
        <ele>27.9</ele>
      </trkpt>
      <trkpt lat="22.983310" lon="-109.763420">
        <ele>24.7</ele>
      </trkpt>
      <trkpt lat="22.983680" lon="-109.762850">
        <ele>21.3</ele>
      </trkpt>
      <trkpt lat="22.984060" lon="-109.762270">
        <ele>18.5</ele>
      </trkpt>
      <trkpt lat="22.984570" lon="-109.761470">
        <ele>18.8</ele>
      </trkpt>
      <trkpt lat="22.985090" lon="-109.760680">
        <ele>19.1</ele>
      </trkpt>
      <trkpt lat="22.985610" lon="-109.759890">
        <ele>20.9</ele>
      </trkpt>
      <trkpt lat="22.986080" lon="-109.759150">
        <ele>22.0</ele>
      </trkpt>
      <trkpt lat="22.986550" lon="-109.758410">
        <ele>21.7</ele>
      </trkpt>
      <trkpt lat="22.986860" lon="-109.757960">
        <ele>24.3</ele>
      </trkpt>
      <trkpt lat="22.987160" lon="-109.757500">
        <ele>25.6</ele>
      </trkpt>
      <trkpt lat="22.987460" lon="-109.757020">
        <ele>22.2</ele>
      </trkpt>
      <trkpt lat="22.987510" lon="-109.756940">
        <ele>21.6</ele>
      </trkpt>
      <trkpt lat="22.987650" lon="-109.756690">
        <ele>20.0</ele>
      </trkpt>
      <trkpt lat="22.987900" lon="-109.756090">
        <ele>24.9</ele>
      </trkpt>
      <trkpt lat="22.987950" lon="-109.755950">
        <ele>26.0</ele>
      </trkpt>
      <trkpt lat="22.987970" lon="-109.755860">
        <ele>26.7</ele>
      </trkpt>
      <trkpt lat="22.988000" lon="-109.755790">
        <ele>27.3</ele>
      </trkpt>
      <trkpt lat="22.988040" lon="-109.755570">
        <ele>29.0</ele>
      </trkpt>
      <trkpt lat="22.988110" lon="-109.755240">
        <ele>35.7</ele>
      </trkpt>
      <trkpt lat="22.988190" lon="-109.754850">
        <ele>40.9</ele>
      </trkpt>
      <trkpt lat="22.988440" lon="-109.754050">
        <ele>43.4</ele>
      </trkpt>
      <trkpt lat="22.988620" lon="-109.753360">
        <ele>38.0</ele>
      </trkpt>
      <trkpt lat="22.988800" lon="-109.752670">
        <ele>33.6</ele>
      </trkpt>
      <trkpt lat="22.988970" lon="-109.752060">
        <ele>29.6</ele>
      </trkpt>
      <trkpt lat="22.989180" lon="-109.751440">
        <ele>28.0</ele>
      </trkpt>
      <trkpt lat="22.989380" lon="-109.750940">
        <ele>28.7</ele>
      </trkpt>
      <trkpt lat="22.989570" lon="-109.750450">
        <ele>36.4</ele>
      </trkpt>
      <trkpt lat="22.989790" lon="-109.749910">
        <ele>44.8</ele>
      </trkpt>
      <trkpt lat="22.990010" lon="-109.749370">
        <ele>52.7</ele>
      </trkpt>
      <trkpt lat="22.990240" lon="-109.748900">
        <ele>55.5</ele>
      </trkpt>
      <trkpt lat="22.990470" lon="-109.748410">
        <ele>50.1</ele>
      </trkpt>
      <trkpt lat="22.990690" lon="-109.747920">
        <ele>42.0</ele>
      </trkpt>
      <trkpt lat="22.990930" lon="-109.747300">
        <ele>32.8</ele>
      </trkpt>
      <trkpt lat="22.991210" lon="-109.746450">
        <ele>21.4</ele>
      </trkpt>
      <trkpt lat="22.991500" lon="-109.745610">
        <ele>20.5</ele>
      </trkpt>
      <trkpt lat="22.991750" lon="-109.744900">
        <ele>17.9</ele>
      </trkpt>
      <trkpt lat="22.991900" lon="-109.744440">
        <ele>18.7</ele>
      </trkpt>
      <trkpt lat="22.991920" lon="-109.744380">
        <ele>18.8</ele>
      </trkpt>
      <trkpt lat="22.992130" lon="-109.743710">
        <ele>20.0</ele>
      </trkpt>
      <trkpt lat="22.992340" lon="-109.743050">
        <ele>27.3</ele>
      </trkpt>
      <trkpt lat="22.992540" lon="-109.742390">
        <ele>34.0</ele>
      </trkpt>
      <trkpt lat="22.992710" lon="-109.741970">
        <ele>34.1</ele>
      </trkpt>
      <trkpt lat="22.992920" lon="-109.741490">
        <ele>33.2</ele>
      </trkpt>
      <trkpt lat="22.993180" lon="-109.741010">
        <ele>33.2</ele>
      </trkpt>
      <trkpt lat="22.993310" lon="-109.740790">
        <ele>34.6</ele>
      </trkpt>
      <trkpt lat="22.993510" lon="-109.740490">
        <ele>34.1</ele>
      </trkpt>
      <trkpt lat="22.993980" lon="-109.739900">
        <ele>32.2</ele>
      </trkpt>
      <trkpt lat="22.994460" lon="-109.739280">
        <ele>25.6</ele>
      </trkpt>
      <trkpt lat="22.994940" lon="-109.738660">
        <ele>25.4</ele>
      </trkpt>
      <trkpt lat="22.995310" lon="-109.738240">
        <ele>30.5</ele>
      </trkpt>
      <trkpt lat="22.995610" lon="-109.737920">
        <ele>36.2</ele>
      </trkpt>
      <trkpt lat="22.995820" lon="-109.737760">
        <ele>39.3</ele>
      </trkpt>
      <trkpt lat="22.996360" lon="-109.737390">
        <ele>48.7</ele>
      </trkpt>
      <trkpt lat="22.997080" lon="-109.736940">
        <ele>51.4</ele>
      </trkpt>
      <trkpt lat="22.997650" lon="-109.736610">
        <ele>46.3</ele>
      </trkpt>
      <trkpt lat="22.998070" lon="-109.736310">
        <ele>43.0</ele>
      </trkpt>
      <trkpt lat="22.998230" lon="-109.736180">
        <ele>41.7</ele>
      </trkpt>
      <trkpt lat="22.998850" lon="-109.735600">
        <ele>41.6</ele>
      </trkpt>
      <trkpt lat="22.999280" lon="-109.735220">
        <ele>41.6</ele>
      </trkpt>
      <trkpt lat="22.999710" lon="-109.734840">
        <ele>40.6</ele>
      </trkpt>
      <trkpt lat="23.000160" lon="-109.734410">
        <ele>40.5</ele>
      </trkpt>
      <trkpt lat="23.000620" lon="-109.733970">
        <ele>38.2</ele>
      </trkpt>
      <trkpt lat="23.001070" lon="-109.733540">
        <ele>38.0</ele>
      </trkpt>
      <trkpt lat="23.001190" lon="-109.733300">
        <ele>37.9</ele>
      </trkpt>
      <trkpt lat="23.001480" lon="-109.732990">
        <ele>38.8</ele>
      </trkpt>
      <trkpt lat="23.001770" lon="-109.732720">
        <ele>40.2</ele>
      </trkpt>
      <trkpt lat="23.002090" lon="-109.732410">
        <ele>41.6</ele>
      </trkpt>
      <trkpt lat="23.002290" lon="-109.732250">
        <ele>42.7</ele>
      </trkpt>
      <trkpt lat="23.002320" lon="-109.732210">
        <ele>42.9</ele>
      </trkpt>
      <trkpt lat="23.002340" lon="-109.732160">
        <ele>43.1</ele>
      </trkpt>
      <trkpt lat="23.002350" lon="-109.732050">
        <ele>43.3</ele>
      </trkpt>
      <trkpt lat="23.002440" lon="-109.732090">
        <ele>43.7</ele>
      </trkpt>
      <trkpt lat="23.002490" lon="-109.732100">
        <ele>43.9</ele>
      </trkpt>
      <trkpt lat="23.002630" lon="-109.732080">
        <ele>44.9</ele>
      </trkpt>
      <trkpt lat="23.002860" lon="-109.731870">
        <ele>46.6</ele>
      </trkpt>
      <trkpt lat="23.003110" lon="-109.731660">
        <ele>48.0</ele>
      </trkpt>
      <trkpt lat="23.003710" lon="-109.731210">
        <ele>53.0</ele>
      </trkpt>
      <trkpt lat="23.004290" lon="-109.730820">
        <ele>57.3</ele>
      </trkpt>
      <trkpt lat="23.004350" lon="-109.730670">
        <ele>59.2</ele>
      </trkpt>
      <trkpt lat="23.004390" lon="-109.730530">
        <ele>60.9</ele>
      </trkpt>
      <trkpt lat="23.004430" lon="-109.730540">
        <ele>61.1</ele>
      </trkpt>
      <trkpt lat="23.004510" lon="-109.730560">
        <ele>61.7</ele>
      </trkpt>
      <trkpt lat="23.004620" lon="-109.730570">
        <ele>62.5</ele>
      </trkpt>
      <trkpt lat="23.004930" lon="-109.730370">
        <ele>66.8</ele>
      </trkpt>
      <trkpt lat="23.005050" lon="-109.730300">
        <ele>68.0</ele>
      </trkpt>
      <trkpt lat="23.005290" lon="-109.730190">
        <ele>69.3</ele>
      </trkpt>
      <trkpt lat="23.005580" lon="-109.730090">
        <ele>70.7</ele>
      </trkpt>
      <trkpt lat="23.006220" lon="-109.729910">
        <ele>75.3</ele>
      </trkpt>
      <trkpt lat="23.006860" lon="-109.729720">
        <ele>80.6</ele>
      </trkpt>
      <trkpt lat="23.007020" lon="-109.729660">
        <ele>81.9</ele>
      </trkpt>
      <trkpt lat="23.007290" lon="-109.729530">
        <ele>83.1</ele>
      </trkpt>
      <trkpt lat="23.007440" lon="-109.729450">
        <ele>83.2</ele>
      </trkpt>
      <trkpt lat="23.007570" lon="-109.729360">
        <ele>82.6</ele>
      </trkpt>
      <trkpt lat="23.007700" lon="-109.729250">
        <ele>81.1</ele>
      </trkpt>
      <trkpt lat="23.007870" lon="-109.729090">
        <ele>78.6</ele>
      </trkpt>
      <trkpt lat="23.008000" lon="-109.728930">
        <ele>76.3</ele>
      </trkpt>
      <trkpt lat="23.008100" lon="-109.728780">
        <ele>73.9</ele>
      </trkpt>
      <trkpt lat="23.008580" lon="-109.727980">
        <ele>62.2</ele>
      </trkpt>
      <trkpt lat="23.008710" lon="-109.727610">
        <ele>58.2</ele>
      </trkpt>
      <trkpt lat="23.008830" lon="-109.727350">
        <ele>55.4</ele>
      </trkpt>
      <trkpt lat="23.008970" lon="-109.727070">
        <ele>52.2</ele>
      </trkpt>
      <trkpt lat="23.009380" lon="-109.726310">
        <ele>45.7</ele>
      </trkpt>
      <trkpt lat="23.009450" lon="-109.726200">
        <ele>45.4</ele>
      </trkpt>
      <trkpt lat="23.009560" lon="-109.725960">
        <ele>44.6</ele>
      </trkpt>
      <trkpt lat="23.009590" lon="-109.725830">
        <ele>44.0</ele>
      </trkpt>
      <trkpt lat="23.009620" lon="-109.725650">
        <ele>43.5</ele>
      </trkpt>
      <trkpt lat="23.009630" lon="-109.725380">
        <ele>42.5</ele>
      </trkpt>
      <trkpt lat="23.009640" lon="-109.725320">
        <ele>42.3</ele>
      </trkpt>
      <trkpt lat="23.009690" lon="-109.725210">
        <ele>41.9</ele>
      </trkpt>
      <trkpt lat="23.009660" lon="-109.725170">
        <ele>41.7</ele>
      </trkpt>
      <trkpt lat="23.009670" lon="-109.725130">
        <ele>41.5</ele>
      </trkpt>
      <trkpt lat="23.009710" lon="-109.725100">
        <ele>41.4</ele>
      </trkpt>
      <trkpt lat="23.009750" lon="-109.725110">
        <ele>41.5</ele>
      </trkpt>
      <trkpt lat="23.009770" lon="-109.725150">
        <ele>41.7</ele>
      </trkpt>
      <trkpt lat="23.009900" lon="-109.725110">
        <ele>41.6</ele>
      </trkpt>
      <trkpt lat="23.009960" lon="-109.725070">
        <ele>41.4</ele>
      </trkpt>
      <trkpt lat="23.010010" lon="-109.725030">
        <ele>41.2</ele>
      </trkpt>
      <trkpt lat="23.010070" lon="-109.724950">
        <ele>41.0</ele>
      </trkpt>
      <trkpt lat="23.010160" lon="-109.724810">
        <ele>40.9</ele>
      </trkpt>
      <trkpt lat="23.010240" lon="-109.724730">
        <ele>40.9</ele>
      </trkpt>
      <trkpt lat="23.010360" lon="-109.724640">
        <ele>41.0</ele>
      </trkpt>
      <trkpt lat="23.010470" lon="-109.724500">
        <ele>40.9</ele>
      </trkpt>
      <trkpt lat="23.010600" lon="-109.724390">
        <ele>41.0</ele>
      </trkpt>
      <trkpt lat="23.010700" lon="-109.724280">
        <ele>41.0</ele>
      </trkpt>
      <trkpt lat="23.011010" lon="-109.723970">
        <ele>38.8</ele>
      </trkpt>
      <trkpt lat="23.011240" lon="-109.723770">
        <ele>36.7</ele>
      </trkpt>
      <trkpt lat="23.011390" lon="-109.723650">
        <ele>36.3</ele>
      </trkpt>
      <trkpt lat="23.011610" lon="-109.723500">
        <ele>35.8</ele>
      </trkpt>
      <trkpt lat="23.011990" lon="-109.723290">
        <ele>35.1</ele>
      </trkpt>
      <trkpt lat="23.012260" lon="-109.723180">
        <ele>36.7</ele>
      </trkpt>
      <trkpt lat="23.012440" lon="-109.723110">
        <ele>38.0</ele>
      </trkpt>
      <trkpt lat="23.012680" lon="-109.723050">
        <ele>39.6</ele>
      </trkpt>
      <trkpt lat="23.013020" lon="-109.722980">
        <ele>41.7</ele>
      </trkpt>
      <trkpt lat="23.013210" lon="-109.722950">
        <ele>42.9</ele>
      </trkpt>
      <trkpt lat="23.013560" lon="-109.722920">
        <ele>42.6</ele>
      </trkpt>
      <trkpt lat="23.013810" lon="-109.722920">
        <ele>41.5</ele>
      </trkpt>
      <trkpt lat="23.014450" lon="-109.722930">
        <ele>40.4</ele>
      </trkpt>
      <trkpt lat="23.015090" lon="-109.722940">
        <ele>40.8</ele>
      </trkpt>
      <trkpt lat="23.015390" lon="-109.722910">
        <ele>39.5</ele>
      </trkpt>
      <trkpt lat="23.015660" lon="-109.722870">
        <ele>38.2</ele>
      </trkpt>
      <trkpt lat="23.015970" lon="-109.722790">
        <ele>36.3</ele>
      </trkpt>
      <trkpt lat="23.016250" lon="-109.722710">
        <ele>34.3</ele>
      </trkpt>
      <trkpt lat="23.016560" lon="-109.722570">
        <ele>34.3</ele>
      </trkpt>
      <trkpt lat="23.016830" lon="-109.722420">
        <ele>34.3</ele>
      </trkpt>
      <trkpt lat="23.017020" lon="-109.722290">
        <ele>34.3</ele>
      </trkpt>
      <trkpt lat="23.017410" lon="-109.722010">
        <ele>34.3</ele>
      </trkpt>
      <trkpt lat="23.017560" lon="-109.721880">
        <ele>34.4</ele>
      </trkpt>
      <trkpt lat="23.017690" lon="-109.721770">
        <ele>37.0</ele>
      </trkpt>
      <trkpt lat="23.018080" lon="-109.721380">
        <ele>43.2</ele>
      </trkpt>
      <trkpt lat="23.018480" lon="-109.720990">
        <ele>48.5</ele>
      </trkpt>
      <trkpt lat="23.018740" lon="-109.720760">
        <ele>50.9</ele>
      </trkpt>
      <trkpt lat="23.019010" lon="-109.720540">
        <ele>51.9</ele>
      </trkpt>
      <trkpt lat="23.019350" lon="-109.720320">
        <ele>51.5</ele>
      </trkpt>
      <trkpt lat="23.019510" lon="-109.720220">
        <ele>51.4</ele>
      </trkpt>
      <trkpt lat="23.019660" lon="-109.720140">
        <ele>51.4</ele>
      </trkpt>
      <trkpt lat="23.020000" lon="-109.720010">
        <ele>52.1</ele>
      </trkpt>
      <trkpt lat="23.020670" lon="-109.719780">
        <ele>50.4</ele>
      </trkpt>
      <trkpt lat="23.021350" lon="-109.719560">
        <ele>46.7</ele>
      </trkpt>
      <trkpt lat="23.021920" lon="-109.719360">
        <ele>43.0</ele>
      </trkpt>
      <trkpt lat="23.022210" lon="-109.719230">
        <ele>41.1</ele>
      </trkpt>
      <trkpt lat="23.022350" lon="-109.719160">
        <ele>40.2</ele>
      </trkpt>
      <trkpt lat="23.022630" lon="-109.718980">
        <ele>38.4</ele>
      </trkpt>
      <trkpt lat="23.023110" lon="-109.718640">
        <ele>31.2</ele>
      </trkpt>
      <trkpt lat="23.023330" lon="-109.718470">
        <ele>27.0</ele>
      </trkpt>
      <trkpt lat="23.023560" lon="-109.718260">
        <ele>25.2</ele>
      </trkpt>
      <trkpt lat="23.023670" lon="-109.718120">
        <ele>24.9</ele>
      </trkpt>
      <trkpt lat="23.023900" lon="-109.717820">
        <ele>25.2</ele>
      </trkpt>
      <trkpt lat="23.024050" lon="-109.717580">
        <ele>26.3</ele>
      </trkpt>
      <trkpt lat="23.024130" lon="-109.717430">
        <ele>26.2</ele>
      </trkpt>
      <trkpt lat="23.024220" lon="-109.717230">
        <ele>25.1</ele>
      </trkpt>
      <trkpt lat="23.024300" lon="-109.717050">
        <ele>24.6</ele>
      </trkpt>
      <trkpt lat="23.024440" lon="-109.716590">
        <ele>22.2</ele>
      </trkpt>
      <trkpt lat="23.024520" lon="-109.716410">
        <ele>20.5</ele>
      </trkpt>
      <trkpt lat="23.024600" lon="-109.716280">
        <ele>20.1</ele>
      </trkpt>
      <trkpt lat="23.024700" lon="-109.716160">
        <ele>20.7</ele>
      </trkpt>
      <trkpt lat="23.024750" lon="-109.716120">
        <ele>21.4</ele>
      </trkpt>
      <trkpt lat="23.024900" lon="-109.716030">
        <ele>24.2</ele>
      </trkpt>
      <trkpt lat="23.025030" lon="-109.715980">
        <ele>26.4</ele>
      </trkpt>
      <trkpt lat="23.025170" lon="-109.715950">
        <ele>26.1</ele>
      </trkpt>
      <trkpt lat="23.025300" lon="-109.715940">
        <ele>26.0</ele>
      </trkpt>
      <trkpt lat="23.025760" lon="-109.715940">
        <ele>25.9</ele>
      </trkpt>
      <trkpt lat="23.026230" lon="-109.715940">
        <ele>21.4</ele>
      </trkpt>
      <trkpt lat="23.026390" lon="-109.715960">
        <ele>19.8</ele>
      </trkpt>
      <trkpt lat="23.026500" lon="-109.715970">
        <ele>18.7</ele>
      </trkpt>
      <trkpt lat="23.026720" lon="-109.716020">
        <ele>17.2</ele>
      </trkpt>
      <trkpt lat="23.026990" lon="-109.716100">
        <ele>16.8</ele>
      </trkpt>
      <trkpt lat="23.027270" lon="-109.716200">
        <ele>16.6</ele>
      </trkpt>
      <trkpt lat="23.027510" lon="-109.716260">
        <ele>16.1</ele>
      </trkpt>
      <trkpt lat="23.027710" lon="-109.716270">
        <ele>15.1</ele>
      </trkpt>
      <trkpt lat="23.027870" lon="-109.716250">
        <ele>14.0</ele>
      </trkpt>
      <trkpt lat="23.027950" lon="-109.716230">
        <ele>13.4</ele>
      </trkpt>
      <trkpt lat="23.028400" lon="-109.716100">
        <ele>10.7</ele>
      </trkpt>
      <trkpt lat="23.028860" lon="-109.715970">
        <ele>12.1</ele>
      </trkpt>
      <trkpt lat="23.029340" lon="-109.715830">
        <ele>13.6</ele>
      </trkpt>
      <trkpt lat="23.029830" lon="-109.715690">
        <ele>15.2</ele>
      </trkpt>
      <trkpt lat="23.030340" lon="-109.715510">
        <ele>16.9</ele>
      </trkpt>
      <trkpt lat="23.030980" lon="-109.715250">
        <ele>21.9</ele>
      </trkpt>
      <trkpt lat="23.031610" lon="-109.715000">
        <ele>18.9</ele>
      </trkpt>
      <trkpt lat="23.031860" lon="-109.714900">
        <ele>21.1</ele>
      </trkpt>
      <trkpt lat="23.032220" lon="-109.714730">
        <ele>23.9</ele>
      </trkpt>
      <trkpt lat="23.032370" lon="-109.714640">
        <ele>24.1</ele>
      </trkpt>
      <trkpt lat="23.032500" lon="-109.714550">
        <ele>23.8</ele>
      </trkpt>
      <trkpt lat="23.032640" lon="-109.714440">
        <ele>23.4</ele>
      </trkpt>
      <trkpt lat="23.033110" lon="-109.713950">
        <ele>20.1</ele>
      </trkpt>
      <trkpt lat="23.033590" lon="-109.713470">
        <ele>20.0</ele>
      </trkpt>
      <trkpt lat="23.034060" lon="-109.712990">
        <ele>18.3</ele>
      </trkpt>
      <trkpt lat="23.034210" lon="-109.712850">
        <ele>17.8</ele>
      </trkpt>
      <trkpt lat="23.034330" lon="-109.712720">
        <ele>17.4</ele>
      </trkpt>
      <trkpt lat="23.034340" lon="-109.712570">
        <ele>17.1</ele>
      </trkpt>
      <trkpt lat="23.034360" lon="-109.712490">
        <ele>16.1</ele>
      </trkpt>
      <trkpt lat="23.034390" lon="-109.712450">
        <ele>16.2</ele>
      </trkpt>
      <trkpt lat="23.034630" lon="-109.712170">
        <ele>16.8</ele>
      </trkpt>
      <trkpt lat="23.034670" lon="-109.712130">
        <ele>16.8</ele>
      </trkpt>
      <trkpt lat="23.034720" lon="-109.712110">
        <ele>17.0</ele>
      </trkpt>
      <trkpt lat="23.034780" lon="-109.712110">
        <ele>17.4</ele>
      </trkpt>
      <trkpt lat="23.034830" lon="-109.712120">
        <ele>17.8</ele>
      </trkpt>
      <trkpt lat="23.034890" lon="-109.712140">
        <ele>18.4</ele>
      </trkpt>
      <trkpt lat="23.034950" lon="-109.712070">
        <ele>18.1</ele>
      </trkpt>
      <trkpt lat="23.035370" lon="-109.711640">
        <ele>18.3</ele>
      </trkpt>
      <trkpt lat="23.035690" lon="-109.711300">
        <ele>19.4</ele>
      </trkpt>
      <trkpt lat="23.036040" lon="-109.710890">
        <ele>19.3</ele>
      </trkpt>
      <trkpt lat="23.036310" lon="-109.710490">
        <ele>18.4</ele>
      </trkpt>
      <trkpt lat="23.036580" lon="-109.710100">
        <ele>16.6</ele>
      </trkpt>
      <trkpt lat="23.036400" lon="-109.710000">
        <ele>15.0</ele>
      </trkpt>
      <trkpt lat="23.036360" lon="-109.709940">
        <ele>14.5</ele>
      </trkpt>
      <trkpt lat="23.036340" lon="-109.709830">
        <ele>13.8</ele>
      </trkpt>
      <trkpt lat="23.036340" lon="-109.709760">
        <ele>13.4</ele>
      </trkpt>
      <trkpt lat="23.036370" lon="-109.709690">
        <ele>13.1</ele>
      </trkpt>
      <trkpt lat="23.036400" lon="-109.709620">
        <ele>12.7</ele>
      </trkpt>
      <trkpt lat="23.036440" lon="-109.709570">
        <ele>12.5</ele>
      </trkpt>
      <trkpt lat="23.036490" lon="-109.709540">
        <ele>12.4</ele>
      </trkpt>
      <trkpt lat="23.036580" lon="-109.709520">
        <ele>12.4</ele>
      </trkpt>
      <trkpt lat="23.036790" lon="-109.709530">
        <ele>13.4</ele>
      </trkpt>
      <trkpt lat="23.036860" lon="-109.709530">
        <ele>13.8</ele>
      </trkpt>
      <trkpt lat="23.036930" lon="-109.709490">
        <ele>14.0</ele>
      </trkpt>
      <trkpt lat="23.036990" lon="-109.709450">
        <ele>14.0</ele>
      </trkpt>
      <trkpt lat="23.037220" lon="-109.709170">
        <ele>12.7</ele>
      </trkpt>
      <trkpt lat="23.037340" lon="-109.709060">
        <ele>12.8</ele>
      </trkpt>
      <trkpt lat="23.037640" lon="-109.708660">
        <ele>12.5</ele>
      </trkpt>
      <trkpt lat="23.037960" lon="-109.708280">
        <ele>12.1</ele>
      </trkpt>
      <trkpt lat="23.038360" lon="-109.707910">
        <ele>12.6</ele>
      </trkpt>
      <trkpt lat="23.038600" lon="-109.707720">
        <ele>12.9</ele>
      </trkpt>
      <trkpt lat="23.038780" lon="-109.707590">
        <ele>13.2</ele>
      </trkpt>
      <trkpt lat="23.038900" lon="-109.707510">
        <ele>13.4</ele>
      </trkpt>
      <trkpt lat="23.038980" lon="-109.707450">
        <ele>13.5</ele>
      </trkpt>
      <trkpt lat="23.039200" lon="-109.707180">
        <ele>14.1</ele>
      </trkpt>
      <trkpt lat="23.039270" lon="-109.707100">
        <ele>14.2</ele>
      </trkpt>
      <trkpt lat="23.039360" lon="-109.707030">
        <ele>14.3</ele>
      </trkpt>
      <trkpt lat="23.039450" lon="-109.706990">
        <ele>14.5</ele>
      </trkpt>
      <trkpt lat="23.039590" lon="-109.706940">
        <ele>14.7</ele>
      </trkpt>
      <trkpt lat="23.040020" lon="-109.706810">
        <ele>15.2</ele>
      </trkpt>
      <trkpt lat="23.040450" lon="-109.706670">
        <ele>15.0</ele>
      </trkpt>
      <trkpt lat="23.040610" lon="-109.706610">
        <ele>15.0</ele>
      </trkpt>
      <trkpt lat="23.040670" lon="-109.706570">
        <ele>15.0</ele>
      </trkpt>
      <trkpt lat="23.040650" lon="-109.706540">
        <ele>15.0</ele>
      </trkpt>
      <trkpt lat="23.040640" lon="-109.706510">
        <ele>15.0</ele>
      </trkpt>
      <trkpt lat="23.040640" lon="-109.706470">
        <ele>15.0</ele>
      </trkpt>
      <trkpt lat="23.040650" lon="-109.706440">
        <ele>15.0</ele>
      </trkpt>
      <trkpt lat="23.040640" lon="-109.706220">
        <ele>15.0</ele>
      </trkpt>
      <trkpt lat="23.040640" lon="-109.706110">
        <ele>15.0</ele>
      </trkpt>
      <trkpt lat="23.040680" lon="-109.705940">
        <ele>15.2</ele>
      </trkpt>
      <trkpt lat="23.040720" lon="-109.705850">
        <ele>15.4</ele>
      </trkpt>
      <trkpt lat="23.041120" lon="-109.705190">
        <ele>16.7</ele>
      </trkpt>
      <trkpt lat="23.041520" lon="-109.704520">
        <ele>15.1</ele>
      </trkpt>
      <trkpt lat="23.041800" lon="-109.704020">
        <ele>14.6</ele>
      </trkpt>
      <trkpt lat="23.042070" lon="-109.703520">
        <ele>15.3</ele>
      </trkpt>
      <trkpt lat="23.042420" lon="-109.702920">
        <ele>13.3</ele>
      </trkpt>
      <trkpt lat="23.042770" lon="-109.702310">
        <ele>12.0</ele>
      </trkpt>
      <trkpt lat="23.043120" lon="-109.701710">
        <ele>17.0</ele>
      </trkpt>
      <trkpt lat="23.043220" lon="-109.701490">
        <ele>17.5</ele>
      </trkpt>
      <trkpt lat="23.043300" lon="-109.701240">
        <ele>17.2</ele>
      </trkpt>
      <trkpt lat="23.043360" lon="-109.701100">
        <ele>17.1</ele>
      </trkpt>
      <trkpt lat="23.043410" lon="-109.701000">
        <ele>17.0</ele>
      </trkpt>
      <trkpt lat="23.043510" lon="-109.700870">
        <ele>17.2</ele>
      </trkpt>
      <trkpt lat="23.043710" lon="-109.700660">
        <ele>18.0</ele>
      </trkpt>
      <trkpt lat="23.043830" lon="-109.700500">
        <ele>18.3</ele>
      </trkpt>
      <trkpt lat="23.044040" lon="-109.700130">
        <ele>18.7</ele>
      </trkpt>
      <trkpt lat="23.044340" lon="-109.699620">
        <ele>18.2</ele>
      </trkpt>
      <trkpt lat="23.044640" lon="-109.699110">
        <ele>18.1</ele>
      </trkpt>
      <trkpt lat="23.044970" lon="-109.698530">
        <ele>19.0</ele>
      </trkpt>
      <trkpt lat="23.045290" lon="-109.697950">
        <ele>16.6</ele>
      </trkpt>
      <trkpt lat="23.045620" lon="-109.697370">
        <ele>13.2</ele>
      </trkpt>
      <trkpt lat="23.045890" lon="-109.696910">
        <ele>12.0</ele>
      </trkpt>
      <trkpt lat="23.046160" lon="-109.696440">
        <ele>11.6</ele>
      </trkpt>
      <trkpt lat="23.046390" lon="-109.696090">
        <ele>10.9</ele>
      </trkpt>
      <trkpt lat="23.046750" lon="-109.695580">
        <ele>11.0</ele>
      </trkpt>
      <trkpt lat="23.047150" lon="-109.694960">
        <ele>12.3</ele>
      </trkpt>
      <trkpt lat="23.047200" lon="-109.694860">
        <ele>12.0</ele>
      </trkpt>
      <trkpt lat="23.047300" lon="-109.694630">
        <ele>11.2</ele>
      </trkpt>
      <trkpt lat="23.047430" lon="-109.694410">
        <ele>10.6</ele>
      </trkpt>
      <trkpt lat="23.047560" lon="-109.694220">
        <ele>10.5</ele>
      </trkpt>
      <trkpt lat="23.047640" lon="-109.694080">
        <ele>11.1</ele>
      </trkpt>
      <trkpt lat="23.047680" lon="-109.693990">
        <ele>11.5</ele>
      </trkpt>
      <trkpt lat="23.047710" lon="-109.693930">
        <ele>11.8</ele>
      </trkpt>
      <trkpt lat="23.047940" lon="-109.693030">
        <ele>13.3</ele>
      </trkpt>
      <trkpt lat="23.048180" lon="-109.692130">
        <ele>12.7</ele>
      </trkpt>
      <trkpt lat="23.048250" lon="-109.691840">
        <ele>12.7</ele>
      </trkpt>
    </trkseg>
  </trk>
</gpx>