<?xml version="1.0" encoding="UTF-8"?>
<gpx version="1.1" creator="GPX Segmenter" xmlns="http://www.topografix.com/GPX/1/1">
  <trk>
    <name>Baja - Segment 28 of 49</name>
    <trkseg>
      <trkpt lat="27.386560" lon="-112.354580">
        <ele>109.7</ele>
      </trkpt>
      <trkpt lat="27.386490" lon="-112.353820">
        <ele>114.7</ele>
      </trkpt>
      <trkpt lat="27.386490" lon="-112.353580">
        <ele>114.6</ele>
      </trkpt>
      <trkpt lat="27.386510" lon="-112.353290">
        <ele>114.4</ele>
      </trkpt>
      <trkpt lat="27.386550" lon="-112.352990">
        <ele>114.6</ele>
      </trkpt>
      <trkpt lat="27.386600" lon="-112.352800">
        <ele>114.6</ele>
      </trkpt>
      <trkpt lat="27.386670" lon="-112.352590">
        <ele>114.8</ele>
      </trkpt>
      <trkpt lat="27.386740" lon="-112.352400">
        <ele>114.2</ele>
      </trkpt>
      <trkpt lat="27.386830" lon="-112.352190">
        <ele>113.5</ele>
      </trkpt>
      <trkpt lat="27.386940" lon="-112.351980">
        <ele>113.0</ele>
      </trkpt>
      <trkpt lat="27.387370" lon="-112.351330">
        <ele>112.9</ele>
      </trkpt>
      <trkpt lat="27.387800" lon="-112.350680">
        <ele>115.0</ele>
      </trkpt>
      <trkpt lat="27.388310" lon="-112.349880">
        <ele>114.5</ele>
      </trkpt>
      <trkpt lat="27.388420" lon="-112.349620">
        <ele>113.9</ele>
      </trkpt>
      <trkpt lat="27.388510" lon="-112.349360">
        <ele>113.1</ele>
      </trkpt>
      <trkpt lat="27.388730" lon="-112.348570">
        <ele>108.5</ele>
      </trkpt>
      <trkpt lat="27.388960" lon="-112.347770">
        <ele>106.5</ele>
      </trkpt>
      <trkpt lat="27.389120" lon="-112.347250">
        <ele>106.8</ele>
      </trkpt>
      <trkpt lat="27.389270" lon="-112.346730">
        <ele>110.5</ele>
      </trkpt>
      <trkpt lat="27.389500" lon="-112.345930">
        <ele>113.9</ele>
      </trkpt>
      <trkpt lat="27.389730" lon="-112.345140">
        <ele>110.4</ele>
      </trkpt>
      <trkpt lat="27.389960" lon="-112.344340">
        <ele>104.8</ele>
      </trkpt>
      <trkpt lat="27.390220" lon="-112.343510">
        <ele>99.7</ele>
      </trkpt>
      <trkpt lat="27.390290" lon="-112.343330">
        <ele>99.0</ele>
      </trkpt>
      <trkpt lat="27.390380" lon="-112.343100">
        <ele>99.4</ele>
      </trkpt>
      <trkpt lat="27.390470" lon="-112.342910">
        <ele>99.7</ele>
      </trkpt>
      <trkpt lat="27.390700" lon="-112.342460">
        <ele>100.4</ele>
      </trkpt>
      <trkpt lat="27.390920" lon="-112.342020">
        <ele>99.3</ele>
      </trkpt>
      <trkpt lat="27.391310" lon="-112.341230">
        <ele>96.9</ele>
      </trkpt>
      <trkpt lat="27.391700" lon="-112.340430">
        <ele>99.1</ele>
      </trkpt>
      <trkpt lat="27.391770" lon="-112.340240">
        <ele>100.7</ele>
      </trkpt>
      <trkpt lat="27.391810" lon="-112.340060">
        <ele>102.1</ele>
      </trkpt>
      <trkpt lat="27.391840" lon="-112.339870">
        <ele>103.9</ele>
      </trkpt>
      <trkpt lat="27.391840" lon="-112.339550">
        <ele>107.2</ele>
      </trkpt>
      <trkpt lat="27.391740" lon="-112.338630">
        <ele>118.1</ele>
      </trkpt>
      <trkpt lat="27.391650" lon="-112.337720">
        <ele>125.7</ele>
      </trkpt>
      <trkpt lat="27.391560" lon="-112.336800">
        <ele>122.2</ele>
      </trkpt>
      <trkpt lat="27.391460" lon="-112.335890">
        <ele>123.0</ele>
      </trkpt>
      <trkpt lat="27.391370" lon="-112.334980">
        <ele>129.0</ele>
      </trkpt>
      <trkpt lat="27.391300" lon="-112.334610">
        <ele>125.7</ele>
      </trkpt>
      <trkpt lat="27.391170" lon="-112.334300">
        <ele>122.8</ele>
      </trkpt>
      <trkpt lat="27.391000" lon="-112.334070">
        <ele>120.4</ele>
      </trkpt>
      <trkpt lat="27.390800" lon="-112.333820">
        <ele>116.2</ele>
      </trkpt>
      <trkpt lat="27.390680" lon="-112.333660">
        <ele>112.4</ele>
      </trkpt>
      <trkpt lat="27.390560" lon="-112.333490">
        <ele>109.0</ele>
      </trkpt>
      <trkpt lat="27.390460" lon="-112.333290">
        <ele>106.1</ele>
      </trkpt>
      <trkpt lat="27.390330" lon="-112.332990">
        <ele>103.2</ele>
      </trkpt>
      <trkpt lat="27.390240" lon="-112.332600">
        <ele>100.0</ele>
      </trkpt>
      <trkpt lat="27.390210" lon="-112.332390">
        <ele>98.0</ele>
      </trkpt>
      <trkpt lat="27.390210" lon="-112.332160">
        <ele>95.9</ele>
      </trkpt>
      <trkpt lat="27.390220" lon="-112.331960">
        <ele>94.2</ele>
      </trkpt>
      <trkpt lat="27.390240" lon="-112.331790">
        <ele>93.0</ele>
      </trkpt>
      <trkpt lat="27.390410" lon="-112.331100">
        <ele>89.6</ele>
      </trkpt>
      <trkpt lat="27.390640" lon="-112.330250">
        <ele>86.4</ele>
      </trkpt>
      <trkpt lat="27.390870" lon="-112.329390">
        <ele>87.2</ele>
      </trkpt>
      <trkpt lat="27.391090" lon="-112.328540">
        <ele>81.8</ele>
      </trkpt>
      <trkpt lat="27.391210" lon="-112.328000">
        <ele>79.9</ele>
      </trkpt>
      <trkpt lat="27.391310" lon="-112.327410">
        <ele>78.6</ele>
      </trkpt>
      <trkpt lat="27.391380" lon="-112.326880">
        <ele>78.0</ele>
      </trkpt>
      <trkpt lat="27.391440" lon="-112.326120">
        <ele>74.9</ele>
      </trkpt>
      <trkpt lat="27.391480" lon="-112.325370">
        <ele>71.3</ele>
      </trkpt>
      <trkpt lat="27.391510" lon="-112.324620">
        <ele>67.7</ele>
      </trkpt>
      <trkpt lat="27.391550" lon="-112.323720">
        <ele>64.8</ele>
      </trkpt>
      <trkpt lat="27.391600" lon="-112.322820">
        <ele>63.8</ele>
      </trkpt>
      <trkpt lat="27.391610" lon="-112.321870">
        <ele>64.7</ele>
      </trkpt>
      <trkpt lat="27.391590" lon="-112.321310">
        <ele>67.7</ele>
      </trkpt>
      <trkpt lat="27.391540" lon="-112.320770">
        <ele>71.0</ele>
      </trkpt>
      <trkpt lat="27.391500" lon="-112.320230">
        <ele>73.7</ele>
      </trkpt>
      <trkpt lat="27.391490" lon="-112.320030">
        <ele>74.7</ele>
      </trkpt>
      <trkpt lat="27.391500" lon="-112.319830">
        <ele>74.4</ele>
      </trkpt>
      <trkpt lat="27.391530" lon="-112.319560">
        <ele>74.0</ele>
      </trkpt>
      <trkpt lat="27.391600" lon="-112.319260">
        <ele>74.1</ele>
      </trkpt>
      <trkpt lat="27.391690" lon="-112.318740">
        <ele>73.2</ele>
      </trkpt>
      <trkpt lat="27.391710" lon="-112.318560">
        <ele>72.8</ele>
      </trkpt>
      <trkpt lat="27.391710" lon="-112.318370">
        <ele>71.7</ele>
      </trkpt>
      <trkpt lat="27.391700" lon="-112.318240">
        <ele>71.7</ele>
      </trkpt>
      <trkpt lat="27.391650" lon="-112.318000">
        <ele>72.2</ele>
      </trkpt>
      <trkpt lat="27.391590" lon="-112.317790">
        <ele>72.6</ele>
      </trkpt>
      <trkpt lat="27.391490" lon="-112.317570">
        <ele>72.2</ele>
      </trkpt>
      <trkpt lat="27.391150" lon="-112.316980">
        <ele>68.9</ele>
      </trkpt>
      <trkpt lat="27.391070" lon="-112.316790">
        <ele>68.1</ele>
      </trkpt>
      <trkpt lat="27.390970" lon="-112.316490">
        <ele>66.1</ele>
      </trkpt>
      <trkpt lat="27.390910" lon="-112.316170">
        <ele>64.2</ele>
      </trkpt>
      <trkpt lat="27.390890" lon="-112.315740">
        <ele>63.1</ele>
      </trkpt>
      <trkpt lat="27.390890" lon="-112.314970">
        <ele>61.1</ele>
      </trkpt>
      <trkpt lat="27.390890" lon="-112.314210">
        <ele>57.2</ele>
      </trkpt>
      <trkpt lat="27.390880" lon="-112.313450">
        <ele>54.7</ele>
      </trkpt>
      <trkpt lat="27.390870" lon="-112.312630">
        <ele>53.3</ele>
      </trkpt>
      <trkpt lat="27.390870" lon="-112.311800">
        <ele>49.0</ele>
      </trkpt>
      <trkpt lat="27.390850" lon="-112.311130">
        <ele>48.7</ele>
      </trkpt>
      <trkpt lat="27.390830" lon="-112.310450">
        <ele>48.5</ele>
      </trkpt>
      <trkpt lat="27.390790" lon="-112.309470">
        <ele>45.2</ele>
      </trkpt>
      <trkpt lat="27.390740" lon="-112.308900">
        <ele>39.2</ele>
      </trkpt>
      <trkpt lat="27.390690" lon="-112.308320">
        <ele>29.5</ele>
      </trkpt>
      <trkpt lat="27.390680" lon="-112.308000">
        <ele>27.5</ele>
      </trkpt>
      <trkpt lat="27.390710" lon="-112.307640">
        <ele>25.4</ele>
      </trkpt>
      <trkpt lat="27.390780" lon="-112.307270">
        <ele>24.4</ele>
      </trkpt>
      <trkpt lat="27.390830" lon="-112.306940">
        <ele>23.7</ele>
      </trkpt>
      <trkpt lat="27.390850" lon="-112.306750">
        <ele>23.2</ele>
      </trkpt>
      <trkpt lat="27.390850" lon="-112.306570">
        <ele>21.9</ele>
      </trkpt>
      <trkpt lat="27.390830" lon="-112.306370">
        <ele>19.8</ele>
      </trkpt>
      <trkpt lat="27.390770" lon="-112.306140">
        <ele>18.3</ele>
      </trkpt>
      <trkpt lat="27.390710" lon="-112.305950">
        <ele>17.5</ele>
      </trkpt>
      <trkpt lat="27.390610" lon="-112.305760">
        <ele>17.7</ele>
      </trkpt>
      <trkpt lat="27.390460" lon="-112.305530">
        <ele>17.8</ele>
      </trkpt>
      <trkpt lat="27.390270" lon="-112.305320">
        <ele>17.8</ele>
      </trkpt>
      <trkpt lat="27.390040" lon="-112.305130">
        <ele>17.8</ele>
      </trkpt>
      <trkpt lat="27.389680" lon="-112.304900">
        <ele>16.9</ele>
      </trkpt>
      <trkpt lat="27.389410" lon="-112.304760">
        <ele>15.8</ele>
      </trkpt>
      <trkpt lat="27.389220" lon="-112.304690">
        <ele>15.4</ele>
      </trkpt>
      <trkpt lat="27.389030" lon="-112.304650">
        <ele>14.2</ele>
      </trkpt>
      <trkpt lat="27.388430" lon="-112.304610">
        <ele>10.8</ele>
      </trkpt>
      <trkpt lat="27.387820" lon="-112.304570">
        <ele>8.3</ele>
      </trkpt>
      <trkpt lat="27.387210" lon="-112.304530">
        <ele>5.1</ele>
      </trkpt>
      <trkpt lat="27.386520" lon="-112.304480">
        <ele>1.6</ele>
      </trkpt>
      <trkpt lat="27.385970" lon="-112.304380">
        <ele>3.3</ele>
      </trkpt>
      <trkpt lat="27.385810" lon="-112.304340">
        <ele>3.9</ele>
      </trkpt>
      <trkpt lat="27.385610" lon="-112.304270">
        <ele>4.3</ele>
      </trkpt>
      <trkpt lat="27.385250" lon="-112.304120">
        <ele>4.8</ele>
      </trkpt>
      <trkpt lat="27.384770" lon="-112.303870">
        <ele>5.5</ele>
      </trkpt>
      <trkpt lat="27.384150" lon="-112.303470">
        <ele>6.1</ele>
      </trkpt>
      <trkpt lat="27.383660" lon="-112.303030">
        <ele>7.0</ele>
      </trkpt>
      <trkpt lat="27.383270" lon="-112.302630">
        <ele>7.2</ele>
      </trkpt>
      <trkpt lat="27.382900" lon="-112.302250">
        <ele>8.0</ele>
      </trkpt>
      <trkpt lat="27.382380" lon="-112.301700">
        <ele>8.8</ele>
      </trkpt>
      <trkpt lat="27.381870" lon="-112.301140">
        <ele>9.4</ele>
      </trkpt>
      <trkpt lat="27.381440" lon="-112.300580">
        <ele>7.5</ele>
      </trkpt>
      <trkpt lat="27.381120" lon="-112.300110">
        <ele>7.1</ele>
      </trkpt>
      <trkpt lat="27.380800" lon="-112.299590">
        <ele>6.1</ele>
      </trkpt>
      <trkpt lat="27.380540" lon="-112.299210">
        <ele>6.2</ele>
      </trkpt>
      <trkpt lat="27.380050" lon="-112.298580">
        <ele>8.6</ele>
      </trkpt>
      <trkpt lat="27.379550" lon="-112.297950">
        <ele>6.1</ele>
      </trkpt>
      <trkpt lat="27.379140" lon="-112.297450">
        <ele>3.1</ele>
      </trkpt>
      <trkpt lat="27.378730" lon="-112.296950">
        <ele>3.7</ele>
      </trkpt>
      <trkpt lat="27.378270" lon="-112.296480">
        <ele>3.9</ele>
      </trkpt>
      <trkpt lat="27.377630" lon="-112.295930">
        <ele>4.0</ele>
      </trkpt>
      <trkpt lat="27.377000" lon="-112.295370">
        <ele>3.7</ele>
      </trkpt>
      <trkpt lat="27.376600" lon="-112.295040">
        <ele>3.1</ele>
      </trkpt>
      <trkpt lat="27.376190" lon="-112.294710">
        <ele>3.6</ele>
      </trkpt>
      <trkpt lat="27.376000" lon="-112.294540">
        <ele>3.8</ele>
      </trkpt>
      <trkpt lat="27.375440" lon="-112.294060">
        <ele>5.7</ele>
      </trkpt>
      <trkpt lat="27.374800" lon="-112.293570">
        <ele>6.0</ele>
      </trkpt>
      <trkpt lat="27.374090" lon="-112.293150">
        <ele>4.1</ele>
      </trkpt>
      <trkpt lat="27.373390" lon="-112.292740">
        <ele>4.3</ele>
      </trkpt>
      <trkpt lat="27.372680" lon="-112.292330">
        <ele>3.7</ele>
      </trkpt>
      <trkpt lat="27.372390" lon="-112.292180">
        <ele>3.2</ele>
      </trkpt>
      <trkpt lat="27.372190" lon="-112.292120">
        <ele>3.1</ele>
      </trkpt>
      <trkpt lat="27.371990" lon="-112.292080">
        <ele>3.0</ele>
      </trkpt>
      <trkpt lat="27.371800" lon="-112.292050">
        <ele>3.0</ele>
      </trkpt>
      <trkpt lat="27.371460" lon="-112.292060">
        <ele>5.8</ele>
      </trkpt>
      <trkpt lat="27.370760" lon="-112.292110">
        <ele>14.8</ele>
      </trkpt>
      <trkpt lat="27.370260" lon="-112.292180">
        <ele>15.9</ele>
      </trkpt>
      <trkpt lat="27.369440" lon="-112.292230">
        <ele>14.3</ele>
      </trkpt>
      <trkpt lat="27.369140" lon="-112.292200">
        <ele>11.9</ele>
      </trkpt>
      <trkpt lat="27.368850" lon="-112.292140">
        <ele>9.6</ele>
      </trkpt>
      <trkpt lat="27.368360" lon="-112.291910">
        <ele>5.8</ele>
      </trkpt>
      <trkpt lat="27.368080" lon="-112.291730">
        <ele>3.9</ele>
      </trkpt>
      <trkpt lat="27.367780" lon="-112.291470">
        <ele>3.9</ele>
      </trkpt>
      <trkpt lat="27.367260" lon="-112.290910">
        <ele>7.0</ele>
      </trkpt>
      <trkpt lat="27.366740" lon="-112.290350">
        <ele>4.0</ele>
      </trkpt>
      <trkpt lat="27.366210" lon="-112.289780">
        <ele>1.8</ele>
      </trkpt>
      <trkpt lat="27.365650" lon="-112.289000">
        <ele>2.7</ele>
      </trkpt>
      <trkpt lat="27.365090" lon="-112.288220">
        <ele>3.1</ele>
      </trkpt>
      <trkpt lat="27.364540" lon="-112.287440">
        <ele>5.7</ele>
      </trkpt>
      <trkpt lat="27.364140" lon="-112.286950">
        <ele>5.1</ele>
      </trkpt>
      <trkpt lat="27.363740" lon="-112.286450">
        <ele>11.1</ele>
      </trkpt>
      <trkpt lat="27.363320" lon="-112.285780">
        <ele>6.7</ele>
      </trkpt>
      <trkpt lat="27.362970" lon="-112.285100">
        <ele>5.8</ele>
      </trkpt>
      <trkpt lat="27.362620" lon="-112.284420">
        <ele>6.3</ele>
      </trkpt>
      <trkpt lat="27.362400" lon="-112.283980">
        <ele>6.3</ele>
      </trkpt>
      <trkpt lat="27.362180" lon="-112.283530">
        <ele>6.8</ele>
      </trkpt>
      <trkpt lat="27.362050" lon="-112.282970">
        <ele>5.1</ele>
      </trkpt>
      <trkpt lat="27.361920" lon="-112.282240">
        <ele>4.0</ele>
      </trkpt>
      <trkpt lat="27.361640" lon="-112.281470">
        <ele>3.5</ele>
      </trkpt>
      <trkpt lat="27.361370" lon="-112.280700">
        <ele>5.7</ele>
      </trkpt>
      <trkpt lat="27.361110" lon="-112.280010">
        <ele>5.4</ele>
      </trkpt>
      <trkpt lat="27.360840" lon="-112.279230">
        <ele>4.3</ele>
      </trkpt>
      <trkpt lat="27.360560" lon="-112.278460">
        <ele>8.0</ele>
      </trkpt>
      <trkpt lat="27.360290" lon="-112.277680">
        <ele>10.7</ele>
      </trkpt>
      <trkpt lat="27.360020" lon="-112.276910">
        <ele>9.5</ele>
      </trkpt>
      <trkpt lat="27.359840" lon="-112.276560">
        <ele>9.2</ele>
      </trkpt>
      <trkpt lat="27.359410" lon="-112.276020">
        <ele>7.4</ele>
      </trkpt>
      <trkpt lat="27.358970" lon="-112.275480">
        <ele>6.1</ele>
      </trkpt>
      <trkpt lat="27.358400" lon="-112.274760">
        <ele>4.4</ele>
      </trkpt>
      <trkpt lat="27.357820" lon="-112.274040">
        <ele>3.6</ele>
      </trkpt>
      <trkpt lat="27.357240" lon="-112.273330">
        <ele>4.6</ele>
      </trkpt>
      <trkpt lat="27.356660" lon="-112.272610">
        <ele>6.9</ele>
      </trkpt>
      <trkpt lat="27.356090" lon="-112.271890">
        <ele>5.3</ele>
      </trkpt>
      <trkpt lat="27.355610" lon="-112.271320">
        <ele>5.7</ele>
      </trkpt>
      <trkpt lat="27.355400" lon="-112.271100">
        <ele>6.4</ele>
      </trkpt>
      <trkpt lat="27.355250" lon="-112.270980">
        <ele>7.0</ele>
      </trkpt>
      <trkpt lat="27.355110" lon="-112.270900">
        <ele>7.6</ele>
      </trkpt>
      <trkpt lat="27.354930" lon="-112.270820">
        <ele>8.5</ele>
      </trkpt>
      <trkpt lat="27.354580" lon="-112.270740">
        <ele>10.1</ele>
      </trkpt>
      <trkpt lat="27.353780" lon="-112.270510">
        <ele>8.9</ele>
      </trkpt>
      <trkpt lat="27.353440" lon="-112.270430">
        <ele>7.7</ele>
      </trkpt>
      <trkpt lat="27.353250" lon="-112.270400">
        <ele>7.6</ele>
      </trkpt>
      <trkpt lat="27.353080" lon="-112.270380">
        <ele>8.1</ele>
      </trkpt>
      <trkpt lat="27.352790" lon="-112.270390">
        <ele>9.8</ele>
      </trkpt>
      <trkpt lat="27.352570" lon="-112.270430">
        <ele>11.3</ele>
      </trkpt>
      <trkpt lat="27.352130" lon="-112.270540">
        <ele>11.5</ele>
      </trkpt>
      <trkpt lat="27.351880" lon="-112.270590">
        <ele>11.0</ele>
      </trkpt>
      <trkpt lat="27.351570" lon="-112.270640">
        <ele>10.2</ele>
      </trkpt>
      <trkpt lat="27.351380" lon="-112.270650">
        <ele>9.6</ele>
      </trkpt>
      <trkpt lat="27.351080" lon="-112.270620">
        <ele>8.2</ele>
      </trkpt>
      <trkpt lat="27.350870" lon="-112.270590">
        <ele>7.1</ele>
      </trkpt>
      <trkpt lat="27.350530" lon="-112.270510">
        <ele>5.7</ele>
      </trkpt>
      <trkpt lat="27.349790" lon="-112.270330">
        <ele>5.2</ele>
      </trkpt>
      <trkpt lat="27.349470" lon="-112.270280">
        <ele>6.2</ele>
      </trkpt>
      <trkpt lat="27.348980" lon="-112.270160">
        <ele>7.2</ele>
      </trkpt>
      <trkpt lat="27.348480" lon="-112.270040">
        <ele>7.2</ele>
      </trkpt>
      <trkpt lat="27.347850" lon="-112.269950">
        <ele>7.9</ele>
      </trkpt>
      <trkpt lat="27.347790" lon="-112.269940">
        <ele>7.9</ele>
      </trkpt>
      <trkpt lat="27.347390" lon="-112.269970">
        <ele>8.8</ele>
      </trkpt>
      <trkpt lat="27.346650" lon="-112.269970">
        <ele>8.9</ele>
      </trkpt>
      <trkpt lat="27.346340" lon="-112.269990">
        <ele>9.7</ele>
      </trkpt>
      <trkpt lat="27.346050" lon="-112.269880">
        <ele>9.9</ele>
      </trkpt>
      <trkpt lat="27.345870" lon="-112.269760">
        <ele>9.8</ele>
      </trkpt>
      <trkpt lat="27.345530" lon="-112.269460">
        <ele>8.7</ele>
      </trkpt>
      <trkpt lat="27.345320" lon="-112.269250">
        <ele>7.5</ele>
      </trkpt>
      <trkpt lat="27.345130" lon="-112.269120">
        <ele>6.7</ele>
      </trkpt>
      <trkpt lat="27.344720" lon="-112.268930">
        <ele>6.4</ele>
      </trkpt>
      <trkpt lat="27.344480" lon="-112.268780">
        <ele>6.1</ele>
      </trkpt>
      <trkpt lat="27.343830" lon="-112.268250">
        <ele>5.1</ele>
      </trkpt>
      <trkpt lat="27.343630" lon="-112.268100">
        <ele>5.9</ele>
      </trkpt>
      <trkpt lat="27.343100" lon="-112.267780">
        <ele>8.5</ele>
      </trkpt>
      <trkpt lat="27.342880" lon="-112.267630">
        <ele>8.3</ele>
      </trkpt>
      <trkpt lat="27.342510" lon="-112.267310">
        <ele>6.3</ele>
      </trkpt>
      <trkpt lat="27.342140" lon="-112.267050">
        <ele>7.2</ele>
      </trkpt>
      <trkpt lat="27.341710" lon="-112.266790">
        <ele>7.0</ele>
      </trkpt>
      <trkpt lat="27.341290" lon="-112.266520">
        <ele>6.9</ele>
      </trkpt>
      <trkpt lat="27.340920" lon="-112.266320">
        <ele>6.1</ele>
      </trkpt>
      <trkpt lat="27.340730" lon="-112.266240">
        <ele>6.1</ele>
      </trkpt>
      <trkpt lat="27.340450" lon="-112.266150">
        <ele>6.9</ele>
      </trkpt>
      <trkpt lat="27.340020" lon="-112.266030">
        <ele>8.2</ele>
      </trkpt>
      <trkpt lat="27.339400" lon="-112.265880">
        <ele>7.4</ele>
      </trkpt>
      <trkpt lat="27.338820" lon="-112.265780">
        <ele>7.2</ele>
      </trkpt>
      <trkpt lat="27.338530" lon="-112.265690">
        <ele>7.2</ele>
      </trkpt>
      <trkpt lat="27.338370" lon="-112.265570">
        <ele>7.0</ele>
      </trkpt>
      <trkpt lat="27.338180" lon="-112.265360">
        <ele>7.2</ele>
      </trkpt>
      <trkpt lat="27.337990" lon="-112.265140">
        <ele>8.0</ele>
      </trkpt>
      <trkpt lat="27.337830" lon="-112.264980">
        <ele>9.1</ele>
      </trkpt>
      <trkpt lat="27.337500" lon="-112.264770">
        <ele>10.1</ele>
      </trkpt>
      <trkpt lat="27.337100" lon="-112.264610">
        <ele>12.7</ele>
      </trkpt>
      <trkpt lat="27.336450" lon="-112.264310">
        <ele>11.7</ele>
      </trkpt>
      <trkpt lat="27.335790" lon="-112.264010">
        <ele>12.0</ele>
      </trkpt>
      <trkpt lat="27.335560" lon="-112.263920">
        <ele>11.8</ele>
      </trkpt>
      <trkpt lat="27.335100" lon="-112.263810">
        <ele>11.6</ele>
      </trkpt>
      <trkpt lat="27.334840" lon="-112.263720">
        <ele>12.4</ele>
      </trkpt>
      <trkpt lat="27.334650" lon="-112.263640">
        <ele>13.3</ele>
      </trkpt>
      <trkpt lat="27.334370" lon="-112.263500">
        <ele>13.6</ele>
      </trkpt>
      <trkpt lat="27.334080" lon="-112.263290">
        <ele>12.3</ele>
      </trkpt>
      <trkpt lat="27.333690" lon="-112.262970">
        <ele>10.9</ele>
      </trkpt>
      <trkpt lat="27.333300" lon="-112.262660">
        <ele>8.5</ele>
      </trkpt>
      <trkpt lat="27.333080" lon="-112.262440">
        <ele>8.5</ele>
      </trkpt>
      <trkpt lat="27.332860" lon="-112.262200">
        <ele>9.8</ele>
      </trkpt>
      <trkpt lat="27.332530" lon="-112.261810">
        <ele>10.2</ele>
      </trkpt>
      <trkpt lat="27.332380" lon="-112.261590">
        <ele>10.4</ele>
      </trkpt>
      <trkpt lat="27.331990" lon="-112.261000">
        <ele>13.4</ele>
      </trkpt>
      <trkpt lat="27.331590" lon="-112.260410">
        <ele>16.9</ele>
      </trkpt>
      <trkpt lat="27.331200" lon="-112.259820">
        <ele>18.5</ele>
      </trkpt>
      <trkpt lat="27.331080" lon="-112.259670">
        <ele>18.8</ele>
      </trkpt>
      <trkpt lat="27.330950" lon="-112.259560">
        <ele>19.8</ele>
      </trkpt>
      <trkpt lat="27.330740" lon="-112.259430">
        <ele>20.8</ele>
      </trkpt>
      <trkpt lat="27.330570" lon="-112.259370">
        <ele>21.2</ele>
      </trkpt>
      <trkpt lat="27.330280" lon="-112.259320">
        <ele>22.8</ele>
      </trkpt>
      <trkpt lat="27.330080" lon="-112.259250">
        <ele>23.4</ele>
      </trkpt>
      <trkpt lat="27.329990" lon="-112.259200">
        <ele>23.5</ele>
      </trkpt>
      <trkpt lat="27.329880" lon="-112.259130">
        <ele>24.6</ele>
      </trkpt>
      <trkpt lat="27.329790" lon="-112.259030">
        <ele>26.4</ele>
      </trkpt>
      <trkpt lat="27.329720" lon="-112.258930">
        <ele>28.0</ele>
      </trkpt>
      <trkpt lat="27.329650" lon="-112.258800">
        <ele>30.0</ele>
      </trkpt>
      <trkpt lat="27.329600" lon="-112.258680">
        <ele>31.7</ele>
      </trkpt>
      <trkpt lat="27.329370" lon="-112.257910">
        <ele>36.0</ele>
      </trkpt>
      <trkpt lat="27.329140" lon="-112.257090">
        <ele>31.7</ele>
      </trkpt>
      <trkpt lat="27.328920" lon="-112.256260">
        <ele>31.0</ele>
      </trkpt>
      <trkpt lat="27.328750" lon="-112.255810">
        <ele>34.1</ele>
      </trkpt>
      <trkpt lat="27.328640" lon="-112.255540">
        <ele>31.9</ele>
      </trkpt>
      <trkpt lat="27.328480" lon="-112.255240">
        <ele>30.4</ele>
      </trkpt>
      <trkpt lat="27.328310" lon="-112.254950">
        <ele>30.2</ele>
      </trkpt>
      <trkpt lat="27.328100" lon="-112.254630">
        <ele>33.6</ele>
      </trkpt>
      <trkpt lat="27.327890" lon="-112.254390">
        <ele>38.0</ele>
      </trkpt>
      <trkpt lat="27.327690" lon="-112.254200">
        <ele>42.8</ele>
      </trkpt>
      <trkpt lat="27.327370" lon="-112.253960">
        <ele>44.9</ele>
      </trkpt>
      <trkpt lat="27.327040" lon="-112.253760">
        <ele>44.3</ele>
      </trkpt>
      <trkpt lat="27.326650" lon="-112.253540">
        <ele>43.1</ele>
      </trkpt>
      <trkpt lat="27.326470" lon="-112.253420">
        <ele>41.6</ele>
      </trkpt>
      <trkpt lat="27.326350" lon="-112.253320">
        <ele>40.3</ele>
      </trkpt>
      <trkpt lat="27.326220" lon="-112.253170">
        <ele>40.1</ele>
      </trkpt>
      <trkpt lat="27.326090" lon="-112.252990">
        <ele>39.7</ele>
      </trkpt>
      <trkpt lat="27.326040" lon="-112.252860">
        <ele>38.9</ele>
      </trkpt>
      <trkpt lat="27.325960" lon="-112.252630">
        <ele>37.6</ele>
      </trkpt>
      <trkpt lat="27.325920" lon="-112.252410">
        <ele>36.6</ele>
      </trkpt>
      <trkpt lat="27.325900" lon="-112.252220">
        <ele>36.4</ele>
      </trkpt>
      <trkpt lat="27.325910" lon="-112.251360">
        <ele>34.9</ele>
      </trkpt>
      <trkpt lat="27.325900" lon="-112.250750">
        <ele>34.7</ele>
      </trkpt>
      <trkpt lat="27.325860" lon="-112.250490">
        <ele>33.6</ele>
      </trkpt>
      <trkpt lat="27.325790" lon="-112.250260">
        <ele>32.7</ele>
      </trkpt>
      <trkpt lat="27.325700" lon="-112.250080">
        <ele>31.6</ele>
      </trkpt>
      <trkpt lat="27.325590" lon="-112.249930">
        <ele>30.5</ele>
      </trkpt>
      <trkpt lat="27.325470" lon="-112.249800">
        <ele>29.5</ele>
      </trkpt>
      <trkpt lat="27.325300" lon="-112.249660">
        <ele>28.2</ele>
      </trkpt>
      <trkpt lat="27.325060" lon="-112.249530">
        <ele>26.6</ele>
      </trkpt>
      <trkpt lat="27.324820" lon="-112.249440">
        <ele>25.5</ele>
      </trkpt>
      <trkpt lat="27.324300" lon="-112.249310">
        <ele>24.5</ele>
      </trkpt>
      <trkpt lat="27.323900" lon="-112.249220">
        <ele>25.5</ele>
      </trkpt>
      <trkpt lat="27.323490" lon="-112.249100">
        <ele>27.1</ele>
      </trkpt>
      <trkpt lat="27.323230" lon="-112.248990">
        <ele>26.9</ele>
      </trkpt>
      <trkpt lat="27.323050" lon="-112.248900">
        <ele>25.6</ele>
      </trkpt>
      <trkpt lat="27.322910" lon="-112.248780">
        <ele>24.3</ele>
      </trkpt>
      <trkpt lat="27.322720" lon="-112.248560">
        <ele>22.3</ele>
      </trkpt>
      <trkpt lat="27.322560" lon="-112.248270">
        <ele>20.4</ele>
      </trkpt>
      <trkpt lat="27.322300" lon="-112.247490">
        <ele>15.8</ele>
      </trkpt>
      <trkpt lat="27.322100" lon="-112.246860">
        <ele>10.4</ele>
      </trkpt>
      <trkpt lat="27.321910" lon="-112.246240">
        <ele>8.6</ele>
      </trkpt>
      <trkpt lat="27.321800" lon="-112.245940">
        <ele>8.2</ele>
      </trkpt>
      <trkpt lat="27.321690" lon="-112.245710">
        <ele>6.9</ele>
      </trkpt>
      <trkpt lat="27.321600" lon="-112.245550">
        <ele>6.3</ele>
      </trkpt>
      <trkpt lat="27.321350" lon="-112.245240">
        <ele>6.0</ele>
      </trkpt>
      <trkpt lat="27.321130" lon="-112.245050">
        <ele>6.3</ele>
      </trkpt>
      <trkpt lat="27.320910" lon="-112.244900">
        <ele>7.0</ele>
      </trkpt>
      <trkpt lat="27.320650" lon="-112.244770">
        <ele>8.6</ele>
      </trkpt>
      <trkpt lat="27.320310" lon="-112.244620">
        <ele>10.2</ele>
      </trkpt>
      <trkpt lat="27.319740" lon="-112.244390">
        <ele>11.3</ele>
      </trkpt>
      <trkpt lat="27.319440" lon="-112.244270">
        <ele>11.5</ele>
      </trkpt>
      <trkpt lat="27.319170" lon="-112.244210">
        <ele>12.0</ele>
      </trkpt>
      <trkpt lat="27.318420" lon="-112.244180">
        <ele>13.9</ele>
      </trkpt>
      <trkpt lat="27.317680" lon="-112.244270">
        <ele>13.4</ele>
      </trkpt>
      <trkpt lat="27.317010" lon="-112.244390">
        <ele>14.5</ele>
      </trkpt>
      <trkpt lat="27.316310" lon="-112.244490">
        <ele>13.4</ele>
      </trkpt>
      <trkpt lat="27.315870" lon="-112.244470">
        <ele>9.7</ele>
      </trkpt>
      <trkpt lat="27.315340" lon="-112.244380">
        <ele>7.4</ele>
      </trkpt>
      <trkpt lat="27.314610" lon="-112.244180">
        <ele>7.5</ele>
      </trkpt>
      <trkpt lat="27.313870" lon="-112.243980">
        <ele>8.9</ele>
      </trkpt>
      <trkpt lat="27.313140" lon="-112.243770">
        <ele>9.4</ele>
      </trkpt>
      <trkpt lat="27.312410" lon="-112.243570">
        <ele>11.9</ele>
      </trkpt>
      <trkpt lat="27.311680" lon="-112.243370">
        <ele>12.9</ele>
      </trkpt>
      <trkpt lat="27.310950" lon="-112.243170">
        <ele>13.0</ele>
      </trkpt>
      <trkpt lat="27.310460" lon="-112.243110">
        <ele>14.0</ele>
      </trkpt>
      <trkpt lat="27.310090" lon="-112.243150">
        <ele>15.0</ele>
      </trkpt>
      <trkpt lat="27.309730" lon="-112.243290">
        <ele>16.2</ele>
      </trkpt>
      <trkpt lat="27.309470" lon="-112.243480">
        <ele>19.8</ele>
      </trkpt>
      <trkpt lat="27.309320" lon="-112.243680">
        <ele>23.4</ele>
      </trkpt>
      <trkpt lat="27.309080" lon="-112.244040">
        <ele>27.4</ele>
      </trkpt>
      <trkpt lat="27.308650" lon="-112.244690">
        <ele>25.8</ele>
      </trkpt>
      <trkpt lat="27.308230" lon="-112.245330">
        <ele>25.5</ele>
      </trkpt>
      <trkpt lat="27.308050" lon="-112.245530">
        <ele>25.5</ele>
      </trkpt>
      <trkpt lat="27.307700" lon="-112.245810">
        <ele>25.3</ele>
      </trkpt>
      <trkpt lat="27.307260" lon="-112.246040">
        <ele>25.2</ele>
      </trkpt>
      <trkpt lat="27.306800" lon="-112.246190">
        <ele>25.1</ele>
      </trkpt>
      <trkpt lat="27.306590" lon="-112.246230">
        <ele>25.0</ele>
      </trkpt>
      <trkpt lat="27.306370" lon="-112.246250">
        <ele>24.9</ele>
      </trkpt>
      <trkpt lat="27.306160" lon="-112.246250">
        <ele>24.9</ele>
      </trkpt>
      <trkpt lat="27.305770" lon="-112.246230">
        <ele>24.7</ele>
      </trkpt>
      <trkpt lat="27.305120" lon="-112.246190">
        <ele>24.6</ele>
      </trkpt>
      <trkpt lat="27.304310" lon="-112.246160">
        <ele>32.7</ele>
      </trkpt>
      <trkpt lat="27.303880" lon="-112.246240">
        <ele>36.6</ele>
      </trkpt>
      <trkpt lat="27.303420" lon="-112.246450">
        <ele>38.3</ele>
      </trkpt>
      <trkpt lat="27.302970" lon="-112.246670">
        <ele>40.6</ele>
      </trkpt>
      <trkpt lat="27.302300" lon="-112.246960">
        <ele>45.4</ele>
      </trkpt>
      <trkpt lat="27.301700" lon="-112.247110">
        <ele>50.0</ele>
      </trkpt>
      <trkpt lat="27.301030" lon="-112.247260">
        <ele>54.7</ele>
      </trkpt>
      <trkpt lat="27.300370" lon="-112.247420">
        <ele>56.9</ele>
      </trkpt>
      <trkpt lat="27.299700" lon="-112.247580">
        <ele>60.0</ele>
      </trkpt>
      <trkpt lat="27.299380" lon="-112.247620">
        <ele>62.5</ele>
      </trkpt>
      <trkpt lat="27.298910" lon="-112.247610">
        <ele>65.1</ele>
      </trkpt>
      <trkpt lat="27.298380" lon="-112.247500">
        <ele>68.0</ele>
      </trkpt>
      <trkpt lat="27.297890" lon="-112.247390">
        <ele>71.3</ele>
      </trkpt>
      <trkpt lat="27.297330" lon="-112.247330">
        <ele>74.7</ele>
      </trkpt>
      <trkpt lat="27.296850" lon="-112.247310">
        <ele>78.6</ele>
      </trkpt>
      <trkpt lat="27.295980" lon="-112.247290">
        <ele>83.8</ele>
      </trkpt>
      <trkpt lat="27.295100" lon="-112.247260">
        <ele>87.5</ele>
      </trkpt>
      <trkpt lat="27.294230" lon="-112.247240">
        <ele>91.1</ele>
      </trkpt>
      <trkpt lat="27.293360" lon="-112.247220">
        <ele>95.9</ele>
      </trkpt>
      <trkpt lat="27.293000" lon="-112.247180">
        <ele>98.3</ele>
      </trkpt>
      <trkpt lat="27.292770" lon="-112.247130">
        <ele>100.1</ele>
      </trkpt>
      <trkpt lat="27.292530" lon="-112.247040">
        <ele>102.3</ele>
      </trkpt>
      <trkpt lat="27.292360" lon="-112.246960">
        <ele>104.2</ele>
      </trkpt>
      <trkpt lat="27.292120" lon="-112.246800">
        <ele>106.9</ele>
      </trkpt>
      <trkpt lat="27.291450" lon="-112.246310">
        <ele>107.8</ele>
      </trkpt>
      <trkpt lat="27.290790" lon="-112.245820">
        <ele>102.9</ele>
      </trkpt>
      <trkpt lat="27.290120" lon="-112.245320">
        <ele>99.3</ele>
      </trkpt>
      <trkpt lat="27.289460" lon="-112.244830">
        <ele>96.6</ele>
      </trkpt>
      <trkpt lat="27.289250" lon="-112.244710">
        <ele>96.0</ele>
      </trkpt>
      <trkpt lat="27.288800" lon="-112.244520">
        <ele>93.8</ele>
      </trkpt>
      <trkpt lat="27.288510" lon="-112.244440">
        <ele>92.6</ele>
      </trkpt>
      <trkpt lat="27.288090" lon="-112.244400">
        <ele>90.8</ele>
      </trkpt>
      <trkpt lat="27.287240" lon="-112.244410">
        <ele>87.9</ele>
      </trkpt>
      <trkpt lat="27.286390" lon="-112.244430">
        <ele>87.4</ele>
      </trkpt>
      <trkpt lat="27.285540" lon="-112.244440">
        <ele>86.3</ele>
      </trkpt>
      <trkpt lat="27.284670" lon="-112.244430">
        <ele>82.0</ele>
      </trkpt>
      <trkpt lat="27.284020" lon="-112.244450">
        <ele>79.3</ele>
      </trkpt>
      <trkpt lat="27.283380" lon="-112.244480">
        <ele>78.9</ele>
      </trkpt>
      <trkpt lat="27.282510" lon="-112.244470">
        <ele>77.6</ele>
      </trkpt>
      <trkpt lat="27.281640" lon="-112.244480">
        <ele>78.3</ele>
      </trkpt>
      <trkpt lat="27.280770" lon="-112.244480">
        <ele>79.8</ele>
      </trkpt>
      <trkpt lat="27.279900" lon="-112.244490">
        <ele>79.3</ele>
      </trkpt>
      <trkpt lat="27.279040" lon="-112.244500">
        <ele>77.5</ele>
      </trkpt>
      <trkpt lat="27.278170" lon="-112.244510">
        <ele>75.6</ele>
      </trkpt>
      <trkpt lat="27.277300" lon="-112.244520">
        <ele>74.3</ele>
      </trkpt>
      <trkpt lat="27.276430" lon="-112.244520">
        <ele>73.1</ele>
      </trkpt>
      <trkpt lat="27.275720" lon="-112.244550">
        <ele>73.8</ele>
      </trkpt>
      <trkpt lat="27.275020" lon="-112.244560">
        <ele>73.9</ele>
      </trkpt>
      <trkpt lat="27.274330" lon="-112.244570">
        <ele>72.3</ele>
      </trkpt>
      <trkpt lat="27.273640" lon="-112.244580">
        <ele>72.3</ele>
      </trkpt>
      <trkpt lat="27.272950" lon="-112.244590">
        <ele>72.5</ele>
      </trkpt>
      <trkpt lat="27.272560" lon="-112.244580">
        <ele>72.5</ele>
      </trkpt>
      <trkpt lat="27.272060" lon="-112.244510">
        <ele>71.7</ele>
      </trkpt>
      <trkpt lat="27.271750" lon="-112.244440">
        <ele>71.0</ele>
      </trkpt>
      <trkpt lat="27.271200" lon="-112.244290">
        <ele>72.6</ele>
      </trkpt>
      <trkpt lat="27.270550" lon="-112.244030">
        <ele>73.2</ele>
      </trkpt>
      <trkpt lat="27.269970" lon="-112.243780">
        <ele>72.2</ele>
      </trkpt>
      <trkpt lat="27.269300" lon="-112.243480">
        <ele>72.2</ele>
      </trkpt>
      <trkpt lat="27.268630" lon="-112.243180">
        <ele>69.2</ele>
      </trkpt>
      <trkpt lat="27.267960" lon="-112.242880">
        <ele>66.6</ele>
      </trkpt>
      <trkpt lat="27.267290" lon="-112.242580">
        <ele>65.3</ele>
      </trkpt>
      <trkpt lat="27.266610" lon="-112.242290">
        <ele>66.3</ele>
      </trkpt>
      <trkpt lat="27.265940" lon="-112.241990">
        <ele>65.0</ele>
      </trkpt>
      <trkpt lat="27.265210" lon="-112.241670">
        <ele>63.8</ele>
      </trkpt>
      <trkpt lat="27.264490" lon="-112.241340">
        <ele>61.0</ele>
      </trkpt>
      <trkpt lat="27.263670" lon="-112.240990">
        <ele>59.6</ele>
      </trkpt>
      <trkpt lat="27.262840" lon="-112.240630">
        <ele>58.7</ele>
      </trkpt>
      <trkpt lat="27.262020" lon="-112.240280">
        <ele>57.2</ele>
      </trkpt>
      <trkpt lat="27.261190" lon="-112.239920">
        <ele>55.3</ele>
      </trkpt>
      <trkpt lat="27.260370" lon="-112.239570">
        <ele>53.0</ele>
      </trkpt>
      <trkpt lat="27.259540" lon="-112.239200">
        <ele>53.2</ele>
      </trkpt>
      <trkpt lat="27.258720" lon="-112.238840">
        <ele>52.0</ele>
      </trkpt>
      <trkpt lat="27.257890" lon="-112.238480">
        <ele>47.4</ele>
      </trkpt>
      <trkpt lat="27.257470" lon="-112.238270">
        <ele>43.7</ele>
      </trkpt>
      <trkpt lat="27.256970" lon="-112.238020">
        <ele>40.4</ele>
      </trkpt>
      <trkpt lat="27.256560" lon="-112.237800">
        <ele>38.2</ele>
      </trkpt>
      <trkpt lat="27.256110" lon="-112.237550">
        <ele>36.8</ele>
      </trkpt>
      <trkpt lat="27.255500" lon="-112.237190">
        <ele>35.9</ele>
      </trkpt>
      <trkpt lat="27.254880" lon="-112.236830">
        <ele>35.1</ele>
      </trkpt>
      <trkpt lat="27.254270" lon="-112.236480">
        <ele>37.1</ele>
      </trkpt>
      <trkpt lat="27.253640" lon="-112.236120">
        <ele>42.0</ele>
      </trkpt>
      <trkpt lat="27.253210" lon="-112.235870">
        <ele>44.6</ele>
      </trkpt>
      <trkpt lat="27.252790" lon="-112.235610">
        <ele>45.9</ele>
      </trkpt>
      <trkpt lat="27.252290" lon="-112.235290">
        <ele>45.5</ele>
      </trkpt>
      <trkpt lat="27.251780" lon="-112.235020">
        <ele>43.4</ele>
      </trkpt>
      <trkpt lat="27.251120" lon="-112.234710">
        <ele>43.8</ele>
      </trkpt>
      <trkpt lat="27.250450" lon="-112.234400">
        <ele>43.5</ele>
      </trkpt>
      <trkpt lat="27.249790" lon="-112.234090">
        <ele>42.0</ele>
      </trkpt>
      <trkpt lat="27.249130" lon="-112.233780">
        <ele>41.1</ele>
      </trkpt>
      <trkpt lat="27.248470" lon="-112.233470">
        <ele>40.3</ele>
      </trkpt>
      <trkpt lat="27.247810" lon="-112.233170">
        <ele>40.8</ele>
      </trkpt>
      <trkpt lat="27.247150" lon="-112.232870">
        <ele>42.1</ele>
      </trkpt>
      <trkpt lat="27.246520" lon="-112.232510">
        <ele>43.7</ele>
      </trkpt>
      <trkpt lat="27.246040" lon="-112.232190">
        <ele>41.3</ele>
      </trkpt>
      <trkpt lat="27.245550" lon="-112.231870">
        <ele>40.0</ele>
      </trkpt>
      <trkpt lat="27.244880" lon="-112.231410">
        <ele>39.8</ele>
      </trkpt>
      <trkpt lat="27.244200" lon="-112.230950">
        <ele>39.3</ele>
      </trkpt>
      <trkpt lat="27.243520" lon="-112.230490">
        <ele>40.2</ele>
      </trkpt>
      <trkpt lat="27.242840" lon="-112.230020">
        <ele>41.3</ele>
      </trkpt>
      <trkpt lat="27.242130" lon="-112.229530">
        <ele>41.3</ele>
      </trkpt>
      <trkpt lat="27.241420" lon="-112.229050">
        <ele>40.1</ele>
      </trkpt>
      <trkpt lat="27.240710" lon="-112.228560">
        <ele>40.4</ele>
      </trkpt>
      <trkpt lat="27.240010" lon="-112.228070">
        <ele>39.0</ele>
      </trkpt>
      <trkpt lat="27.239300" lon="-112.227580">
        <ele>38.8</ele>
      </trkpt>
      <trkpt lat="27.238590" lon="-112.227090">
        <ele>34.6</ele>
      </trkpt>
      <trkpt lat="27.237880" lon="-112.226600">
        <ele>29.9</ele>
      </trkpt>
      <trkpt lat="27.237290" lon="-112.226190">
        <ele>27.3</ele>
      </trkpt>
      <trkpt lat="27.236690" lon="-112.225790">
        <ele>24.2</ele>
      </trkpt>
      <trkpt lat="27.236090" lon="-112.225390">
        <ele>24.2</ele>
      </trkpt>
      <trkpt lat="27.235490" lon="-112.224990">
        <ele>24.2</ele>
      </trkpt>
      <trkpt lat="27.234840" lon="-112.224540">
        <ele>24.2</ele>
      </trkpt>
      <trkpt lat="27.234180" lon="-112.224090">
        <ele>25.7</ele>
      </trkpt>
      <trkpt lat="27.233520" lon="-112.223640">
        <ele>21.5</ele>
      </trkpt>
      <trkpt lat="27.232860" lon="-112.223190">
        <ele>20.8</ele>
      </trkpt>
      <trkpt lat="27.232210" lon="-112.222740">
        <ele>19.7</ele>
      </trkpt>
      <trkpt lat="27.231550" lon="-112.222290">
        <ele>17.6</ele>
      </trkpt>
      <trkpt lat="27.230920" lon="-112.221860">
        <ele>15.4</ele>
      </trkpt>
      <trkpt lat="27.230290" lon="-112.221440">
        <ele>11.9</ele>
      </trkpt>
      <trkpt lat="27.229790" lon="-112.221120">
        <ele>9.8</ele>
      </trkpt>
      <trkpt lat="27.229370" lon="-112.220920">
        <ele>9.8</ele>
      </trkpt>
      <trkpt lat="27.228810" lon="-112.220720">
        <ele>9.5</ele>
      </trkpt>
      <trkpt lat="27.228680" lon="-112.220680">
        <ele>9.3</ele>
      </trkpt>
      <trkpt lat="27.228430" lon="-112.220620">
        <ele>8.9</ele>
      </trkpt>
      <trkpt lat="27.228160" lon="-112.220580">
        <ele>8.2</ele>
      </trkpt>
      <trkpt lat="27.227770" lon="-112.220550">
        <ele>7.1</ele>
      </trkpt>
      <trkpt lat="27.227140" lon="-112.220560">
        <ele>6.0</ele>
      </trkpt>
      <trkpt lat="27.226600" lon="-112.220610">
        <ele>5.5</ele>
      </trkpt>
      <trkpt lat="27.226240" lon="-112.220660">
        <ele>5.3</ele>
      </trkpt>
      <trkpt lat="27.225570" lon="-112.220720">
        <ele>5.1</ele>
      </trkpt>
      <trkpt lat="27.224970" lon="-112.220790">
        <ele>5.0</ele>
      </trkpt>
      <trkpt lat="27.224370" lon="-112.220860">
        <ele>5.8</ele>
      </trkpt>
      <trkpt lat="27.223910" lon="-112.220900">
        <ele>6.8</ele>
      </trkpt>
      <trkpt lat="27.223450" lon="-112.220940">
        <ele>8.2</ele>
      </trkpt>
      <trkpt lat="27.222830" lon="-112.221020">
        <ele>8.8</ele>
      </trkpt>
      <trkpt lat="27.222200" lon="-112.221090">
        <ele>8.3</ele>
      </trkpt>
      <trkpt lat="27.221440" lon="-112.221170">
        <ele>7.5</ele>
      </trkpt>
      <trkpt lat="27.220670" lon="-112.221250">
        <ele>7.4</ele>
      </trkpt>
      <trkpt lat="27.220010" lon="-112.221330">
        <ele>7.2</ele>
      </trkpt>
      <trkpt lat="27.219360" lon="-112.221410">
        <ele>4.5</ele>
      </trkpt>
      <trkpt lat="27.218650" lon="-112.221490">
        <ele>3.3</ele>
      </trkpt>
      <trkpt lat="27.217950" lon="-112.221570">
        <ele>2.8</ele>
      </trkpt>
      <trkpt lat="27.217250" lon="-112.221650">
        <ele>2.6</ele>
      </trkpt>
      <trkpt lat="27.216550" lon="-112.221730">
        <ele>4.7</ele>
      </trkpt>
      <trkpt lat="27.215860" lon="-112.221810">
        <ele>7.7</ele>
      </trkpt>
      <trkpt lat="27.215180" lon="-112.221890">
        <ele>8.5</ele>
      </trkpt>
      <trkpt lat="27.214290" lon="-112.221990">
        <ele>8.1</ele>
      </trkpt>
      <trkpt lat="27.213410" lon="-112.222080">
        <ele>6.6</ele>
      </trkpt>
      <trkpt lat="27.212530" lon="-112.222180">
        <ele>5.5</ele>
      </trkpt>
      <trkpt lat="27.211650" lon="-112.222270">
        <ele>6.2</ele>
      </trkpt>
      <trkpt lat="27.210760" lon="-112.222370">
        <ele>7.5</ele>
      </trkpt>
      <trkpt lat="27.209880" lon="-112.222460">
        <ele>5.3</ele>
      </trkpt>
      <trkpt lat="27.209000" lon="-112.222560">
        <ele>6.9</ele>
      </trkpt>
      <trkpt lat="27.208120" lon="-112.222650">
        <ele>6.7</ele>
      </trkpt>
      <trkpt lat="27.207230" lon="-112.222750">
        <ele>8.0</ele>
      </trkpt>
      <trkpt lat="27.206350" lon="-112.222850">
        <ele>6.1</ele>
      </trkpt>
      <trkpt lat="27.205470" lon="-112.222940">
        <ele>4.7</ele>
      </trkpt>
      <trkpt lat="27.204590" lon="-112.223040">
        <ele>6.1</ele>
      </trkpt>
      <trkpt lat="27.203710" lon="-112.223130">
        <ele>6.7</ele>
      </trkpt>
      <trkpt lat="27.203320" lon="-112.223160">
        <ele>6.4</ele>
      </trkpt>
      <trkpt lat="27.203010" lon="-112.223150">
        <ele>7.3</ele>
      </trkpt>
      <trkpt lat="27.202740" lon="-112.223110">
        <ele>8.0</ele>
      </trkpt>
      <trkpt lat="27.202210" lon="-112.222960">
        <ele>9.3</ele>
      </trkpt>
      <trkpt lat="27.201940" lon="-112.222850">
        <ele>9.5</ele>
      </trkpt>
      <trkpt lat="27.201670" lon="-112.222700">
        <ele>9.2</ele>
      </trkpt>
      <trkpt lat="27.201220" lon="-112.222390">
        <ele>11.0</ele>
      </trkpt>
      <trkpt lat="27.200910" lon="-112.222080">
        <ele>12.5</ele>
      </trkpt>
      <trkpt lat="27.200600" lon="-112.221700">
        <ele>12.7</ele>
      </trkpt>
      <trkpt lat="27.200270" lon="-112.221240">
        <ele>11.0</ele>
      </trkpt>
      <trkpt lat="27.199790" lon="-112.220520">
        <ele>9.3</ele>
      </trkpt>
      <trkpt lat="27.199300" lon="-112.219800">
        <ele>9.8</ele>
      </trkpt>
      <trkpt lat="27.198780" lon="-112.219050">
        <ele>12.5</ele>
      </trkpt>
      <trkpt lat="27.198270" lon="-112.218300">
        <ele>14.1</ele>
      </trkpt>
      <trkpt lat="27.197750" lon="-112.217540">
        <ele>15.4</ele>
      </trkpt>
      <trkpt lat="27.197230" lon="-112.216790">
        <ele>16.1</ele>
      </trkpt>
      <trkpt lat="27.196710" lon="-112.216040">
        <ele>16.7</ele>
      </trkpt>
      <trkpt lat="27.196190" lon="-112.215280">
        <ele>19.4</ele>
      </trkpt>
      <trkpt lat="27.195670" lon="-112.214530">
        <ele>20.1</ele>
      </trkpt>
      <trkpt lat="27.195160" lon="-112.213780">
        <ele>19.3</ele>
      </trkpt>
      <trkpt lat="27.194640" lon="-112.213030">
        <ele>20.3</ele>
      </trkpt>
      <trkpt lat="27.194120" lon="-112.212270">
        <ele>20.1</ele>
      </trkpt>
      <trkpt lat="27.193600" lon="-112.211520">
        <ele>21.0</ele>
      </trkpt>
      <trkpt lat="27.193080" lon="-112.210770">
        <ele>23.1</ele>
      </trkpt>
      <trkpt lat="27.192560" lon="-112.210010">
        <ele>21.9</ele>
      </trkpt>
      <trkpt lat="27.192050" lon="-112.209260">
        <ele>23.0</ele>
      </trkpt>
      <trkpt lat="27.191510" lon="-112.208500">
        <ele>23.9</ele>
      </trkpt>
      <trkpt lat="27.191230" lon="-112.208090">
        <ele>23.6</ele>
      </trkpt>
      <trkpt lat="27.190960" lon="-112.207670">
        <ele>24.2</ele>
      </trkpt>
      <trkpt lat="27.190450" lon="-112.206930">
        <ele>24.5</ele>
      </trkpt>
      <trkpt lat="27.189930" lon="-112.206180">
        <ele>23.7</ele>
      </trkpt>
      <trkpt lat="27.189420" lon="-112.205440">
        <ele>24.5</ele>
      </trkpt>
      <trkpt lat="27.188910" lon="-112.204690">
        <ele>25.0</ele>
      </trkpt>
      <trkpt lat="27.188400" lon="-112.203950">
        <ele>26.0</ele>
      </trkpt>
      <trkpt lat="27.187890" lon="-112.203200">
        <ele>27.1</ele>
      </trkpt>
      <trkpt lat="27.187370" lon="-112.202460">
        <ele>28.1</ele>
      </trkpt>
      <trkpt lat="27.186860" lon="-112.201710">
        <ele>28.3</ele>
      </trkpt>
      <trkpt lat="27.186350" lon="-112.200970">
        <ele>27.2</ele>
      </trkpt>
      <trkpt lat="27.185840" lon="-112.200220">
        <ele>28.0</ele>
      </trkpt>
      <trkpt lat="27.185310" lon="-112.199470">
        <ele>28.8</ele>
      </trkpt>
      <trkpt lat="27.184790" lon="-112.198710">
        <ele>29.1</ele>
      </trkpt>
      <trkpt lat="27.184270" lon="-112.197960">
        <ele>29.3</ele>
      </trkpt>
      <trkpt lat="27.183750" lon="-112.197200">
        <ele>28.9</ele>
      </trkpt>
      <trkpt lat="27.183220" lon="-112.196450">
        <ele>30.4</ele>
      </trkpt>
      <trkpt lat="27.182730" lon="-112.195720">
        <ele>29.4</ele>
      </trkpt>
      <trkpt lat="27.182240" lon="-112.194990">
        <ele>30.3</ele>
      </trkpt>
      <trkpt lat="27.181740" lon="-112.194270">
        <ele>29.2</ele>
      </trkpt>
      <trkpt lat="27.181250" lon="-112.193540">
        <ele>29.7</ele>
      </trkpt>
      <trkpt lat="27.180710" lon="-112.192770">
        <ele>30.3</ele>
      </trkpt>
      <trkpt lat="27.180180" lon="-112.191990">
        <ele>31.0</ele>
      </trkpt>
      <trkpt lat="27.179650" lon="-112.191220">
        <ele>30.7</ele>
      </trkpt>
      <trkpt lat="27.179110" lon="-112.190440">
        <ele>30.1</ele>
      </trkpt>
      <trkpt lat="27.178710" lon="-112.189830">
        <ele>30.4</ele>
      </trkpt>
      <trkpt lat="27.178300" lon="-112.189210">
        <ele>31.0</ele>
      </trkpt>
      <trkpt lat="27.177890" lon="-112.188600">
        <ele>30.5</ele>
      </trkpt>
      <trkpt lat="27.177380" lon="-112.187850">
        <ele>29.7</ele>
      </trkpt>
      <trkpt lat="27.176870" lon="-112.187110">
        <ele>29.4</ele>
      </trkpt>
      <trkpt lat="27.176360" lon="-112.186370">
        <ele>29.6</ele>
      </trkpt>
      <trkpt lat="27.175840" lon="-112.185630">
        <ele>28.8</ele>
      </trkpt>
      <trkpt lat="27.175330" lon="-112.184880">
        <ele>26.1</ele>
      </trkpt>
      <trkpt lat="27.174830" lon="-112.184160">
        <ele>26.6</ele>
      </trkpt>
      <trkpt lat="27.174340" lon="-112.183430">
        <ele>28.0</ele>
      </trkpt>
    </trkseg>
  </trk>
</gpx>