<?xml version="1.0" encoding="UTF-8"?>
<gpx version="1.1" creator="GPX Segmenter" xmlns="http://www.topografix.com/GPX/1/1">
  <trk>
    <name>Baja - Segment 10 of 49</name>
    <trkseg>
      <trkpt lat="30.625790" lon="-115.962170">
        <ele>19.0</ele>
      </trkpt>
      <trkpt lat="30.624930" lon="-115.961910">
        <ele>18.8</ele>
      </trkpt>
      <trkpt lat="30.624080" lon="-115.961640">
        <ele>20.1</ele>
      </trkpt>
      <trkpt lat="30.623220" lon="-115.961380">
        <ele>20.9</ele>
      </trkpt>
      <trkpt lat="30.622360" lon="-115.961110">
        <ele>20.8</ele>
      </trkpt>
      <trkpt lat="30.621500" lon="-115.960850">
        <ele>22.0</ele>
      </trkpt>
      <trkpt lat="30.620640" lon="-115.960580">
        <ele>22.3</ele>
      </trkpt>
      <trkpt lat="30.619780" lon="-115.960310">
        <ele>22.3</ele>
      </trkpt>
      <trkpt lat="30.618920" lon="-115.960040">
        <ele>21.9</ele>
      </trkpt>
      <trkpt lat="30.618060" lon="-115.959770">
        <ele>20.8</ele>
      </trkpt>
      <trkpt lat="30.617200" lon="-115.959500">
        <ele>22.0</ele>
      </trkpt>
      <trkpt lat="30.616340" lon="-115.959230">
        <ele>21.6</ele>
      </trkpt>
      <trkpt lat="30.615480" lon="-115.958970">
        <ele>21.1</ele>
      </trkpt>
      <trkpt lat="30.614610" lon="-115.958700">
        <ele>20.8</ele>
      </trkpt>
      <trkpt lat="30.613750" lon="-115.958430">
        <ele>18.6</ele>
      </trkpt>
      <trkpt lat="30.612890" lon="-115.958160">
        <ele>18.5</ele>
      </trkpt>
      <trkpt lat="30.612030" lon="-115.957890">
        <ele>19.8</ele>
      </trkpt>
      <trkpt lat="30.611170" lon="-115.957620">
        <ele>19.3</ele>
      </trkpt>
      <trkpt lat="30.610310" lon="-115.957350">
        <ele>20.4</ele>
      </trkpt>
      <trkpt lat="30.609450" lon="-115.957090">
        <ele>20.7</ele>
      </trkpt>
      <trkpt lat="30.608590" lon="-115.956820">
        <ele>20.1</ele>
      </trkpt>
      <trkpt lat="30.607730" lon="-115.956550">
        <ele>20.6</ele>
      </trkpt>
      <trkpt lat="30.606870" lon="-115.956280">
        <ele>18.2</ele>
      </trkpt>
      <trkpt lat="30.606010" lon="-115.956010">
        <ele>17.8</ele>
      </trkpt>
      <trkpt lat="30.605150" lon="-115.955740">
        <ele>18.2</ele>
      </trkpt>
      <trkpt lat="30.604310" lon="-115.955480">
        <ele>19.0</ele>
      </trkpt>
      <trkpt lat="30.603470" lon="-115.955220">
        <ele>19.0</ele>
      </trkpt>
      <trkpt lat="30.602640" lon="-115.954970">
        <ele>19.0</ele>
      </trkpt>
      <trkpt lat="30.601800" lon="-115.954710">
        <ele>18.1</ele>
      </trkpt>
      <trkpt lat="30.600960" lon="-115.954450">
        <ele>20.0</ele>
      </trkpt>
      <trkpt lat="30.600130" lon="-115.954190">
        <ele>18.5</ele>
      </trkpt>
      <trkpt lat="30.599290" lon="-115.953930">
        <ele>18.5</ele>
      </trkpt>
      <trkpt lat="30.598460" lon="-115.953670">
        <ele>19.5</ele>
      </trkpt>
      <trkpt lat="30.597620" lon="-115.953410">
        <ele>20.0</ele>
      </trkpt>
      <trkpt lat="30.596780" lon="-115.953150">
        <ele>19.3</ele>
      </trkpt>
      <trkpt lat="30.595950" lon="-115.952890">
        <ele>19.5</ele>
      </trkpt>
      <trkpt lat="30.595110" lon="-115.952630">
        <ele>19.7</ele>
      </trkpt>
      <trkpt lat="30.594270" lon="-115.952370">
        <ele>19.3</ele>
      </trkpt>
      <trkpt lat="30.593440" lon="-115.952110">
        <ele>20.3</ele>
      </trkpt>
      <trkpt lat="30.592600" lon="-115.951850">
        <ele>19.9</ele>
      </trkpt>
      <trkpt lat="30.591770" lon="-115.951590">
        <ele>20.1</ele>
      </trkpt>
      <trkpt lat="30.590930" lon="-115.951330">
        <ele>20.4</ele>
      </trkpt>
      <trkpt lat="30.590090" lon="-115.951080">
        <ele>21.2</ele>
      </trkpt>
      <trkpt lat="30.589350" lon="-115.950840">
        <ele>21.8</ele>
      </trkpt>
      <trkpt lat="30.588610" lon="-115.950610">
        <ele>20.6</ele>
      </trkpt>
      <trkpt lat="30.587870" lon="-115.950380">
        <ele>19.7</ele>
      </trkpt>
      <trkpt lat="30.587130" lon="-115.950150">
        <ele>20.0</ele>
      </trkpt>
      <trkpt lat="30.586380" lon="-115.949920">
        <ele>21.1</ele>
      </trkpt>
      <trkpt lat="30.585640" lon="-115.949690">
        <ele>20.8</ele>
      </trkpt>
      <trkpt lat="30.584920" lon="-115.949460">
        <ele>21.7</ele>
      </trkpt>
      <trkpt lat="30.584200" lon="-115.949240">
        <ele>22.8</ele>
      </trkpt>
      <trkpt lat="30.583480" lon="-115.949020">
        <ele>22.2</ele>
      </trkpt>
      <trkpt lat="30.582990" lon="-115.948860">
        <ele>22.2</ele>
      </trkpt>
      <trkpt lat="30.582500" lon="-115.948710">
        <ele>22.5</ele>
      </trkpt>
      <trkpt lat="30.581750" lon="-115.948480">
        <ele>23.7</ele>
      </trkpt>
      <trkpt lat="30.581000" lon="-115.948260">
        <ele>21.6</ele>
      </trkpt>
      <trkpt lat="30.580240" lon="-115.948030">
        <ele>20.3</ele>
      </trkpt>
      <trkpt lat="30.579540" lon="-115.947800">
        <ele>20.6</ele>
      </trkpt>
      <trkpt lat="30.579070" lon="-115.947650">
        <ele>21.2</ele>
      </trkpt>
      <trkpt lat="30.578220" lon="-115.947390">
        <ele>23.1</ele>
      </trkpt>
      <trkpt lat="30.577370" lon="-115.947120">
        <ele>23.1</ele>
      </trkpt>
      <trkpt lat="30.576510" lon="-115.946860">
        <ele>23.8</ele>
      </trkpt>
      <trkpt lat="30.575660" lon="-115.946600">
        <ele>23.9</ele>
      </trkpt>
      <trkpt lat="30.574810" lon="-115.946340">
        <ele>24.0</ele>
      </trkpt>
      <trkpt lat="30.573980" lon="-115.946080">
        <ele>24.0</ele>
      </trkpt>
      <trkpt lat="30.573150" lon="-115.945820">
        <ele>24.0</ele>
      </trkpt>
      <trkpt lat="30.572320" lon="-115.945560">
        <ele>24.3</ele>
      </trkpt>
      <trkpt lat="30.571490" lon="-115.945300">
        <ele>24.8</ele>
      </trkpt>
      <trkpt lat="30.570660" lon="-115.945040">
        <ele>25.7</ele>
      </trkpt>
      <trkpt lat="30.569840" lon="-115.944780">
        <ele>24.8</ele>
      </trkpt>
      <trkpt lat="30.568990" lon="-115.944520">
        <ele>25.0</ele>
      </trkpt>
      <trkpt lat="30.568150" lon="-115.944260">
        <ele>25.6</ele>
      </trkpt>
      <trkpt lat="30.567300" lon="-115.944000">
        <ele>25.3</ele>
      </trkpt>
      <trkpt lat="30.566450" lon="-115.943740">
        <ele>26.4</ele>
      </trkpt>
      <trkpt lat="30.566150" lon="-115.943640">
        <ele>26.2</ele>
      </trkpt>
      <trkpt lat="30.566030" lon="-115.943620">
        <ele>26.2</ele>
      </trkpt>
      <trkpt lat="30.565680" lon="-115.943520">
        <ele>25.9</ele>
      </trkpt>
      <trkpt lat="30.565180" lon="-115.943350">
        <ele>25.2</ele>
      </trkpt>
      <trkpt lat="30.564680" lon="-115.943190">
        <ele>25.5</ele>
      </trkpt>
      <trkpt lat="30.563990" lon="-115.942980">
        <ele>26.8</ele>
      </trkpt>
      <trkpt lat="30.563300" lon="-115.942780">
        <ele>27.3</ele>
      </trkpt>
      <trkpt lat="30.562610" lon="-115.942570">
        <ele>27.8</ele>
      </trkpt>
      <trkpt lat="30.562380" lon="-115.942490">
        <ele>27.8</ele>
      </trkpt>
      <trkpt lat="30.561540" lon="-115.942210">
        <ele>26.6</ele>
      </trkpt>
      <trkpt lat="30.560700" lon="-115.941940">
        <ele>26.5</ele>
      </trkpt>
      <trkpt lat="30.560180" lon="-115.941780">
        <ele>26.1</ele>
      </trkpt>
      <trkpt lat="30.559670" lon="-115.941620">
        <ele>25.7</ele>
      </trkpt>
      <trkpt lat="30.558960" lon="-115.941410">
        <ele>25.6</ele>
      </trkpt>
      <trkpt lat="30.558260" lon="-115.941190">
        <ele>27.1</ele>
      </trkpt>
      <trkpt lat="30.557550" lon="-115.940980">
        <ele>27.6</ele>
      </trkpt>
      <trkpt lat="30.557030" lon="-115.940810">
        <ele>27.4</ele>
      </trkpt>
      <trkpt lat="30.556510" lon="-115.940650">
        <ele>27.1</ele>
      </trkpt>
      <trkpt lat="30.555990" lon="-115.940490">
        <ele>26.9</ele>
      </trkpt>
      <trkpt lat="30.555470" lon="-115.940330">
        <ele>26.6</ele>
      </trkpt>
      <trkpt lat="30.554630" lon="-115.940060">
        <ele>26.2</ele>
      </trkpt>
      <trkpt lat="30.553800" lon="-115.939810">
        <ele>25.9</ele>
      </trkpt>
      <trkpt lat="30.552970" lon="-115.939550">
        <ele>26.4</ele>
      </trkpt>
      <trkpt lat="30.552150" lon="-115.939300">
        <ele>27.0</ele>
      </trkpt>
      <trkpt lat="30.551320" lon="-115.939040">
        <ele>27.9</ele>
      </trkpt>
      <trkpt lat="30.550490" lon="-115.938790">
        <ele>27.4</ele>
      </trkpt>
      <trkpt lat="30.549670" lon="-115.938530">
        <ele>26.8</ele>
      </trkpt>
      <trkpt lat="30.548800" lon="-115.938270">
        <ele>26.2</ele>
      </trkpt>
      <trkpt lat="30.547940" lon="-115.938010">
        <ele>26.1</ele>
      </trkpt>
      <trkpt lat="30.547070" lon="-115.937740">
        <ele>26.2</ele>
      </trkpt>
      <trkpt lat="30.546210" lon="-115.937480">
        <ele>25.5</ele>
      </trkpt>
      <trkpt lat="30.545350" lon="-115.937220">
        <ele>25.5</ele>
      </trkpt>
      <trkpt lat="30.544480" lon="-115.936960">
        <ele>25.9</ele>
      </trkpt>
      <trkpt lat="30.543630" lon="-115.936690">
        <ele>26.6</ele>
      </trkpt>
      <trkpt lat="30.542780" lon="-115.936410">
        <ele>26.0</ele>
      </trkpt>
      <trkpt lat="30.542180" lon="-115.936230">
        <ele>25.8</ele>
      </trkpt>
      <trkpt lat="30.541580" lon="-115.936050">
        <ele>25.8</ele>
      </trkpt>
      <trkpt lat="30.540990" lon="-115.935860">
        <ele>26.0</ele>
      </trkpt>
      <trkpt lat="30.540380" lon="-115.935670">
        <ele>25.9</ele>
      </trkpt>
      <trkpt lat="30.539890" lon="-115.935500">
        <ele>25.9</ele>
      </trkpt>
      <trkpt lat="30.539400" lon="-115.935330">
        <ele>25.3</ele>
      </trkpt>
      <trkpt lat="30.538610" lon="-115.935100">
        <ele>25.0</ele>
      </trkpt>
      <trkpt lat="30.537830" lon="-115.934870">
        <ele>24.8</ele>
      </trkpt>
      <trkpt lat="30.537040" lon="-115.934640">
        <ele>24.5</ele>
      </trkpt>
      <trkpt lat="30.536470" lon="-115.934450">
        <ele>24.3</ele>
      </trkpt>
      <trkpt lat="30.535890" lon="-115.934270">
        <ele>23.2</ele>
      </trkpt>
      <trkpt lat="30.535160" lon="-115.934060">
        <ele>23.7</ele>
      </trkpt>
      <trkpt lat="30.534440" lon="-115.933840">
        <ele>23.6</ele>
      </trkpt>
      <trkpt lat="30.533710" lon="-115.933640">
        <ele>23.7</ele>
      </trkpt>
      <trkpt lat="30.532990" lon="-115.933450">
        <ele>23.2</ele>
      </trkpt>
      <trkpt lat="30.532210" lon="-115.933210">
        <ele>22.3</ele>
      </trkpt>
      <trkpt lat="30.531420" lon="-115.932960">
        <ele>23.3</ele>
      </trkpt>
      <trkpt lat="30.530630" lon="-115.932720">
        <ele>23.9</ele>
      </trkpt>
      <trkpt lat="30.529840" lon="-115.932470">
        <ele>23.8</ele>
      </trkpt>
      <trkpt lat="30.529310" lon="-115.932330">
        <ele>23.3</ele>
      </trkpt>
      <trkpt lat="30.528700" lon="-115.932130">
        <ele>22.6</ele>
      </trkpt>
      <trkpt lat="30.528100" lon="-115.931940">
        <ele>22.3</ele>
      </trkpt>
      <trkpt lat="30.527360" lon="-115.931720">
        <ele>23.0</ele>
      </trkpt>
      <trkpt lat="30.526620" lon="-115.931500">
        <ele>23.0</ele>
      </trkpt>
      <trkpt lat="30.525920" lon="-115.931280">
        <ele>22.5</ele>
      </trkpt>
      <trkpt lat="30.525220" lon="-115.931060">
        <ele>22.2</ele>
      </trkpt>
      <trkpt lat="30.524520" lon="-115.930830">
        <ele>22.0</ele>
      </trkpt>
      <trkpt lat="30.523820" lon="-115.930610">
        <ele>22.3</ele>
      </trkpt>
      <trkpt lat="30.523120" lon="-115.930390">
        <ele>22.1</ele>
      </trkpt>
      <trkpt lat="30.522580" lon="-115.930210">
        <ele>21.1</ele>
      </trkpt>
      <trkpt lat="30.522180" lon="-115.930050">
        <ele>21.0</ele>
      </trkpt>
      <trkpt lat="30.522060" lon="-115.929960">
        <ele>21.0</ele>
      </trkpt>
      <trkpt lat="30.521420" lon="-115.929740">
        <ele>21.4</ele>
      </trkpt>
      <trkpt lat="30.520700" lon="-115.929520">
        <ele>21.3</ele>
      </trkpt>
      <trkpt lat="30.519980" lon="-115.929290">
        <ele>20.2</ele>
      </trkpt>
      <trkpt lat="30.519260" lon="-115.929070">
        <ele>20.6</ele>
      </trkpt>
      <trkpt lat="30.519040" lon="-115.929020">
        <ele>20.5</ele>
      </trkpt>
      <trkpt lat="30.518450" lon="-115.928830">
        <ele>20.1</ele>
      </trkpt>
      <trkpt lat="30.517860" lon="-115.928640">
        <ele>19.9</ele>
      </trkpt>
      <trkpt lat="30.517010" lon="-115.928380">
        <ele>18.8</ele>
      </trkpt>
      <trkpt lat="30.516170" lon="-115.928120">
        <ele>18.2</ele>
      </trkpt>
      <trkpt lat="30.515870" lon="-115.928020">
        <ele>18.0</ele>
      </trkpt>
      <trkpt lat="30.515030" lon="-115.927760">
        <ele>16.4</ele>
      </trkpt>
      <trkpt lat="30.514200" lon="-115.927510">
        <ele>16.0</ele>
      </trkpt>
      <trkpt lat="30.513560" lon="-115.927310">
        <ele>16.0</ele>
      </trkpt>
      <trkpt lat="30.512920" lon="-115.927120">
        <ele>16.4</ele>
      </trkpt>
      <trkpt lat="30.512270" lon="-115.926930">
        <ele>17.5</ele>
      </trkpt>
      <trkpt lat="30.511490" lon="-115.926680">
        <ele>19.0</ele>
      </trkpt>
      <trkpt lat="30.510710" lon="-115.926430">
        <ele>18.5</ele>
      </trkpt>
      <trkpt lat="30.509920" lon="-115.926180">
        <ele>17.1</ele>
      </trkpt>
      <trkpt lat="30.509140" lon="-115.925940">
        <ele>17.9</ele>
      </trkpt>
      <trkpt lat="30.508300" lon="-115.925680">
        <ele>17.9</ele>
      </trkpt>
      <trkpt lat="30.507460" lon="-115.925420">
        <ele>17.5</ele>
      </trkpt>
      <trkpt lat="30.506620" lon="-115.925160">
        <ele>17.0</ele>
      </trkpt>
      <trkpt lat="30.505790" lon="-115.924900">
        <ele>16.1</ele>
      </trkpt>
      <trkpt lat="30.504950" lon="-115.924640">
        <ele>15.9</ele>
      </trkpt>
      <trkpt lat="30.504110" lon="-115.924390">
        <ele>16.0</ele>
      </trkpt>
      <trkpt lat="30.503270" lon="-115.924130">
        <ele>15.8</ele>
      </trkpt>
      <trkpt lat="30.502430" lon="-115.923870">
        <ele>14.9</ele>
      </trkpt>
      <trkpt lat="30.501590" lon="-115.923610">
        <ele>14.7</ele>
      </trkpt>
      <trkpt lat="30.500750" lon="-115.923350">
        <ele>15.0</ele>
      </trkpt>
      <trkpt lat="30.499920" lon="-115.923090">
        <ele>15.3</ele>
      </trkpt>
      <trkpt lat="30.499080" lon="-115.922840">
        <ele>15.6</ele>
      </trkpt>
      <trkpt lat="30.498220" lon="-115.922570">
        <ele>15.8</ele>
      </trkpt>
      <trkpt lat="30.497360" lon="-115.922300">
        <ele>15.2</ele>
      </trkpt>
      <trkpt lat="30.496510" lon="-115.922030">
        <ele>14.1</ele>
      </trkpt>
      <trkpt lat="30.495650" lon="-115.921760">
        <ele>12.3</ele>
      </trkpt>
      <trkpt lat="30.494790" lon="-115.921490">
        <ele>13.2</ele>
      </trkpt>
      <trkpt lat="30.493930" lon="-115.921220">
        <ele>13.6</ele>
      </trkpt>
      <trkpt lat="30.493130" lon="-115.920970">
        <ele>13.6</ele>
      </trkpt>
      <trkpt lat="30.492320" lon="-115.920720">
        <ele>12.3</ele>
      </trkpt>
      <trkpt lat="30.491510" lon="-115.920470">
        <ele>12.7</ele>
      </trkpt>
      <trkpt lat="30.490710" lon="-115.920210">
        <ele>12.2</ele>
      </trkpt>
      <trkpt lat="30.489900" lon="-115.919960">
        <ele>10.1</ele>
      </trkpt>
      <trkpt lat="30.489100" lon="-115.919710">
        <ele>10.8</ele>
      </trkpt>
      <trkpt lat="30.488290" lon="-115.919460">
        <ele>12.0</ele>
      </trkpt>
      <trkpt lat="30.487480" lon="-115.919210">
        <ele>11.9</ele>
      </trkpt>
      <trkpt lat="30.486680" lon="-115.918960">
        <ele>10.8</ele>
      </trkpt>
      <trkpt lat="30.485870" lon="-115.918710">
        <ele>11.4</ele>
      </trkpt>
      <trkpt lat="30.485060" lon="-115.918450">
        <ele>11.1</ele>
      </trkpt>
      <trkpt lat="30.484260" lon="-115.918200">
        <ele>11.8</ele>
      </trkpt>
      <trkpt lat="30.483460" lon="-115.917960">
        <ele>11.9</ele>
      </trkpt>
      <trkpt lat="30.482660" lon="-115.917710">
        <ele>10.8</ele>
      </trkpt>
      <trkpt lat="30.481860" lon="-115.917460">
        <ele>11.7</ele>
      </trkpt>
      <trkpt lat="30.481070" lon="-115.917210">
        <ele>10.7</ele>
      </trkpt>
      <trkpt lat="30.480270" lon="-115.916960">
        <ele>10.3</ele>
      </trkpt>
      <trkpt lat="30.479470" lon="-115.916720">
        <ele>10.3</ele>
      </trkpt>
      <trkpt lat="30.478670" lon="-115.916470">
        <ele>11.1</ele>
      </trkpt>
      <trkpt lat="30.477990" lon="-115.916260">
        <ele>11.5</ele>
      </trkpt>
      <trkpt lat="30.477300" lon="-115.916050">
        <ele>11.6</ele>
      </trkpt>
      <trkpt lat="30.476620" lon="-115.915840">
        <ele>11.0</ele>
      </trkpt>
      <trkpt lat="30.475910" lon="-115.915620">
        <ele>10.7</ele>
      </trkpt>
      <trkpt lat="30.475200" lon="-115.915400">
        <ele>11.6</ele>
      </trkpt>
      <trkpt lat="30.474400" lon="-115.915160">
        <ele>11.2</ele>
      </trkpt>
      <trkpt lat="30.473600" lon="-115.914910">
        <ele>11.7</ele>
      </trkpt>
      <trkpt lat="30.472990" lon="-115.914720">
        <ele>12.7</ele>
      </trkpt>
      <trkpt lat="30.472380" lon="-115.914520">
        <ele>13.9</ele>
      </trkpt>
      <trkpt lat="30.471780" lon="-115.914330">
        <ele>12.5</ele>
      </trkpt>
      <trkpt lat="30.471210" lon="-115.914150">
        <ele>12.6</ele>
      </trkpt>
      <trkpt lat="30.470640" lon="-115.913980">
        <ele>12.4</ele>
      </trkpt>
      <trkpt lat="30.470150" lon="-115.913830">
        <ele>10.9</ele>
      </trkpt>
      <trkpt lat="30.469670" lon="-115.913680">
        <ele>10.5</ele>
      </trkpt>
      <trkpt lat="30.469160" lon="-115.913520">
        <ele>10.2</ele>
      </trkpt>
      <trkpt lat="30.468650" lon="-115.913360">
        <ele>10.1</ele>
      </trkpt>
      <trkpt lat="30.467950" lon="-115.913140">
        <ele>10.1</ele>
      </trkpt>
      <trkpt lat="30.467250" lon="-115.912920">
        <ele>10.2</ele>
      </trkpt>
      <trkpt lat="30.466550" lon="-115.912700">
        <ele>10.1</ele>
      </trkpt>
      <trkpt lat="30.465720" lon="-115.912450">
        <ele>9.4</ele>
      </trkpt>
      <trkpt lat="30.464890" lon="-115.912200">
        <ele>12.2</ele>
      </trkpt>
      <trkpt lat="30.464060" lon="-115.911950">
        <ele>13.2</ele>
      </trkpt>
      <trkpt lat="30.463740" lon="-115.911840">
        <ele>13.2</ele>
      </trkpt>
      <trkpt lat="30.463250" lon="-115.911650">
        <ele>12.7</ele>
      </trkpt>
      <trkpt lat="30.462770" lon="-115.911470">
        <ele>11.4</ele>
      </trkpt>
      <trkpt lat="30.462340" lon="-115.911210">
        <ele>10.6</ele>
      </trkpt>
      <trkpt lat="30.461910" lon="-115.910950">
        <ele>9.7</ele>
      </trkpt>
      <trkpt lat="30.461240" lon="-115.910360">
        <ele>8.8</ele>
      </trkpt>
      <trkpt lat="30.460900" lon="-115.909910">
        <ele>7.6</ele>
      </trkpt>
      <trkpt lat="30.460550" lon="-115.909460">
        <ele>8.4</ele>
      </trkpt>
      <trkpt lat="30.460240" lon="-115.908900">
        <ele>9.1</ele>
      </trkpt>
      <trkpt lat="30.459850" lon="-115.907990">
        <ele>9.6</ele>
      </trkpt>
      <trkpt lat="30.459460" lon="-115.907080">
        <ele>8.7</ele>
      </trkpt>
      <trkpt lat="30.459080" lon="-115.906170">
        <ele>8.3</ele>
      </trkpt>
      <trkpt lat="30.458690" lon="-115.905260">
        <ele>8.4</ele>
      </trkpt>
      <trkpt lat="30.458300" lon="-115.904350">
        <ele>7.8</ele>
      </trkpt>
      <trkpt lat="30.457920" lon="-115.903440">
        <ele>8.0</ele>
      </trkpt>
      <trkpt lat="30.457530" lon="-115.902530">
        <ele>9.9</ele>
      </trkpt>
      <trkpt lat="30.457140" lon="-115.901630">
        <ele>10.6</ele>
      </trkpt>
      <trkpt lat="30.456750" lon="-115.900720">
        <ele>11.5</ele>
      </trkpt>
      <trkpt lat="30.456370" lon="-115.899810">
        <ele>12.3</ele>
      </trkpt>
      <trkpt lat="30.455980" lon="-115.898900">
        <ele>11.6</ele>
      </trkpt>
      <trkpt lat="30.455590" lon="-115.897990">
        <ele>12.6</ele>
      </trkpt>
      <trkpt lat="30.455220" lon="-115.897120">
        <ele>13.5</ele>
      </trkpt>
      <trkpt lat="30.454850" lon="-115.896250">
        <ele>15.5</ele>
      </trkpt>
      <trkpt lat="30.454480" lon="-115.895380">
        <ele>17.0</ele>
      </trkpt>
      <trkpt lat="30.454100" lon="-115.894510">
        <ele>17.5</ele>
      </trkpt>
      <trkpt lat="30.453730" lon="-115.893640">
        <ele>20.7</ele>
      </trkpt>
      <trkpt lat="30.453360" lon="-115.892770">
        <ele>25.4</ele>
      </trkpt>
      <trkpt lat="30.452990" lon="-115.891900">
        <ele>27.4</ele>
      </trkpt>
      <trkpt lat="30.452610" lon="-115.891030">
        <ele>29.6</ele>
      </trkpt>
      <trkpt lat="30.452370" lon="-115.890610">
        <ele>31.0</ele>
      </trkpt>
      <trkpt lat="30.452280" lon="-115.890470">
        <ele>31.6</ele>
      </trkpt>
      <trkpt lat="30.451890" lon="-115.889950">
        <ele>33.6</ele>
      </trkpt>
      <trkpt lat="30.451570" lon="-115.889590">
        <ele>35.2</ele>
      </trkpt>
      <trkpt lat="30.451460" lon="-115.889490">
        <ele>35.4</ele>
      </trkpt>
      <trkpt lat="30.450940" lon="-115.889040">
        <ele>36.5</ele>
      </trkpt>
      <trkpt lat="30.450570" lon="-115.888810">
        <ele>38.1</ele>
      </trkpt>
      <trkpt lat="30.449970" lon="-115.888490">
        <ele>42.0</ele>
      </trkpt>
      <trkpt lat="30.449670" lon="-115.888380">
        <ele>41.6</ele>
      </trkpt>
      <trkpt lat="30.449170" lon="-115.888230">
        <ele>39.8</ele>
      </trkpt>
      <trkpt lat="30.448670" lon="-115.888090">
        <ele>38.1</ele>
      </trkpt>
      <trkpt lat="30.448570" lon="-115.888050">
        <ele>37.7</ele>
      </trkpt>
      <trkpt lat="30.447950" lon="-115.887860">
        <ele>35.1</ele>
      </trkpt>
      <trkpt lat="30.447320" lon="-115.887670">
        <ele>33.2</ele>
      </trkpt>
      <trkpt lat="30.446690" lon="-115.887470">
        <ele>31.9</ele>
      </trkpt>
      <trkpt lat="30.446060" lon="-115.887280">
        <ele>35.8</ele>
      </trkpt>
      <trkpt lat="30.445430" lon="-115.887080">
        <ele>38.2</ele>
      </trkpt>
      <trkpt lat="30.444720" lon="-115.886870">
        <ele>37.6</ele>
      </trkpt>
      <trkpt lat="30.444010" lon="-115.886650">
        <ele>36.4</ele>
      </trkpt>
      <trkpt lat="30.443300" lon="-115.886440">
        <ele>35.9</ele>
      </trkpt>
      <trkpt lat="30.442670" lon="-115.886240">
        <ele>34.5</ele>
      </trkpt>
      <trkpt lat="30.442040" lon="-115.886040">
        <ele>30.1</ele>
      </trkpt>
      <trkpt lat="30.441410" lon="-115.885840">
        <ele>24.5</ele>
      </trkpt>
      <trkpt lat="30.440730" lon="-115.885610">
        <ele>21.7</ele>
      </trkpt>
      <trkpt lat="30.440050" lon="-115.885390">
        <ele>20.9</ele>
      </trkpt>
      <trkpt lat="30.439370" lon="-115.885170">
        <ele>20.2</ele>
      </trkpt>
      <trkpt lat="30.438560" lon="-115.884890">
        <ele>19.3</ele>
      </trkpt>
      <trkpt lat="30.437740" lon="-115.884620">
        <ele>18.5</ele>
      </trkpt>
      <trkpt lat="30.436920" lon="-115.884350">
        <ele>17.7</ele>
      </trkpt>
      <trkpt lat="30.436100" lon="-115.884070">
        <ele>16.9</ele>
      </trkpt>
      <trkpt lat="30.435280" lon="-115.883810">
        <ele>16.1</ele>
      </trkpt>
      <trkpt lat="30.434460" lon="-115.883550">
        <ele>15.5</ele>
      </trkpt>
      <trkpt lat="30.433630" lon="-115.883290">
        <ele>16.4</ele>
      </trkpt>
      <trkpt lat="30.432810" lon="-115.883030">
        <ele>18.6</ele>
      </trkpt>
      <trkpt lat="30.431990" lon="-115.882770">
        <ele>19.1</ele>
      </trkpt>
      <trkpt lat="30.431160" lon="-115.882510">
        <ele>18.4</ele>
      </trkpt>
      <trkpt lat="30.430340" lon="-115.882260">
        <ele>17.2</ele>
      </trkpt>
      <trkpt lat="30.429530" lon="-115.882010">
        <ele>17.1</ele>
      </trkpt>
      <trkpt lat="30.428710" lon="-115.881760">
        <ele>18.0</ele>
      </trkpt>
      <trkpt lat="30.427900" lon="-115.881510">
        <ele>16.9</ele>
      </trkpt>
      <trkpt lat="30.427080" lon="-115.881260">
        <ele>16.5</ele>
      </trkpt>
      <trkpt lat="30.426270" lon="-115.881010">
        <ele>17.7</ele>
      </trkpt>
      <trkpt lat="30.425450" lon="-115.880760">
        <ele>17.8</ele>
      </trkpt>
      <trkpt lat="30.424640" lon="-115.880520">
        <ele>16.5</ele>
      </trkpt>
      <trkpt lat="30.423820" lon="-115.880270">
        <ele>16.1</ele>
      </trkpt>
      <trkpt lat="30.423010" lon="-115.880020">
        <ele>16.0</ele>
      </trkpt>
      <trkpt lat="30.422190" lon="-115.879770">
        <ele>15.5</ele>
      </trkpt>
      <trkpt lat="30.421360" lon="-115.879510">
        <ele>15.7</ele>
      </trkpt>
      <trkpt lat="30.420520" lon="-115.879250">
        <ele>17.2</ele>
      </trkpt>
      <trkpt lat="30.419680" lon="-115.878990">
        <ele>16.1</ele>
      </trkpt>
      <trkpt lat="30.418840" lon="-115.878720">
        <ele>15.3</ele>
      </trkpt>
      <trkpt lat="30.418000" lon="-115.878460">
        <ele>15.0</ele>
      </trkpt>
      <trkpt lat="30.417170" lon="-115.878200">
        <ele>15.5</ele>
      </trkpt>
      <trkpt lat="30.416330" lon="-115.877940">
        <ele>16.5</ele>
      </trkpt>
      <trkpt lat="30.415490" lon="-115.877680">
        <ele>16.0</ele>
      </trkpt>
      <trkpt lat="30.414650" lon="-115.877410">
        <ele>15.2</ele>
      </trkpt>
      <trkpt lat="30.413810" lon="-115.877150">
        <ele>12.9</ele>
      </trkpt>
      <trkpt lat="30.412970" lon="-115.876890">
        <ele>10.8</ele>
      </trkpt>
      <trkpt lat="30.412140" lon="-115.876630">
        <ele>10.5</ele>
      </trkpt>
      <trkpt lat="30.411300" lon="-115.876370">
        <ele>11.0</ele>
      </trkpt>
      <trkpt lat="30.410460" lon="-115.876100">
        <ele>11.7</ele>
      </trkpt>
      <trkpt lat="30.409620" lon="-115.875840">
        <ele>12.0</ele>
      </trkpt>
      <trkpt lat="30.408780" lon="-115.875580">
        <ele>11.7</ele>
      </trkpt>
      <trkpt lat="30.407950" lon="-115.875320">
        <ele>11.5</ele>
      </trkpt>
      <trkpt lat="30.407110" lon="-115.875060">
        <ele>11.9</ele>
      </trkpt>
      <trkpt lat="30.406270" lon="-115.874800">
        <ele>12.5</ele>
      </trkpt>
      <trkpt lat="30.405440" lon="-115.874540">
        <ele>11.9</ele>
      </trkpt>
      <trkpt lat="30.404600" lon="-115.874280">
        <ele>10.6</ele>
      </trkpt>
      <trkpt lat="30.403760" lon="-115.874020">
        <ele>10.6</ele>
      </trkpt>
      <trkpt lat="30.402930" lon="-115.873770">
        <ele>10.7</ele>
      </trkpt>
      <trkpt lat="30.402090" lon="-115.873510">
        <ele>10.9</ele>
      </trkpt>
      <trkpt lat="30.401250" lon="-115.873250">
        <ele>10.1</ele>
      </trkpt>
      <trkpt lat="30.400420" lon="-115.872990">
        <ele>9.7</ele>
      </trkpt>
      <trkpt lat="30.399580" lon="-115.872730">
        <ele>10.7</ele>
      </trkpt>
      <trkpt lat="30.398750" lon="-115.872470">
        <ele>11.0</ele>
      </trkpt>
      <trkpt lat="30.397910" lon="-115.872220">
        <ele>10.7</ele>
      </trkpt>
      <trkpt lat="30.397070" lon="-115.871960">
        <ele>9.8</ele>
      </trkpt>
      <trkpt lat="30.396240" lon="-115.871700">
        <ele>8.5</ele>
      </trkpt>
      <trkpt lat="30.395400" lon="-115.871440">
        <ele>7.9</ele>
      </trkpt>
      <trkpt lat="30.394570" lon="-115.871180">
        <ele>7.0</ele>
      </trkpt>
      <trkpt lat="30.393730" lon="-115.870930">
        <ele>6.9</ele>
      </trkpt>
      <trkpt lat="30.393120" lon="-115.870720">
        <ele>6.5</ele>
      </trkpt>
      <trkpt lat="30.392780" lon="-115.870560">
        <ele>5.9</ele>
      </trkpt>
      <trkpt lat="30.392560" lon="-115.870440">
        <ele>5.6</ele>
      </trkpt>
      <trkpt lat="30.392340" lon="-115.870260">
        <ele>5.3</ele>
      </trkpt>
      <trkpt lat="30.392100" lon="-115.870050">
        <ele>5.0</ele>
      </trkpt>
      <trkpt lat="30.391680" lon="-115.869600">
        <ele>6.0</ele>
      </trkpt>
      <trkpt lat="30.391180" lon="-115.868760">
        <ele>8.0</ele>
      </trkpt>
      <trkpt lat="30.390680" lon="-115.867920">
        <ele>8.0</ele>
      </trkpt>
      <trkpt lat="30.390170" lon="-115.867070">
        <ele>8.2</ele>
      </trkpt>
      <trkpt lat="30.389670" lon="-115.866230">
        <ele>7.6</ele>
      </trkpt>
      <trkpt lat="30.389170" lon="-115.865390">
        <ele>6.5</ele>
      </trkpt>
      <trkpt lat="30.388840" lon="-115.864860">
        <ele>6.2</ele>
      </trkpt>
      <trkpt lat="30.388510" lon="-115.864330">
        <ele>6.8</ele>
      </trkpt>
      <trkpt lat="30.388010" lon="-115.863500">
        <ele>6.5</ele>
      </trkpt>
      <trkpt lat="30.387510" lon="-115.862670">
        <ele>6.2</ele>
      </trkpt>
      <trkpt lat="30.387010" lon="-115.861840">
        <ele>6.0</ele>
      </trkpt>
      <trkpt lat="30.386510" lon="-115.861000">
        <ele>6.8</ele>
      </trkpt>
      <trkpt lat="30.386010" lon="-115.860170">
        <ele>8.4</ele>
      </trkpt>
      <trkpt lat="30.385510" lon="-115.859340">
        <ele>7.3</ele>
      </trkpt>
      <trkpt lat="30.385010" lon="-115.858510">
        <ele>5.4</ele>
      </trkpt>
      <trkpt lat="30.384550" lon="-115.857730">
        <ele>5.1</ele>
      </trkpt>
      <trkpt lat="30.384080" lon="-115.856960">
        <ele>6.0</ele>
      </trkpt>
      <trkpt lat="30.383610" lon="-115.856190">
        <ele>8.2</ele>
      </trkpt>
      <trkpt lat="30.383140" lon="-115.855430">
        <ele>10.7</ele>
      </trkpt>
      <trkpt lat="30.382670" lon="-115.854660">
        <ele>11.5</ele>
      </trkpt>
      <trkpt lat="30.382200" lon="-115.853900">
        <ele>12.0</ele>
      </trkpt>
      <trkpt lat="30.381730" lon="-115.853140">
        <ele>10.1</ele>
      </trkpt>
      <trkpt lat="30.381230" lon="-115.852290">
        <ele>10.1</ele>
      </trkpt>
      <trkpt lat="30.380720" lon="-115.851450">
        <ele>11.4</ele>
      </trkpt>
      <trkpt lat="30.380210" lon="-115.850610">
        <ele>11.4</ele>
      </trkpt>
      <trkpt lat="30.379720" lon="-115.849760">
        <ele>13.0</ele>
      </trkpt>
      <trkpt lat="30.379220" lon="-115.848910">
        <ele>13.0</ele>
      </trkpt>
      <trkpt lat="30.378870" lon="-115.848340">
        <ele>12.6</ele>
      </trkpt>
      <trkpt lat="30.378530" lon="-115.847770">
        <ele>12.8</ele>
      </trkpt>
      <trkpt lat="30.378180" lon="-115.847190">
        <ele>12.3</ele>
      </trkpt>
      <trkpt lat="30.377790" lon="-115.846550">
        <ele>11.8</ele>
      </trkpt>
      <trkpt lat="30.377350" lon="-115.845810">
        <ele>11.2</ele>
      </trkpt>
      <trkpt lat="30.376900" lon="-115.845070">
        <ele>12.9</ele>
      </trkpt>
      <trkpt lat="30.376460" lon="-115.844330">
        <ele>11.8</ele>
      </trkpt>
      <trkpt lat="30.376020" lon="-115.843590">
        <ele>13.4</ele>
      </trkpt>
      <trkpt lat="30.375560" lon="-115.842840">
        <ele>13.8</ele>
      </trkpt>
      <trkpt lat="30.375100" lon="-115.842080">
        <ele>12.7</ele>
      </trkpt>
      <trkpt lat="30.374640" lon="-115.841330">
        <ele>13.0</ele>
      </trkpt>
      <trkpt lat="30.374190" lon="-115.840580">
        <ele>13.3</ele>
      </trkpt>
      <trkpt lat="30.373730" lon="-115.839820">
        <ele>14.2</ele>
      </trkpt>
      <trkpt lat="30.373220" lon="-115.838970">
        <ele>16.1</ele>
      </trkpt>
      <trkpt lat="30.372700" lon="-115.838120">
        <ele>14.7</ele>
      </trkpt>
      <trkpt lat="30.372190" lon="-115.837270">
        <ele>15.0</ele>
      </trkpt>
      <trkpt lat="30.371680" lon="-115.836420">
        <ele>16.6</ele>
      </trkpt>
      <trkpt lat="30.371170" lon="-115.835560">
        <ele>19.1</ele>
      </trkpt>
      <trkpt lat="30.370650" lon="-115.834710">
        <ele>20.7</ele>
      </trkpt>
      <trkpt lat="30.370140" lon="-115.833860">
        <ele>21.9</ele>
      </trkpt>
      <trkpt lat="30.369630" lon="-115.833010">
        <ele>22.1</ele>
      </trkpt>
      <trkpt lat="30.369120" lon="-115.832160">
        <ele>21.4</ele>
      </trkpt>
      <trkpt lat="30.368600" lon="-115.831310">
        <ele>22.6</ele>
      </trkpt>
      <trkpt lat="30.368140" lon="-115.830540">
        <ele>23.1</ele>
      </trkpt>
      <trkpt lat="30.367670" lon="-115.829770">
        <ele>23.8</ele>
      </trkpt>
      <trkpt lat="30.367210" lon="-115.829010">
        <ele>24.5</ele>
      </trkpt>
      <trkpt lat="30.366740" lon="-115.828240">
        <ele>23.9</ele>
      </trkpt>
      <trkpt lat="30.366280" lon="-115.827480">
        <ele>22.5</ele>
      </trkpt>
      <trkpt lat="30.365760" lon="-115.826710">
        <ele>22.0</ele>
      </trkpt>
      <trkpt lat="30.365250" lon="-115.826100">
        <ele>23.3</ele>
      </trkpt>
      <trkpt lat="30.364880" lon="-115.825710">
        <ele>23.6</ele>
      </trkpt>
      <trkpt lat="30.364510" lon="-115.825320">
        <ele>24.7</ele>
      </trkpt>
      <trkpt lat="30.363860" lon="-115.824790">
        <ele>26.8</ele>
      </trkpt>
      <trkpt lat="30.363300" lon="-115.824370">
        <ele>29.5</ele>
      </trkpt>
      <trkpt lat="30.362640" lon="-115.823910">
        <ele>32.1</ele>
      </trkpt>
      <trkpt lat="30.361850" lon="-115.823470">
        <ele>30.2</ele>
      </trkpt>
      <trkpt lat="30.361060" lon="-115.823030">
        <ele>29.9</ele>
      </trkpt>
      <trkpt lat="30.360270" lon="-115.822600">
        <ele>31.3</ele>
      </trkpt>
      <trkpt lat="30.359480" lon="-115.822160">
        <ele>35.3</ele>
      </trkpt>
      <trkpt lat="30.358690" lon="-115.821720">
        <ele>40.8</ele>
      </trkpt>
      <trkpt lat="30.357900" lon="-115.821290">
        <ele>43.4</ele>
      </trkpt>
      <trkpt lat="30.357110" lon="-115.820850">
        <ele>44.4</ele>
      </trkpt>
      <trkpt lat="30.356320" lon="-115.820410">
        <ele>44.0</ele>
      </trkpt>
      <trkpt lat="30.355530" lon="-115.819980">
        <ele>46.3</ele>
      </trkpt>
      <trkpt lat="30.354740" lon="-115.819540">
        <ele>52.2</ele>
      </trkpt>
      <trkpt lat="30.354410" lon="-115.819410">
        <ele>53.7</ele>
      </trkpt>
      <trkpt lat="30.354050" lon="-115.819290">
        <ele>54.8</ele>
      </trkpt>
      <trkpt lat="30.353190" lon="-115.819110">
        <ele>54.5</ele>
      </trkpt>
      <trkpt lat="30.352330" lon="-115.818960">
        <ele>50.6</ele>
      </trkpt>
      <trkpt lat="30.351460" lon="-115.818810">
        <ele>47.2</ele>
      </trkpt>
      <trkpt lat="30.350590" lon="-115.818660">
        <ele>44.7</ele>
      </trkpt>
      <trkpt lat="30.349720" lon="-115.818510">
        <ele>45.4</ele>
      </trkpt>
      <trkpt lat="30.348850" lon="-115.818360">
        <ele>44.2</ele>
      </trkpt>
      <trkpt lat="30.347980" lon="-115.818210">
        <ele>41.3</ele>
      </trkpt>
      <trkpt lat="30.347120" lon="-115.818060">
        <ele>39.6</ele>
      </trkpt>
      <trkpt lat="30.346250" lon="-115.817910">
        <ele>40.3</ele>
      </trkpt>
      <trkpt lat="30.345380" lon="-115.817760">
        <ele>39.8</ele>
      </trkpt>
      <trkpt lat="30.344510" lon="-115.817610">
        <ele>38.4</ele>
      </trkpt>
      <trkpt lat="30.343640" lon="-115.817460">
        <ele>37.8</ele>
      </trkpt>
      <trkpt lat="30.342770" lon="-115.817310">
        <ele>37.4</ele>
      </trkpt>
      <trkpt lat="30.341910" lon="-115.817160">
        <ele>37.9</ele>
      </trkpt>
      <trkpt lat="30.341040" lon="-115.817010">
        <ele>38.4</ele>
      </trkpt>
      <trkpt lat="30.340170" lon="-115.816860">
        <ele>39.0</ele>
      </trkpt>
      <trkpt lat="30.339300" lon="-115.816710">
        <ele>39.8</ele>
      </trkpt>
      <trkpt lat="30.338430" lon="-115.816570">
        <ele>39.1</ele>
      </trkpt>
      <trkpt lat="30.337560" lon="-115.816420">
        <ele>36.6</ele>
      </trkpt>
      <trkpt lat="30.336700" lon="-115.816270">
        <ele>35.4</ele>
      </trkpt>
      <trkpt lat="30.335830" lon="-115.816120">
        <ele>36.6</ele>
      </trkpt>
      <trkpt lat="30.334960" lon="-115.815970">
        <ele>35.6</ele>
      </trkpt>
      <trkpt lat="30.334090" lon="-115.815820">
        <ele>33.5</ele>
      </trkpt>
      <trkpt lat="30.333220" lon="-115.815670">
        <ele>28.4</ele>
      </trkpt>
      <trkpt lat="30.332350" lon="-115.815520">
        <ele>28.1</ele>
      </trkpt>
      <trkpt lat="30.331490" lon="-115.815370">
        <ele>30.2</ele>
      </trkpt>
      <trkpt lat="30.330620" lon="-115.815220">
        <ele>32.0</ele>
      </trkpt>
      <trkpt lat="30.329750" lon="-115.815070">
        <ele>32.4</ele>
      </trkpt>
      <trkpt lat="30.328890" lon="-115.814920">
        <ele>32.9</ele>
      </trkpt>
    </trkseg>
  </trk>
</gpx>