<?xml version="1.0" encoding="UTF-8"?>
<gpx version="1.1" creator="GPX Segmenter" xmlns="http://www.topografix.com/GPX/1/1">
  <trk>
    <name>Baja - Segment 45 of 49</name>
    <trkseg>
      <trkpt lat="23.951160" lon="-110.280380">
        <ele>178.9</ele>
      </trkpt>
      <trkpt lat="23.950410" lon="-110.280230">
        <ele>178.2</ele>
      </trkpt>
      <trkpt lat="23.949710" lon="-110.280080">
        <ele>177.6</ele>
      </trkpt>
      <trkpt lat="23.949010" lon="-110.279920">
        <ele>177.0</ele>
      </trkpt>
      <trkpt lat="23.948360" lon="-110.279740">
        <ele>176.5</ele>
      </trkpt>
      <trkpt lat="23.947700" lon="-110.279560">
        <ele>177.2</ele>
      </trkpt>
      <trkpt lat="23.947030" lon="-110.279330">
        <ele>176.9</ele>
      </trkpt>
      <trkpt lat="23.946350" lon="-110.279100">
        <ele>175.1</ele>
      </trkpt>
      <trkpt lat="23.945860" lon="-110.278940">
        <ele>174.4</ele>
      </trkpt>
      <trkpt lat="23.945370" lon="-110.278780">
        <ele>174.2</ele>
      </trkpt>
      <trkpt lat="23.944900" lon="-110.278620">
        <ele>174.3</ele>
      </trkpt>
      <trkpt lat="23.944430" lon="-110.278450">
        <ele>175.4</ele>
      </trkpt>
      <trkpt lat="23.943660" lon="-110.278210">
        <ele>173.8</ele>
      </trkpt>
      <trkpt lat="23.942900" lon="-110.277970">
        <ele>174.6</ele>
      </trkpt>
      <trkpt lat="23.942350" lon="-110.277780">
        <ele>176.6</ele>
      </trkpt>
      <trkpt lat="23.941800" lon="-110.277580">
        <ele>177.1</ele>
      </trkpt>
      <trkpt lat="23.941400" lon="-110.277460">
        <ele>177.4</ele>
      </trkpt>
      <trkpt lat="23.941050" lon="-110.277300">
        <ele>178.0</ele>
      </trkpt>
      <trkpt lat="23.940680" lon="-110.277090">
        <ele>178.6</ele>
      </trkpt>
      <trkpt lat="23.940420" lon="-110.276920">
        <ele>178.8</ele>
      </trkpt>
      <trkpt lat="23.940220" lon="-110.276760">
        <ele>179.0</ele>
      </trkpt>
      <trkpt lat="23.939920" lon="-110.276510">
        <ele>178.7</ele>
      </trkpt>
      <trkpt lat="23.939750" lon="-110.276340">
        <ele>178.2</ele>
      </trkpt>
      <trkpt lat="23.939530" lon="-110.276080">
        <ele>178.0</ele>
      </trkpt>
      <trkpt lat="23.939220" lon="-110.275690">
        <ele>178.7</ele>
      </trkpt>
      <trkpt lat="23.938710" lon="-110.275090">
        <ele>180.5</ele>
      </trkpt>
      <trkpt lat="23.938210" lon="-110.274480">
        <ele>181.2</ele>
      </trkpt>
      <trkpt lat="23.937700" lon="-110.273880">
        <ele>181.9</ele>
      </trkpt>
      <trkpt lat="23.937200" lon="-110.273280">
        <ele>183.4</ele>
      </trkpt>
      <trkpt lat="23.936700" lon="-110.272670">
        <ele>183.3</ele>
      </trkpt>
      <trkpt lat="23.936110" lon="-110.271980">
        <ele>183.7</ele>
      </trkpt>
      <trkpt lat="23.935520" lon="-110.271280">
        <ele>183.0</ele>
      </trkpt>
      <trkpt lat="23.934930" lon="-110.270580">
        <ele>184.1</ele>
      </trkpt>
      <trkpt lat="23.934450" lon="-110.270010">
        <ele>184.0</ele>
      </trkpt>
      <trkpt lat="23.933980" lon="-110.269430">
        <ele>186.1</ele>
      </trkpt>
      <trkpt lat="23.933490" lon="-110.268870">
        <ele>188.4</ele>
      </trkpt>
      <trkpt lat="23.933010" lon="-110.268310">
        <ele>188.5</ele>
      </trkpt>
      <trkpt lat="23.932560" lon="-110.267850">
        <ele>187.3</ele>
      </trkpt>
      <trkpt lat="23.932370" lon="-110.267690">
        <ele>187.9</ele>
      </trkpt>
      <trkpt lat="23.932210" lon="-110.267590">
        <ele>188.5</ele>
      </trkpt>
      <trkpt lat="23.931690" lon="-110.267330">
        <ele>190.0</ele>
      </trkpt>
      <trkpt lat="23.931170" lon="-110.267080">
        <ele>190.2</ele>
      </trkpt>
      <trkpt lat="23.930580" lon="-110.266790">
        <ele>190.4</ele>
      </trkpt>
      <trkpt lat="23.929980" lon="-110.266500">
        <ele>190.6</ele>
      </trkpt>
      <trkpt lat="23.929230" lon="-110.266130">
        <ele>191.0</ele>
      </trkpt>
      <trkpt lat="23.928490" lon="-110.265760">
        <ele>191.2</ele>
      </trkpt>
      <trkpt lat="23.927740" lon="-110.265390">
        <ele>191.0</ele>
      </trkpt>
      <trkpt lat="23.926990" lon="-110.265020">
        <ele>190.9</ele>
      </trkpt>
      <trkpt lat="23.926170" lon="-110.264630">
        <ele>192.8</ele>
      </trkpt>
      <trkpt lat="23.925410" lon="-110.264250">
        <ele>191.6</ele>
      </trkpt>
      <trkpt lat="23.924660" lon="-110.263880">
        <ele>194.8</ele>
      </trkpt>
      <trkpt lat="23.923910" lon="-110.263510">
        <ele>197.5</ele>
      </trkpt>
      <trkpt lat="23.923150" lon="-110.263140">
        <ele>199.9</ele>
      </trkpt>
      <trkpt lat="23.922400" lon="-110.262760">
        <ele>203.1</ele>
      </trkpt>
      <trkpt lat="23.921630" lon="-110.262410">
        <ele>202.7</ele>
      </trkpt>
      <trkpt lat="23.921220" lon="-110.262230">
        <ele>204.5</ele>
      </trkpt>
      <trkpt lat="23.920430" lon="-110.261950">
        <ele>206.0</ele>
      </trkpt>
      <trkpt lat="23.920050" lon="-110.261850">
        <ele>206.5</ele>
      </trkpt>
      <trkpt lat="23.919420" lon="-110.261730">
        <ele>205.7</ele>
      </trkpt>
      <trkpt lat="23.918900" lon="-110.261650">
        <ele>205.4</ele>
      </trkpt>
      <trkpt lat="23.918380" lon="-110.261570">
        <ele>206.1</ele>
      </trkpt>
      <trkpt lat="23.917590" lon="-110.261440">
        <ele>208.7</ele>
      </trkpt>
      <trkpt lat="23.916790" lon="-110.261320">
        <ele>208.1</ele>
      </trkpt>
      <trkpt lat="23.916000" lon="-110.261200">
        <ele>209.7</ele>
      </trkpt>
      <trkpt lat="23.915200" lon="-110.261080">
        <ele>209.3</ele>
      </trkpt>
      <trkpt lat="23.914410" lon="-110.260960">
        <ele>210.3</ele>
      </trkpt>
      <trkpt lat="23.913610" lon="-110.260830">
        <ele>212.3</ele>
      </trkpt>
      <trkpt lat="23.912820" lon="-110.260710">
        <ele>213.0</ele>
      </trkpt>
      <trkpt lat="23.912150" lon="-110.260620">
        <ele>211.9</ele>
      </trkpt>
      <trkpt lat="23.911470" lon="-110.260520">
        <ele>211.5</ele>
      </trkpt>
      <trkpt lat="23.910780" lon="-110.260410">
        <ele>212.9</ele>
      </trkpt>
      <trkpt lat="23.910160" lon="-110.260310">
        <ele>212.2</ele>
      </trkpt>
      <trkpt lat="23.909530" lon="-110.260210">
        <ele>213.7</ele>
      </trkpt>
      <trkpt lat="23.908900" lon="-110.260110">
        <ele>216.1</ele>
      </trkpt>
      <trkpt lat="23.908230" lon="-110.260020">
        <ele>218.8</ele>
      </trkpt>
      <trkpt lat="23.907560" lon="-110.259930">
        <ele>218.2</ele>
      </trkpt>
      <trkpt lat="23.906890" lon="-110.259850">
        <ele>218.9</ele>
      </trkpt>
      <trkpt lat="23.906180" lon="-110.259750">
        <ele>220.1</ele>
      </trkpt>
      <trkpt lat="23.905480" lon="-110.259640">
        <ele>221.5</ele>
      </trkpt>
      <trkpt lat="23.904780" lon="-110.259540">
        <ele>222.5</ele>
      </trkpt>
      <trkpt lat="23.904170" lon="-110.259440">
        <ele>223.3</ele>
      </trkpt>
      <trkpt lat="23.903570" lon="-110.259350">
        <ele>223.0</ele>
      </trkpt>
      <trkpt lat="23.902710" lon="-110.259210">
        <ele>223.0</ele>
      </trkpt>
      <trkpt lat="23.901850" lon="-110.259080">
        <ele>223.4</ele>
      </trkpt>
      <trkpt lat="23.900990" lon="-110.258950">
        <ele>225.2</ele>
      </trkpt>
      <trkpt lat="23.900130" lon="-110.258820">
        <ele>228.0</ele>
      </trkpt>
      <trkpt lat="23.899270" lon="-110.258690">
        <ele>226.7</ele>
      </trkpt>
      <trkpt lat="23.898410" lon="-110.258550">
        <ele>228.1</ele>
      </trkpt>
      <trkpt lat="23.897680" lon="-110.258440">
        <ele>227.9</ele>
      </trkpt>
      <trkpt lat="23.896950" lon="-110.258320">
        <ele>228.1</ele>
      </trkpt>
      <trkpt lat="23.896220" lon="-110.258200">
        <ele>228.8</ele>
      </trkpt>
      <trkpt lat="23.895350" lon="-110.258070">
        <ele>229.2</ele>
      </trkpt>
      <trkpt lat="23.894480" lon="-110.257940">
        <ele>229.9</ele>
      </trkpt>
      <trkpt lat="23.893610" lon="-110.257810">
        <ele>231.4</ele>
      </trkpt>
      <trkpt lat="23.892740" lon="-110.257680">
        <ele>231.5</ele>
      </trkpt>
      <trkpt lat="23.892120" lon="-110.257570">
        <ele>231.6</ele>
      </trkpt>
      <trkpt lat="23.891490" lon="-110.257460">
        <ele>231.7</ele>
      </trkpt>
      <trkpt lat="23.890880" lon="-110.257370">
        <ele>231.8</ele>
      </trkpt>
      <trkpt lat="23.890280" lon="-110.257280">
        <ele>231.9</ele>
      </trkpt>
      <trkpt lat="23.889630" lon="-110.257190">
        <ele>232.1</ele>
      </trkpt>
      <trkpt lat="23.889140" lon="-110.257120">
        <ele>233.4</ele>
      </trkpt>
      <trkpt lat="23.888650" lon="-110.257040">
        <ele>234.2</ele>
      </trkpt>
      <trkpt lat="23.887780" lon="-110.256920">
        <ele>234.3</ele>
      </trkpt>
      <trkpt lat="23.887180" lon="-110.256820">
        <ele>235.1</ele>
      </trkpt>
      <trkpt lat="23.886580" lon="-110.256720">
        <ele>236.4</ele>
      </trkpt>
      <trkpt lat="23.886240" lon="-110.256610">
        <ele>235.5</ele>
      </trkpt>
      <trkpt lat="23.885870" lon="-110.256430">
        <ele>235.2</ele>
      </trkpt>
      <trkpt lat="23.885590" lon="-110.256260">
        <ele>236.2</ele>
      </trkpt>
      <trkpt lat="23.885340" lon="-110.256030">
        <ele>237.6</ele>
      </trkpt>
      <trkpt lat="23.885130" lon="-110.255820">
        <ele>238.8</ele>
      </trkpt>
      <trkpt lat="23.885010" lon="-110.255670">
        <ele>238.8</ele>
      </trkpt>
      <trkpt lat="23.884870" lon="-110.255460">
        <ele>238.6</ele>
      </trkpt>
      <trkpt lat="23.884580" lon="-110.254880">
        <ele>237.9</ele>
      </trkpt>
      <trkpt lat="23.884300" lon="-110.254310">
        <ele>238.9</ele>
      </trkpt>
      <trkpt lat="23.884160" lon="-110.254090">
        <ele>239.4</ele>
      </trkpt>
      <trkpt lat="23.884020" lon="-110.253940">
        <ele>240.3</ele>
      </trkpt>
      <trkpt lat="23.883760" lon="-110.253700">
        <ele>241.7</ele>
      </trkpt>
      <trkpt lat="23.883570" lon="-110.253580">
        <ele>242.2</ele>
      </trkpt>
      <trkpt lat="23.883420" lon="-110.253510">
        <ele>242.5</ele>
      </trkpt>
      <trkpt lat="23.883130" lon="-110.253380">
        <ele>242.7</ele>
      </trkpt>
      <trkpt lat="23.883030" lon="-110.253350">
        <ele>242.6</ele>
      </trkpt>
      <trkpt lat="23.882880" lon="-110.253320">
        <ele>242.5</ele>
      </trkpt>
      <trkpt lat="23.882340" lon="-110.253340">
        <ele>242.6</ele>
      </trkpt>
      <trkpt lat="23.881800" lon="-110.253420">
        <ele>244.2</ele>
      </trkpt>
      <trkpt lat="23.881080" lon="-110.253630">
        <ele>242.5</ele>
      </trkpt>
      <trkpt lat="23.880600" lon="-110.253770">
        <ele>241.7</ele>
      </trkpt>
      <trkpt lat="23.880120" lon="-110.253900">
        <ele>242.1</ele>
      </trkpt>
      <trkpt lat="23.879270" lon="-110.254150">
        <ele>243.8</ele>
      </trkpt>
      <trkpt lat="23.878430" lon="-110.254400">
        <ele>242.8</ele>
      </trkpt>
      <trkpt lat="23.877670" lon="-110.254610">
        <ele>242.0</ele>
      </trkpt>
      <trkpt lat="23.876910" lon="-110.254820">
        <ele>243.1</ele>
      </trkpt>
      <trkpt lat="23.876550" lon="-110.254910">
        <ele>243.6</ele>
      </trkpt>
      <trkpt lat="23.875840" lon="-110.255030">
        <ele>241.9</ele>
      </trkpt>
      <trkpt lat="23.875370" lon="-110.255070">
        <ele>242.7</ele>
      </trkpt>
      <trkpt lat="23.874850" lon="-110.255090">
        <ele>243.2</ele>
      </trkpt>
      <trkpt lat="23.874020" lon="-110.255050">
        <ele>242.4</ele>
      </trkpt>
      <trkpt lat="23.873180" lon="-110.254920">
        <ele>244.6</ele>
      </trkpt>
      <trkpt lat="23.872340" lon="-110.254800">
        <ele>243.5</ele>
      </trkpt>
      <trkpt lat="23.871490" lon="-110.254670">
        <ele>245.0</ele>
      </trkpt>
      <trkpt lat="23.870650" lon="-110.254550">
        <ele>247.3</ele>
      </trkpt>
      <trkpt lat="23.869810" lon="-110.254420">
        <ele>248.1</ele>
      </trkpt>
      <trkpt lat="23.868930" lon="-110.254290">
        <ele>248.1</ele>
      </trkpt>
      <trkpt lat="23.868050" lon="-110.254150">
        <ele>246.7</ele>
      </trkpt>
      <trkpt lat="23.867180" lon="-110.254020">
        <ele>247.5</ele>
      </trkpt>
      <trkpt lat="23.866300" lon="-110.253880">
        <ele>249.0</ele>
      </trkpt>
      <trkpt lat="23.865420" lon="-110.253750">
        <ele>250.0</ele>
      </trkpt>
      <trkpt lat="23.864550" lon="-110.253610">
        <ele>250.7</ele>
      </trkpt>
      <trkpt lat="23.863670" lon="-110.253480">
        <ele>251.0</ele>
      </trkpt>
      <trkpt lat="23.862790" lon="-110.253340">
        <ele>252.3</ele>
      </trkpt>
      <trkpt lat="23.861920" lon="-110.253210">
        <ele>251.1</ele>
      </trkpt>
      <trkpt lat="23.861040" lon="-110.253070">
        <ele>251.7</ele>
      </trkpt>
      <trkpt lat="23.860170" lon="-110.252940">
        <ele>253.6</ele>
      </trkpt>
      <trkpt lat="23.859620" lon="-110.252860">
        <ele>254.5</ele>
      </trkpt>
      <trkpt lat="23.859070" lon="-110.252780">
        <ele>255.6</ele>
      </trkpt>
      <trkpt lat="23.858190" lon="-110.252640">
        <ele>257.8</ele>
      </trkpt>
      <trkpt lat="23.857320" lon="-110.252500">
        <ele>256.6</ele>
      </trkpt>
      <trkpt lat="23.856550" lon="-110.252380">
        <ele>258.7</ele>
      </trkpt>
      <trkpt lat="23.855780" lon="-110.252250">
        <ele>256.3</ele>
      </trkpt>
      <trkpt lat="23.854980" lon="-110.252130">
        <ele>256.9</ele>
      </trkpt>
      <trkpt lat="23.854170" lon="-110.252010">
        <ele>256.0</ele>
      </trkpt>
      <trkpt lat="23.853370" lon="-110.251900">
        <ele>257.4</ele>
      </trkpt>
      <trkpt lat="23.852570" lon="-110.251780">
        <ele>260.4</ele>
      </trkpt>
      <trkpt lat="23.851760" lon="-110.251660">
        <ele>260.1</ele>
      </trkpt>
      <trkpt lat="23.850960" lon="-110.251540">
        <ele>259.1</ele>
      </trkpt>
      <trkpt lat="23.850210" lon="-110.251420">
        <ele>261.8</ele>
      </trkpt>
      <trkpt lat="23.849460" lon="-110.251300">
        <ele>261.4</ele>
      </trkpt>
      <trkpt lat="23.848610" lon="-110.251170">
        <ele>258.9</ele>
      </trkpt>
      <trkpt lat="23.847750" lon="-110.251040">
        <ele>259.2</ele>
      </trkpt>
      <trkpt lat="23.846900" lon="-110.250910">
        <ele>259.8</ele>
      </trkpt>
      <trkpt lat="23.846300" lon="-110.250820">
        <ele>259.2</ele>
      </trkpt>
      <trkpt lat="23.845700" lon="-110.250720">
        <ele>258.4</ele>
      </trkpt>
      <trkpt lat="23.845030" lon="-110.250620">
        <ele>258.7</ele>
      </trkpt>
      <trkpt lat="23.844370" lon="-110.250530">
        <ele>260.5</ele>
      </trkpt>
      <trkpt lat="23.843700" lon="-110.250430">
        <ele>262.2</ele>
      </trkpt>
      <trkpt lat="23.843100" lon="-110.250330">
        <ele>263.5</ele>
      </trkpt>
      <trkpt lat="23.842570" lon="-110.250250">
        <ele>262.9</ele>
      </trkpt>
      <trkpt lat="23.842040" lon="-110.250170">
        <ele>263.1</ele>
      </trkpt>
      <trkpt lat="23.841690" lon="-110.250130">
        <ele>263.5</ele>
      </trkpt>
      <trkpt lat="23.840950" lon="-110.250010">
        <ele>264.8</ele>
      </trkpt>
      <trkpt lat="23.840160" lon="-110.249880">
        <ele>264.6</ele>
      </trkpt>
      <trkpt lat="23.839380" lon="-110.249760">
        <ele>264.9</ele>
      </trkpt>
      <trkpt lat="23.838590" lon="-110.249630">
        <ele>265.3</ele>
      </trkpt>
      <trkpt lat="23.837810" lon="-110.249510">
        <ele>264.6</ele>
      </trkpt>
      <trkpt lat="23.837310" lon="-110.249440">
        <ele>264.1</ele>
      </trkpt>
      <trkpt lat="23.836820" lon="-110.249370">
        <ele>264.5</ele>
      </trkpt>
      <trkpt lat="23.836080" lon="-110.249240">
        <ele>267.5</ele>
      </trkpt>
      <trkpt lat="23.835310" lon="-110.249120">
        <ele>265.9</ele>
      </trkpt>
      <trkpt lat="23.834540" lon="-110.249000">
        <ele>264.5</ele>
      </trkpt>
      <trkpt lat="23.833770" lon="-110.248880">
        <ele>264.6</ele>
      </trkpt>
      <trkpt lat="23.833000" lon="-110.248760">
        <ele>264.5</ele>
      </trkpt>
      <trkpt lat="23.832230" lon="-110.248630">
        <ele>264.4</ele>
      </trkpt>
      <trkpt lat="23.831460" lon="-110.248510">
        <ele>263.6</ele>
      </trkpt>
      <trkpt lat="23.830700" lon="-110.248390">
        <ele>264.2</ele>
      </trkpt>
      <trkpt lat="23.829940" lon="-110.248310">
        <ele>264.8</ele>
      </trkpt>
      <trkpt lat="23.829210" lon="-110.248190">
        <ele>265.4</ele>
      </trkpt>
      <trkpt lat="23.828490" lon="-110.248070">
        <ele>265.7</ele>
      </trkpt>
      <trkpt lat="23.827760" lon="-110.247950">
        <ele>265.9</ele>
      </trkpt>
      <trkpt lat="23.826880" lon="-110.247820">
        <ele>266.5</ele>
      </trkpt>
      <trkpt lat="23.826000" lon="-110.247690">
        <ele>267.4</ele>
      </trkpt>
      <trkpt lat="23.825260" lon="-110.247570">
        <ele>268.6</ele>
      </trkpt>
      <trkpt lat="23.824530" lon="-110.247460">
        <ele>268.6</ele>
      </trkpt>
      <trkpt lat="23.823750" lon="-110.247350">
        <ele>268.9</ele>
      </trkpt>
      <trkpt lat="23.822970" lon="-110.247240">
        <ele>270.8</ele>
      </trkpt>
      <trkpt lat="23.822520" lon="-110.247170">
        <ele>272.5</ele>
      </trkpt>
      <trkpt lat="23.822080" lon="-110.247090">
        <ele>271.7</ele>
      </trkpt>
      <trkpt lat="23.821320" lon="-110.246980">
        <ele>270.8</ele>
      </trkpt>
      <trkpt lat="23.820550" lon="-110.246860">
        <ele>270.7</ele>
      </trkpt>
      <trkpt lat="23.819880" lon="-110.246750">
        <ele>270.7</ele>
      </trkpt>
      <trkpt lat="23.819210" lon="-110.246630">
        <ele>270.2</ele>
      </trkpt>
      <trkpt lat="23.818450" lon="-110.246520">
        <ele>271.1</ele>
      </trkpt>
      <trkpt lat="23.817700" lon="-110.246410">
        <ele>269.4</ele>
      </trkpt>
      <trkpt lat="23.816950" lon="-110.246290">
        <ele>270.4</ele>
      </trkpt>
      <trkpt lat="23.816200" lon="-110.246180">
        <ele>271.3</ele>
      </trkpt>
      <trkpt lat="23.815440" lon="-110.246060">
        <ele>272.2</ele>
      </trkpt>
      <trkpt lat="23.814820" lon="-110.245960">
        <ele>272.8</ele>
      </trkpt>
      <trkpt lat="23.814200" lon="-110.245870">
        <ele>272.0</ele>
      </trkpt>
      <trkpt lat="23.813580" lon="-110.245780">
        <ele>272.2</ele>
      </trkpt>
      <trkpt lat="23.812750" lon="-110.245650">
        <ele>271.7</ele>
      </trkpt>
      <trkpt lat="23.811920" lon="-110.245530">
        <ele>272.6</ele>
      </trkpt>
      <trkpt lat="23.811100" lon="-110.245400">
        <ele>273.0</ele>
      </trkpt>
      <trkpt lat="23.810270" lon="-110.245270">
        <ele>273.9</ele>
      </trkpt>
      <trkpt lat="23.809400" lon="-110.245140">
        <ele>274.2</ele>
      </trkpt>
      <trkpt lat="23.808530" lon="-110.245010">
        <ele>274.0</ele>
      </trkpt>
      <trkpt lat="23.807830" lon="-110.244900">
        <ele>275.5</ele>
      </trkpt>
      <trkpt lat="23.807090" lon="-110.244790">
        <ele>275.3</ele>
      </trkpt>
      <trkpt lat="23.806350" lon="-110.244690">
        <ele>274.6</ele>
      </trkpt>
      <trkpt lat="23.805880" lon="-110.244610">
        <ele>274.5</ele>
      </trkpt>
      <trkpt lat="23.805410" lon="-110.244530">
        <ele>274.9</ele>
      </trkpt>
      <trkpt lat="23.804610" lon="-110.244420">
        <ele>275.5</ele>
      </trkpt>
      <trkpt lat="23.803800" lon="-110.244300">
        <ele>275.3</ele>
      </trkpt>
      <trkpt lat="23.802950" lon="-110.244160">
        <ele>274.1</ele>
      </trkpt>
      <trkpt lat="23.802090" lon="-110.244030">
        <ele>273.2</ele>
      </trkpt>
      <trkpt lat="23.801240" lon="-110.243900">
        <ele>274.8</ele>
      </trkpt>
      <trkpt lat="23.800380" lon="-110.243770">
        <ele>275.6</ele>
      </trkpt>
      <trkpt lat="23.799530" lon="-110.243630">
        <ele>274.8</ele>
      </trkpt>
      <trkpt lat="23.799120" lon="-110.243580">
        <ele>274.1</ele>
      </trkpt>
      <trkpt lat="23.798360" lon="-110.243460">
        <ele>274.7</ele>
      </trkpt>
      <trkpt lat="23.797600" lon="-110.243340">
        <ele>275.0</ele>
      </trkpt>
      <trkpt lat="23.796840" lon="-110.243220">
        <ele>274.9</ele>
      </trkpt>
      <trkpt lat="23.796080" lon="-110.243100">
        <ele>276.1</ele>
      </trkpt>
      <trkpt lat="23.795320" lon="-110.242980">
        <ele>275.8</ele>
      </trkpt>
      <trkpt lat="23.794650" lon="-110.242870">
        <ele>275.4</ele>
      </trkpt>
      <trkpt lat="23.793980" lon="-110.242770">
        <ele>274.8</ele>
      </trkpt>
      <trkpt lat="23.793300" lon="-110.242670">
        <ele>273.2</ele>
      </trkpt>
      <trkpt lat="23.792630" lon="-110.242570">
        <ele>274.4</ele>
      </trkpt>
      <trkpt lat="23.791830" lon="-110.242450">
        <ele>271.9</ele>
      </trkpt>
      <trkpt lat="23.791020" lon="-110.242330">
        <ele>270.8</ele>
      </trkpt>
      <trkpt lat="23.790450" lon="-110.242240">
        <ele>272.0</ele>
      </trkpt>
      <trkpt lat="23.789880" lon="-110.242150">
        <ele>273.1</ele>
      </trkpt>
      <trkpt lat="23.789140" lon="-110.242050">
        <ele>273.3</ele>
      </trkpt>
      <trkpt lat="23.788620" lon="-110.241970">
        <ele>273.5</ele>
      </trkpt>
      <trkpt lat="23.788060" lon="-110.241870">
        <ele>273.7</ele>
      </trkpt>
      <trkpt lat="23.787510" lon="-110.241770">
        <ele>274.7</ele>
      </trkpt>
      <trkpt lat="23.786850" lon="-110.241680">
        <ele>274.2</ele>
      </trkpt>
      <trkpt lat="23.786190" lon="-110.241590">
        <ele>272.9</ele>
      </trkpt>
      <trkpt lat="23.785490" lon="-110.241480">
        <ele>271.7</ele>
      </trkpt>
      <trkpt lat="23.784790" lon="-110.241370">
        <ele>271.3</ele>
      </trkpt>
      <trkpt lat="23.784100" lon="-110.241270">
        <ele>272.0</ele>
      </trkpt>
      <trkpt lat="23.783400" lon="-110.241160">
        <ele>271.8</ele>
      </trkpt>
      <trkpt lat="23.782570" lon="-110.241030">
        <ele>269.6</ele>
      </trkpt>
      <trkpt lat="23.781740" lon="-110.240900">
        <ele>269.9</ele>
      </trkpt>
      <trkpt lat="23.780910" lon="-110.240780">
        <ele>271.0</ele>
      </trkpt>
      <trkpt lat="23.780080" lon="-110.240650">
        <ele>271.2</ele>
      </trkpt>
      <trkpt lat="23.779250" lon="-110.240520">
        <ele>269.9</ele>
      </trkpt>
      <trkpt lat="23.778420" lon="-110.240390">
        <ele>269.5</ele>
      </trkpt>
      <trkpt lat="23.777590" lon="-110.240260">
        <ele>269.9</ele>
      </trkpt>
      <trkpt lat="23.776750" lon="-110.240130">
        <ele>270.6</ele>
      </trkpt>
      <trkpt lat="23.775920" lon="-110.240010">
        <ele>267.4</ele>
      </trkpt>
      <trkpt lat="23.775090" lon="-110.239880">
        <ele>269.1</ele>
      </trkpt>
      <trkpt lat="23.774260" lon="-110.239750">
        <ele>269.6</ele>
      </trkpt>
      <trkpt lat="23.773430" lon="-110.239620">
        <ele>269.1</ele>
      </trkpt>
      <trkpt lat="23.772600" lon="-110.239490">
        <ele>269.9</ele>
      </trkpt>
      <trkpt lat="23.771710" lon="-110.239360">
        <ele>267.6</ele>
      </trkpt>
      <trkpt lat="23.770830" lon="-110.239230">
        <ele>267.0</ele>
      </trkpt>
      <trkpt lat="23.769940" lon="-110.239100">
        <ele>269.4</ele>
      </trkpt>
      <trkpt lat="23.769050" lon="-110.238970">
        <ele>270.4</ele>
      </trkpt>
      <trkpt lat="23.768210" lon="-110.238840">
        <ele>268.4</ele>
      </trkpt>
      <trkpt lat="23.767360" lon="-110.238710">
        <ele>266.8</ele>
      </trkpt>
      <trkpt lat="23.766520" lon="-110.238570">
        <ele>267.7</ele>
      </trkpt>
      <trkpt lat="23.765670" lon="-110.238440">
        <ele>266.6</ele>
      </trkpt>
      <trkpt lat="23.764830" lon="-110.238310">
        <ele>267.7</ele>
      </trkpt>
      <trkpt lat="23.763980" lon="-110.238180">
        <ele>266.7</ele>
      </trkpt>
      <trkpt lat="23.763140" lon="-110.238040">
        <ele>266.8</ele>
      </trkpt>
      <trkpt lat="23.762320" lon="-110.237930">
        <ele>267.7</ele>
      </trkpt>
      <trkpt lat="23.761510" lon="-110.237810">
        <ele>268.6</ele>
      </trkpt>
      <trkpt lat="23.760700" lon="-110.237690">
        <ele>268.9</ele>
      </trkpt>
      <trkpt lat="23.759890" lon="-110.237570">
        <ele>271.7</ele>
      </trkpt>
      <trkpt lat="23.759060" lon="-110.237430">
        <ele>272.6</ele>
      </trkpt>
      <trkpt lat="23.758230" lon="-110.237290">
        <ele>269.3</ele>
      </trkpt>
      <trkpt lat="23.757590" lon="-110.237190">
        <ele>268.1</ele>
      </trkpt>
      <trkpt lat="23.756940" lon="-110.237090">
        <ele>267.3</ele>
      </trkpt>
      <trkpt lat="23.756300" lon="-110.236980">
        <ele>265.8</ele>
      </trkpt>
      <trkpt lat="23.755570" lon="-110.236870">
        <ele>264.7</ele>
      </trkpt>
      <trkpt lat="23.754840" lon="-110.236770">
        <ele>264.8</ele>
      </trkpt>
      <trkpt lat="23.754110" lon="-110.236660">
        <ele>264.4</ele>
      </trkpt>
      <trkpt lat="23.753520" lon="-110.236570">
        <ele>268.0</ele>
      </trkpt>
      <trkpt lat="23.752930" lon="-110.236480">
        <ele>267.6</ele>
      </trkpt>
      <trkpt lat="23.752430" lon="-110.236390">
        <ele>266.1</ele>
      </trkpt>
      <trkpt lat="23.751930" lon="-110.236300">
        <ele>265.4</ele>
      </trkpt>
      <trkpt lat="23.751440" lon="-110.236230">
        <ele>264.9</ele>
      </trkpt>
      <trkpt lat="23.750850" lon="-110.236130">
        <ele>264.2</ele>
      </trkpt>
      <trkpt lat="23.750260" lon="-110.236040">
        <ele>266.5</ele>
      </trkpt>
      <trkpt lat="23.749770" lon="-110.235950">
        <ele>266.0</ele>
      </trkpt>
      <trkpt lat="23.749070" lon="-110.235840">
        <ele>265.1</ele>
      </trkpt>
      <trkpt lat="23.748300" lon="-110.235720">
        <ele>264.2</ele>
      </trkpt>
      <trkpt lat="23.747530" lon="-110.235600">
        <ele>263.3</ele>
      </trkpt>
      <trkpt lat="23.746760" lon="-110.235470">
        <ele>262.4</ele>
      </trkpt>
      <trkpt lat="23.746420" lon="-110.235430">
        <ele>262.0</ele>
      </trkpt>
      <trkpt lat="23.745700" lon="-110.235320">
        <ele>261.2</ele>
      </trkpt>
      <trkpt lat="23.744970" lon="-110.235220">
        <ele>262.5</ele>
      </trkpt>
      <trkpt lat="23.744250" lon="-110.235110">
        <ele>261.8</ele>
      </trkpt>
      <trkpt lat="23.743530" lon="-110.235000">
        <ele>264.8</ele>
      </trkpt>
      <trkpt lat="23.742990" lon="-110.234940">
        <ele>266.9</ele>
      </trkpt>
      <trkpt lat="23.742310" lon="-110.234820">
        <ele>267.8</ele>
      </trkpt>
      <trkpt lat="23.741630" lon="-110.234700">
        <ele>267.3</ele>
      </trkpt>
      <trkpt lat="23.741000" lon="-110.234610">
        <ele>265.5</ele>
      </trkpt>
      <trkpt lat="23.740380" lon="-110.234520">
        <ele>265.0</ele>
      </trkpt>
      <trkpt lat="23.739750" lon="-110.234430">
        <ele>265.4</ele>
      </trkpt>
      <trkpt lat="23.738930" lon="-110.234300">
        <ele>266.7</ele>
      </trkpt>
      <trkpt lat="23.738110" lon="-110.234170">
        <ele>266.2</ele>
      </trkpt>
      <trkpt lat="23.737450" lon="-110.234070">
        <ele>264.5</ele>
      </trkpt>
      <trkpt lat="23.736790" lon="-110.233980">
        <ele>266.2</ele>
      </trkpt>
      <trkpt lat="23.736010" lon="-110.233860">
        <ele>266.2</ele>
      </trkpt>
      <trkpt lat="23.735230" lon="-110.233730">
        <ele>266.0</ele>
      </trkpt>
      <trkpt lat="23.734450" lon="-110.233610">
        <ele>265.0</ele>
      </trkpt>
      <trkpt lat="23.733660" lon="-110.233490">
        <ele>264.1</ele>
      </trkpt>
      <trkpt lat="23.732880" lon="-110.233360">
        <ele>266.1</ele>
      </trkpt>
      <trkpt lat="23.732100" lon="-110.233240">
        <ele>267.2</ele>
      </trkpt>
      <trkpt lat="23.731310" lon="-110.233110">
        <ele>265.8</ele>
      </trkpt>
      <trkpt lat="23.730530" lon="-110.232980">
        <ele>264.4</ele>
      </trkpt>
      <trkpt lat="23.729750" lon="-110.232860">
        <ele>263.9</ele>
      </trkpt>
      <trkpt lat="23.728960" lon="-110.232730">
        <ele>265.2</ele>
      </trkpt>
      <trkpt lat="23.728180" lon="-110.232600">
        <ele>263.8</ele>
      </trkpt>
      <trkpt lat="23.727390" lon="-110.232480">
        <ele>264.1</ele>
      </trkpt>
      <trkpt lat="23.726590" lon="-110.232350">
        <ele>264.4</ele>
      </trkpt>
      <trkpt lat="23.725780" lon="-110.232230">
        <ele>264.0</ele>
      </trkpt>
      <trkpt lat="23.724980" lon="-110.232110">
        <ele>264.5</ele>
      </trkpt>
      <trkpt lat="23.724680" lon="-110.232070">
        <ele>264.3</ele>
      </trkpt>
      <trkpt lat="23.724120" lon="-110.231970">
        <ele>264.5</ele>
      </trkpt>
      <trkpt lat="23.723350" lon="-110.231840">
        <ele>264.6</ele>
      </trkpt>
      <trkpt lat="23.722580" lon="-110.231710">
        <ele>261.4</ele>
      </trkpt>
      <trkpt lat="23.721810" lon="-110.231580">
        <ele>262.0</ele>
      </trkpt>
      <trkpt lat="23.721040" lon="-110.231450">
        <ele>261.4</ele>
      </trkpt>
      <trkpt lat="23.720220" lon="-110.231340">
        <ele>261.7</ele>
      </trkpt>
      <trkpt lat="23.719590" lon="-110.231230">
        <ele>263.2</ele>
      </trkpt>
      <trkpt lat="23.718960" lon="-110.231120">
        <ele>263.8</ele>
      </trkpt>
      <trkpt lat="23.718200" lon="-110.231000">
        <ele>262.4</ele>
      </trkpt>
      <trkpt lat="23.717450" lon="-110.230880">
        <ele>261.8</ele>
      </trkpt>
      <trkpt lat="23.716640" lon="-110.230730">
        <ele>261.1</ele>
      </trkpt>
      <trkpt lat="23.715760" lon="-110.230600">
        <ele>261.7</ele>
      </trkpt>
      <trkpt lat="23.714990" lon="-110.230470">
        <ele>261.0</ele>
      </trkpt>
      <trkpt lat="23.714210" lon="-110.230340">
        <ele>258.3</ele>
      </trkpt>
      <trkpt lat="23.713610" lon="-110.230240">
        <ele>258.8</ele>
      </trkpt>
      <trkpt lat="23.713000" lon="-110.230150">
        <ele>258.9</ele>
      </trkpt>
      <trkpt lat="23.712290" lon="-110.230030">
        <ele>258.5</ele>
      </trkpt>
      <trkpt lat="23.711580" lon="-110.229910">
        <ele>257.2</ele>
      </trkpt>
      <trkpt lat="23.710760" lon="-110.229790">
        <ele>259.1</ele>
      </trkpt>
      <trkpt lat="23.710130" lon="-110.229680">
        <ele>259.9</ele>
      </trkpt>
      <trkpt lat="23.709500" lon="-110.229570">
        <ele>259.1</ele>
      </trkpt>
      <trkpt lat="23.708620" lon="-110.229430">
        <ele>258.1</ele>
      </trkpt>
      <trkpt lat="23.707740" lon="-110.229290">
        <ele>257.9</ele>
      </trkpt>
      <trkpt lat="23.706950" lon="-110.229160">
        <ele>257.3</ele>
      </trkpt>
      <trkpt lat="23.706160" lon="-110.229030">
        <ele>256.6</ele>
      </trkpt>
      <trkpt lat="23.705370" lon="-110.228910">
        <ele>255.5</ele>
      </trkpt>
      <trkpt lat="23.704580" lon="-110.228780">
        <ele>255.2</ele>
      </trkpt>
      <trkpt lat="23.703780" lon="-110.228650">
        <ele>255.3</ele>
      </trkpt>
      <trkpt lat="23.702990" lon="-110.228520">
        <ele>254.5</ele>
      </trkpt>
      <trkpt lat="23.702200" lon="-110.228390">
        <ele>254.7</ele>
      </trkpt>
      <trkpt lat="23.701410" lon="-110.228260">
        <ele>255.6</ele>
      </trkpt>
      <trkpt lat="23.700620" lon="-110.228140">
        <ele>255.2</ele>
      </trkpt>
      <trkpt lat="23.699830" lon="-110.228000">
        <ele>256.5</ele>
      </trkpt>
      <trkpt lat="23.699050" lon="-110.227860">
        <ele>253.2</ele>
      </trkpt>
      <trkpt lat="23.698270" lon="-110.227730">
        <ele>251.8</ele>
      </trkpt>
      <trkpt lat="23.697480" lon="-110.227610">
        <ele>252.2</ele>
      </trkpt>
      <trkpt lat="23.696700" lon="-110.227490">
        <ele>254.9</ele>
      </trkpt>
      <trkpt lat="23.695910" lon="-110.227360">
        <ele>255.2</ele>
      </trkpt>
      <trkpt lat="23.695380" lon="-110.227270">
        <ele>254.9</ele>
      </trkpt>
      <trkpt lat="23.694850" lon="-110.227170">
        <ele>254.7</ele>
      </trkpt>
      <trkpt lat="23.694140" lon="-110.227080">
        <ele>254.5</ele>
      </trkpt>
      <trkpt lat="23.693430" lon="-110.226960">
        <ele>254.6</ele>
      </trkpt>
      <trkpt lat="23.692720" lon="-110.226840">
        <ele>254.6</ele>
      </trkpt>
      <trkpt lat="23.692010" lon="-110.226730">
        <ele>252.5</ele>
      </trkpt>
      <trkpt lat="23.691470" lon="-110.226640">
        <ele>250.9</ele>
      </trkpt>
      <trkpt lat="23.690930" lon="-110.226570">
        <ele>250.9</ele>
      </trkpt>
      <trkpt lat="23.690260" lon="-110.226450">
        <ele>253.3</ele>
      </trkpt>
      <trkpt lat="23.689580" lon="-110.226320">
        <ele>254.0</ele>
      </trkpt>
      <trkpt lat="23.688900" lon="-110.226120">
        <ele>252.9</ele>
      </trkpt>
      <trkpt lat="23.688240" lon="-110.225910">
        <ele>251.1</ele>
      </trkpt>
      <trkpt lat="23.687590" lon="-110.225710">
        <ele>253.1</ele>
      </trkpt>
      <trkpt lat="23.686930" lon="-110.225500">
        <ele>253.4</ele>
      </trkpt>
      <trkpt lat="23.686280" lon="-110.225310">
        <ele>252.8</ele>
      </trkpt>
      <trkpt lat="23.685640" lon="-110.225110">
        <ele>252.1</ele>
      </trkpt>
      <trkpt lat="23.684990" lon="-110.224920">
        <ele>253.3</ele>
      </trkpt>
      <trkpt lat="23.684570" lon="-110.224770">
        <ele>253.8</ele>
      </trkpt>
      <trkpt lat="23.684000" lon="-110.224600">
        <ele>254.0</ele>
      </trkpt>
      <trkpt lat="23.683350" lon="-110.224450">
        <ele>252.7</ele>
      </trkpt>
      <trkpt lat="23.682690" lon="-110.224340">
        <ele>251.9</ele>
      </trkpt>
      <trkpt lat="23.682310" lon="-110.224310">
        <ele>251.7</ele>
      </trkpt>
      <trkpt lat="23.681630" lon="-110.224280">
        <ele>251.5</ele>
      </trkpt>
      <trkpt lat="23.680740" lon="-110.224290">
        <ele>251.2</ele>
      </trkpt>
      <trkpt lat="23.680170" lon="-110.224250">
        <ele>252.5</ele>
      </trkpt>
      <trkpt lat="23.679600" lon="-110.224210">
        <ele>250.0</ele>
      </trkpt>
      <trkpt lat="23.678750" lon="-110.224100">
        <ele>248.9</ele>
      </trkpt>
      <trkpt lat="23.678070" lon="-110.224030">
        <ele>248.1</ele>
      </trkpt>
      <trkpt lat="23.677410" lon="-110.223970">
        <ele>247.4</ele>
      </trkpt>
      <trkpt lat="23.676750" lon="-110.223920">
        <ele>254.8</ele>
      </trkpt>
      <trkpt lat="23.675880" lon="-110.223820">
        <ele>257.3</ele>
      </trkpt>
      <trkpt lat="23.675300" lon="-110.223740">
        <ele>257.9</ele>
      </trkpt>
      <trkpt lat="23.674720" lon="-110.223660">
        <ele>257.0</ele>
      </trkpt>
      <trkpt lat="23.674130" lon="-110.223550">
        <ele>254.6</ele>
      </trkpt>
      <trkpt lat="23.673660" lon="-110.223490">
        <ele>253.0</ele>
      </trkpt>
      <trkpt lat="23.673190" lon="-110.223420">
        <ele>252.4</ele>
      </trkpt>
      <trkpt lat="23.672390" lon="-110.223360">
        <ele>255.6</ele>
      </trkpt>
      <trkpt lat="23.671630" lon="-110.223270">
        <ele>259.2</ele>
      </trkpt>
      <trkpt lat="23.670870" lon="-110.223180">
        <ele>261.6</ele>
      </trkpt>
      <trkpt lat="23.670020" lon="-110.223030">
        <ele>259.2</ele>
      </trkpt>
      <trkpt lat="23.669160" lon="-110.222930">
        <ele>256.9</ele>
      </trkpt>
      <trkpt lat="23.668310" lon="-110.222830">
        <ele>258.4</ele>
      </trkpt>
      <trkpt lat="23.667460" lon="-110.222730">
        <ele>259.5</ele>
      </trkpt>
      <trkpt lat="23.666640" lon="-110.222620">
        <ele>256.6</ele>
      </trkpt>
      <trkpt lat="23.666000" lon="-110.222540">
        <ele>257.7</ele>
      </trkpt>
      <trkpt lat="23.665330" lon="-110.222520">
        <ele>258.6</ele>
      </trkpt>
      <trkpt lat="23.664710" lon="-110.222550">
        <ele>257.5</ele>
      </trkpt>
      <trkpt lat="23.664270" lon="-110.222580">
        <ele>255.5</ele>
      </trkpt>
      <trkpt lat="23.663760" lon="-110.222660">
        <ele>256.4</ele>
      </trkpt>
      <trkpt lat="23.663030" lon="-110.222820">
        <ele>258.8</ele>
      </trkpt>
      <trkpt lat="23.662300" lon="-110.222970">
        <ele>261.5</ele>
      </trkpt>
      <trkpt lat="23.661560" lon="-110.223130">
        <ele>261.9</ele>
      </trkpt>
      <trkpt lat="23.661110" lon="-110.223200">
        <ele>260.4</ele>
      </trkpt>
      <trkpt lat="23.660650" lon="-110.223280">
        <ele>259.0</ele>
      </trkpt>
      <trkpt lat="23.659820" lon="-110.223450">
        <ele>257.3</ele>
      </trkpt>
      <trkpt lat="23.659140" lon="-110.223590">
        <ele>256.2</ele>
      </trkpt>
      <trkpt lat="23.658370" lon="-110.223750">
        <ele>259.8</ele>
      </trkpt>
      <trkpt lat="23.657600" lon="-110.223900">
        <ele>258.4</ele>
      </trkpt>
      <trkpt lat="23.656820" lon="-110.224050">
        <ele>259.7</ele>
      </trkpt>
      <trkpt lat="23.656210" lon="-110.224170">
        <ele>257.8</ele>
      </trkpt>
      <trkpt lat="23.655590" lon="-110.224280">
        <ele>256.2</ele>
      </trkpt>
      <trkpt lat="23.654990" lon="-110.224410">
        <ele>256.2</ele>
      </trkpt>
      <trkpt lat="23.654390" lon="-110.224540">
        <ele>257.8</ele>
      </trkpt>
      <trkpt lat="23.653790" lon="-110.224680">
        <ele>257.4</ele>
      </trkpt>
      <trkpt lat="23.652980" lon="-110.224850">
        <ele>255.8</ele>
      </trkpt>
      <trkpt lat="23.652170" lon="-110.225020">
        <ele>255.6</ele>
      </trkpt>
      <trkpt lat="23.651360" lon="-110.225190">
        <ele>255.2</ele>
      </trkpt>
      <trkpt lat="23.650690" lon="-110.225320">
        <ele>255.7</ele>
      </trkpt>
      <trkpt lat="23.650010" lon="-110.225440">
        <ele>255.0</ele>
      </trkpt>
      <trkpt lat="23.649190" lon="-110.225600">
        <ele>252.6</ele>
      </trkpt>
      <trkpt lat="23.648360" lon="-110.225770">
        <ele>250.1</ele>
      </trkpt>
      <trkpt lat="23.647540" lon="-110.225930">
        <ele>250.7</ele>
      </trkpt>
      <trkpt lat="23.646710" lon="-110.226090">
        <ele>249.7</ele>
      </trkpt>
      <trkpt lat="23.645890" lon="-110.226260">
        <ele>246.2</ele>
      </trkpt>
      <trkpt lat="23.645270" lon="-110.226390">
        <ele>247.6</ele>
      </trkpt>
      <trkpt lat="23.644650" lon="-110.226520">
        <ele>247.8</ele>
      </trkpt>
      <trkpt lat="23.644040" lon="-110.226660">
        <ele>247.0</ele>
      </trkpt>
      <trkpt lat="23.643460" lon="-110.226760">
        <ele>247.0</ele>
      </trkpt>
      <trkpt lat="23.642890" lon="-110.226860">
        <ele>247.3</ele>
      </trkpt>
      <trkpt lat="23.642400" lon="-110.226980">
        <ele>246.9</ele>
      </trkpt>
      <trkpt lat="23.641910" lon="-110.227100">
        <ele>245.2</ele>
      </trkpt>
      <trkpt lat="23.641090" lon="-110.227260">
        <ele>244.5</ele>
      </trkpt>
      <trkpt lat="23.640270" lon="-110.227420">
        <ele>243.5</ele>
      </trkpt>
      <trkpt lat="23.639450" lon="-110.227580">
        <ele>241.5</ele>
      </trkpt>
      <trkpt lat="23.638620" lon="-110.227750">
        <ele>242.6</ele>
      </trkpt>
      <trkpt lat="23.637800" lon="-110.227910">
        <ele>239.1</ele>
      </trkpt>
      <trkpt lat="23.636980" lon="-110.228070">
        <ele>237.3</ele>
      </trkpt>
      <trkpt lat="23.636290" lon="-110.228220">
        <ele>236.1</ele>
      </trkpt>
      <trkpt lat="23.635600" lon="-110.228370">
        <ele>233.5</ele>
      </trkpt>
      <trkpt lat="23.634910" lon="-110.228510">
        <ele>231.9</ele>
      </trkpt>
      <trkpt lat="23.634290" lon="-110.228630">
        <ele>230.5</ele>
      </trkpt>
      <trkpt lat="23.633670" lon="-110.228740">
        <ele>228.4</ele>
      </trkpt>
      <trkpt lat="23.633060" lon="-110.228860">
        <ele>226.3</ele>
      </trkpt>
      <trkpt lat="23.632310" lon="-110.229000">
        <ele>225.4</ele>
      </trkpt>
      <trkpt lat="23.631560" lon="-110.229150">
        <ele>226.4</ele>
      </trkpt>
      <trkpt lat="23.630740" lon="-110.229320">
        <ele>229.0</ele>
      </trkpt>
    </trkseg>
  </trk>
</gpx>