<?xml version="1.0" encoding="UTF-8"?>
<gpx version="1.1" creator="GPX Segmenter" xmlns="http://www.topografix.com/GPX/1/1">
  <trk>
    <name>Baja - Segment 1 of 49</name>
    <trkseg>
      <trkpt lat="32.533690" lon="-117.115030">
        <ele>23.4</ele>
      </trkpt>
      <trkpt lat="32.533640" lon="-117.115290">
        <ele>22.9</ele>
      </trkpt>
      <trkpt lat="32.533480" lon="-117.115240">
        <ele>23.0</ele>
      </trkpt>
      <trkpt lat="32.533590" lon="-117.114450">
        <ele>24.3</ele>
      </trkpt>
      <trkpt lat="32.533590" lon="-117.114190">
        <ele>24.3</ele>
      </trkpt>
      <trkpt lat="32.533540" lon="-117.113960">
        <ele>25.3</ele>
      </trkpt>
      <trkpt lat="32.533490" lon="-117.113900">
        <ele>25.3</ele>
      </trkpt>
      <trkpt lat="32.533370" lon="-117.113870">
        <ele>25.2</ele>
      </trkpt>
      <trkpt lat="32.533250" lon="-117.113870">
        <ele>25.9</ele>
      </trkpt>
      <trkpt lat="32.532693" lon="-117.114343">
        <ele>23.9</ele>
      </trkpt>
      <trkpt lat="32.532137" lon="-117.114817">
        <ele>22.3</ele>
      </trkpt>
      <trkpt lat="32.531580" lon="-117.115290">
        <ele>23.0</ele>
      </trkpt>
      <trkpt lat="32.531410" lon="-117.115080">
        <ele>23.4</ele>
      </trkpt>
      <trkpt lat="32.531180" lon="-117.114840">
        <ele>23.9</ele>
      </trkpt>
      <trkpt lat="32.530890" lon="-117.114720">
        <ele>24.4</ele>
      </trkpt>
      <trkpt lat="32.530570" lon="-117.114640">
        <ele>24.5</ele>
      </trkpt>
      <trkpt lat="32.530180" lon="-117.114610">
        <ele>25.1</ele>
      </trkpt>
      <trkpt lat="32.529960" lon="-117.114130">
        <ele>26.1</ele>
      </trkpt>
      <trkpt lat="32.529810" lon="-117.113870">
        <ele>27.1</ele>
      </trkpt>
      <trkpt lat="32.529750" lon="-117.113770">
        <ele>27.6</ele>
      </trkpt>
      <trkpt lat="32.529360" lon="-117.113320">
        <ele>29.0</ele>
      </trkpt>
      <trkpt lat="32.529070" lon="-117.113050">
        <ele>29.9</ele>
      </trkpt>
      <trkpt lat="32.528500" lon="-117.112670">
        <ele>31.7</ele>
      </trkpt>
      <trkpt lat="32.527970" lon="-117.112450">
        <ele>32.8</ele>
      </trkpt>
      <trkpt lat="32.527640" lon="-117.112380">
        <ele>33.1</ele>
      </trkpt>
      <trkpt lat="32.526760" lon="-117.112380">
        <ele>34.9</ele>
      </trkpt>
      <trkpt lat="32.525880" lon="-117.112380">
        <ele>39.6</ele>
      </trkpt>
      <trkpt lat="32.525000" lon="-117.112380">
        <ele>41.9</ele>
      </trkpt>
      <trkpt lat="32.525000" lon="-117.111465">
        <ele>44.5</ele>
      </trkpt>
      <trkpt lat="32.525000" lon="-117.110550">
        <ele>47.9</ele>
      </trkpt>
      <trkpt lat="32.525000" lon="-117.109635">
        <ele>51.0</ele>
      </trkpt>
      <trkpt lat="32.525000" lon="-117.108720">
        <ele>53.5</ele>
      </trkpt>
      <trkpt lat="32.524140" lon="-117.108710">
        <ele>57.7</ele>
      </trkpt>
      <trkpt lat="32.523280" lon="-117.108700">
        <ele>59.8</ele>
      </trkpt>
      <trkpt lat="32.523350" lon="-117.108440">
        <ele>60.2</ele>
      </trkpt>
      <trkpt lat="32.523360" lon="-117.108280">
        <ele>60.5</ele>
      </trkpt>
      <trkpt lat="32.523330" lon="-117.107580">
        <ele>61.6</ele>
      </trkpt>
      <trkpt lat="32.523170" lon="-117.107100">
        <ele>66.5</ele>
      </trkpt>
      <trkpt lat="32.522790" lon="-117.106380">
        <ele>74.4</ele>
      </trkpt>
      <trkpt lat="32.522590" lon="-117.106030">
        <ele>77.7</ele>
      </trkpt>
      <trkpt lat="32.522360" lon="-117.105720">
        <ele>79.1</ele>
      </trkpt>
      <trkpt lat="32.521717" lon="-117.105153">
        <ele>83.3</ele>
      </trkpt>
      <trkpt lat="32.521073" lon="-117.104587">
        <ele>90.7</ele>
      </trkpt>
      <trkpt lat="32.520430" lon="-117.104020">
        <ele>97.3</ele>
      </trkpt>
      <trkpt lat="32.520010" lon="-117.103570">
        <ele>102.8</ele>
      </trkpt>
      <trkpt lat="32.519920" lon="-117.103410">
        <ele>105.3</ele>
      </trkpt>
      <trkpt lat="32.519390" lon="-117.102770">
        <ele>112.3</ele>
      </trkpt>
      <trkpt lat="32.519320" lon="-117.102630">
        <ele>112.3</ele>
      </trkpt>
      <trkpt lat="32.519300" lon="-117.102450">
        <ele>121.5</ele>
      </trkpt>
      <trkpt lat="32.519320" lon="-117.102310">
        <ele>121.5</ele>
      </trkpt>
      <trkpt lat="32.519400" lon="-117.102090">
        <ele>121.5</ele>
      </trkpt>
      <trkpt lat="32.519820" lon="-117.101280">
        <ele>132.6</ele>
      </trkpt>
      <trkpt lat="32.519890" lon="-117.101020">
        <ele>136.6</ele>
      </trkpt>
      <trkpt lat="32.519900" lon="-117.100790">
        <ele>140.3</ele>
      </trkpt>
      <trkpt lat="32.519870" lon="-117.100550">
        <ele>141.8</ele>
      </trkpt>
      <trkpt lat="32.519920" lon="-117.100360">
        <ele>141.9</ele>
      </trkpt>
      <trkpt lat="32.519700" lon="-117.100130">
        <ele>145.9</ele>
      </trkpt>
      <trkpt lat="32.519160" lon="-117.099420">
        <ele>165.1</ele>
      </trkpt>
      <trkpt lat="32.518520" lon="-117.098680">
        <ele>178.0</ele>
      </trkpt>
      <trkpt lat="32.517880" lon="-117.097940">
        <ele>183.0</ele>
      </trkpt>
      <trkpt lat="32.517730" lon="-117.097930">
        <ele>182.2</ele>
      </trkpt>
      <trkpt lat="32.517037" lon="-117.097963">
        <ele>178.6</ele>
      </trkpt>
      <trkpt lat="32.516345" lon="-117.097995">
        <ele>182.2</ele>
      </trkpt>
      <trkpt lat="32.515652" lon="-117.098028">
        <ele>182.3</ele>
      </trkpt>
      <trkpt lat="32.514960" lon="-117.098060">
        <ele>180.1</ele>
      </trkpt>
      <trkpt lat="32.514400" lon="-117.098105">
        <ele>183.4</ele>
      </trkpt>
      <trkpt lat="32.513840" lon="-117.098150">
        <ele>181.7</ele>
      </trkpt>
      <trkpt lat="32.513590" lon="-117.098150">
        <ele>181.5</ele>
      </trkpt>
      <trkpt lat="32.513200" lon="-117.098010">
        <ele>182.9</ele>
      </trkpt>
      <trkpt lat="32.513150" lon="-117.097800">
        <ele>183.8</ele>
      </trkpt>
      <trkpt lat="32.513110" lon="-117.097700">
        <ele>184.2</ele>
      </trkpt>
      <trkpt lat="32.513123" lon="-117.096940">
        <ele>185.9</ele>
      </trkpt>
      <trkpt lat="32.513137" lon="-117.096180">
        <ele>188.9</ele>
      </trkpt>
      <trkpt lat="32.513150" lon="-117.095420">
        <ele>197.6</ele>
      </trkpt>
      <trkpt lat="32.513110" lon="-117.095370">
        <ele>197.9</ele>
      </trkpt>
      <trkpt lat="32.513060" lon="-117.095370">
        <ele>198.2</ele>
      </trkpt>
      <trkpt lat="32.512675" lon="-117.095775">
        <ele>200.4</ele>
      </trkpt>
      <trkpt lat="32.512290" lon="-117.096180">
        <ele>206.6</ele>
      </trkpt>
      <trkpt lat="32.512200" lon="-117.096150">
        <ele>208.1</ele>
      </trkpt>
      <trkpt lat="32.511890" lon="-117.096010">
        <ele>210.1</ele>
      </trkpt>
      <trkpt lat="32.511430" lon="-117.096110">
        <ele>211.0</ele>
      </trkpt>
      <trkpt lat="32.511335" lon="-117.095475">
        <ele>211.0</ele>
      </trkpt>
      <trkpt lat="32.511240" lon="-117.094840">
        <ele>203.3</ele>
      </trkpt>
      <trkpt lat="32.511100" lon="-117.094710">
        <ele>203.3</ele>
      </trkpt>
      <trkpt lat="32.511020" lon="-117.094700">
        <ele>203.3</ele>
      </trkpt>
      <trkpt lat="32.510960" lon="-117.094740">
        <ele>203.3</ele>
      </trkpt>
      <trkpt lat="32.510407" lon="-117.095193">
        <ele>203.3</ele>
      </trkpt>
      <trkpt lat="32.509853" lon="-117.095647">
        <ele>175.5</ele>
      </trkpt>
      <trkpt lat="32.509300" lon="-117.096100">
        <ele>175.5</ele>
      </trkpt>
      <trkpt lat="32.509040" lon="-117.095650">
        <ele>178.9</ele>
      </trkpt>
      <trkpt lat="32.509630" lon="-117.095150">
        <ele>165.2</ele>
      </trkpt>
      <trkpt lat="32.509780" lon="-117.094910">
        <ele>165.2</ele>
      </trkpt>
      <trkpt lat="32.509830" lon="-117.094790">
        <ele>165.2</ele>
      </trkpt>
      <trkpt lat="32.509880" lon="-117.094430">
        <ele>162.0</ele>
      </trkpt>
      <trkpt lat="32.509920" lon="-117.093600">
        <ele>144.5</ele>
      </trkpt>
      <trkpt lat="32.509860" lon="-117.093090">
        <ele>141.0</ele>
      </trkpt>
      <trkpt lat="32.509710" lon="-117.093040">
        <ele>146.3</ele>
      </trkpt>
      <trkpt lat="32.509610" lon="-117.092930">
        <ele>146.3</ele>
      </trkpt>
      <trkpt lat="32.509490" lon="-117.092660">
        <ele>146.3</ele>
      </trkpt>
      <trkpt lat="32.509325" lon="-117.092050">
        <ele>146.3</ele>
      </trkpt>
      <trkpt lat="32.509160" lon="-117.091440">
        <ele>175.7</ele>
      </trkpt>
      <trkpt lat="32.509020" lon="-117.091080">
        <ele>175.7</ele>
      </trkpt>
      <trkpt lat="32.508970" lon="-117.090810">
        <ele>175.7</ele>
      </trkpt>
      <trkpt lat="32.508990" lon="-117.090720">
        <ele>175.7</ele>
      </trkpt>
      <trkpt lat="32.508590" lon="-117.090630">
        <ele>187.0</ele>
      </trkpt>
      <trkpt lat="32.508170" lon="-117.090380">
        <ele>187.0</ele>
      </trkpt>
      <trkpt lat="32.507750" lon="-117.090190">
        <ele>193.4</ele>
      </trkpt>
      <trkpt lat="32.507330" lon="-117.090000">
        <ele>221.4</ele>
      </trkpt>
      <trkpt lat="32.507260" lon="-117.090000">
        <ele>221.4</ele>
      </trkpt>
      <trkpt lat="32.507210" lon="-117.090010">
        <ele>221.4</ele>
      </trkpt>
      <trkpt lat="32.507020" lon="-117.090310">
        <ele>221.4</ele>
      </trkpt>
      <trkpt lat="32.506980" lon="-117.090320">
        <ele>221.4</ele>
      </trkpt>
      <trkpt lat="32.506920" lon="-117.090330">
        <ele>221.4</ele>
      </trkpt>
      <trkpt lat="32.506460" lon="-117.090090">
        <ele>222.5</ele>
      </trkpt>
      <trkpt lat="32.506100" lon="-117.089810">
        <ele>222.5</ele>
      </trkpt>
      <trkpt lat="32.506360" lon="-117.088880">
        <ele>223.5</ele>
      </trkpt>
      <trkpt lat="32.505790" lon="-117.088653">
        <ele>223.4</ele>
      </trkpt>
      <trkpt lat="32.505220" lon="-117.088427">
        <ele>221.0</ele>
      </trkpt>
      <trkpt lat="32.504650" lon="-117.088200">
        <ele>217.8</ele>
      </trkpt>
      <trkpt lat="32.504250" lon="-117.088550">
        <ele>211.5</ele>
      </trkpt>
      <trkpt lat="32.503850" lon="-117.088540">
        <ele>211.5</ele>
      </trkpt>
      <trkpt lat="32.503790" lon="-117.088520">
        <ele>211.5</ele>
      </trkpt>
      <trkpt lat="32.503680" lon="-117.088440">
        <ele>198.7</ele>
      </trkpt>
      <trkpt lat="32.503530" lon="-117.088250">
        <ele>198.7</ele>
      </trkpt>
      <trkpt lat="32.503260" lon="-117.088070">
        <ele>198.7</ele>
      </trkpt>
      <trkpt lat="32.503210" lon="-117.087940">
        <ele>198.7</ele>
      </trkpt>
      <trkpt lat="32.503220" lon="-117.087870">
        <ele>198.7</ele>
      </trkpt>
      <trkpt lat="32.503300" lon="-117.087810">
        <ele>198.7</ele>
      </trkpt>
      <trkpt lat="32.503780" lon="-117.087580">
        <ele>198.7</ele>
      </trkpt>
      <trkpt lat="32.503850" lon="-117.087500">
        <ele>198.7</ele>
      </trkpt>
      <trkpt lat="32.503900" lon="-117.087370">
        <ele>171.8</ele>
      </trkpt>
      <trkpt lat="32.504070" lon="-117.086390">
        <ele>171.8</ele>
      </trkpt>
      <trkpt lat="32.504200" lon="-117.085420">
        <ele>163.9</ele>
      </trkpt>
      <trkpt lat="32.504380" lon="-117.084540">
        <ele>155.6</ele>
      </trkpt>
      <trkpt lat="32.504665" lon="-117.083685">
        <ele>141.0</ele>
      </trkpt>
      <trkpt lat="32.504950" lon="-117.082830">
        <ele>141.0</ele>
      </trkpt>
      <trkpt lat="32.504740" lon="-117.082790">
        <ele>141.0</ele>
      </trkpt>
      <trkpt lat="32.504070" lon="-117.082750">
        <ele>141.0</ele>
      </trkpt>
      <trkpt lat="32.503485" lon="-117.082575">
        <ele>141.0</ele>
      </trkpt>
      <trkpt lat="32.502900" lon="-117.082400">
        <ele>147.1</ele>
      </trkpt>
      <trkpt lat="32.502200" lon="-117.082260">
        <ele>147.1</ele>
      </trkpt>
      <trkpt lat="32.501940" lon="-117.082090">
        <ele>147.1</ele>
      </trkpt>
      <trkpt lat="32.501700" lon="-117.081780">
        <ele>147.1</ele>
      </trkpt>
      <trkpt lat="32.501400" lon="-117.081660">
        <ele>147.1</ele>
      </trkpt>
      <trkpt lat="32.501000" lon="-117.082120">
        <ele>148.8</ele>
      </trkpt>
      <trkpt lat="32.500850" lon="-117.082170">
        <ele>149.2</ele>
      </trkpt>
      <trkpt lat="32.500720" lon="-117.082170">
        <ele>149.2</ele>
      </trkpt>
      <trkpt lat="32.500690" lon="-117.081910">
        <ele>154.6</ele>
      </trkpt>
      <trkpt lat="32.500500" lon="-117.081610">
        <ele>154.6</ele>
      </trkpt>
      <trkpt lat="32.500110" lon="-117.081060">
        <ele>154.8</ele>
      </trkpt>
      <trkpt lat="32.499710" lon="-117.080390">
        <ele>157.6</ele>
      </trkpt>
      <trkpt lat="32.499580" lon="-117.080120">
        <ele>157.8</ele>
      </trkpt>
      <trkpt lat="32.499550" lon="-117.079980">
        <ele>157.8</ele>
      </trkpt>
      <trkpt lat="32.499550" lon="-117.079300">
        <ele>164.1</ele>
      </trkpt>
      <trkpt lat="32.499770" lon="-117.078950">
        <ele>164.1</ele>
      </trkpt>
      <trkpt lat="32.499940" lon="-117.078600">
        <ele>194.2</ele>
      </trkpt>
      <trkpt lat="32.500020" lon="-117.078400">
        <ele>194.2</ele>
      </trkpt>
      <trkpt lat="32.500210" lon="-117.078140">
        <ele>194.2</ele>
      </trkpt>
      <trkpt lat="32.500630" lon="-117.077760">
        <ele>207.5</ele>
      </trkpt>
      <trkpt lat="32.500940" lon="-117.077940">
        <ele>210.4</ele>
      </trkpt>
      <trkpt lat="32.500940" lon="-117.077590">
        <ele>211.9</ele>
      </trkpt>
      <trkpt lat="32.500920" lon="-117.077390">
        <ele>211.9</ele>
      </trkpt>
      <trkpt lat="32.500850" lon="-117.077160">
        <ele>211.9</ele>
      </trkpt>
      <trkpt lat="32.500850" lon="-117.076880">
        <ele>195.6</ele>
      </trkpt>
      <trkpt lat="32.500980" lon="-117.076570">
        <ele>195.6</ele>
      </trkpt>
      <trkpt lat="32.501160" lon="-117.076310">
        <ele>195.6</ele>
      </trkpt>
      <trkpt lat="32.501180" lon="-117.076250">
        <ele>195.6</ele>
      </trkpt>
      <trkpt lat="32.501160" lon="-117.076170">
        <ele>193.7</ele>
      </trkpt>
      <trkpt lat="32.501120" lon="-117.076120">
        <ele>193.7</ele>
      </trkpt>
      <trkpt lat="32.501050" lon="-117.076050">
        <ele>193.7</ele>
      </trkpt>
      <trkpt lat="32.500890" lon="-117.076010">
        <ele>193.7</ele>
      </trkpt>
      <trkpt lat="32.500550" lon="-117.075615">
        <ele>193.7</ele>
      </trkpt>
      <trkpt lat="32.500210" lon="-117.075220">
        <ele>188.9</ele>
      </trkpt>
      <trkpt lat="32.500060" lon="-117.075000">
        <ele>188.9</ele>
      </trkpt>
      <trkpt lat="32.499830" lon="-117.074410">
        <ele>188.9</ele>
      </trkpt>
      <trkpt lat="32.499700" lon="-117.074150">
        <ele>188.9</ele>
      </trkpt>
      <trkpt lat="32.499510" lon="-117.073630">
        <ele>182.1</ele>
      </trkpt>
      <trkpt lat="32.499510" lon="-117.073440">
        <ele>182.1</ele>
      </trkpt>
      <trkpt lat="32.499710" lon="-117.072800">
        <ele>178.7</ele>
      </trkpt>
      <trkpt lat="32.499750" lon="-117.072580">
        <ele>178.7</ele>
      </trkpt>
      <trkpt lat="32.499120" lon="-117.072255">
        <ele>180.9</ele>
      </trkpt>
      <trkpt lat="32.498490" lon="-117.071930">
        <ele>182.1</ele>
      </trkpt>
      <trkpt lat="32.497720" lon="-117.071450">
        <ele>189.1</ele>
      </trkpt>
      <trkpt lat="32.497330" lon="-117.071110">
        <ele>194.3</ele>
      </trkpt>
      <trkpt lat="32.496730" lon="-117.070670">
        <ele>197.9</ele>
      </trkpt>
      <trkpt lat="32.496070" lon="-117.070353">
        <ele>196.1</ele>
      </trkpt>
      <trkpt lat="32.495410" lon="-117.070037">
        <ele>194.7</ele>
      </trkpt>
      <trkpt lat="32.494750" lon="-117.069720">
        <ele>195.0</ele>
      </trkpt>
      <trkpt lat="32.494500" lon="-117.069630">
        <ele>195.3</ele>
      </trkpt>
      <trkpt lat="32.493840" lon="-117.069490">
        <ele>198.2</ele>
      </trkpt>
      <trkpt lat="32.493140" lon="-117.069420">
        <ele>207.3</ele>
      </trkpt>
      <trkpt lat="32.492710" lon="-117.069420">
        <ele>212.9</ele>
      </trkpt>
      <trkpt lat="32.492480" lon="-117.069450">
        <ele>216.8</ele>
      </trkpt>
      <trkpt lat="32.492070" lon="-117.069720">
        <ele>221.0</ele>
      </trkpt>
      <trkpt lat="32.491960" lon="-117.069810">
        <ele>225.2</ele>
      </trkpt>
      <trkpt lat="32.491820" lon="-117.070100">
        <ele>225.4</ele>
      </trkpt>
      <trkpt lat="32.491200" lon="-117.069840">
        <ele>225.8</ele>
      </trkpt>
      <trkpt lat="32.490860" lon="-117.069750">
        <ele>226.3</ele>
      </trkpt>
      <trkpt lat="32.490310" lon="-117.069630">
        <ele>227.6</ele>
      </trkpt>
      <trkpt lat="32.489750" lon="-117.069495">
        <ele>229.6</ele>
      </trkpt>
      <trkpt lat="32.489190" lon="-117.069360">
        <ele>230.1</ele>
      </trkpt>
      <trkpt lat="32.488325" lon="-117.069175">
        <ele>227.8</ele>
      </trkpt>
      <trkpt lat="32.487460" lon="-117.068990">
        <ele>233.0</ele>
      </trkpt>
      <trkpt lat="32.486910" lon="-117.068840">
        <ele>234.5</ele>
      </trkpt>
      <trkpt lat="32.486080" lon="-117.068605">
        <ele>234.9</ele>
      </trkpt>
      <trkpt lat="32.485250" lon="-117.068370">
        <ele>235.8</ele>
      </trkpt>
      <trkpt lat="32.484430" lon="-117.068107">
        <ele>238.9</ele>
      </trkpt>
      <trkpt lat="32.483610" lon="-117.067843">
        <ele>241.7</ele>
      </trkpt>
      <trkpt lat="32.482790" lon="-117.067580">
        <ele>236.2</ele>
      </trkpt>
      <trkpt lat="32.482180" lon="-117.068020">
        <ele>233.3</ele>
      </trkpt>
      <trkpt lat="32.481720" lon="-117.068130">
        <ele>225.4</ele>
      </trkpt>
      <trkpt lat="32.481070" lon="-117.068245">
        <ele>209.0</ele>
      </trkpt>
      <trkpt lat="32.480420" lon="-117.068360">
        <ele>209.0</ele>
      </trkpt>
      <trkpt lat="32.480370" lon="-117.067820">
        <ele>198.8</ele>
      </trkpt>
      <trkpt lat="32.479750" lon="-117.067930">
        <ele>189.3</ele>
      </trkpt>
      <trkpt lat="32.479160" lon="-117.067980">
        <ele>189.3</ele>
      </trkpt>
      <trkpt lat="32.478970" lon="-117.068020">
        <ele>183.8</ele>
      </trkpt>
      <trkpt lat="32.478710" lon="-117.068200">
        <ele>183.8</ele>
      </trkpt>
      <trkpt lat="32.478520" lon="-117.068380">
        <ele>183.8</ele>
      </trkpt>
      <trkpt lat="32.478430" lon="-117.068400">
        <ele>183.8</ele>
      </trkpt>
      <trkpt lat="32.478160" lon="-117.068550">
        <ele>183.8</ele>
      </trkpt>
      <trkpt lat="32.477550" lon="-117.068620">
        <ele>175.2</ele>
      </trkpt>
      <trkpt lat="32.477400" lon="-117.068720">
        <ele>175.2</ele>
      </trkpt>
      <trkpt lat="32.477310" lon="-117.068820">
        <ele>175.2</ele>
      </trkpt>
      <trkpt lat="32.476760" lon="-117.068910">
        <ele>160.0</ele>
      </trkpt>
      <trkpt lat="32.476550" lon="-117.068920">
        <ele>158.3</ele>
      </trkpt>
      <trkpt lat="32.476100" lon="-117.068980">
        <ele>155.1</ele>
      </trkpt>
      <trkpt lat="32.475535" lon="-117.069090">
        <ele>150.9</ele>
      </trkpt>
      <trkpt lat="32.474970" lon="-117.069200">
        <ele>147.4</ele>
      </trkpt>
      <trkpt lat="32.474450" lon="-117.069325">
        <ele>144.4</ele>
      </trkpt>
      <trkpt lat="32.473930" lon="-117.069450">
        <ele>139.7</ele>
      </trkpt>
      <trkpt lat="32.473395" lon="-117.069560">
        <ele>136.3</ele>
      </trkpt>
      <trkpt lat="32.472860" lon="-117.069670">
        <ele>133.0</ele>
      </trkpt>
      <trkpt lat="32.472780" lon="-117.069690">
        <ele>133.0</ele>
      </trkpt>
      <trkpt lat="32.472670" lon="-117.069910">
        <ele>132.0</ele>
      </trkpt>
      <trkpt lat="32.472620" lon="-117.070080">
        <ele>131.2</ele>
      </trkpt>
      <trkpt lat="32.472380" lon="-117.070450">
        <ele>128.1</ele>
      </trkpt>
      <trkpt lat="32.472320" lon="-117.070750">
        <ele>127.0</ele>
      </trkpt>
      <trkpt lat="32.472240" lon="-117.071020">
        <ele>125.8</ele>
      </trkpt>
      <trkpt lat="32.472120" lon="-117.071210">
        <ele>124.4</ele>
      </trkpt>
      <trkpt lat="32.472030" lon="-117.071290">
        <ele>124.4</ele>
      </trkpt>
      <trkpt lat="32.471930" lon="-117.071320">
        <ele>123.9</ele>
      </trkpt>
      <trkpt lat="32.471680" lon="-117.071320">
        <ele>123.0</ele>
      </trkpt>
      <trkpt lat="32.471400" lon="-117.071240">
        <ele>121.9</ele>
      </trkpt>
      <trkpt lat="32.470830" lon="-117.070890">
        <ele>125.9</ele>
      </trkpt>
      <trkpt lat="32.470690" lon="-117.070780">
        <ele>128.6</ele>
      </trkpt>
      <trkpt lat="32.470265" lon="-117.070605">
        <ele>136.7</ele>
      </trkpt>
      <trkpt lat="32.469840" lon="-117.070430">
        <ele>141.8</ele>
      </trkpt>
      <trkpt lat="32.469710" lon="-117.070400">
        <ele>142.7</ele>
      </trkpt>
      <trkpt lat="32.469180" lon="-117.070570">
        <ele>143.5</ele>
      </trkpt>
      <trkpt lat="32.468830" lon="-117.070760">
        <ele>142.8</ele>
      </trkpt>
      <trkpt lat="32.468670" lon="-117.070800">
        <ele>142.5</ele>
      </trkpt>
      <trkpt lat="32.468080" lon="-117.070810">
        <ele>142.2</ele>
      </trkpt>
      <trkpt lat="32.467530" lon="-117.070760">
        <ele>144.8</ele>
      </trkpt>
      <trkpt lat="32.466980" lon="-117.070710">
        <ele>148.1</ele>
      </trkpt>
      <trkpt lat="32.466380" lon="-117.070755">
        <ele>151.4</ele>
      </trkpt>
      <trkpt lat="32.465780" lon="-117.070800">
        <ele>153.5</ele>
      </trkpt>
      <trkpt lat="32.465040" lon="-117.070690">
        <ele>157.7</ele>
      </trkpt>
      <trkpt lat="32.464300" lon="-117.070580">
        <ele>161.1</ele>
      </trkpt>
      <trkpt lat="32.463560" lon="-117.070470">
        <ele>164.8</ele>
      </trkpt>
      <trkpt lat="32.463370" lon="-117.070450">
        <ele>165.6</ele>
      </trkpt>
      <trkpt lat="32.462785" lon="-117.070445">
        <ele>170.5</ele>
      </trkpt>
      <trkpt lat="32.462200" lon="-117.070440">
        <ele>174.5</ele>
      </trkpt>
      <trkpt lat="32.461320" lon="-117.070340">
        <ele>180.3</ele>
      </trkpt>
      <trkpt lat="32.461220" lon="-117.070300">
        <ele>180.3</ele>
      </trkpt>
      <trkpt lat="32.461090" lon="-117.070200">
        <ele>181.0</ele>
      </trkpt>
      <trkpt lat="32.460290" lon="-117.069820">
        <ele>186.3</ele>
      </trkpt>
      <trkpt lat="32.460090" lon="-117.069650">
        <ele>187.2</ele>
      </trkpt>
      <trkpt lat="32.459805" lon="-117.069110">
        <ele>189.7</ele>
      </trkpt>
      <trkpt lat="32.459520" lon="-117.068570">
        <ele>192.1</ele>
      </trkpt>
      <trkpt lat="32.459150" lon="-117.067935">
        <ele>196.0</ele>
      </trkpt>
      <trkpt lat="32.458780" lon="-117.067300">
        <ele>198.4</ele>
      </trkpt>
      <trkpt lat="32.458425" lon="-117.066655">
        <ele>200.8</ele>
      </trkpt>
      <trkpt lat="32.458070" lon="-117.066010">
        <ele>205.1</ele>
      </trkpt>
      <trkpt lat="32.457980" lon="-117.065780">
        <ele>205.4</ele>
      </trkpt>
      <trkpt lat="32.457880" lon="-117.065510">
        <ele>206.2</ele>
      </trkpt>
      <trkpt lat="32.457650" lon="-117.064620">
        <ele>207.6</ele>
      </trkpt>
      <trkpt lat="32.457455" lon="-117.064105">
        <ele>209.8</ele>
      </trkpt>
      <trkpt lat="32.457260" lon="-117.063590">
        <ele>212.5</ele>
      </trkpt>
      <trkpt lat="32.457220" lon="-117.063290">
        <ele>221.3</ele>
      </trkpt>
      <trkpt lat="32.457230" lon="-117.063190">
        <ele>221.9</ele>
      </trkpt>
      <trkpt lat="32.457140" lon="-117.063010">
        <ele>224.0</ele>
      </trkpt>
      <trkpt lat="32.457040" lon="-117.062650">
        <ele>229.2</ele>
      </trkpt>
      <trkpt lat="32.456890" lon="-117.061860">
        <ele>234.6</ele>
      </trkpt>
      <trkpt lat="32.456740" lon="-117.061070">
        <ele>243.3</ele>
      </trkpt>
      <trkpt lat="32.456590" lon="-117.060280">
        <ele>241.7</ele>
      </trkpt>
      <trkpt lat="32.456440" lon="-117.059960">
        <ele>241.5</ele>
      </trkpt>
      <trkpt lat="32.456010" lon="-117.059240">
        <ele>242.7</ele>
      </trkpt>
      <trkpt lat="32.455770" lon="-117.059360">
        <ele>243.4</ele>
      </trkpt>
      <trkpt lat="32.454910" lon="-117.059650">
        <ele>241.2</ele>
      </trkpt>
      <trkpt lat="32.454730" lon="-117.059650">
        <ele>241.7</ele>
      </trkpt>
      <trkpt lat="32.454660" lon="-117.059620">
        <ele>241.6</ele>
      </trkpt>
      <trkpt lat="32.454590" lon="-117.059560">
        <ele>241.1</ele>
      </trkpt>
      <trkpt lat="32.454393" lon="-117.058880">
        <ele>238.5</ele>
      </trkpt>
      <trkpt lat="32.454197" lon="-117.058200">
        <ele>244.6</ele>
      </trkpt>
      <trkpt lat="32.454000" lon="-117.057520">
        <ele>255.1</ele>
      </trkpt>
      <trkpt lat="32.453910" lon="-117.057400">
        <ele>254.8</ele>
      </trkpt>
      <trkpt lat="32.453830" lon="-117.057410">
        <ele>254.6</ele>
      </trkpt>
      <trkpt lat="32.453170" lon="-117.057825">
        <ele>251.5</ele>
      </trkpt>
      <trkpt lat="32.452510" lon="-117.058240">
        <ele>247.4</ele>
      </trkpt>
      <trkpt lat="32.452420" lon="-117.058170">
        <ele>248.7</ele>
      </trkpt>
      <trkpt lat="32.452070" lon="-117.057450">
        <ele>252.9</ele>
      </trkpt>
      <trkpt lat="32.451840" lon="-117.057060">
        <ele>252.7</ele>
      </trkpt>
      <trkpt lat="32.451430" lon="-117.056600">
        <ele>247.4</ele>
      </trkpt>
      <trkpt lat="32.451350" lon="-117.056470">
        <ele>246.5</ele>
      </trkpt>
      <trkpt lat="32.451250" lon="-117.056260">
        <ele>245.0</ele>
      </trkpt>
      <trkpt lat="32.450945" lon="-117.055475">
        <ele>238.4</ele>
      </trkpt>
      <trkpt lat="32.450640" lon="-117.054690">
        <ele>230.0</ele>
      </trkpt>
      <trkpt lat="32.450335" lon="-117.053905">
        <ele>221.9</ele>
      </trkpt>
      <trkpt lat="32.450030" lon="-117.053120">
        <ele>218.1</ele>
      </trkpt>
      <trkpt lat="32.450000" lon="-117.052660">
        <ele>220.8</ele>
      </trkpt>
      <trkpt lat="32.449740" lon="-117.051910">
        <ele>227.8</ele>
      </trkpt>
      <trkpt lat="32.449470" lon="-117.051035">
        <ele>235.1</ele>
      </trkpt>
      <trkpt lat="32.449200" lon="-117.050160">
        <ele>238.3</ele>
      </trkpt>
      <trkpt lat="32.449080" lon="-117.049890">
        <ele>238.5</ele>
      </trkpt>
      <trkpt lat="32.448940" lon="-117.049490">
        <ele>238.5</ele>
      </trkpt>
      <trkpt lat="32.448530" lon="-117.048710">
        <ele>238.4</ele>
      </trkpt>
      <trkpt lat="32.448075" lon="-117.048090">
        <ele>239.8</ele>
      </trkpt>
      <trkpt lat="32.447620" lon="-117.047470">
        <ele>240.9</ele>
      </trkpt>
      <trkpt lat="32.447415" lon="-117.046975">
        <ele>243.1</ele>
      </trkpt>
      <trkpt lat="32.447210" lon="-117.046480">
        <ele>247.4</ele>
      </trkpt>
      <trkpt lat="32.447100" lon="-117.046090">
        <ele>250.4</ele>
      </trkpt>
      <trkpt lat="32.446990" lon="-117.045810">
        <ele>251.2</ele>
      </trkpt>
      <trkpt lat="32.446720" lon="-117.045170">
        <ele>251.4</ele>
      </trkpt>
      <trkpt lat="32.446400" lon="-117.044480">
        <ele>252.5</ele>
      </trkpt>
      <trkpt lat="32.446330" lon="-117.044390">
        <ele>253.0</ele>
      </trkpt>
      <trkpt lat="32.445763" lon="-117.043715">
        <ele>258.8</ele>
      </trkpt>
      <trkpt lat="32.445195" lon="-117.043040">
        <ele>262.0</ele>
      </trkpt>
      <trkpt lat="32.444628" lon="-117.042365">
        <ele>265.4</ele>
      </trkpt>
      <trkpt lat="32.444060" lon="-117.041690">
        <ele>267.2</ele>
      </trkpt>
      <trkpt lat="32.443460" lon="-117.040993">
        <ele>267.4</ele>
      </trkpt>
      <trkpt lat="32.442860" lon="-117.040297">
        <ele>266.4</ele>
      </trkpt>
      <trkpt lat="32.442260" lon="-117.039600">
        <ele>266.4</ele>
      </trkpt>
      <trkpt lat="32.441680" lon="-117.039060">
        <ele>267.6</ele>
      </trkpt>
      <trkpt lat="32.441560" lon="-117.039720">
        <ele>265.6</ele>
      </trkpt>
      <trkpt lat="32.441410" lon="-117.040490">
        <ele>264.2</ele>
      </trkpt>
      <trkpt lat="32.441280" lon="-117.041340">
        <ele>258.6</ele>
      </trkpt>
      <trkpt lat="32.441270" lon="-117.041560">
        <ele>256.4</ele>
      </trkpt>
      <trkpt lat="32.441290" lon="-117.041780">
        <ele>255.8</ele>
      </trkpt>
      <trkpt lat="32.441400" lon="-117.042460">
        <ele>253.2</ele>
      </trkpt>
      <trkpt lat="32.441565" lon="-117.043140">
        <ele>250.9</ele>
      </trkpt>
      <trkpt lat="32.441730" lon="-117.043820">
        <ele>249.0</ele>
      </trkpt>
      <trkpt lat="32.441770" lon="-117.044060">
        <ele>247.4</ele>
      </trkpt>
      <trkpt lat="32.441650" lon="-117.044130">
        <ele>246.3</ele>
      </trkpt>
      <trkpt lat="32.441140" lon="-117.044305">
        <ele>239.9</ele>
      </trkpt>
      <trkpt lat="32.440630" lon="-117.044480">
        <ele>233.5</ele>
      </trkpt>
      <trkpt lat="32.439840" lon="-117.044690">
        <ele>238.2</ele>
      </trkpt>
      <trkpt lat="32.439450" lon="-117.045010">
        <ele>243.5</ele>
      </trkpt>
      <trkpt lat="32.439300" lon="-117.045100">
        <ele>244.8</ele>
      </trkpt>
      <trkpt lat="32.438810" lon="-117.045300">
        <ele>248.5</ele>
      </trkpt>
      <trkpt lat="32.438590" lon="-117.044740">
        <ele>252.9</ele>
      </trkpt>
      <trkpt lat="32.438300" lon="-117.044130">
        <ele>256.7</ele>
      </trkpt>
      <trkpt lat="32.438010" lon="-117.043520">
        <ele>258.4</ele>
      </trkpt>
      <trkpt lat="32.437663" lon="-117.042757">
        <ele>261.3</ele>
      </trkpt>
      <trkpt lat="32.437317" lon="-117.041993">
        <ele>263.9</ele>
      </trkpt>
      <trkpt lat="32.436970" lon="-117.041230">
        <ele>270.1</ele>
      </trkpt>
      <trkpt lat="32.436480" lon="-117.041600">
        <ele>268.6</ele>
      </trkpt>
      <trkpt lat="32.436350" lon="-117.041580">
        <ele>269.4</ele>
      </trkpt>
      <trkpt lat="32.436230" lon="-117.041540">
        <ele>269.4</ele>
      </trkpt>
      <trkpt lat="32.436060" lon="-117.041250">
        <ele>267.8</ele>
      </trkpt>
      <trkpt lat="32.435970" lon="-117.041160">
        <ele>267.7</ele>
      </trkpt>
      <trkpt lat="32.435820" lon="-117.041160">
        <ele>267.5</ele>
      </trkpt>
      <trkpt lat="32.435620" lon="-117.041280">
        <ele>268.6</ele>
      </trkpt>
      <trkpt lat="32.435520" lon="-117.040970">
        <ele>267.5</ele>
      </trkpt>
      <trkpt lat="32.434995" lon="-117.041105">
        <ele>263.7</ele>
      </trkpt>
      <trkpt lat="32.434470" lon="-117.041240">
        <ele>261.1</ele>
      </trkpt>
      <trkpt lat="32.434140" lon="-117.041340">
        <ele>260.1</ele>
      </trkpt>
      <trkpt lat="32.433840" lon="-117.041480">
        <ele>258.9</ele>
      </trkpt>
      <trkpt lat="32.433400" lon="-117.041830">
        <ele>257.0</ele>
      </trkpt>
      <trkpt lat="32.432985" lon="-117.042270">
        <ele>255.7</ele>
      </trkpt>
      <trkpt lat="32.432570" lon="-117.042710">
        <ele>254.4</ele>
      </trkpt>
      <trkpt lat="32.432350" lon="-117.043000">
        <ele>250.8</ele>
      </trkpt>
      <trkpt lat="32.431880" lon="-117.043580">
        <ele>242.5</ele>
      </trkpt>
      <trkpt lat="32.431550" lon="-117.043900">
        <ele>236.6</ele>
      </trkpt>
      <trkpt lat="32.430840" lon="-117.044430">
        <ele>231.6</ele>
      </trkpt>
      <trkpt lat="32.430180" lon="-117.044850">
        <ele>229.6</ele>
      </trkpt>
      <trkpt lat="32.429950" lon="-117.045070">
        <ele>230.7</ele>
      </trkpt>
      <trkpt lat="32.429390" lon="-117.045280">
        <ele>235.0</ele>
      </trkpt>
      <trkpt lat="32.428990" lon="-117.045410">
        <ele>235.0</ele>
      </trkpt>
      <trkpt lat="32.428400" lon="-117.045510">
        <ele>228.2</ele>
      </trkpt>
      <trkpt lat="32.427920" lon="-117.045620">
        <ele>218.1</ele>
      </trkpt>
      <trkpt lat="32.427110" lon="-117.045600">
        <ele>215.6</ele>
      </trkpt>
      <trkpt lat="32.427010" lon="-117.045560">
        <ele>214.9</ele>
      </trkpt>
      <trkpt lat="32.426910" lon="-117.045560">
        <ele>214.3</ele>
      </trkpt>
      <trkpt lat="32.426480" lon="-117.045690">
        <ele>214.3</ele>
      </trkpt>
      <trkpt lat="32.426360" lon="-117.045720">
        <ele>214.5</ele>
      </trkpt>
      <trkpt lat="32.426270" lon="-117.045680">
        <ele>214.5</ele>
      </trkpt>
      <trkpt lat="32.425710" lon="-117.045290">
        <ele>209.4</ele>
      </trkpt>
      <trkpt lat="32.425255" lon="-117.044915">
        <ele>205.7</ele>
      </trkpt>
      <trkpt lat="32.424800" lon="-117.044540">
        <ele>202.2</ele>
      </trkpt>
      <trkpt lat="32.424390" lon="-117.044290">
        <ele>197.9</ele>
      </trkpt>
      <trkpt lat="32.424040" lon="-117.043940">
        <ele>194.7</ele>
      </trkpt>
      <trkpt lat="32.423700" lon="-117.043580">
        <ele>190.1</ele>
      </trkpt>
      <trkpt lat="32.423470" lon="-117.043670">
        <ele>187.7</ele>
      </trkpt>
      <trkpt lat="32.422940" lon="-117.043800">
        <ele>180.1</ele>
      </trkpt>
      <trkpt lat="32.422620" lon="-117.043810">
        <ele>175.6</ele>
      </trkpt>
      <trkpt lat="32.422350" lon="-117.043800">
        <ele>171.6</ele>
      </trkpt>
      <trkpt lat="32.422150" lon="-117.043750">
        <ele>168.5</ele>
      </trkpt>
      <trkpt lat="32.421970" lon="-117.043680">
        <ele>162.4</ele>
      </trkpt>
      <trkpt lat="32.421810" lon="-117.043580">
        <ele>162.4</ele>
      </trkpt>
      <trkpt lat="32.421315" lon="-117.043250">
        <ele>149.5</ele>
      </trkpt>
      <trkpt lat="32.420820" lon="-117.042920">
        <ele>140.2</ele>
      </trkpt>
      <trkpt lat="32.420410" lon="-117.042610">
        <ele>136.4</ele>
      </trkpt>
      <trkpt lat="32.420000" lon="-117.042300">
        <ele>133.1</ele>
      </trkpt>
      <trkpt lat="32.419470" lon="-117.042780">
        <ele>129.5</ele>
      </trkpt>
      <trkpt lat="32.419320" lon="-117.042990">
        <ele>128.6</ele>
      </trkpt>
      <trkpt lat="32.419160" lon="-117.043260">
        <ele>128.2</ele>
      </trkpt>
      <trkpt lat="32.419040" lon="-117.043390">
        <ele>128.6</ele>
      </trkpt>
      <trkpt lat="32.418660" lon="-117.043685">
        <ele>133.9</ele>
      </trkpt>
      <trkpt lat="32.418280" lon="-117.043980">
        <ele>136.0</ele>
      </trkpt>
      <trkpt lat="32.417560" lon="-117.044560">
        <ele>133.4</ele>
      </trkpt>
      <trkpt lat="32.416840" lon="-117.045140">
        <ele>130.8</ele>
      </trkpt>
      <trkpt lat="32.416680" lon="-117.045290">
        <ele>129.3</ele>
      </trkpt>
      <trkpt lat="32.416380" lon="-117.045500">
        <ele>129.3</ele>
      </trkpt>
      <trkpt lat="32.415970" lon="-117.045810">
        <ele>129.3</ele>
      </trkpt>
      <trkpt lat="32.415480" lon="-117.046200">
        <ele>122.6</ele>
      </trkpt>
      <trkpt lat="32.414990" lon="-117.046590">
        <ele>122.6</ele>
      </trkpt>
      <trkpt lat="32.414930" lon="-117.046680">
        <ele>122.6</ele>
      </trkpt>
      <trkpt lat="32.414480" lon="-117.047030">
        <ele>115.0</ele>
      </trkpt>
      <trkpt lat="32.414030" lon="-117.047380">
        <ele>111.3</ele>
      </trkpt>
      <trkpt lat="32.413730" lon="-117.047660">
        <ele>110.3</ele>
      </trkpt>
      <trkpt lat="32.413590" lon="-117.047690">
        <ele>110.9</ele>
      </trkpt>
      <trkpt lat="32.413420" lon="-117.047670">
        <ele>111.9</ele>
      </trkpt>
      <trkpt lat="32.413300" lon="-117.047710">
        <ele>112.9</ele>
      </trkpt>
      <trkpt lat="32.413220" lon="-117.047790">
        <ele>112.9</ele>
      </trkpt>
      <trkpt lat="32.413120" lon="-117.048020">
        <ele>118.4</ele>
      </trkpt>
      <trkpt lat="32.413090" lon="-117.048150">
        <ele>119.6</ele>
      </trkpt>
      <trkpt lat="32.412780" lon="-117.048710">
        <ele>119.7</ele>
      </trkpt>
      <trkpt lat="32.412660" lon="-117.048630">
        <ele>117.6</ele>
      </trkpt>
      <trkpt lat="32.412440" lon="-117.048640">
        <ele>116.8</ele>
      </trkpt>
      <trkpt lat="32.412350" lon="-117.048700">
        <ele>115.7</ele>
      </trkpt>
      <trkpt lat="32.411730" lon="-117.049270">
        <ele>108.7</ele>
      </trkpt>
      <trkpt lat="32.411530" lon="-117.049570">
        <ele>110.0</ele>
      </trkpt>
      <trkpt lat="32.411450" lon="-117.049750">
        <ele>110.3</ele>
      </trkpt>
      <trkpt lat="32.411270" lon="-117.050310">
        <ele>108.6</ele>
      </trkpt>
      <trkpt lat="32.411100" lon="-117.050420">
        <ele>108.6</ele>
      </trkpt>
      <trkpt lat="32.410630" lon="-117.050430">
        <ele>112.0</ele>
      </trkpt>
      <trkpt lat="32.410500" lon="-117.050470">
        <ele>112.8</ele>
      </trkpt>
      <trkpt lat="32.410390" lon="-117.050510">
        <ele>113.0</ele>
      </trkpt>
      <trkpt lat="32.409785" lon="-117.050950">
        <ele>111.8</ele>
      </trkpt>
      <trkpt lat="32.409180" lon="-117.051390">
        <ele>113.0</ele>
      </trkpt>
      <trkpt lat="32.408920" lon="-117.051540">
        <ele>112.9</ele>
      </trkpt>
      <trkpt lat="32.408750" lon="-117.051550">
        <ele>109.3</ele>
      </trkpt>
      <trkpt lat="32.408540" lon="-117.050960">
        <ele>101.4</ele>
      </trkpt>
      <trkpt lat="32.408285" lon="-117.050320">
        <ele>92.7</ele>
      </trkpt>
      <trkpt lat="32.408030" lon="-117.049680">
        <ele>91.1</ele>
      </trkpt>
      <trkpt lat="32.407805" lon="-117.049095">
        <ele>91.7</ele>
      </trkpt>
      <trkpt lat="32.407580" lon="-117.048510">
        <ele>90.8</ele>
      </trkpt>
      <trkpt lat="32.407520" lon="-117.048270">
        <ele>91.3</ele>
      </trkpt>
      <trkpt lat="32.407530" lon="-117.048080">
        <ele>91.6</ele>
      </trkpt>
      <trkpt lat="32.407510" lon="-117.047970">
        <ele>93.0</ele>
      </trkpt>
      <trkpt lat="32.407335" lon="-117.047475">
        <ele>94.7</ele>
      </trkpt>
      <trkpt lat="32.407160" lon="-117.046980">
        <ele>94.3</ele>
      </trkpt>
      <trkpt lat="32.407090" lon="-117.046990">
        <ele>94.3</ele>
      </trkpt>
      <trkpt lat="32.406990" lon="-117.047070">
        <ele>94.2</ele>
      </trkpt>
      <trkpt lat="32.406650" lon="-117.047120">
        <ele>95.6</ele>
      </trkpt>
      <trkpt lat="32.406520" lon="-117.047020">
        <ele>96.9</ele>
      </trkpt>
      <trkpt lat="32.405890" lon="-117.046290">
        <ele>103.9</ele>
      </trkpt>
      <trkpt lat="32.405340" lon="-117.046925">
        <ele>103.8</ele>
      </trkpt>
      <trkpt lat="32.404790" lon="-117.047560">
        <ele>101.1</ele>
      </trkpt>
      <trkpt lat="32.404600" lon="-117.047700">
        <ele>104.1</ele>
      </trkpt>
      <trkpt lat="32.404160" lon="-117.047890">
        <ele>105.1</ele>
      </trkpt>
      <trkpt lat="32.403550" lon="-117.048210">
        <ele>114.7</ele>
      </trkpt>
      <trkpt lat="32.403080" lon="-117.047790">
        <ele>120.1</ele>
      </trkpt>
      <trkpt lat="32.402580" lon="-117.047390">
        <ele>123.3</ele>
      </trkpt>
      <trkpt lat="32.402080" lon="-117.046990">
        <ele>123.3</ele>
      </trkpt>
      <trkpt lat="32.401990" lon="-117.047070">
        <ele>112.9</ele>
      </trkpt>
      <trkpt lat="32.401300" lon="-117.047410">
        <ele>108.9</ele>
      </trkpt>
      <trkpt lat="32.400683" lon="-117.047828">
        <ele>101.3</ele>
      </trkpt>
      <trkpt lat="32.400065" lon="-117.048245">
        <ele>94.2</ele>
      </trkpt>
      <trkpt lat="32.399448" lon="-117.048663">
        <ele>86.2</ele>
      </trkpt>
      <trkpt lat="32.398830" lon="-117.049080">
        <ele>89.8</ele>
      </trkpt>
      <trkpt lat="32.398640" lon="-117.049170">
        <ele>91.4</ele>
      </trkpt>
    </trkseg>
  </trk>
</gpx>