<?xml version="1.0" encoding="UTF-8"?>
<gpx version="1.1" creator="GPX Segmenter" xmlns="http://www.topografix.com/GPX/1/1">
  <trk>
    <name>Baja - Segment 35 of 49</name>
    <trkseg>
      <trkpt lat="25.843190" lon="-111.333330">
        <ele>14.1</ele>
      </trkpt>
      <trkpt lat="25.842500" lon="-111.333800">
        <ele>11.2</ele>
      </trkpt>
      <trkpt lat="25.841800" lon="-111.334260">
        <ele>20.6</ele>
      </trkpt>
      <trkpt lat="25.841270" lon="-111.334630">
        <ele>35.2</ele>
      </trkpt>
      <trkpt lat="25.840750" lon="-111.335000">
        <ele>43.4</ele>
      </trkpt>
      <trkpt lat="25.840050" lon="-111.335440">
        <ele>42.3</ele>
      </trkpt>
      <trkpt lat="25.839360" lon="-111.335880">
        <ele>30.0</ele>
      </trkpt>
      <trkpt lat="25.838910" lon="-111.336180">
        <ele>25.8</ele>
      </trkpt>
      <trkpt lat="25.838450" lon="-111.336490">
        <ele>28.8</ele>
      </trkpt>
      <trkpt lat="25.837810" lon="-111.336900">
        <ele>47.0</ele>
      </trkpt>
      <trkpt lat="25.837560" lon="-111.337000">
        <ele>49.7</ele>
      </trkpt>
      <trkpt lat="25.836940" lon="-111.337150">
        <ele>52.6</ele>
      </trkpt>
      <trkpt lat="25.836330" lon="-111.337300">
        <ele>51.3</ele>
      </trkpt>
      <trkpt lat="25.835720" lon="-111.337460">
        <ele>47.1</ele>
      </trkpt>
      <trkpt lat="25.834890" lon="-111.337630">
        <ele>37.4</ele>
      </trkpt>
      <trkpt lat="25.834060" lon="-111.337810">
        <ele>35.5</ele>
      </trkpt>
      <trkpt lat="25.833470" lon="-111.337990">
        <ele>33.0</ele>
      </trkpt>
      <trkpt lat="25.832870" lon="-111.338170">
        <ele>29.9</ele>
      </trkpt>
      <trkpt lat="25.832280" lon="-111.338350">
        <ele>25.3</ele>
      </trkpt>
      <trkpt lat="25.831420" lon="-111.338550">
        <ele>18.8</ele>
      </trkpt>
      <trkpt lat="25.830870" lon="-111.338580">
        <ele>12.9</ele>
      </trkpt>
      <trkpt lat="25.830680" lon="-111.338590">
        <ele>12.3</ele>
      </trkpt>
      <trkpt lat="25.829890" lon="-111.338500">
        <ele>11.8</ele>
      </trkpt>
      <trkpt lat="25.829420" lon="-111.338370">
        <ele>14.4</ele>
      </trkpt>
      <trkpt lat="25.828690" lon="-111.338110">
        <ele>15.8</ele>
      </trkpt>
      <trkpt lat="25.827960" lon="-111.337840">
        <ele>16.8</ele>
      </trkpt>
      <trkpt lat="25.827230" lon="-111.337570">
        <ele>17.4</ele>
      </trkpt>
      <trkpt lat="25.826510" lon="-111.337300">
        <ele>16.1</ele>
      </trkpt>
      <trkpt lat="25.825820" lon="-111.337040">
        <ele>17.1</ele>
      </trkpt>
      <trkpt lat="25.825140" lon="-111.336770">
        <ele>16.2</ele>
      </trkpt>
      <trkpt lat="25.824450" lon="-111.336510">
        <ele>17.4</ele>
      </trkpt>
      <trkpt lat="25.823770" lon="-111.336240">
        <ele>16.5</ele>
      </trkpt>
      <trkpt lat="25.823090" lon="-111.335980">
        <ele>16.1</ele>
      </trkpt>
      <trkpt lat="25.822260" lon="-111.335660">
        <ele>17.1</ele>
      </trkpt>
      <trkpt lat="25.821440" lon="-111.335350">
        <ele>19.3</ele>
      </trkpt>
      <trkpt lat="25.820610" lon="-111.335030">
        <ele>21.2</ele>
      </trkpt>
      <trkpt lat="25.819780" lon="-111.334720">
        <ele>21.1</ele>
      </trkpt>
      <trkpt lat="25.818960" lon="-111.334400">
        <ele>21.0</ele>
      </trkpt>
      <trkpt lat="25.818130" lon="-111.334080">
        <ele>21.8</ele>
      </trkpt>
      <trkpt lat="25.817300" lon="-111.333770">
        <ele>23.5</ele>
      </trkpt>
      <trkpt lat="25.816480" lon="-111.333450">
        <ele>23.8</ele>
      </trkpt>
      <trkpt lat="25.815650" lon="-111.333140">
        <ele>26.5</ele>
      </trkpt>
      <trkpt lat="25.814820" lon="-111.332820">
        <ele>26.6</ele>
      </trkpt>
      <trkpt lat="25.814000" lon="-111.332510">
        <ele>24.3</ele>
      </trkpt>
      <trkpt lat="25.813170" lon="-111.332190">
        <ele>27.1</ele>
      </trkpt>
      <trkpt lat="25.812340" lon="-111.331870">
        <ele>29.5</ele>
      </trkpt>
      <trkpt lat="25.811520" lon="-111.331560">
        <ele>30.9</ele>
      </trkpt>
      <trkpt lat="25.810690" lon="-111.331250">
        <ele>34.5</ele>
      </trkpt>
      <trkpt lat="25.809870" lon="-111.330930">
        <ele>37.2</ele>
      </trkpt>
      <trkpt lat="25.809050" lon="-111.330620">
        <ele>38.2</ele>
      </trkpt>
      <trkpt lat="25.808220" lon="-111.330310">
        <ele>38.5</ele>
      </trkpt>
      <trkpt lat="25.807400" lon="-111.329990">
        <ele>40.1</ele>
      </trkpt>
      <trkpt lat="25.806580" lon="-111.329680">
        <ele>41.3</ele>
      </trkpt>
      <trkpt lat="25.805750" lon="-111.329370">
        <ele>43.5</ele>
      </trkpt>
      <trkpt lat="25.804930" lon="-111.329060">
        <ele>42.9</ele>
      </trkpt>
      <trkpt lat="25.804930" lon="-111.329060">
        <ele>42.9</ele>
      </trkpt>
      <trkpt lat="25.804230" lon="-111.328790">
        <ele>44.8</ele>
      </trkpt>
      <trkpt lat="25.803540" lon="-111.328520">
        <ele>46.5</ele>
      </trkpt>
      <trkpt lat="25.802840" lon="-111.328250">
        <ele>46.7</ele>
      </trkpt>
      <trkpt lat="25.802140" lon="-111.327980">
        <ele>44.9</ele>
      </trkpt>
      <trkpt lat="25.801430" lon="-111.327700">
        <ele>42.9</ele>
      </trkpt>
      <trkpt lat="25.800720" lon="-111.327430">
        <ele>43.3</ele>
      </trkpt>
      <trkpt lat="25.800000" lon="-111.327160">
        <ele>44.6</ele>
      </trkpt>
      <trkpt lat="25.799500" lon="-111.326970">
        <ele>44.2</ele>
      </trkpt>
      <trkpt lat="25.799010" lon="-111.326770">
        <ele>43.8</ele>
      </trkpt>
      <trkpt lat="25.798290" lon="-111.326520">
        <ele>43.5</ele>
      </trkpt>
      <trkpt lat="25.797580" lon="-111.326280">
        <ele>42.6</ele>
      </trkpt>
      <trkpt lat="25.796850" lon="-111.326000">
        <ele>41.8</ele>
      </trkpt>
      <trkpt lat="25.796130" lon="-111.325730">
        <ele>40.6</ele>
      </trkpt>
      <trkpt lat="25.795400" lon="-111.325450">
        <ele>38.8</ele>
      </trkpt>
      <trkpt lat="25.794680" lon="-111.325180">
        <ele>37.7</ele>
      </trkpt>
      <trkpt lat="25.793880" lon="-111.324870">
        <ele>36.9</ele>
      </trkpt>
      <trkpt lat="25.793080" lon="-111.324570">
        <ele>34.5</ele>
      </trkpt>
      <trkpt lat="25.792290" lon="-111.324260">
        <ele>33.5</ele>
      </trkpt>
      <trkpt lat="25.791490" lon="-111.323960">
        <ele>31.6</ele>
      </trkpt>
      <trkpt lat="25.790690" lon="-111.323650">
        <ele>31.3</ele>
      </trkpt>
      <trkpt lat="25.789900" lon="-111.323350">
        <ele>30.2</ele>
      </trkpt>
      <trkpt lat="25.789100" lon="-111.323050">
        <ele>29.2</ele>
      </trkpt>
      <trkpt lat="25.788300" lon="-111.322740">
        <ele>26.2</ele>
      </trkpt>
      <trkpt lat="25.787510" lon="-111.322440">
        <ele>26.6</ele>
      </trkpt>
      <trkpt lat="25.787080" lon="-111.322280">
        <ele>25.2</ele>
      </trkpt>
      <trkpt lat="25.786650" lon="-111.322130">
        <ele>23.8</ele>
      </trkpt>
      <trkpt lat="25.786130" lon="-111.321930">
        <ele>23.5</ele>
      </trkpt>
      <trkpt lat="25.785610" lon="-111.321730">
        <ele>23.7</ele>
      </trkpt>
      <trkpt lat="25.784920" lon="-111.321470">
        <ele>25.4</ele>
      </trkpt>
      <trkpt lat="25.784220" lon="-111.321210">
        <ele>26.4</ele>
      </trkpt>
      <trkpt lat="25.783520" lon="-111.320900">
        <ele>27.7</ele>
      </trkpt>
      <trkpt lat="25.782810" lon="-111.320580">
        <ele>27.7</ele>
      </trkpt>
      <trkpt lat="25.782200" lon="-111.320280">
        <ele>28.4</ele>
      </trkpt>
      <trkpt lat="25.781590" lon="-111.319970">
        <ele>28.9</ele>
      </trkpt>
      <trkpt lat="25.780980" lon="-111.319650">
        <ele>28.5</ele>
      </trkpt>
      <trkpt lat="25.780360" lon="-111.319340">
        <ele>29.8</ele>
      </trkpt>
      <trkpt lat="25.779630" lon="-111.318970">
        <ele>30.5</ele>
      </trkpt>
      <trkpt lat="25.778900" lon="-111.318590">
        <ele>31.8</ele>
      </trkpt>
      <trkpt lat="25.778170" lon="-111.318220">
        <ele>32.2</ele>
      </trkpt>
      <trkpt lat="25.777440" lon="-111.317850">
        <ele>33.9</ele>
      </trkpt>
      <trkpt lat="25.776700" lon="-111.317480">
        <ele>33.9</ele>
      </trkpt>
      <trkpt lat="25.775970" lon="-111.317110">
        <ele>31.7</ele>
      </trkpt>
      <trkpt lat="25.775340" lon="-111.316780">
        <ele>31.0</ele>
      </trkpt>
      <trkpt lat="25.774710" lon="-111.316460">
        <ele>30.2</ele>
      </trkpt>
      <trkpt lat="25.773980" lon="-111.316090">
        <ele>29.6</ele>
      </trkpt>
      <trkpt lat="25.773250" lon="-111.315720">
        <ele>30.4</ele>
      </trkpt>
      <trkpt lat="25.772530" lon="-111.315360">
        <ele>32.8</ele>
      </trkpt>
      <trkpt lat="25.771800" lon="-111.314990">
        <ele>32.9</ele>
      </trkpt>
      <trkpt lat="25.771070" lon="-111.314630">
        <ele>34.1</ele>
      </trkpt>
      <trkpt lat="25.770340" lon="-111.314260">
        <ele>35.1</ele>
      </trkpt>
      <trkpt lat="25.769620" lon="-111.313900">
        <ele>36.7</ele>
      </trkpt>
      <trkpt lat="25.768890" lon="-111.313530">
        <ele>36.5</ele>
      </trkpt>
      <trkpt lat="25.768530" lon="-111.313330">
        <ele>35.0</ele>
      </trkpt>
      <trkpt lat="25.768160" lon="-111.313100">
        <ele>36.5</ele>
      </trkpt>
      <trkpt lat="25.767920" lon="-111.312890">
        <ele>37.4</ele>
      </trkpt>
      <trkpt lat="25.767630" lon="-111.312560">
        <ele>36.9</ele>
      </trkpt>
      <trkpt lat="25.767380" lon="-111.312260">
        <ele>37.2</ele>
      </trkpt>
      <trkpt lat="25.766870" lon="-111.311520">
        <ele>33.7</ele>
      </trkpt>
      <trkpt lat="25.766360" lon="-111.310790">
        <ele>30.6</ele>
      </trkpt>
      <trkpt lat="25.765860" lon="-111.310050">
        <ele>23.5</ele>
      </trkpt>
      <trkpt lat="25.765350" lon="-111.309320">
        <ele>20.7</ele>
      </trkpt>
      <trkpt lat="25.764840" lon="-111.308580">
        <ele>16.8</ele>
      </trkpt>
      <trkpt lat="25.764330" lon="-111.307850">
        <ele>18.2</ele>
      </trkpt>
      <trkpt lat="25.763830" lon="-111.307110">
        <ele>16.3</ele>
      </trkpt>
      <trkpt lat="25.763320" lon="-111.306380">
        <ele>15.0</ele>
      </trkpt>
      <trkpt lat="25.762810" lon="-111.305640">
        <ele>16.1</ele>
      </trkpt>
      <trkpt lat="25.762310" lon="-111.304900">
        <ele>14.7</ele>
      </trkpt>
      <trkpt lat="25.761800" lon="-111.304170">
        <ele>12.2</ele>
      </trkpt>
      <trkpt lat="25.761290" lon="-111.303430">
        <ele>12.4</ele>
      </trkpt>
      <trkpt lat="25.760880" lon="-111.302860">
        <ele>15.6</ele>
      </trkpt>
      <trkpt lat="25.760460" lon="-111.302280">
        <ele>14.7</ele>
      </trkpt>
      <trkpt lat="25.760050" lon="-111.301700">
        <ele>12.1</ele>
      </trkpt>
      <trkpt lat="25.759590" lon="-111.301040">
        <ele>17.8</ele>
      </trkpt>
      <trkpt lat="25.759140" lon="-111.300380">
        <ele>17.4</ele>
      </trkpt>
      <trkpt lat="25.758690" lon="-111.299720">
        <ele>16.7</ele>
      </trkpt>
      <trkpt lat="25.758240" lon="-111.299060">
        <ele>15.7</ele>
      </trkpt>
      <trkpt lat="25.758050" lon="-111.298780">
        <ele>15.3</ele>
      </trkpt>
      <trkpt lat="25.757620" lon="-111.298160">
        <ele>14.5</ele>
      </trkpt>
      <trkpt lat="25.757190" lon="-111.297550">
        <ele>14.3</ele>
      </trkpt>
      <trkpt lat="25.756770" lon="-111.296930">
        <ele>14.8</ele>
      </trkpt>
      <trkpt lat="25.756560" lon="-111.296630">
        <ele>15.1</ele>
      </trkpt>
      <trkpt lat="25.756020" lon="-111.295880">
        <ele>15.9</ele>
      </trkpt>
      <trkpt lat="25.755490" lon="-111.295120">
        <ele>15.2</ele>
      </trkpt>
      <trkpt lat="25.755120" lon="-111.294560">
        <ele>13.9</ele>
      </trkpt>
      <trkpt lat="25.754730" lon="-111.294050">
        <ele>15.1</ele>
      </trkpt>
      <trkpt lat="25.754460" lon="-111.293720">
        <ele>17.8</ele>
      </trkpt>
      <trkpt lat="25.754190" lon="-111.293360">
        <ele>20.7</ele>
      </trkpt>
      <trkpt lat="25.753980" lon="-111.293000">
        <ele>22.3</ele>
      </trkpt>
      <trkpt lat="25.753700" lon="-111.292580">
        <ele>20.8</ele>
      </trkpt>
      <trkpt lat="25.753200" lon="-111.291900">
        <ele>19.3</ele>
      </trkpt>
      <trkpt lat="25.753010" lon="-111.291630">
        <ele>21.0</ele>
      </trkpt>
      <trkpt lat="25.752690" lon="-111.291120">
        <ele>19.8</ele>
      </trkpt>
      <trkpt lat="25.752380" lon="-111.290660">
        <ele>16.8</ele>
      </trkpt>
      <trkpt lat="25.752080" lon="-111.290200">
        <ele>14.9</ele>
      </trkpt>
      <trkpt lat="25.751670" lon="-111.289630">
        <ele>11.1</ele>
      </trkpt>
      <trkpt lat="25.751400" lon="-111.289300">
        <ele>14.8</ele>
      </trkpt>
      <trkpt lat="25.751190" lon="-111.289000">
        <ele>16.0</ele>
      </trkpt>
      <trkpt lat="25.750930" lon="-111.288590">
        <ele>14.1</ele>
      </trkpt>
      <trkpt lat="25.750790" lon="-111.288390">
        <ele>13.1</ele>
      </trkpt>
      <trkpt lat="25.750610" lon="-111.288170">
        <ele>16.3</ele>
      </trkpt>
      <trkpt lat="25.750270" lon="-111.287810">
        <ele>19.0</ele>
      </trkpt>
      <trkpt lat="25.750090" lon="-111.287670">
        <ele>18.8</ele>
      </trkpt>
      <trkpt lat="25.749880" lon="-111.287530">
        <ele>17.6</ele>
      </trkpt>
      <trkpt lat="25.749580" lon="-111.287380">
        <ele>17.5</ele>
      </trkpt>
      <trkpt lat="25.749140" lon="-111.287210">
        <ele>16.9</ele>
      </trkpt>
      <trkpt lat="25.748640" lon="-111.287050">
        <ele>16.7</ele>
      </trkpt>
      <trkpt lat="25.748140" lon="-111.286890">
        <ele>18.2</ele>
      </trkpt>
      <trkpt lat="25.747820" lon="-111.286740">
        <ele>16.8</ele>
      </trkpt>
      <trkpt lat="25.747380" lon="-111.286490">
        <ele>15.1</ele>
      </trkpt>
      <trkpt lat="25.747070" lon="-111.286250">
        <ele>14.0</ele>
      </trkpt>
      <trkpt lat="25.746500" lon="-111.285710">
        <ele>7.4</ele>
      </trkpt>
      <trkpt lat="25.745920" lon="-111.285170">
        <ele>5.6</ele>
      </trkpt>
      <trkpt lat="25.745290" lon="-111.284640">
        <ele>8.3</ele>
      </trkpt>
      <trkpt lat="25.744660" lon="-111.284100">
        <ele>14.8</ele>
      </trkpt>
      <trkpt lat="25.744360" lon="-111.283800">
        <ele>17.9</ele>
      </trkpt>
      <trkpt lat="25.744110" lon="-111.283530">
        <ele>16.6</ele>
      </trkpt>
      <trkpt lat="25.743930" lon="-111.283370">
        <ele>14.9</ele>
      </trkpt>
      <trkpt lat="25.743730" lon="-111.283260">
        <ele>14.9</ele>
      </trkpt>
      <trkpt lat="25.743410" lon="-111.283110">
        <ele>15.2</ele>
      </trkpt>
      <trkpt lat="25.742810" lon="-111.282950">
        <ele>10.9</ele>
      </trkpt>
      <trkpt lat="25.742550" lon="-111.282860">
        <ele>9.9</ele>
      </trkpt>
      <trkpt lat="25.742210" lon="-111.282670">
        <ele>21.6</ele>
      </trkpt>
      <trkpt lat="25.741970" lon="-111.282470">
        <ele>31.0</ele>
      </trkpt>
      <trkpt lat="25.741870" lon="-111.282350">
        <ele>31.1</ele>
      </trkpt>
      <trkpt lat="25.741730" lon="-111.282170">
        <ele>28.9</ele>
      </trkpt>
      <trkpt lat="25.741410" lon="-111.281740">
        <ele>21.8</ele>
      </trkpt>
      <trkpt lat="25.740910" lon="-111.281070">
        <ele>17.4</ele>
      </trkpt>
      <trkpt lat="25.740610" lon="-111.280560">
        <ele>11.0</ele>
      </trkpt>
      <trkpt lat="25.740520" lon="-111.280350">
        <ele>10.7</ele>
      </trkpt>
      <trkpt lat="25.740450" lon="-111.280100">
        <ele>10.1</ele>
      </trkpt>
      <trkpt lat="25.740410" lon="-111.279840">
        <ele>9.9</ele>
      </trkpt>
      <trkpt lat="25.740380" lon="-111.278850">
        <ele>10.4</ele>
      </trkpt>
      <trkpt lat="25.740320" lon="-111.278020">
        <ele>9.5</ele>
      </trkpt>
      <trkpt lat="25.740280" lon="-111.277800">
        <ele>7.6</ele>
      </trkpt>
      <trkpt lat="25.740220" lon="-111.277590">
        <ele>5.5</ele>
      </trkpt>
      <trkpt lat="25.740080" lon="-111.277360">
        <ele>4.4</ele>
      </trkpt>
      <trkpt lat="25.739820" lon="-111.277060">
        <ele>5.8</ele>
      </trkpt>
      <trkpt lat="25.739360" lon="-111.276640">
        <ele>5.8</ele>
      </trkpt>
      <trkpt lat="25.738900" lon="-111.276210">
        <ele>3.9</ele>
      </trkpt>
      <trkpt lat="25.738310" lon="-111.275700">
        <ele>-0.3</ele>
      </trkpt>
      <trkpt lat="25.737720" lon="-111.275190">
        <ele>3.2</ele>
      </trkpt>
      <trkpt lat="25.737140" lon="-111.274670">
        <ele>4.1</ele>
      </trkpt>
      <trkpt lat="25.736610" lon="-111.274220">
        <ele>3.6</ele>
      </trkpt>
      <trkpt lat="25.736070" lon="-111.273760">
        <ele>5.0</ele>
      </trkpt>
      <trkpt lat="25.735540" lon="-111.273310">
        <ele>9.2</ele>
      </trkpt>
      <trkpt lat="25.735100" lon="-111.272900">
        <ele>11.1</ele>
      </trkpt>
      <trkpt lat="25.734830" lon="-111.272600">
        <ele>9.3</ele>
      </trkpt>
      <trkpt lat="25.734700" lon="-111.272440">
        <ele>8.5</ele>
      </trkpt>
      <trkpt lat="25.734580" lon="-111.272260">
        <ele>8.2</ele>
      </trkpt>
      <trkpt lat="25.734360" lon="-111.271780">
        <ele>6.7</ele>
      </trkpt>
      <trkpt lat="25.734200" lon="-111.271250">
        <ele>8.9</ele>
      </trkpt>
      <trkpt lat="25.734050" lon="-111.270720">
        <ele>12.1</ele>
      </trkpt>
      <trkpt lat="25.733950" lon="-111.270470">
        <ele>12.6</ele>
      </trkpt>
      <trkpt lat="25.733820" lon="-111.270180">
        <ele>13.0</ele>
      </trkpt>
      <trkpt lat="25.733670" lon="-111.269970">
        <ele>13.4</ele>
      </trkpt>
      <trkpt lat="25.733580" lon="-111.269850">
        <ele>13.0</ele>
      </trkpt>
      <trkpt lat="25.733380" lon="-111.269640">
        <ele>11.9</ele>
      </trkpt>
      <trkpt lat="25.733240" lon="-111.269520">
        <ele>11.9</ele>
      </trkpt>
      <trkpt lat="25.732640" lon="-111.269110">
        <ele>13.4</ele>
      </trkpt>
      <trkpt lat="25.732180" lon="-111.268800">
        <ele>17.9</ele>
      </trkpt>
      <trkpt lat="25.731800" lon="-111.268520">
        <ele>19.0</ele>
      </trkpt>
      <trkpt lat="25.731220" lon="-111.268130">
        <ele>18.9</ele>
      </trkpt>
      <trkpt lat="25.730890" lon="-111.267870">
        <ele>18.5</ele>
      </trkpt>
      <trkpt lat="25.730570" lon="-111.267660">
        <ele>20.2</ele>
      </trkpt>
      <trkpt lat="25.730400" lon="-111.267520">
        <ele>20.1</ele>
      </trkpt>
      <trkpt lat="25.730010" lon="-111.267290">
        <ele>21.4</ele>
      </trkpt>
      <trkpt lat="25.729460" lon="-111.267010">
        <ele>20.3</ele>
      </trkpt>
      <trkpt lat="25.729080" lon="-111.266840">
        <ele>17.5</ele>
      </trkpt>
      <trkpt lat="25.728680" lon="-111.266640">
        <ele>13.7</ele>
      </trkpt>
      <trkpt lat="25.728470" lon="-111.266550">
        <ele>14.1</ele>
      </trkpt>
      <trkpt lat="25.727730" lon="-111.266210">
        <ele>17.2</ele>
      </trkpt>
      <trkpt lat="25.726990" lon="-111.265870">
        <ele>24.0</ele>
      </trkpt>
      <trkpt lat="25.726290" lon="-111.265510">
        <ele>28.7</ele>
      </trkpt>
      <trkpt lat="25.725930" lon="-111.265350">
        <ele>30.3</ele>
      </trkpt>
      <trkpt lat="25.725790" lon="-111.265270">
        <ele>29.6</ele>
      </trkpt>
      <trkpt lat="25.725750" lon="-111.265230">
        <ele>28.5</ele>
      </trkpt>
      <trkpt lat="25.725590" lon="-111.265160">
        <ele>27.0</ele>
      </trkpt>
      <trkpt lat="25.725030" lon="-111.264670">
        <ele>20.8</ele>
      </trkpt>
      <trkpt lat="25.724940" lon="-111.264600">
        <ele>19.9</ele>
      </trkpt>
      <trkpt lat="25.724780" lon="-111.264540">
        <ele>18.7</ele>
      </trkpt>
      <trkpt lat="25.724680" lon="-111.264530">
        <ele>18.3</ele>
      </trkpt>
      <trkpt lat="25.724430" lon="-111.264530">
        <ele>17.3</ele>
      </trkpt>
      <trkpt lat="25.723770" lon="-111.264610">
        <ele>16.0</ele>
      </trkpt>
      <trkpt lat="25.723330" lon="-111.264650">
        <ele>15.3</ele>
      </trkpt>
      <trkpt lat="25.723090" lon="-111.264700">
        <ele>16.6</ele>
      </trkpt>
      <trkpt lat="25.722510" lon="-111.264860">
        <ele>20.1</ele>
      </trkpt>
      <trkpt lat="25.722230" lon="-111.264990">
        <ele>22.0</ele>
      </trkpt>
      <trkpt lat="25.722140" lon="-111.264990">
        <ele>22.7</ele>
      </trkpt>
      <trkpt lat="25.722060" lon="-111.264970">
        <ele>23.5</ele>
      </trkpt>
      <trkpt lat="25.721910" lon="-111.264930">
        <ele>25.3</ele>
      </trkpt>
      <trkpt lat="25.721790" lon="-111.264860">
        <ele>27.6</ele>
      </trkpt>
      <trkpt lat="25.721700" lon="-111.264800">
        <ele>29.7</ele>
      </trkpt>
      <trkpt lat="25.721570" lon="-111.264670">
        <ele>31.4</ele>
      </trkpt>
      <trkpt lat="25.721500" lon="-111.264590">
        <ele>31.8</ele>
      </trkpt>
      <trkpt lat="25.721350" lon="-111.264390">
        <ele>32.4</ele>
      </trkpt>
      <trkpt lat="25.721290" lon="-111.264270">
        <ele>33.0</ele>
      </trkpt>
      <trkpt lat="25.721250" lon="-111.264140">
        <ele>33.6</ele>
      </trkpt>
      <trkpt lat="25.721230" lon="-111.263990">
        <ele>34.0</ele>
      </trkpt>
      <trkpt lat="25.721240" lon="-111.263810">
        <ele>35.2</ele>
      </trkpt>
      <trkpt lat="25.721290" lon="-111.263510">
        <ele>37.8</ele>
      </trkpt>
      <trkpt lat="25.721280" lon="-111.263250">
        <ele>38.9</ele>
      </trkpt>
      <trkpt lat="25.721120" lon="-111.262510">
        <ele>39.1</ele>
      </trkpt>
      <trkpt lat="25.721050" lon="-111.262010">
        <ele>46.6</ele>
      </trkpt>
      <trkpt lat="25.720980" lon="-111.261510">
        <ele>54.2</ele>
      </trkpt>
      <trkpt lat="25.720930" lon="-111.261240">
        <ele>57.9</ele>
      </trkpt>
      <trkpt lat="25.720850" lon="-111.261040">
        <ele>59.2</ele>
      </trkpt>
      <trkpt lat="25.720780" lon="-111.260900">
        <ele>59.3</ele>
      </trkpt>
      <trkpt lat="25.720430" lon="-111.260320">
        <ele>61.8</ele>
      </trkpt>
      <trkpt lat="25.720350" lon="-111.260110">
        <ele>63.7</ele>
      </trkpt>
      <trkpt lat="25.720310" lon="-111.259910">
        <ele>65.9</ele>
      </trkpt>
      <trkpt lat="25.720300" lon="-111.259370">
        <ele>72.9</ele>
      </trkpt>
      <trkpt lat="25.720280" lon="-111.259270">
        <ele>73.4</ele>
      </trkpt>
      <trkpt lat="25.720250" lon="-111.259160">
        <ele>73.6</ele>
      </trkpt>
      <trkpt lat="25.720130" lon="-111.258980">
        <ele>74.1</ele>
      </trkpt>
      <trkpt lat="25.720020" lon="-111.258850">
        <ele>74.5</ele>
      </trkpt>
      <trkpt lat="25.719830" lon="-111.258710">
        <ele>76.9</ele>
      </trkpt>
      <trkpt lat="25.719610" lon="-111.258590">
        <ele>77.9</ele>
      </trkpt>
      <trkpt lat="25.719310" lon="-111.258380">
        <ele>79.3</ele>
      </trkpt>
      <trkpt lat="25.719160" lon="-111.258220">
        <ele>81.7</ele>
      </trkpt>
      <trkpt lat="25.718880" lon="-111.257850">
        <ele>84.6</ele>
      </trkpt>
      <trkpt lat="25.718680" lon="-111.257620">
        <ele>84.2</ele>
      </trkpt>
      <trkpt lat="25.718530" lon="-111.257510">
        <ele>81.5</ele>
      </trkpt>
      <trkpt lat="25.718400" lon="-111.257460">
        <ele>79.4</ele>
      </trkpt>
      <trkpt lat="25.718240" lon="-111.257420">
        <ele>79.4</ele>
      </trkpt>
      <trkpt lat="25.717780" lon="-111.257410">
        <ele>78.1</ele>
      </trkpt>
      <trkpt lat="25.717540" lon="-111.257400">
        <ele>77.7</ele>
      </trkpt>
      <trkpt lat="25.717190" lon="-111.257290">
        <ele>88.1</ele>
      </trkpt>
      <trkpt lat="25.716960" lon="-111.257230">
        <ele>94.1</ele>
      </trkpt>
      <trkpt lat="25.716760" lon="-111.257240">
        <ele>94.8</ele>
      </trkpt>
      <trkpt lat="25.716660" lon="-111.257280">
        <ele>92.7</ele>
      </trkpt>
      <trkpt lat="25.716510" lon="-111.257370">
        <ele>88.4</ele>
      </trkpt>
      <trkpt lat="25.716430" lon="-111.257420">
        <ele>85.8</ele>
      </trkpt>
      <trkpt lat="25.716360" lon="-111.257430">
        <ele>86.0</ele>
      </trkpt>
      <trkpt lat="25.716230" lon="-111.257440">
        <ele>86.9</ele>
      </trkpt>
      <trkpt lat="25.716100" lon="-111.257410">
        <ele>91.0</ele>
      </trkpt>
      <trkpt lat="25.715950" lon="-111.257330">
        <ele>99.6</ele>
      </trkpt>
      <trkpt lat="25.715700" lon="-111.257110">
        <ele>116.0</ele>
      </trkpt>
      <trkpt lat="25.715520" lon="-111.256980">
        <ele>120.5</ele>
      </trkpt>
      <trkpt lat="25.715280" lon="-111.256890">
        <ele>118.7</ele>
      </trkpt>
      <trkpt lat="25.715050" lon="-111.256840">
        <ele>113.7</ele>
      </trkpt>
      <trkpt lat="25.714960" lon="-111.256810">
        <ele>112.5</ele>
      </trkpt>
      <trkpt lat="25.714820" lon="-111.256710">
        <ele>114.3</ele>
      </trkpt>
      <trkpt lat="25.714700" lon="-111.256600">
        <ele>115.9</ele>
      </trkpt>
      <trkpt lat="25.714550" lon="-111.256450">
        <ele>117.4</ele>
      </trkpt>
      <trkpt lat="25.714380" lon="-111.256230">
        <ele>120.1</ele>
      </trkpt>
      <trkpt lat="25.714330" lon="-111.256080">
        <ele>123.8</ele>
      </trkpt>
      <trkpt lat="25.714310" lon="-111.255880">
        <ele>130.5</ele>
      </trkpt>
      <trkpt lat="25.714330" lon="-111.255690">
        <ele>133.8</ele>
      </trkpt>
      <trkpt lat="25.714520" lon="-111.255330">
        <ele>141.7</ele>
      </trkpt>
      <trkpt lat="25.714610" lon="-111.255030">
        <ele>144.2</ele>
      </trkpt>
      <trkpt lat="25.714670" lon="-111.254680">
        <ele>146.3</ele>
      </trkpt>
      <trkpt lat="25.714730" lon="-111.254550">
        <ele>146.9</ele>
      </trkpt>
      <trkpt lat="25.714810" lon="-111.254450">
        <ele>147.0</ele>
      </trkpt>
      <trkpt lat="25.715130" lon="-111.254200">
        <ele>149.6</ele>
      </trkpt>
      <trkpt lat="25.715300" lon="-111.254020">
        <ele>153.6</ele>
      </trkpt>
      <trkpt lat="25.715620" lon="-111.253600">
        <ele>152.8</ele>
      </trkpt>
      <trkpt lat="25.716070" lon="-111.252970">
        <ele>148.2</ele>
      </trkpt>
      <trkpt lat="25.716130" lon="-111.252790">
        <ele>148.2</ele>
      </trkpt>
      <trkpt lat="25.716130" lon="-111.252590">
        <ele>147.4</ele>
      </trkpt>
      <trkpt lat="25.716090" lon="-111.252410">
        <ele>148.3</ele>
      </trkpt>
      <trkpt lat="25.716030" lon="-111.252260">
        <ele>150.4</ele>
      </trkpt>
      <trkpt lat="25.715860" lon="-111.252020">
        <ele>152.3</ele>
      </trkpt>
      <trkpt lat="25.715770" lon="-111.251860">
        <ele>154.6</ele>
      </trkpt>
      <trkpt lat="25.715670" lon="-111.251640">
        <ele>157.5</ele>
      </trkpt>
      <trkpt lat="25.715520" lon="-111.251150">
        <ele>163.4</ele>
      </trkpt>
      <trkpt lat="25.715450" lon="-111.250970">
        <ele>164.5</ele>
      </trkpt>
      <trkpt lat="25.715400" lon="-111.250880">
        <ele>164.4</ele>
      </trkpt>
      <trkpt lat="25.715240" lon="-111.250620">
        <ele>165.5</ele>
      </trkpt>
      <trkpt lat="25.715120" lon="-111.250380">
        <ele>166.6</ele>
      </trkpt>
      <trkpt lat="25.714920" lon="-111.249880">
        <ele>169.8</ele>
      </trkpt>
      <trkpt lat="25.714710" lon="-111.249430">
        <ele>173.6</ele>
      </trkpt>
      <trkpt lat="25.714460" lon="-111.249160">
        <ele>173.8</ele>
      </trkpt>
      <trkpt lat="25.714090" lon="-111.248830">
        <ele>181.4</ele>
      </trkpt>
      <trkpt lat="25.713720" lon="-111.248500">
        <ele>190.3</ele>
      </trkpt>
      <trkpt lat="25.713430" lon="-111.248320">
        <ele>190.5</ele>
      </trkpt>
      <trkpt lat="25.713290" lon="-111.248270">
        <ele>191.6</ele>
      </trkpt>
      <trkpt lat="25.713130" lon="-111.248270">
        <ele>193.4</ele>
      </trkpt>
      <trkpt lat="25.713010" lon="-111.248310">
        <ele>193.9</ele>
      </trkpt>
      <trkpt lat="25.712920" lon="-111.248400">
        <ele>195.0</ele>
      </trkpt>
      <trkpt lat="25.712840" lon="-111.248560">
        <ele>197.9</ele>
      </trkpt>
      <trkpt lat="25.712840" lon="-111.248770">
        <ele>200.0</ele>
      </trkpt>
      <trkpt lat="25.712870" lon="-111.248920">
        <ele>200.8</ele>
      </trkpt>
      <trkpt lat="25.712940" lon="-111.249020">
        <ele>199.5</ele>
      </trkpt>
      <trkpt lat="25.713260" lon="-111.249300">
        <ele>191.0</ele>
      </trkpt>
      <trkpt lat="25.713360" lon="-111.249440">
        <ele>189.2</ele>
      </trkpt>
      <trkpt lat="25.713410" lon="-111.249570">
        <ele>188.8</ele>
      </trkpt>
      <trkpt lat="25.713440" lon="-111.250260">
        <ele>197.3</ele>
      </trkpt>
      <trkpt lat="25.713460" lon="-111.250330">
        <ele>197.9</ele>
      </trkpt>
      <trkpt lat="25.713560" lon="-111.250530">
        <ele>197.3</ele>
      </trkpt>
      <trkpt lat="25.713910" lon="-111.251140">
        <ele>188.7</ele>
      </trkpt>
      <trkpt lat="25.713970" lon="-111.251370">
        <ele>189.2</ele>
      </trkpt>
      <trkpt lat="25.714030" lon="-111.252160">
        <ele>192.2</ele>
      </trkpt>
      <trkpt lat="25.713990" lon="-111.252300">
        <ele>193.6</ele>
      </trkpt>
      <trkpt lat="25.713920" lon="-111.252430">
        <ele>195.4</ele>
      </trkpt>
      <trkpt lat="25.713870" lon="-111.252480">
        <ele>196.5</ele>
      </trkpt>
      <trkpt lat="25.713780" lon="-111.252540">
        <ele>197.4</ele>
      </trkpt>
      <trkpt lat="25.713620" lon="-111.252560">
        <ele>200.3</ele>
      </trkpt>
      <trkpt lat="25.713220" lon="-111.252510">
        <ele>207.3</ele>
      </trkpt>
      <trkpt lat="25.712700" lon="-111.252370">
        <ele>208.5</ele>
      </trkpt>
      <trkpt lat="25.712560" lon="-111.252300">
        <ele>209.3</ele>
      </trkpt>
      <trkpt lat="25.712470" lon="-111.252180">
        <ele>211.5</ele>
      </trkpt>
      <trkpt lat="25.712410" lon="-111.252040">
        <ele>214.0</ele>
      </trkpt>
      <trkpt lat="25.712400" lon="-111.251880">
        <ele>216.9</ele>
      </trkpt>
      <trkpt lat="25.712450" lon="-111.251520">
        <ele>221.9</ele>
      </trkpt>
      <trkpt lat="25.712580" lon="-111.250890">
        <ele>224.1</ele>
      </trkpt>
      <trkpt lat="25.712570" lon="-111.250720">
        <ele>224.1</ele>
      </trkpt>
      <trkpt lat="25.712550" lon="-111.250540">
        <ele>224.1</ele>
      </trkpt>
      <trkpt lat="25.712360" lon="-111.250050">
        <ele>224.1</ele>
      </trkpt>
      <trkpt lat="25.712280" lon="-111.249780">
        <ele>223.1</ele>
      </trkpt>
      <trkpt lat="25.712150" lon="-111.249010">
        <ele>222.8</ele>
      </trkpt>
      <trkpt lat="25.712080" lon="-111.248840">
        <ele>222.9</ele>
      </trkpt>
      <trkpt lat="25.711950" lon="-111.248700">
        <ele>225.7</ele>
      </trkpt>
      <trkpt lat="25.711630" lon="-111.248440">
        <ele>235.5</ele>
      </trkpt>
      <trkpt lat="25.711540" lon="-111.248330">
        <ele>238.2</ele>
      </trkpt>
      <trkpt lat="25.711380" lon="-111.248050">
        <ele>242.0</ele>
      </trkpt>
      <trkpt lat="25.711050" lon="-111.247240">
        <ele>256.1</ele>
      </trkpt>
      <trkpt lat="25.710990" lon="-111.247030">
        <ele>258.8</ele>
      </trkpt>
      <trkpt lat="25.710980" lon="-111.246920">
        <ele>259.2</ele>
      </trkpt>
      <trkpt lat="25.710980" lon="-111.246790">
        <ele>259.1</ele>
      </trkpt>
      <trkpt lat="25.711000" lon="-111.246670">
        <ele>258.4</ele>
      </trkpt>
      <trkpt lat="25.711050" lon="-111.246460">
        <ele>258.8</ele>
      </trkpt>
      <trkpt lat="25.711110" lon="-111.246040">
        <ele>262.2</ele>
      </trkpt>
      <trkpt lat="25.711070" lon="-111.245810">
        <ele>264.9</ele>
      </trkpt>
      <trkpt lat="25.711020" lon="-111.245690">
        <ele>264.8</ele>
      </trkpt>
      <trkpt lat="25.710950" lon="-111.245580">
        <ele>264.3</ele>
      </trkpt>
      <trkpt lat="25.710830" lon="-111.245460">
        <ele>262.9</ele>
      </trkpt>
      <trkpt lat="25.710550" lon="-111.245310">
        <ele>264.0</ele>
      </trkpt>
      <trkpt lat="25.710040" lon="-111.245100">
        <ele>266.5</ele>
      </trkpt>
      <trkpt lat="25.709520" lon="-111.244900">
        <ele>261.3</ele>
      </trkpt>
      <trkpt lat="25.709260" lon="-111.244740">
        <ele>260.2</ele>
      </trkpt>
      <trkpt lat="25.709060" lon="-111.244570">
        <ele>259.8</ele>
      </trkpt>
      <trkpt lat="25.708780" lon="-111.244240">
        <ele>260.6</ele>
      </trkpt>
      <trkpt lat="25.708580" lon="-111.244040">
        <ele>261.5</ele>
      </trkpt>
      <trkpt lat="25.708410" lon="-111.243920">
        <ele>263.1</ele>
      </trkpt>
      <trkpt lat="25.708190" lon="-111.243820">
        <ele>264.1</ele>
      </trkpt>
      <trkpt lat="25.708020" lon="-111.243790">
        <ele>263.6</ele>
      </trkpt>
      <trkpt lat="25.707710" lon="-111.243800">
        <ele>261.6</ele>
      </trkpt>
      <trkpt lat="25.707630" lon="-111.243800">
        <ele>261.1</ele>
      </trkpt>
      <trkpt lat="25.707550" lon="-111.243780">
        <ele>261.3</ele>
      </trkpt>
      <trkpt lat="25.707420" lon="-111.243720">
        <ele>261.6</ele>
      </trkpt>
      <trkpt lat="25.707110" lon="-111.243520">
        <ele>262.0</ele>
      </trkpt>
      <trkpt lat="25.706810" lon="-111.243280">
        <ele>263.0</ele>
      </trkpt>
      <trkpt lat="25.706630" lon="-111.243180">
        <ele>263.7</ele>
      </trkpt>
      <trkpt lat="25.706180" lon="-111.243030">
        <ele>264.7</ele>
      </trkpt>
      <trkpt lat="25.706030" lon="-111.242960">
        <ele>265.4</ele>
      </trkpt>
      <trkpt lat="25.705660" lon="-111.242680">
        <ele>269.3</ele>
      </trkpt>
      <trkpt lat="25.705470" lon="-111.242560">
        <ele>270.0</ele>
      </trkpt>
      <trkpt lat="25.705040" lon="-111.242420">
        <ele>267.7</ele>
      </trkpt>
      <trkpt lat="25.704830" lon="-111.242330">
        <ele>267.2</ele>
      </trkpt>
      <trkpt lat="25.704690" lon="-111.242240">
        <ele>267.8</ele>
      </trkpt>
      <trkpt lat="25.704430" lon="-111.242010">
        <ele>271.1</ele>
      </trkpt>
      <trkpt lat="25.704320" lon="-111.241920">
        <ele>272.1</ele>
      </trkpt>
      <trkpt lat="25.704180" lon="-111.241840">
        <ele>272.0</ele>
      </trkpt>
      <trkpt lat="25.704030" lon="-111.241790">
        <ele>273.2</ele>
      </trkpt>
      <trkpt lat="25.703710" lon="-111.241750">
        <ele>273.7</ele>
      </trkpt>
      <trkpt lat="25.703430" lon="-111.241690">
        <ele>275.3</ele>
      </trkpt>
      <trkpt lat="25.702750" lon="-111.241440">
        <ele>283.0</ele>
      </trkpt>
      <trkpt lat="25.702520" lon="-111.241400">
        <ele>284.2</ele>
      </trkpt>
      <trkpt lat="25.701930" lon="-111.241370">
        <ele>290.5</ele>
      </trkpt>
      <trkpt lat="25.701350" lon="-111.241350">
        <ele>293.3</ele>
      </trkpt>
      <trkpt lat="25.700900" lon="-111.241300">
        <ele>294.3</ele>
      </trkpt>
      <trkpt lat="25.700630" lon="-111.241240">
        <ele>296.0</ele>
      </trkpt>
      <trkpt lat="25.700000" lon="-111.241050">
        <ele>298.7</ele>
      </trkpt>
      <trkpt lat="25.699810" lon="-111.241020">
        <ele>300.6</ele>
      </trkpt>
      <trkpt lat="25.699620" lon="-111.241030">
        <ele>302.2</ele>
      </trkpt>
      <trkpt lat="25.699420" lon="-111.241060">
        <ele>304.0</ele>
      </trkpt>
      <trkpt lat="25.699140" lon="-111.241170">
        <ele>307.2</ele>
      </trkpt>
      <trkpt lat="25.698970" lon="-111.241270">
        <ele>309.0</ele>
      </trkpt>
      <trkpt lat="25.698770" lon="-111.241440">
        <ele>310.8</ele>
      </trkpt>
      <trkpt lat="25.698530" lon="-111.241620">
        <ele>312.3</ele>
      </trkpt>
      <trkpt lat="25.698260" lon="-111.241760">
        <ele>314.6</ele>
      </trkpt>
      <trkpt lat="25.698130" lon="-111.241800">
        <ele>315.6</ele>
      </trkpt>
      <trkpt lat="25.697910" lon="-111.241830">
        <ele>316.9</ele>
      </trkpt>
      <trkpt lat="25.697760" lon="-111.241820">
        <ele>317.3</ele>
      </trkpt>
      <trkpt lat="25.697530" lon="-111.241780">
        <ele>317.5</ele>
      </trkpt>
      <trkpt lat="25.697060" lon="-111.241580">
        <ele>322.8</ele>
      </trkpt>
      <trkpt lat="25.696590" lon="-111.241390">
        <ele>329.3</ele>
      </trkpt>
      <trkpt lat="25.695970" lon="-111.241120">
        <ele>334.7</ele>
      </trkpt>
      <trkpt lat="25.695550" lon="-111.240940">
        <ele>337.6</ele>
      </trkpt>
      <trkpt lat="25.695280" lon="-111.240870">
        <ele>339.6</ele>
      </trkpt>
      <trkpt lat="25.695050" lon="-111.240850">
        <ele>341.8</ele>
      </trkpt>
      <trkpt lat="25.694750" lon="-111.240880">
        <ele>343.6</ele>
      </trkpt>
      <trkpt lat="25.693920" lon="-111.240990">
        <ele>345.8</ele>
      </trkpt>
      <trkpt lat="25.693920" lon="-111.240990">
        <ele>345.8</ele>
      </trkpt>
      <trkpt lat="25.693260" lon="-111.241060">
        <ele>342.4</ele>
      </trkpt>
      <trkpt lat="25.692990" lon="-111.241050">
        <ele>340.9</ele>
      </trkpt>
      <trkpt lat="25.692770" lon="-111.241010">
        <ele>339.6</ele>
      </trkpt>
      <trkpt lat="25.692530" lon="-111.240930">
        <ele>338.3</ele>
      </trkpt>
      <trkpt lat="25.692160" lon="-111.240740">
        <ele>339.7</ele>
      </trkpt>
      <trkpt lat="25.691570" lon="-111.240370">
        <ele>342.4</ele>
      </trkpt>
      <trkpt lat="25.690970" lon="-111.240010">
        <ele>343.6</ele>
      </trkpt>
      <trkpt lat="25.690440" lon="-111.239720">
        <ele>346.4</ele>
      </trkpt>
      <trkpt lat="25.690080" lon="-111.239600">
        <ele>348.1</ele>
      </trkpt>
      <trkpt lat="25.689680" lon="-111.239500">
        <ele>349.6</ele>
      </trkpt>
      <trkpt lat="25.689440" lon="-111.239500">
        <ele>350.4</ele>
      </trkpt>
      <trkpt lat="25.688960" lon="-111.239540">
        <ele>349.8</ele>
      </trkpt>
      <trkpt lat="25.688480" lon="-111.239580">
        <ele>345.7</ele>
      </trkpt>
      <trkpt lat="25.688030" lon="-111.239640">
        <ele>344.4</ele>
      </trkpt>
      <trkpt lat="25.687580" lon="-111.239700">
        <ele>344.6</ele>
      </trkpt>
      <trkpt lat="25.687350" lon="-111.239690">
        <ele>345.3</ele>
      </trkpt>
      <trkpt lat="25.686850" lon="-111.239630">
        <ele>347.9</ele>
      </trkpt>
      <trkpt lat="25.686340" lon="-111.239570">
        <ele>349.1</ele>
      </trkpt>
      <trkpt lat="25.685960" lon="-111.239560">
        <ele>348.7</ele>
      </trkpt>
      <trkpt lat="25.685760" lon="-111.239600">
        <ele>348.6</ele>
      </trkpt>
      <trkpt lat="25.685610" lon="-111.239650">
        <ele>349.8</ele>
      </trkpt>
      <trkpt lat="25.685500" lon="-111.239700">
        <ele>350.7</ele>
      </trkpt>
      <trkpt lat="25.685240" lon="-111.239890">
        <ele>353.0</ele>
      </trkpt>
      <trkpt lat="25.684890" lon="-111.240230">
        <ele>356.0</ele>
      </trkpt>
      <trkpt lat="25.684540" lon="-111.240570">
        <ele>357.1</ele>
      </trkpt>
      <trkpt lat="25.684350" lon="-111.240710">
        <ele>358.1</ele>
      </trkpt>
      <trkpt lat="25.684130" lon="-111.240830">
        <ele>359.4</ele>
      </trkpt>
      <trkpt lat="25.683860" lon="-111.240940">
        <ele>359.1</ele>
      </trkpt>
      <trkpt lat="25.683560" lon="-111.241020">
        <ele>359.1</ele>
      </trkpt>
      <trkpt lat="25.683170" lon="-111.241080">
        <ele>358.2</ele>
      </trkpt>
      <trkpt lat="25.682510" lon="-111.241150">
        <ele>353.1</ele>
      </trkpt>
      <trkpt lat="25.682130" lon="-111.241180">
        <ele>347.6</ele>
      </trkpt>
      <trkpt lat="25.681870" lon="-111.241160">
        <ele>345.4</ele>
      </trkpt>
      <trkpt lat="25.681590" lon="-111.241080">
        <ele>345.9</ele>
      </trkpt>
      <trkpt lat="25.681350" lon="-111.241010">
        <ele>348.9</ele>
      </trkpt>
      <trkpt lat="25.680780" lon="-111.240790">
        <ele>357.8</ele>
      </trkpt>
      <trkpt lat="25.680640" lon="-111.240760">
        <ele>358.1</ele>
      </trkpt>
      <trkpt lat="25.680520" lon="-111.240760">
        <ele>358.5</ele>
      </trkpt>
      <trkpt lat="25.680420" lon="-111.240780">
        <ele>359.1</ele>
      </trkpt>
      <trkpt lat="25.680290" lon="-111.240820">
        <ele>359.9</ele>
      </trkpt>
      <trkpt lat="25.679720" lon="-111.241140">
        <ele>351.8</ele>
      </trkpt>
      <trkpt lat="25.679530" lon="-111.241220">
        <ele>350.7</ele>
      </trkpt>
      <trkpt lat="25.679370" lon="-111.241260">
        <ele>350.8</ele>
      </trkpt>
      <trkpt lat="25.679240" lon="-111.241270">
        <ele>351.5</ele>
      </trkpt>
      <trkpt lat="25.679060" lon="-111.241260">
        <ele>352.7</ele>
      </trkpt>
      <trkpt lat="25.678890" lon="-111.241220">
        <ele>354.5</ele>
      </trkpt>
      <trkpt lat="25.678720" lon="-111.241170">
        <ele>356.9</ele>
      </trkpt>
      <trkpt lat="25.678220" lon="-111.240940">
        <ele>368.8</ele>
      </trkpt>
    </trkseg>
  </trk>
</gpx>