<?xml version="1.0" encoding="UTF-8"?>
<gpx version="1.1" creator="GPX Segmenter" xmlns="http://www.topografix.com/GPX/1/1">
  <trk>
    <name>Baja - Segment 42 of 49</name>
    <trkseg>
      <trkpt lat="24.266990" lon="-110.956930">
        <ele>153.5</ele>
      </trkpt>
      <trkpt lat="24.266190" lon="-110.956840">
        <ele>151.9</ele>
      </trkpt>
      <trkpt lat="24.265390" lon="-110.956740">
        <ele>149.5</ele>
      </trkpt>
      <trkpt lat="24.264520" lon="-110.956640">
        <ele>148.0</ele>
      </trkpt>
      <trkpt lat="24.263660" lon="-110.956530">
        <ele>149.0</ele>
      </trkpt>
      <trkpt lat="24.262790" lon="-110.956420">
        <ele>150.8</ele>
      </trkpt>
      <trkpt lat="24.261920" lon="-110.956310">
        <ele>150.7</ele>
      </trkpt>
      <trkpt lat="24.261050" lon="-110.956200">
        <ele>149.2</ele>
      </trkpt>
      <trkpt lat="24.260190" lon="-110.956100">
        <ele>147.7</ele>
      </trkpt>
      <trkpt lat="24.259320" lon="-110.955990">
        <ele>144.4</ele>
      </trkpt>
      <trkpt lat="24.258450" lon="-110.955880">
        <ele>141.3</ele>
      </trkpt>
      <trkpt lat="24.257580" lon="-110.955770">
        <ele>139.3</ele>
      </trkpt>
      <trkpt lat="24.256710" lon="-110.955660">
        <ele>138.3</ele>
      </trkpt>
      <trkpt lat="24.255850" lon="-110.955560">
        <ele>139.6</ele>
      </trkpt>
      <trkpt lat="24.255620" lon="-110.955510">
        <ele>141.2</ele>
      </trkpt>
      <trkpt lat="24.255300" lon="-110.955410">
        <ele>143.5</ele>
      </trkpt>
      <trkpt lat="24.254950" lon="-110.955290">
        <ele>145.9</ele>
      </trkpt>
      <trkpt lat="24.254740" lon="-110.955180">
        <ele>145.7</ele>
      </trkpt>
      <trkpt lat="24.253930" lon="-110.954780">
        <ele>143.7</ele>
      </trkpt>
      <trkpt lat="24.253120" lon="-110.954380">
        <ele>141.4</ele>
      </trkpt>
      <trkpt lat="24.252310" lon="-110.953970">
        <ele>143.6</ele>
      </trkpt>
      <trkpt lat="24.251500" lon="-110.953570">
        <ele>144.4</ele>
      </trkpt>
      <trkpt lat="24.250700" lon="-110.953170">
        <ele>143.9</ele>
      </trkpt>
      <trkpt lat="24.250570" lon="-110.953100">
        <ele>143.8</ele>
      </trkpt>
      <trkpt lat="24.249900" lon="-110.952760">
        <ele>143.5</ele>
      </trkpt>
      <trkpt lat="24.249230" lon="-110.952430">
        <ele>144.2</ele>
      </trkpt>
      <trkpt lat="24.248570" lon="-110.952100">
        <ele>148.0</ele>
      </trkpt>
      <trkpt lat="24.247900" lon="-110.951760">
        <ele>151.2</ele>
      </trkpt>
      <trkpt lat="24.247590" lon="-110.951610">
        <ele>152.5</ele>
      </trkpt>
      <trkpt lat="24.247260" lon="-110.951480">
        <ele>152.6</ele>
      </trkpt>
      <trkpt lat="24.246960" lon="-110.951370">
        <ele>152.5</ele>
      </trkpt>
      <trkpt lat="24.246480" lon="-110.951210">
        <ele>151.9</ele>
      </trkpt>
      <trkpt lat="24.246010" lon="-110.951060">
        <ele>150.7</ele>
      </trkpt>
      <trkpt lat="24.245150" lon="-110.950810">
        <ele>147.8</ele>
      </trkpt>
      <trkpt lat="24.244360" lon="-110.950570">
        <ele>150.7</ele>
      </trkpt>
      <trkpt lat="24.243900" lon="-110.950410">
        <ele>151.1</ele>
      </trkpt>
      <trkpt lat="24.243430" lon="-110.950260">
        <ele>149.3</ele>
      </trkpt>
      <trkpt lat="24.242670" lon="-110.950040">
        <ele>146.0</ele>
      </trkpt>
      <trkpt lat="24.242050" lon="-110.949880">
        <ele>144.1</ele>
      </trkpt>
      <trkpt lat="24.241290" lon="-110.949700">
        <ele>144.8</ele>
      </trkpt>
      <trkpt lat="24.241180" lon="-110.949680">
        <ele>144.9</ele>
      </trkpt>
      <trkpt lat="24.240650" lon="-110.949540">
        <ele>145.4</ele>
      </trkpt>
      <trkpt lat="24.240110" lon="-110.949410">
        <ele>146.2</ele>
      </trkpt>
      <trkpt lat="24.239510" lon="-110.949270">
        <ele>146.7</ele>
      </trkpt>
      <trkpt lat="24.238920" lon="-110.949140">
        <ele>146.7</ele>
      </trkpt>
      <trkpt lat="24.238220" lon="-110.948970">
        <ele>146.5</ele>
      </trkpt>
      <trkpt lat="24.237520" lon="-110.948810">
        <ele>147.7</ele>
      </trkpt>
      <trkpt lat="24.236820" lon="-110.948640">
        <ele>150.2</ele>
      </trkpt>
      <trkpt lat="24.235980" lon="-110.948410">
        <ele>151.5</ele>
      </trkpt>
      <trkpt lat="24.235880" lon="-110.948380">
        <ele>151.7</ele>
      </trkpt>
      <trkpt lat="24.235000" lon="-110.948190">
        <ele>153.2</ele>
      </trkpt>
      <trkpt lat="24.234120" lon="-110.947990">
        <ele>153.1</ele>
      </trkpt>
      <trkpt lat="24.234030" lon="-110.947970">
        <ele>153.0</ele>
      </trkpt>
      <trkpt lat="24.233170" lon="-110.947780">
        <ele>153.0</ele>
      </trkpt>
      <trkpt lat="24.232550" lon="-110.947630">
        <ele>156.2</ele>
      </trkpt>
      <trkpt lat="24.231940" lon="-110.947480">
        <ele>155.7</ele>
      </trkpt>
      <trkpt lat="24.231320" lon="-110.947330">
        <ele>155.5</ele>
      </trkpt>
      <trkpt lat="24.230670" lon="-110.947190">
        <ele>156.1</ele>
      </trkpt>
      <trkpt lat="24.230020" lon="-110.947060">
        <ele>156.6</ele>
      </trkpt>
      <trkpt lat="24.229860" lon="-110.947020">
        <ele>157.5</ele>
      </trkpt>
      <trkpt lat="24.229560" lon="-110.946980">
        <ele>159.2</ele>
      </trkpt>
      <trkpt lat="24.229250" lon="-110.946970">
        <ele>160.8</ele>
      </trkpt>
      <trkpt lat="24.229040" lon="-110.946970">
        <ele>161.7</ele>
      </trkpt>
      <trkpt lat="24.228840" lon="-110.946980">
        <ele>162.4</ele>
      </trkpt>
      <trkpt lat="24.228640" lon="-110.947010">
        <ele>162.9</ele>
      </trkpt>
      <trkpt lat="24.228350" lon="-110.947080">
        <ele>163.5</ele>
      </trkpt>
      <trkpt lat="24.227690" lon="-110.947260">
        <ele>160.2</ele>
      </trkpt>
      <trkpt lat="24.227030" lon="-110.947450">
        <ele>161.1</ele>
      </trkpt>
      <trkpt lat="24.226930" lon="-110.947480">
        <ele>161.3</ele>
      </trkpt>
      <trkpt lat="24.226110" lon="-110.947730">
        <ele>162.5</ele>
      </trkpt>
      <trkpt lat="24.225300" lon="-110.947970">
        <ele>164.7</ele>
      </trkpt>
      <trkpt lat="24.224480" lon="-110.948220">
        <ele>167.5</ele>
      </trkpt>
      <trkpt lat="24.223670" lon="-110.948470">
        <ele>172.7</ele>
      </trkpt>
      <trkpt lat="24.222860" lon="-110.948720">
        <ele>180.9</ele>
      </trkpt>
      <trkpt lat="24.222040" lon="-110.948970">
        <ele>185.6</ele>
      </trkpt>
      <trkpt lat="24.221250" lon="-110.949200">
        <ele>189.9</ele>
      </trkpt>
      <trkpt lat="24.220460" lon="-110.949430">
        <ele>195.0</ele>
      </trkpt>
      <trkpt lat="24.219670" lon="-110.949670">
        <ele>194.7</ele>
      </trkpt>
      <trkpt lat="24.219110" lon="-110.949840">
        <ele>195.8</ele>
      </trkpt>
      <trkpt lat="24.218550" lon="-110.950010">
        <ele>193.2</ele>
      </trkpt>
      <trkpt lat="24.218060" lon="-110.950170">
        <ele>190.7</ele>
      </trkpt>
      <trkpt lat="24.217560" lon="-110.950330">
        <ele>188.4</ele>
      </trkpt>
      <trkpt lat="24.217090" lon="-110.950490">
        <ele>188.9</ele>
      </trkpt>
      <trkpt lat="24.216620" lon="-110.950650">
        <ele>190.1</ele>
      </trkpt>
      <trkpt lat="24.215890" lon="-110.950870">
        <ele>195.2</ele>
      </trkpt>
      <trkpt lat="24.215560" lon="-110.950960">
        <ele>197.2</ele>
      </trkpt>
      <trkpt lat="24.215210" lon="-110.951050">
        <ele>199.1</ele>
      </trkpt>
      <trkpt lat="24.214750" lon="-110.951110">
        <ele>201.7</ele>
      </trkpt>
      <trkpt lat="24.214240" lon="-110.951140">
        <ele>204.7</ele>
      </trkpt>
      <trkpt lat="24.214020" lon="-110.951120">
        <ele>205.0</ele>
      </trkpt>
      <trkpt lat="24.213340" lon="-110.951050">
        <ele>204.3</ele>
      </trkpt>
      <trkpt lat="24.213100" lon="-110.950990">
        <ele>204.5</ele>
      </trkpt>
      <trkpt lat="24.212760" lon="-110.950900">
        <ele>205.1</ele>
      </trkpt>
      <trkpt lat="24.212400" lon="-110.950790">
        <ele>206.4</ele>
      </trkpt>
      <trkpt lat="24.211720" lon="-110.950540">
        <ele>208.6</ele>
      </trkpt>
      <trkpt lat="24.211050" lon="-110.950300">
        <ele>208.3</ele>
      </trkpt>
      <trkpt lat="24.210380" lon="-110.950060">
        <ele>204.9</ele>
      </trkpt>
      <trkpt lat="24.209890" lon="-110.949890">
        <ele>201.8</ele>
      </trkpt>
      <trkpt lat="24.209400" lon="-110.949730">
        <ele>201.2</ele>
      </trkpt>
      <trkpt lat="24.209340" lon="-110.949710">
        <ele>201.2</ele>
      </trkpt>
      <trkpt lat="24.208630" lon="-110.949460">
        <ele>200.5</ele>
      </trkpt>
      <trkpt lat="24.207930" lon="-110.949210">
        <ele>201.3</ele>
      </trkpt>
      <trkpt lat="24.207230" lon="-110.948950">
        <ele>200.1</ele>
      </trkpt>
      <trkpt lat="24.206540" lon="-110.948730">
        <ele>198.3</ele>
      </trkpt>
      <trkpt lat="24.205770" lon="-110.948460">
        <ele>198.3</ele>
      </trkpt>
      <trkpt lat="24.205000" lon="-110.948180">
        <ele>199.2</ele>
      </trkpt>
      <trkpt lat="24.204230" lon="-110.947900">
        <ele>199.6</ele>
      </trkpt>
      <trkpt lat="24.203460" lon="-110.947630">
        <ele>200.7</ele>
      </trkpt>
      <trkpt lat="24.202690" lon="-110.947350">
        <ele>195.6</ele>
      </trkpt>
      <trkpt lat="24.201920" lon="-110.947080">
        <ele>188.5</ele>
      </trkpt>
      <trkpt lat="24.201440" lon="-110.946920">
        <ele>185.7</ele>
      </trkpt>
      <trkpt lat="24.200950" lon="-110.946770">
        <ele>185.1</ele>
      </trkpt>
      <trkpt lat="24.200290" lon="-110.946540">
        <ele>189.3</ele>
      </trkpt>
      <trkpt lat="24.199630" lon="-110.946310">
        <ele>192.7</ele>
      </trkpt>
      <trkpt lat="24.199440" lon="-110.946240">
        <ele>193.4</ele>
      </trkpt>
      <trkpt lat="24.199240" lon="-110.946170">
        <ele>194.2</ele>
      </trkpt>
      <trkpt lat="24.198640" lon="-110.946040">
        <ele>195.8</ele>
      </trkpt>
      <trkpt lat="24.198200" lon="-110.946000">
        <ele>196.4</ele>
      </trkpt>
      <trkpt lat="24.197560" lon="-110.945960">
        <ele>196.5</ele>
      </trkpt>
      <trkpt lat="24.196930" lon="-110.945920">
        <ele>196.6</ele>
      </trkpt>
      <trkpt lat="24.196300" lon="-110.945890">
        <ele>195.6</ele>
      </trkpt>
      <trkpt lat="24.195680" lon="-110.945870">
        <ele>193.7</ele>
      </trkpt>
      <trkpt lat="24.194780" lon="-110.945840">
        <ele>191.7</ele>
      </trkpt>
      <trkpt lat="24.193890" lon="-110.945820">
        <ele>190.0</ele>
      </trkpt>
      <trkpt lat="24.193000" lon="-110.945790">
        <ele>187.3</ele>
      </trkpt>
      <trkpt lat="24.192100" lon="-110.945770">
        <ele>184.8</ele>
      </trkpt>
      <trkpt lat="24.191410" lon="-110.945740">
        <ele>182.4</ele>
      </trkpt>
      <trkpt lat="24.190730" lon="-110.945710">
        <ele>180.2</ele>
      </trkpt>
      <trkpt lat="24.190040" lon="-110.945680">
        <ele>177.5</ele>
      </trkpt>
      <trkpt lat="24.189350" lon="-110.945650">
        <ele>175.1</ele>
      </trkpt>
      <trkpt lat="24.188550" lon="-110.945610">
        <ele>172.3</ele>
      </trkpt>
      <trkpt lat="24.187760" lon="-110.945600">
        <ele>169.8</ele>
      </trkpt>
      <trkpt lat="24.187120" lon="-110.945600">
        <ele>167.6</ele>
      </trkpt>
      <trkpt lat="24.186490" lon="-110.945590">
        <ele>166.0</ele>
      </trkpt>
      <trkpt lat="24.185610" lon="-110.945550">
        <ele>166.4</ele>
      </trkpt>
      <trkpt lat="24.184740" lon="-110.945500">
        <ele>166.7</ele>
      </trkpt>
      <trkpt lat="24.184130" lon="-110.945460">
        <ele>165.0</ele>
      </trkpt>
      <trkpt lat="24.183510" lon="-110.945440">
        <ele>162.3</ele>
      </trkpt>
      <trkpt lat="24.182890" lon="-110.945430">
        <ele>159.4</ele>
      </trkpt>
      <trkpt lat="24.182270" lon="-110.945420">
        <ele>157.4</ele>
      </trkpt>
      <trkpt lat="24.182060" lon="-110.945390">
        <ele>157.1</ele>
      </trkpt>
      <trkpt lat="24.181860" lon="-110.945340">
        <ele>156.6</ele>
      </trkpt>
      <trkpt lat="24.181690" lon="-110.945280">
        <ele>156.0</ele>
      </trkpt>
      <trkpt lat="24.181470" lon="-110.945140">
        <ele>155.1</ele>
      </trkpt>
      <trkpt lat="24.181180" lon="-110.944910">
        <ele>154.2</ele>
      </trkpt>
      <trkpt lat="24.180950" lon="-110.944610">
        <ele>153.1</ele>
      </trkpt>
      <trkpt lat="24.180720" lon="-110.944160">
        <ele>150.8</ele>
      </trkpt>
      <trkpt lat="24.180480" lon="-110.943700">
        <ele>148.3</ele>
      </trkpt>
      <trkpt lat="24.180060" lon="-110.942850">
        <ele>143.1</ele>
      </trkpt>
      <trkpt lat="24.179640" lon="-110.941990">
        <ele>138.1</ele>
      </trkpt>
      <trkpt lat="24.179220" lon="-110.941130">
        <ele>135.3</ele>
      </trkpt>
      <trkpt lat="24.178800" lon="-110.940270">
        <ele>131.4</ele>
      </trkpt>
      <trkpt lat="24.178380" lon="-110.939420">
        <ele>127.2</ele>
      </trkpt>
      <trkpt lat="24.177960" lon="-110.938560">
        <ele>124.1</ele>
      </trkpt>
      <trkpt lat="24.177540" lon="-110.937700">
        <ele>122.3</ele>
      </trkpt>
      <trkpt lat="24.177120" lon="-110.936840">
        <ele>121.0</ele>
      </trkpt>
      <trkpt lat="24.176700" lon="-110.935990">
        <ele>119.7</ele>
      </trkpt>
      <trkpt lat="24.176280" lon="-110.935130">
        <ele>118.4</ele>
      </trkpt>
      <trkpt lat="24.175860" lon="-110.934270">
        <ele>118.2</ele>
      </trkpt>
      <trkpt lat="24.175450" lon="-110.933410">
        <ele>118.7</ele>
      </trkpt>
      <trkpt lat="24.175030" lon="-110.932560">
        <ele>114.4</ele>
      </trkpt>
      <trkpt lat="24.174610" lon="-110.931700">
        <ele>112.7</ele>
      </trkpt>
      <trkpt lat="24.174190" lon="-110.930840">
        <ele>113.2</ele>
      </trkpt>
      <trkpt lat="24.173770" lon="-110.929980">
        <ele>115.5</ele>
      </trkpt>
      <trkpt lat="24.173350" lon="-110.929120">
        <ele>121.0</ele>
      </trkpt>
      <trkpt lat="24.172930" lon="-110.928270">
        <ele>119.1</ele>
      </trkpt>
      <trkpt lat="24.172510" lon="-110.927410">
        <ele>117.3</ele>
      </trkpt>
      <trkpt lat="24.172090" lon="-110.926550">
        <ele>120.3</ele>
      </trkpt>
      <trkpt lat="24.171840" lon="-110.926050">
        <ele>122.2</ele>
      </trkpt>
      <trkpt lat="24.171580" lon="-110.925540">
        <ele>124.5</ele>
      </trkpt>
      <trkpt lat="24.171400" lon="-110.925270">
        <ele>125.6</ele>
      </trkpt>
      <trkpt lat="24.171170" lon="-110.925020">
        <ele>125.8</ele>
      </trkpt>
      <trkpt lat="24.170910" lon="-110.924790">
        <ele>126.4</ele>
      </trkpt>
      <trkpt lat="24.170680" lon="-110.924630">
        <ele>126.9</ele>
      </trkpt>
      <trkpt lat="24.170280" lon="-110.924450">
        <ele>127.8</ele>
      </trkpt>
      <trkpt lat="24.169460" lon="-110.924190">
        <ele>128.2</ele>
      </trkpt>
      <trkpt lat="24.168630" lon="-110.923920">
        <ele>123.1</ele>
      </trkpt>
      <trkpt lat="24.168030" lon="-110.923730">
        <ele>117.3</ele>
      </trkpt>
      <trkpt lat="24.167420" lon="-110.923540">
        <ele>112.6</ele>
      </trkpt>
      <trkpt lat="24.166820" lon="-110.923360">
        <ele>108.1</ele>
      </trkpt>
      <trkpt lat="24.166200" lon="-110.923170">
        <ele>106.2</ele>
      </trkpt>
      <trkpt lat="24.165570" lon="-110.922990">
        <ele>106.5</ele>
      </trkpt>
      <trkpt lat="24.164730" lon="-110.922740">
        <ele>106.9</ele>
      </trkpt>
      <trkpt lat="24.163880" lon="-110.922480">
        <ele>107.3</ele>
      </trkpt>
      <trkpt lat="24.163030" lon="-110.922230">
        <ele>107.8</ele>
      </trkpt>
      <trkpt lat="24.162280" lon="-110.922000">
        <ele>108.2</ele>
      </trkpt>
      <trkpt lat="24.161520" lon="-110.921780">
        <ele>109.2</ele>
      </trkpt>
      <trkpt lat="24.160760" lon="-110.921550">
        <ele>109.6</ele>
      </trkpt>
      <trkpt lat="24.160000" lon="-110.921330">
        <ele>109.6</ele>
      </trkpt>
      <trkpt lat="24.159240" lon="-110.921100">
        <ele>108.6</ele>
      </trkpt>
      <trkpt lat="24.158490" lon="-110.920870">
        <ele>109.7</ele>
      </trkpt>
      <trkpt lat="24.158270" lon="-110.920790">
        <ele>110.1</ele>
      </trkpt>
      <trkpt lat="24.158060" lon="-110.920680">
        <ele>109.8</ele>
      </trkpt>
      <trkpt lat="24.157920" lon="-110.920590">
        <ele>109.6</ele>
      </trkpt>
      <trkpt lat="24.157600" lon="-110.920290">
        <ele>109.3</ele>
      </trkpt>
      <trkpt lat="24.157460" lon="-110.920070">
        <ele>109.6</ele>
      </trkpt>
      <trkpt lat="24.157320" lon="-110.919810">
        <ele>109.9</ele>
      </trkpt>
      <trkpt lat="24.157230" lon="-110.919520">
        <ele>110.1</ele>
      </trkpt>
      <trkpt lat="24.157190" lon="-110.919220">
        <ele>110.4</ele>
      </trkpt>
      <trkpt lat="24.157190" lon="-110.918930">
        <ele>110.3</ele>
      </trkpt>
      <trkpt lat="24.157230" lon="-110.918620">
        <ele>110.3</ele>
      </trkpt>
      <trkpt lat="24.157350" lon="-110.917790">
        <ele>112.0</ele>
      </trkpt>
      <trkpt lat="24.157480" lon="-110.916950">
        <ele>111.7</ele>
      </trkpt>
      <trkpt lat="24.157610" lon="-110.916120">
        <ele>112.9</ele>
      </trkpt>
      <trkpt lat="24.157760" lon="-110.915250">
        <ele>112.9</ele>
      </trkpt>
      <trkpt lat="24.157910" lon="-110.914380">
        <ele>117.0</ele>
      </trkpt>
      <trkpt lat="24.158040" lon="-110.913680">
        <ele>121.9</ele>
      </trkpt>
      <trkpt lat="24.158180" lon="-110.912760">
        <ele>127.8</ele>
      </trkpt>
      <trkpt lat="24.158250" lon="-110.912160">
        <ele>127.1</ele>
      </trkpt>
      <trkpt lat="24.158320" lon="-110.911770">
        <ele>123.8</ele>
      </trkpt>
      <trkpt lat="24.158420" lon="-110.911250">
        <ele>126.7</ele>
      </trkpt>
      <trkpt lat="24.158520" lon="-110.910730">
        <ele>130.7</ele>
      </trkpt>
      <trkpt lat="24.158580" lon="-110.910380">
        <ele>134.0</ele>
      </trkpt>
      <trkpt lat="24.158620" lon="-110.910130">
        <ele>136.1</ele>
      </trkpt>
      <trkpt lat="24.158670" lon="-110.909530">
        <ele>138.6</ele>
      </trkpt>
      <trkpt lat="24.158680" lon="-110.909330">
        <ele>139.2</ele>
      </trkpt>
      <trkpt lat="24.158680" lon="-110.909150">
        <ele>139.9</ele>
      </trkpt>
      <trkpt lat="24.158660" lon="-110.908860">
        <ele>140.4</ele>
      </trkpt>
      <trkpt lat="24.158640" lon="-110.908440">
        <ele>140.8</ele>
      </trkpt>
      <trkpt lat="24.158640" lon="-110.908180">
        <ele>142.3</ele>
      </trkpt>
      <trkpt lat="24.158650" lon="-110.908040">
        <ele>143.6</ele>
      </trkpt>
      <trkpt lat="24.158680" lon="-110.907910">
        <ele>144.7</ele>
      </trkpt>
      <trkpt lat="24.158750" lon="-110.907780">
        <ele>145.6</ele>
      </trkpt>
      <trkpt lat="24.158820" lon="-110.907690">
        <ele>146.3</ele>
      </trkpt>
      <trkpt lat="24.158930" lon="-110.907590">
        <ele>146.9</ele>
      </trkpt>
      <trkpt lat="24.159480" lon="-110.907220">
        <ele>154.9</ele>
      </trkpt>
      <trkpt lat="24.159700" lon="-110.907050">
        <ele>159.0</ele>
      </trkpt>
      <trkpt lat="24.159900" lon="-110.906860">
        <ele>162.3</ele>
      </trkpt>
      <trkpt lat="24.160120" lon="-110.906610">
        <ele>165.1</ele>
      </trkpt>
      <trkpt lat="24.160300" lon="-110.906380">
        <ele>167.2</ele>
      </trkpt>
      <trkpt lat="24.160660" lon="-110.905890">
        <ele>169.9</ele>
      </trkpt>
      <trkpt lat="24.160800" lon="-110.905720">
        <ele>170.4</ele>
      </trkpt>
      <trkpt lat="24.161030" lon="-110.905400">
        <ele>172.4</ele>
      </trkpt>
      <trkpt lat="24.161110" lon="-110.905270">
        <ele>173.1</ele>
      </trkpt>
      <trkpt lat="24.161180" lon="-110.905130">
        <ele>173.8</ele>
      </trkpt>
      <trkpt lat="24.161230" lon="-110.905000">
        <ele>174.4</ele>
      </trkpt>
      <trkpt lat="24.161260" lon="-110.904870">
        <ele>174.8</ele>
      </trkpt>
      <trkpt lat="24.161280" lon="-110.904710">
        <ele>175.3</ele>
      </trkpt>
      <trkpt lat="24.161280" lon="-110.904430">
        <ele>175.9</ele>
      </trkpt>
      <trkpt lat="24.161230" lon="-110.904140">
        <ele>176.4</ele>
      </trkpt>
      <trkpt lat="24.161070" lon="-110.903670">
        <ele>176.1</ele>
      </trkpt>
      <trkpt lat="24.160750" lon="-110.902830">
        <ele>179.6</ele>
      </trkpt>
      <trkpt lat="24.160430" lon="-110.902000">
        <ele>184.1</ele>
      </trkpt>
      <trkpt lat="24.160110" lon="-110.901170">
        <ele>184.7</ele>
      </trkpt>
      <trkpt lat="24.159790" lon="-110.900340">
        <ele>183.8</ele>
      </trkpt>
      <trkpt lat="24.159470" lon="-110.899510">
        <ele>184.1</ele>
      </trkpt>
      <trkpt lat="24.159150" lon="-110.898680">
        <ele>185.7</ele>
      </trkpt>
      <trkpt lat="24.158860" lon="-110.897910">
        <ele>187.0</ele>
      </trkpt>
      <trkpt lat="24.158570" lon="-110.897150">
        <ele>189.1</ele>
      </trkpt>
      <trkpt lat="24.158280" lon="-110.896380">
        <ele>192.2</ele>
      </trkpt>
      <trkpt lat="24.158010" lon="-110.895710">
        <ele>193.1</ele>
      </trkpt>
      <trkpt lat="24.157740" lon="-110.895040">
        <ele>190.7</ele>
      </trkpt>
      <trkpt lat="24.157500" lon="-110.894390">
        <ele>188.5</ele>
      </trkpt>
      <trkpt lat="24.157280" lon="-110.893820">
        <ele>187.7</ele>
      </trkpt>
      <trkpt lat="24.157070" lon="-110.893250">
        <ele>189.2</ele>
      </trkpt>
      <trkpt lat="24.156990" lon="-110.892960">
        <ele>192.0</ele>
      </trkpt>
      <trkpt lat="24.156920" lon="-110.892700">
        <ele>194.4</ele>
      </trkpt>
      <trkpt lat="24.156890" lon="-110.892460">
        <ele>196.3</ele>
      </trkpt>
      <trkpt lat="24.156880" lon="-110.892300">
        <ele>196.9</ele>
      </trkpt>
      <trkpt lat="24.156880" lon="-110.892120">
        <ele>197.5</ele>
      </trkpt>
      <trkpt lat="24.156880" lon="-110.891940">
        <ele>198.1</ele>
      </trkpt>
      <trkpt lat="24.156910" lon="-110.891640">
        <ele>198.9</ele>
      </trkpt>
      <trkpt lat="24.156950" lon="-110.891420">
        <ele>198.0</ele>
      </trkpt>
      <trkpt lat="24.157030" lon="-110.891130">
        <ele>197.2</ele>
      </trkpt>
      <trkpt lat="24.157130" lon="-110.890860">
        <ele>196.9</ele>
      </trkpt>
      <trkpt lat="24.157260" lon="-110.890530">
        <ele>197.3</ele>
      </trkpt>
      <trkpt lat="24.157410" lon="-110.890110">
        <ele>197.7</ele>
      </trkpt>
      <trkpt lat="24.157490" lon="-110.889820">
        <ele>196.9</ele>
      </trkpt>
      <trkpt lat="24.157540" lon="-110.889590">
        <ele>195.6</ele>
      </trkpt>
      <trkpt lat="24.157590" lon="-110.889200">
        <ele>193.5</ele>
      </trkpt>
      <trkpt lat="24.157600" lon="-110.889000">
        <ele>193.3</ele>
      </trkpt>
      <trkpt lat="24.157600" lon="-110.888770">
        <ele>193.3</ele>
      </trkpt>
      <trkpt lat="24.157590" lon="-110.888480">
        <ele>193.2</ele>
      </trkpt>
      <trkpt lat="24.157500" lon="-110.887890">
        <ele>193.0</ele>
      </trkpt>
      <trkpt lat="24.157360" lon="-110.887050">
        <ele>194.3</ele>
      </trkpt>
      <trkpt lat="24.157200" lon="-110.886100">
        <ele>191.9</ele>
      </trkpt>
      <trkpt lat="24.157040" lon="-110.885150">
        <ele>188.4</ele>
      </trkpt>
      <trkpt lat="24.156880" lon="-110.884200">
        <ele>186.1</ele>
      </trkpt>
      <trkpt lat="24.156710" lon="-110.883260">
        <ele>182.3</ele>
      </trkpt>
      <trkpt lat="24.156550" lon="-110.882310">
        <ele>178.7</ele>
      </trkpt>
      <trkpt lat="24.156390" lon="-110.881360">
        <ele>174.7</ele>
      </trkpt>
      <trkpt lat="24.156220" lon="-110.880410">
        <ele>173.2</ele>
      </trkpt>
      <trkpt lat="24.156060" lon="-110.879460">
        <ele>171.9</ele>
      </trkpt>
      <trkpt lat="24.155900" lon="-110.878510">
        <ele>170.3</ele>
      </trkpt>
      <trkpt lat="24.155740" lon="-110.877560">
        <ele>170.1</ele>
      </trkpt>
      <trkpt lat="24.155570" lon="-110.876620">
        <ele>170.7</ele>
      </trkpt>
      <trkpt lat="24.155410" lon="-110.875670">
        <ele>171.3</ele>
      </trkpt>
      <trkpt lat="24.155250" lon="-110.874720">
        <ele>172.6</ele>
      </trkpt>
      <trkpt lat="24.155090" lon="-110.873770">
        <ele>173.0</ele>
      </trkpt>
      <trkpt lat="24.154920" lon="-110.872820">
        <ele>173.9</ele>
      </trkpt>
      <trkpt lat="24.154760" lon="-110.871890">
        <ele>173.8</ele>
      </trkpt>
      <trkpt lat="24.154590" lon="-110.870960">
        <ele>174.8</ele>
      </trkpt>
      <trkpt lat="24.154430" lon="-110.870030">
        <ele>181.8</ele>
      </trkpt>
      <trkpt lat="24.154270" lon="-110.869100">
        <ele>189.4</ele>
      </trkpt>
      <trkpt lat="24.154110" lon="-110.868180">
        <ele>187.8</ele>
      </trkpt>
      <trkpt lat="24.153950" lon="-110.867250">
        <ele>190.9</ele>
      </trkpt>
      <trkpt lat="24.153890" lon="-110.866840">
        <ele>195.1</ele>
      </trkpt>
      <trkpt lat="24.153890" lon="-110.866680">
        <ele>196.9</ele>
      </trkpt>
      <trkpt lat="24.153900" lon="-110.866560">
        <ele>197.4</ele>
      </trkpt>
      <trkpt lat="24.153930" lon="-110.866420">
        <ele>198.1</ele>
      </trkpt>
      <trkpt lat="24.153960" lon="-110.866310">
        <ele>198.7</ele>
      </trkpt>
      <trkpt lat="24.154010" lon="-110.866210">
        <ele>199.5</ele>
      </trkpt>
      <trkpt lat="24.154440" lon="-110.865460">
        <ele>205.0</ele>
      </trkpt>
      <trkpt lat="24.154680" lon="-110.864970">
        <ele>205.4</ele>
      </trkpt>
      <trkpt lat="24.154930" lon="-110.864510">
        <ele>204.8</ele>
      </trkpt>
      <trkpt lat="24.155160" lon="-110.864040">
        <ele>204.2</ele>
      </trkpt>
      <trkpt lat="24.155330" lon="-110.863610">
        <ele>205.1</ele>
      </trkpt>
      <trkpt lat="24.155370" lon="-110.863360">
        <ele>206.8</ele>
      </trkpt>
      <trkpt lat="24.155380" lon="-110.863170">
        <ele>207.0</ele>
      </trkpt>
      <trkpt lat="24.155390" lon="-110.862490">
        <ele>207.2</ele>
      </trkpt>
      <trkpt lat="24.155370" lon="-110.861920">
        <ele>208.7</ele>
      </trkpt>
      <trkpt lat="24.155380" lon="-110.861150">
        <ele>209.3</ele>
      </trkpt>
      <trkpt lat="24.155380" lon="-110.860380">
        <ele>212.3</ele>
      </trkpt>
      <trkpt lat="24.155360" lon="-110.860110">
        <ele>214.0</ele>
      </trkpt>
      <trkpt lat="24.155330" lon="-110.859890">
        <ele>214.7</ele>
      </trkpt>
      <trkpt lat="24.155280" lon="-110.859550">
        <ele>214.7</ele>
      </trkpt>
      <trkpt lat="24.155190" lon="-110.859170">
        <ele>214.4</ele>
      </trkpt>
      <trkpt lat="24.155070" lon="-110.858740">
        <ele>213.0</ele>
      </trkpt>
      <trkpt lat="24.154820" lon="-110.858020">
        <ele>215.3</ele>
      </trkpt>
      <trkpt lat="24.154570" lon="-110.857290">
        <ele>222.8</ele>
      </trkpt>
      <trkpt lat="24.154320" lon="-110.856570">
        <ele>228.5</ele>
      </trkpt>
      <trkpt lat="24.154080" lon="-110.855840">
        <ele>228.8</ele>
      </trkpt>
      <trkpt lat="24.153900" lon="-110.855290">
        <ele>228.3</ele>
      </trkpt>
      <trkpt lat="24.153830" lon="-110.855030">
        <ele>228.4</ele>
      </trkpt>
      <trkpt lat="24.153750" lon="-110.854630">
        <ele>228.7</ele>
      </trkpt>
      <trkpt lat="24.153730" lon="-110.854450">
        <ele>228.9</ele>
      </trkpt>
      <trkpt lat="24.153690" lon="-110.853840">
        <ele>230.7</ele>
      </trkpt>
      <trkpt lat="24.153680" lon="-110.853160">
        <ele>233.2</ele>
      </trkpt>
      <trkpt lat="24.153680" lon="-110.852290">
        <ele>234.4</ele>
      </trkpt>
      <trkpt lat="24.153690" lon="-110.851430">
        <ele>232.4</ele>
      </trkpt>
      <trkpt lat="24.153690" lon="-110.850560">
        <ele>231.5</ele>
      </trkpt>
      <trkpt lat="24.153700" lon="-110.849850">
        <ele>235.2</ele>
      </trkpt>
      <trkpt lat="24.153710" lon="-110.849140">
        <ele>236.8</ele>
      </trkpt>
      <trkpt lat="24.153740" lon="-110.848530">
        <ele>238.1</ele>
      </trkpt>
      <trkpt lat="24.153760" lon="-110.848300">
        <ele>238.4</ele>
      </trkpt>
      <trkpt lat="24.153800" lon="-110.847920">
        <ele>237.1</ele>
      </trkpt>
      <trkpt lat="24.153880" lon="-110.847570">
        <ele>235.9</ele>
      </trkpt>
      <trkpt lat="24.154020" lon="-110.847110">
        <ele>235.0</ele>
      </trkpt>
      <trkpt lat="24.154180" lon="-110.846710">
        <ele>234.9</ele>
      </trkpt>
      <trkpt lat="24.154370" lon="-110.846260">
        <ele>231.8</ele>
      </trkpt>
      <trkpt lat="24.154550" lon="-110.845870">
        <ele>229.4</ele>
      </trkpt>
      <trkpt lat="24.154810" lon="-110.845380">
        <ele>228.0</ele>
      </trkpt>
      <trkpt lat="24.155060" lon="-110.844890">
        <ele>229.0</ele>
      </trkpt>
      <trkpt lat="24.155200" lon="-110.844600">
        <ele>229.0</ele>
      </trkpt>
      <trkpt lat="24.155280" lon="-110.844380">
        <ele>229.3</ele>
      </trkpt>
      <trkpt lat="24.155350" lon="-110.844140">
        <ele>229.9</ele>
      </trkpt>
      <trkpt lat="24.155420" lon="-110.843670">
        <ele>231.4</ele>
      </trkpt>
      <trkpt lat="24.155430" lon="-110.843440">
        <ele>232.6</ele>
      </trkpt>
      <trkpt lat="24.155410" lon="-110.843170">
        <ele>232.8</ele>
      </trkpt>
      <trkpt lat="24.155370" lon="-110.842920">
        <ele>232.5</ele>
      </trkpt>
      <trkpt lat="24.155300" lon="-110.842600">
        <ele>232.4</ele>
      </trkpt>
      <trkpt lat="24.155070" lon="-110.841670">
        <ele>233.7</ele>
      </trkpt>
      <trkpt lat="24.154830" lon="-110.840740">
        <ele>233.6</ele>
      </trkpt>
      <trkpt lat="24.154600" lon="-110.839810">
        <ele>233.0</ele>
      </trkpt>
      <trkpt lat="24.154370" lon="-110.838860">
        <ele>237.1</ele>
      </trkpt>
      <trkpt lat="24.154140" lon="-110.837910">
        <ele>240.9</ele>
      </trkpt>
      <trkpt lat="24.153910" lon="-110.836970">
        <ele>242.8</ele>
      </trkpt>
      <trkpt lat="24.153700" lon="-110.836130">
        <ele>243.5</ele>
      </trkpt>
      <trkpt lat="24.153490" lon="-110.835290">
        <ele>249.4</ele>
      </trkpt>
      <trkpt lat="24.153310" lon="-110.834540">
        <ele>258.0</ele>
      </trkpt>
      <trkpt lat="24.153130" lon="-110.833800">
        <ele>263.0</ele>
      </trkpt>
      <trkpt lat="24.153030" lon="-110.833310">
        <ele>263.8</ele>
      </trkpt>
      <trkpt lat="24.152940" lon="-110.832820">
        <ele>262.3</ele>
      </trkpt>
      <trkpt lat="24.152800" lon="-110.832040">
        <ele>262.9</ele>
      </trkpt>
      <trkpt lat="24.152660" lon="-110.831260">
        <ele>264.1</ele>
      </trkpt>
      <trkpt lat="24.152520" lon="-110.830480">
        <ele>264.5</ele>
      </trkpt>
      <trkpt lat="24.152380" lon="-110.829700">
        <ele>263.2</ele>
      </trkpt>
      <trkpt lat="24.152240" lon="-110.828920">
        <ele>261.4</ele>
      </trkpt>
      <trkpt lat="24.152150" lon="-110.828510">
        <ele>261.8</ele>
      </trkpt>
      <trkpt lat="24.152090" lon="-110.828270">
        <ele>262.2</ele>
      </trkpt>
      <trkpt lat="24.151990" lon="-110.827970">
        <ele>263.6</ele>
      </trkpt>
      <trkpt lat="24.151870" lon="-110.827660">
        <ele>265.3</ele>
      </trkpt>
      <trkpt lat="24.151740" lon="-110.827370">
        <ele>266.2</ele>
      </trkpt>
      <trkpt lat="24.151570" lon="-110.827060">
        <ele>265.5</ele>
      </trkpt>
      <trkpt lat="24.151380" lon="-110.826750">
        <ele>264.9</ele>
      </trkpt>
      <trkpt lat="24.151240" lon="-110.826540">
        <ele>264.3</ele>
      </trkpt>
      <trkpt lat="24.150820" lon="-110.826040">
        <ele>264.5</ele>
      </trkpt>
      <trkpt lat="24.150580" lon="-110.825770">
        <ele>263.0</ele>
      </trkpt>
      <trkpt lat="24.150110" lon="-110.825290">
        <ele>261.7</ele>
      </trkpt>
      <trkpt lat="24.149980" lon="-110.825170">
        <ele>262.0</ele>
      </trkpt>
      <trkpt lat="24.149780" lon="-110.825000">
        <ele>262.5</ele>
      </trkpt>
      <trkpt lat="24.149340" lon="-110.824690">
        <ele>264.3</ele>
      </trkpt>
      <trkpt lat="24.149100" lon="-110.824550">
        <ele>265.8</ele>
      </trkpt>
      <trkpt lat="24.148620" lon="-110.824310">
        <ele>268.7</ele>
      </trkpt>
      <trkpt lat="24.148020" lon="-110.824070">
        <ele>270.2</ele>
      </trkpt>
      <trkpt lat="24.147380" lon="-110.823850">
        <ele>269.9</ele>
      </trkpt>
      <trkpt lat="24.146930" lon="-110.823690">
        <ele>269.8</ele>
      </trkpt>
      <trkpt lat="24.146480" lon="-110.823530">
        <ele>269.4</ele>
      </trkpt>
      <trkpt lat="24.145790" lon="-110.823290">
        <ele>267.1</ele>
      </trkpt>
      <trkpt lat="24.145100" lon="-110.823060">
        <ele>268.7</ele>
      </trkpt>
      <trkpt lat="24.144400" lon="-110.822810">
        <ele>268.4</ele>
      </trkpt>
      <trkpt lat="24.144080" lon="-110.822680">
        <ele>268.2</ele>
      </trkpt>
      <trkpt lat="24.143770" lon="-110.822560">
        <ele>267.9</ele>
      </trkpt>
      <trkpt lat="24.143570" lon="-110.822460">
        <ele>267.3</ele>
      </trkpt>
      <trkpt lat="24.143240" lon="-110.822250">
        <ele>265.9</ele>
      </trkpt>
      <trkpt lat="24.143120" lon="-110.822170">
        <ele>265.8</ele>
      </trkpt>
      <trkpt lat="24.143000" lon="-110.822060">
        <ele>265.7</ele>
      </trkpt>
      <trkpt lat="24.142860" lon="-110.821910">
        <ele>265.8</ele>
      </trkpt>
      <trkpt lat="24.142550" lon="-110.821510">
        <ele>266.9</ele>
      </trkpt>
      <trkpt lat="24.142220" lon="-110.821000">
        <ele>267.9</ele>
      </trkpt>
      <trkpt lat="24.141880" lon="-110.820500">
        <ele>268.5</ele>
      </trkpt>
      <trkpt lat="24.141450" lon="-110.819840">
        <ele>268.2</ele>
      </trkpt>
      <trkpt lat="24.141020" lon="-110.819190">
        <ele>267.6</ele>
      </trkpt>
      <trkpt lat="24.140590" lon="-110.818540">
        <ele>267.8</ele>
      </trkpt>
      <trkpt lat="24.140160" lon="-110.817890">
        <ele>267.1</ele>
      </trkpt>
      <trkpt lat="24.139960" lon="-110.817530">
        <ele>267.8</ele>
      </trkpt>
      <trkpt lat="24.139900" lon="-110.817390">
        <ele>268.0</ele>
      </trkpt>
      <trkpt lat="24.139840" lon="-110.817200">
        <ele>268.4</ele>
      </trkpt>
      <trkpt lat="24.139790" lon="-110.817030">
        <ele>268.8</ele>
      </trkpt>
      <trkpt lat="24.139770" lon="-110.816870">
        <ele>269.2</ele>
      </trkpt>
      <trkpt lat="24.139750" lon="-110.816700">
        <ele>269.7</ele>
      </trkpt>
      <trkpt lat="24.139760" lon="-110.816540">
        <ele>270.1</ele>
      </trkpt>
      <trkpt lat="24.139790" lon="-110.816340">
        <ele>270.7</ele>
      </trkpt>
      <trkpt lat="24.139850" lon="-110.816120">
        <ele>271.5</ele>
      </trkpt>
      <trkpt lat="24.139930" lon="-110.815910">
        <ele>272.4</ele>
      </trkpt>
      <trkpt lat="24.140030" lon="-110.815680">
        <ele>273.3</ele>
      </trkpt>
      <trkpt lat="24.140230" lon="-110.815340">
        <ele>273.7</ele>
      </trkpt>
      <trkpt lat="24.140540" lon="-110.814860">
        <ele>274.4</ele>
      </trkpt>
      <trkpt lat="24.140860" lon="-110.814390">
        <ele>276.6</ele>
      </trkpt>
      <trkpt lat="24.141240" lon="-110.813800">
        <ele>278.1</ele>
      </trkpt>
      <trkpt lat="24.141620" lon="-110.813210">
        <ele>280.2</ele>
      </trkpt>
      <trkpt lat="24.141800" lon="-110.812880">
        <ele>281.4</ele>
      </trkpt>
      <trkpt lat="24.141960" lon="-110.812560">
        <ele>282.9</ele>
      </trkpt>
      <trkpt lat="24.142120" lon="-110.812170">
        <ele>283.8</ele>
      </trkpt>
      <trkpt lat="24.142210" lon="-110.811940">
        <ele>284.4</ele>
      </trkpt>
      <trkpt lat="24.142280" lon="-110.811670">
        <ele>284.9</ele>
      </trkpt>
      <trkpt lat="24.142380" lon="-110.811270">
        <ele>284.7</ele>
      </trkpt>
      <trkpt lat="24.142470" lon="-110.810760">
        <ele>284.0</ele>
      </trkpt>
      <trkpt lat="24.142500" lon="-110.810420">
        <ele>284.0</ele>
      </trkpt>
      <trkpt lat="24.142550" lon="-110.809620">
        <ele>285.8</ele>
      </trkpt>
      <trkpt lat="24.142600" lon="-110.808820">
        <ele>287.1</ele>
      </trkpt>
      <trkpt lat="24.142650" lon="-110.808010">
        <ele>285.9</ele>
      </trkpt>
      <trkpt lat="24.142710" lon="-110.807200">
        <ele>286.3</ele>
      </trkpt>
      <trkpt lat="24.142770" lon="-110.806390">
        <ele>287.2</ele>
      </trkpt>
      <trkpt lat="24.142840" lon="-110.805580">
        <ele>286.3</ele>
      </trkpt>
      <trkpt lat="24.142900" lon="-110.804870">
        <ele>286.0</ele>
      </trkpt>
      <trkpt lat="24.142970" lon="-110.804170">
        <ele>287.9</ele>
      </trkpt>
      <trkpt lat="24.143030" lon="-110.803460">
        <ele>290.1</ele>
      </trkpt>
      <trkpt lat="24.143080" lon="-110.802750">
        <ele>290.4</ele>
      </trkpt>
      <trkpt lat="24.143100" lon="-110.802400">
        <ele>290.4</ele>
      </trkpt>
      <trkpt lat="24.143090" lon="-110.802240">
        <ele>290.4</ele>
      </trkpt>
      <trkpt lat="24.143080" lon="-110.802080">
        <ele>290.4</ele>
      </trkpt>
      <trkpt lat="24.143050" lon="-110.801910">
        <ele>290.5</ele>
      </trkpt>
      <trkpt lat="24.142920" lon="-110.801170">
        <ele>291.4</ele>
      </trkpt>
      <trkpt lat="24.142800" lon="-110.800430">
        <ele>293.0</ele>
      </trkpt>
      <trkpt lat="24.142670" lon="-110.799680">
        <ele>294.8</ele>
      </trkpt>
      <trkpt lat="24.142540" lon="-110.798940">
        <ele>294.9</ele>
      </trkpt>
      <trkpt lat="24.142480" lon="-110.798410">
        <ele>293.1</ele>
      </trkpt>
      <trkpt lat="24.142420" lon="-110.797870">
        <ele>294.9</ele>
      </trkpt>
      <trkpt lat="24.142410" lon="-110.797570">
        <ele>296.5</ele>
      </trkpt>
      <trkpt lat="24.142440" lon="-110.797140">
        <ele>297.7</ele>
      </trkpt>
      <trkpt lat="24.142550" lon="-110.796730">
        <ele>298.6</ele>
      </trkpt>
      <trkpt lat="24.142590" lon="-110.796610">
        <ele>298.6</ele>
      </trkpt>
      <trkpt lat="24.142640" lon="-110.796470">
        <ele>298.5</ele>
      </trkpt>
      <trkpt lat="24.142720" lon="-110.796320">
        <ele>298.4</ele>
      </trkpt>
      <trkpt lat="24.142800" lon="-110.796190">
        <ele>298.4</ele>
      </trkpt>
      <trkpt lat="24.142890" lon="-110.796090">
        <ele>298.4</ele>
      </trkpt>
      <trkpt lat="24.143140" lon="-110.795860">
        <ele>298.9</ele>
      </trkpt>
      <trkpt lat="24.143400" lon="-110.795650">
        <ele>299.7</ele>
      </trkpt>
      <trkpt lat="24.143950" lon="-110.795380">
        <ele>301.9</ele>
      </trkpt>
      <trkpt lat="24.144540" lon="-110.795140">
        <ele>303.7</ele>
      </trkpt>
      <trkpt lat="24.144750" lon="-110.795030">
        <ele>304.3</ele>
      </trkpt>
      <trkpt lat="24.144910" lon="-110.794950">
        <ele>304.9</ele>
      </trkpt>
      <trkpt lat="24.145180" lon="-110.794760">
        <ele>306.3</ele>
      </trkpt>
      <trkpt lat="24.145370" lon="-110.794540">
        <ele>307.4</ele>
      </trkpt>
      <trkpt lat="24.145440" lon="-110.794430">
        <ele>307.8</ele>
      </trkpt>
      <trkpt lat="24.145590" lon="-110.794160">
        <ele>308.4</ele>
      </trkpt>
      <trkpt lat="24.145670" lon="-110.793940">
        <ele>307.8</ele>
      </trkpt>
      <trkpt lat="24.145740" lon="-110.793660">
        <ele>307.2</ele>
      </trkpt>
      <trkpt lat="24.145750" lon="-110.793510">
        <ele>306.8</ele>
      </trkpt>
      <trkpt lat="24.145760" lon="-110.793210">
        <ele>306.7</ele>
      </trkpt>
      <trkpt lat="24.145730" lon="-110.792770">
        <ele>307.7</ele>
      </trkpt>
      <trkpt lat="24.145650" lon="-110.791920">
        <ele>309.2</ele>
      </trkpt>
      <trkpt lat="24.145570" lon="-110.791080">
        <ele>308.5</ele>
      </trkpt>
      <trkpt lat="24.145490" lon="-110.790230">
        <ele>306.3</ele>
      </trkpt>
      <trkpt lat="24.145450" lon="-110.789720">
        <ele>307.5</ele>
      </trkpt>
      <trkpt lat="24.145430" lon="-110.789510">
        <ele>308.8</ele>
      </trkpt>
      <trkpt lat="24.145400" lon="-110.789340">
        <ele>309.8</ele>
      </trkpt>
      <trkpt lat="24.145360" lon="-110.789180">
        <ele>310.5</ele>
      </trkpt>
      <trkpt lat="24.145300" lon="-110.789030">
        <ele>310.0</ele>
      </trkpt>
      <trkpt lat="24.145240" lon="-110.788880">
        <ele>309.8</ele>
      </trkpt>
      <trkpt lat="24.145120" lon="-110.788670">
        <ele>310.1</ele>
      </trkpt>
      <trkpt lat="24.145040" lon="-110.788550">
        <ele>310.8</ele>
      </trkpt>
      <trkpt lat="24.144920" lon="-110.788420">
        <ele>311.6</ele>
      </trkpt>
      <trkpt lat="24.144770" lon="-110.788260">
        <ele>311.1</ele>
      </trkpt>
      <trkpt lat="24.144510" lon="-110.788090">
        <ele>309.5</ele>
      </trkpt>
      <trkpt lat="24.143970" lon="-110.787820">
        <ele>309.3</ele>
      </trkpt>
      <trkpt lat="24.143160" lon="-110.787430">
        <ele>312.4</ele>
      </trkpt>
      <trkpt lat="24.142350" lon="-110.787050">
        <ele>311.8</ele>
      </trkpt>
      <trkpt lat="24.142140" lon="-110.786940">
        <ele>312.5</ele>
      </trkpt>
      <trkpt lat="24.141900" lon="-110.786790">
        <ele>313.7</ele>
      </trkpt>
      <trkpt lat="24.141700" lon="-110.786620">
        <ele>314.8</ele>
      </trkpt>
      <trkpt lat="24.141550" lon="-110.786460">
        <ele>315.0</ele>
      </trkpt>
      <trkpt lat="24.141410" lon="-110.786290">
        <ele>314.9</ele>
      </trkpt>
      <trkpt lat="24.141280" lon="-110.786110">
        <ele>314.5</ele>
      </trkpt>
      <trkpt lat="24.141160" lon="-110.785920">
        <ele>313.7</ele>
      </trkpt>
      <trkpt lat="24.141070" lon="-110.785740">
        <ele>313.4</ele>
      </trkpt>
      <trkpt lat="24.140980" lon="-110.785530">
        <ele>313.5</ele>
      </trkpt>
      <trkpt lat="24.140900" lon="-110.785280">
        <ele>313.7</ele>
      </trkpt>
      <trkpt lat="24.140860" lon="-110.785080">
        <ele>313.9</ele>
      </trkpt>
      <trkpt lat="24.140820" lon="-110.784820">
        <ele>315.1</ele>
      </trkpt>
      <trkpt lat="24.140800" lon="-110.784560">
        <ele>316.7</ele>
      </trkpt>
      <trkpt lat="24.140800" lon="-110.784270">
        <ele>318.5</ele>
      </trkpt>
      <trkpt lat="24.140830" lon="-110.783980">
        <ele>319.7</ele>
      </trkpt>
      <trkpt lat="24.140890" lon="-110.783690">
        <ele>320.6</ele>
      </trkpt>
      <trkpt lat="24.141080" lon="-110.782880">
        <ele>323.2</ele>
      </trkpt>
      <trkpt lat="24.141280" lon="-110.782070">
        <ele>324.9</ele>
      </trkpt>
      <trkpt lat="24.141470" lon="-110.781270">
        <ele>325.3</ele>
      </trkpt>
      <trkpt lat="24.141670" lon="-110.780460">
        <ele>326.4</ele>
      </trkpt>
      <trkpt lat="24.141860" lon="-110.779650">
        <ele>327.1</ele>
      </trkpt>
      <trkpt lat="24.141980" lon="-110.779160">
        <ele>328.5</ele>
      </trkpt>
      <trkpt lat="24.142070" lon="-110.778710">
        <ele>328.0</ele>
      </trkpt>
      <trkpt lat="24.142120" lon="-110.778340">
        <ele>328.2</ele>
      </trkpt>
      <trkpt lat="24.142150" lon="-110.777930">
        <ele>329.2</ele>
      </trkpt>
      <trkpt lat="24.142150" lon="-110.777420">
        <ele>330.0</ele>
      </trkpt>
      <trkpt lat="24.142120" lon="-110.777040">
        <ele>329.4</ele>
      </trkpt>
      <trkpt lat="24.142040" lon="-110.776510">
        <ele>328.4</ele>
      </trkpt>
      <trkpt lat="24.141950" lon="-110.776140">
        <ele>327.2</ele>
      </trkpt>
      <trkpt lat="24.141820" lon="-110.775700">
        <ele>326.0</ele>
      </trkpt>
      <trkpt lat="24.141660" lon="-110.775300">
        <ele>324.5</ele>
      </trkpt>
      <trkpt lat="24.141450" lon="-110.774870">
        <ele>324.0</ele>
      </trkpt>
      <trkpt lat="24.141190" lon="-110.774420">
        <ele>325.3</ele>
      </trkpt>
      <trkpt lat="24.140730" lon="-110.773820">
        <ele>326.0</ele>
      </trkpt>
      <trkpt lat="24.140280" lon="-110.773230">
        <ele>326.4</ele>
      </trkpt>
      <trkpt lat="24.139730" lon="-110.772550">
        <ele>326.0</ele>
      </trkpt>
      <trkpt lat="24.139180" lon="-110.771870">
        <ele>323.3</ele>
      </trkpt>
      <trkpt lat="24.138640" lon="-110.771190">
        <ele>320.3</ele>
      </trkpt>
      <trkpt lat="24.138090" lon="-110.770500">
        <ele>319.7</ele>
      </trkpt>
      <trkpt lat="24.137560" lon="-110.769810">
        <ele>321.1</ele>
      </trkpt>
      <trkpt lat="24.137350" lon="-110.769500">
        <ele>322.7</ele>
      </trkpt>
      <trkpt lat="24.137210" lon="-110.769260">
        <ele>323.8</ele>
      </trkpt>
      <trkpt lat="24.137030" lon="-110.768900">
        <ele>323.6</ele>
      </trkpt>
      <trkpt lat="24.136890" lon="-110.768550">
        <ele>322.8</ele>
      </trkpt>
      <trkpt lat="24.136760" lon="-110.768180">
        <ele>321.6</ele>
      </trkpt>
      <trkpt lat="24.136540" lon="-110.767360">
        <ele>318.0</ele>
      </trkpt>
      <trkpt lat="24.136320" lon="-110.766540">
        <ele>316.3</ele>
      </trkpt>
      <trkpt lat="24.136100" lon="-110.765730">
        <ele>316.0</ele>
      </trkpt>
      <trkpt lat="24.135890" lon="-110.764910">
        <ele>313.3</ele>
      </trkpt>
      <trkpt lat="24.135670" lon="-110.764090">
        <ele>308.7</ele>
      </trkpt>
      <trkpt lat="24.135450" lon="-110.763270">
        <ele>305.5</ele>
      </trkpt>
      <trkpt lat="24.135330" lon="-110.762890">
        <ele>304.9</ele>
      </trkpt>
      <trkpt lat="24.135150" lon="-110.762440">
        <ele>304.2</ele>
      </trkpt>
      <trkpt lat="24.135010" lon="-110.762160">
        <ele>304.4</ele>
      </trkpt>
      <trkpt lat="24.134870" lon="-110.761900">
        <ele>304.0</ele>
      </trkpt>
      <trkpt lat="24.134670" lon="-110.761590">
        <ele>302.3</ele>
      </trkpt>
      <trkpt lat="24.134460" lon="-110.761310">
        <ele>301.0</ele>
      </trkpt>
      <trkpt lat="24.134230" lon="-110.761030">
        <ele>299.9</ele>
      </trkpt>
      <trkpt lat="24.134030" lon="-110.760820">
        <ele>298.7</ele>
      </trkpt>
      <trkpt lat="24.133720" lon="-110.760520">
        <ele>296.5</ele>
      </trkpt>
      <trkpt lat="24.133370" lon="-110.760260">
        <ele>293.7</ele>
      </trkpt>
      <trkpt lat="24.132940" lon="-110.759960">
        <ele>292.9</ele>
      </trkpt>
      <trkpt lat="24.132370" lon="-110.759580">
        <ele>290.1</ele>
      </trkpt>
      <trkpt lat="24.131790" lon="-110.759200">
        <ele>289.0</ele>
      </trkpt>
      <trkpt lat="24.131220" lon="-110.758820">
        <ele>290.7</ele>
      </trkpt>
    </trkseg>
  </trk>
</gpx>