<?xml version="1.0" encoding="UTF-8"?>
<gpx version="1.1" creator="GPX Segmenter" xmlns="http://www.topografix.com/GPX/1/1">
  <trk>
    <name>Baja - Segment 43 of 49</name>
    <trkseg>
      <trkpt lat="24.131220" lon="-110.758820">
        <ele>290.7</ele>
      </trkpt>
      <trkpt lat="24.130520" lon="-110.758350">
        <ele>292.1</ele>
      </trkpt>
      <trkpt lat="24.129830" lon="-110.757890">
        <ele>294.4</ele>
      </trkpt>
      <trkpt lat="24.129140" lon="-110.757430">
        <ele>296.3</ele>
      </trkpt>
      <trkpt lat="24.128450" lon="-110.756960">
        <ele>290.7</ele>
      </trkpt>
      <trkpt lat="24.127760" lon="-110.756500">
        <ele>285.2</ele>
      </trkpt>
      <trkpt lat="24.127040" lon="-110.756030">
        <ele>283.6</ele>
      </trkpt>
      <trkpt lat="24.126330" lon="-110.755550">
        <ele>285.4</ele>
      </trkpt>
      <trkpt lat="24.125610" lon="-110.755080">
        <ele>286.8</ele>
      </trkpt>
      <trkpt lat="24.124900" lon="-110.754600">
        <ele>286.0</ele>
      </trkpt>
      <trkpt lat="24.124170" lon="-110.754120">
        <ele>283.8</ele>
      </trkpt>
      <trkpt lat="24.123450" lon="-110.753630">
        <ele>280.0</ele>
      </trkpt>
      <trkpt lat="24.122720" lon="-110.753150">
        <ele>276.5</ele>
      </trkpt>
      <trkpt lat="24.121960" lon="-110.752630">
        <ele>275.8</ele>
      </trkpt>
      <trkpt lat="24.121200" lon="-110.752120">
        <ele>272.9</ele>
      </trkpt>
      <trkpt lat="24.121030" lon="-110.751980">
        <ele>271.9</ele>
      </trkpt>
      <trkpt lat="24.120400" lon="-110.751460">
        <ele>269.3</ele>
      </trkpt>
      <trkpt lat="24.119760" lon="-110.750930">
        <ele>269.0</ele>
      </trkpt>
      <trkpt lat="24.119130" lon="-110.750400">
        <ele>267.9</ele>
      </trkpt>
      <trkpt lat="24.118590" lon="-110.749940">
        <ele>266.5</ele>
      </trkpt>
      <trkpt lat="24.118040" lon="-110.749480">
        <ele>264.5</ele>
      </trkpt>
      <trkpt lat="24.117500" lon="-110.749020">
        <ele>262.5</ele>
      </trkpt>
      <trkpt lat="24.116960" lon="-110.748550">
        <ele>258.5</ele>
      </trkpt>
      <trkpt lat="24.116500" lon="-110.748170">
        <ele>256.7</ele>
      </trkpt>
      <trkpt lat="24.116030" lon="-110.747800">
        <ele>256.5</ele>
      </trkpt>
      <trkpt lat="24.115380" lon="-110.747250">
        <ele>257.1</ele>
      </trkpt>
      <trkpt lat="24.114740" lon="-110.746710">
        <ele>256.1</ele>
      </trkpt>
      <trkpt lat="24.114090" lon="-110.746170">
        <ele>255.0</ele>
      </trkpt>
      <trkpt lat="24.113740" lon="-110.745870">
        <ele>254.5</ele>
      </trkpt>
      <trkpt lat="24.113290" lon="-110.745500">
        <ele>253.8</ele>
      </trkpt>
      <trkpt lat="24.112600" lon="-110.744910">
        <ele>255.3</ele>
      </trkpt>
      <trkpt lat="24.111910" lon="-110.744320">
        <ele>258.3</ele>
      </trkpt>
      <trkpt lat="24.111220" lon="-110.743730">
        <ele>258.7</ele>
      </trkpt>
      <trkpt lat="24.110560" lon="-110.743180">
        <ele>257.3</ele>
      </trkpt>
      <trkpt lat="24.109900" lon="-110.742630">
        <ele>257.3</ele>
      </trkpt>
      <trkpt lat="24.109240" lon="-110.742070">
        <ele>257.2</ele>
      </trkpt>
      <trkpt lat="24.108580" lon="-110.741520">
        <ele>257.8</ele>
      </trkpt>
      <trkpt lat="24.107920" lon="-110.740970">
        <ele>256.7</ele>
      </trkpt>
      <trkpt lat="24.107270" lon="-110.740410">
        <ele>252.1</ele>
      </trkpt>
      <trkpt lat="24.106610" lon="-110.739860">
        <ele>249.0</ele>
      </trkpt>
      <trkpt lat="24.105950" lon="-110.739310">
        <ele>253.1</ele>
      </trkpt>
      <trkpt lat="24.105290" lon="-110.738750">
        <ele>250.5</ele>
      </trkpt>
      <trkpt lat="24.104740" lon="-110.738280">
        <ele>248.3</ele>
      </trkpt>
      <trkpt lat="24.104200" lon="-110.737830">
        <ele>243.9</ele>
      </trkpt>
      <trkpt lat="24.103660" lon="-110.737380">
        <ele>238.2</ele>
      </trkpt>
      <trkpt lat="24.103120" lon="-110.736930">
        <ele>235.6</ele>
      </trkpt>
      <trkpt lat="24.102580" lon="-110.736470">
        <ele>234.9</ele>
      </trkpt>
      <trkpt lat="24.102290" lon="-110.736200">
        <ele>234.8</ele>
      </trkpt>
      <trkpt lat="24.102170" lon="-110.736060">
        <ele>234.7</ele>
      </trkpt>
      <trkpt lat="24.102030" lon="-110.735870">
        <ele>234.6</ele>
      </trkpt>
      <trkpt lat="24.101820" lon="-110.735560">
        <ele>234.9</ele>
      </trkpt>
      <trkpt lat="24.101630" lon="-110.735200">
        <ele>235.0</ele>
      </trkpt>
      <trkpt lat="24.101470" lon="-110.734760">
        <ele>235.1</ele>
      </trkpt>
      <trkpt lat="24.101280" lon="-110.734060">
        <ele>235.2</ele>
      </trkpt>
      <trkpt lat="24.101090" lon="-110.733360">
        <ele>231.0</ele>
      </trkpt>
      <trkpt lat="24.100890" lon="-110.732660">
        <ele>232.2</ele>
      </trkpt>
      <trkpt lat="24.100680" lon="-110.731900">
        <ele>233.5</ele>
      </trkpt>
      <trkpt lat="24.100480" lon="-110.731140">
        <ele>234.8</ele>
      </trkpt>
      <trkpt lat="24.100270" lon="-110.730380">
        <ele>241.4</ele>
      </trkpt>
      <trkpt lat="24.100180" lon="-110.730110">
        <ele>243.7</ele>
      </trkpt>
      <trkpt lat="24.100100" lon="-110.729880">
        <ele>245.4</ele>
      </trkpt>
      <trkpt lat="24.099990" lon="-110.729690">
        <ele>246.8</ele>
      </trkpt>
      <trkpt lat="24.099840" lon="-110.729460">
        <ele>248.1</ele>
      </trkpt>
      <trkpt lat="24.099400" lon="-110.728850">
        <ele>250.1</ele>
      </trkpt>
      <trkpt lat="24.098950" lon="-110.728240">
        <ele>249.0</ele>
      </trkpt>
      <trkpt lat="24.098550" lon="-110.727700">
        <ele>248.7</ele>
      </trkpt>
      <trkpt lat="24.098150" lon="-110.727160">
        <ele>247.9</ele>
      </trkpt>
      <trkpt lat="24.097760" lon="-110.726630">
        <ele>246.6</ele>
      </trkpt>
      <trkpt lat="24.097360" lon="-110.726100">
        <ele>245.4</ele>
      </trkpt>
      <trkpt lat="24.096960" lon="-110.725580">
        <ele>244.3</ele>
      </trkpt>
      <trkpt lat="24.096570" lon="-110.725060">
        <ele>244.5</ele>
      </trkpt>
      <trkpt lat="24.096070" lon="-110.724390">
        <ele>248.4</ele>
      </trkpt>
      <trkpt lat="24.095580" lon="-110.723720">
        <ele>250.6</ele>
      </trkpt>
      <trkpt lat="24.095080" lon="-110.723050">
        <ele>252.2</ele>
      </trkpt>
      <trkpt lat="24.094590" lon="-110.722390">
        <ele>251.9</ele>
      </trkpt>
      <trkpt lat="24.094040" lon="-110.721660">
        <ele>250.7</ele>
      </trkpt>
      <trkpt lat="24.093500" lon="-110.720930">
        <ele>247.3</ele>
      </trkpt>
      <trkpt lat="24.092960" lon="-110.720200">
        <ele>244.1</ele>
      </trkpt>
      <trkpt lat="24.092410" lon="-110.719470">
        <ele>241.3</ele>
      </trkpt>
      <trkpt lat="24.091920" lon="-110.718800">
        <ele>242.6</ele>
      </trkpt>
      <trkpt lat="24.091420" lon="-110.718140">
        <ele>245.9</ele>
      </trkpt>
      <trkpt lat="24.090930" lon="-110.717470">
        <ele>250.8</ele>
      </trkpt>
      <trkpt lat="24.090430" lon="-110.716800">
        <ele>254.2</ele>
      </trkpt>
      <trkpt lat="24.089940" lon="-110.716130">
        <ele>252.3</ele>
      </trkpt>
      <trkpt lat="24.089440" lon="-110.715460">
        <ele>248.4</ele>
      </trkpt>
      <trkpt lat="24.089220" lon="-110.715120">
        <ele>247.9</ele>
      </trkpt>
      <trkpt lat="24.089070" lon="-110.714860">
        <ele>249.1</ele>
      </trkpt>
      <trkpt lat="24.088940" lon="-110.714600">
        <ele>251.2</ele>
      </trkpt>
      <trkpt lat="24.088820" lon="-110.714280">
        <ele>253.6</ele>
      </trkpt>
      <trkpt lat="24.088720" lon="-110.713990">
        <ele>255.4</ele>
      </trkpt>
      <trkpt lat="24.088620" lon="-110.713620">
        <ele>256.9</ele>
      </trkpt>
      <trkpt lat="24.088530" lon="-110.713240">
        <ele>257.5</ele>
      </trkpt>
      <trkpt lat="24.088480" lon="-110.712780">
        <ele>256.3</ele>
      </trkpt>
      <trkpt lat="24.088450" lon="-110.712180">
        <ele>255.4</ele>
      </trkpt>
      <trkpt lat="24.088470" lon="-110.711630">
        <ele>255.4</ele>
      </trkpt>
      <trkpt lat="24.088550" lon="-110.710920">
        <ele>259.7</ele>
      </trkpt>
      <trkpt lat="24.088620" lon="-110.710220">
        <ele>259.6</ele>
      </trkpt>
      <trkpt lat="24.088700" lon="-110.709520">
        <ele>257.6</ele>
      </trkpt>
      <trkpt lat="24.088790" lon="-110.708710">
        <ele>257.3</ele>
      </trkpt>
      <trkpt lat="24.088890" lon="-110.707910">
        <ele>256.1</ele>
      </trkpt>
      <trkpt lat="24.088980" lon="-110.707110">
        <ele>254.8</ele>
      </trkpt>
      <trkpt lat="24.089080" lon="-110.706290">
        <ele>256.8</ele>
      </trkpt>
      <trkpt lat="24.089190" lon="-110.705480">
        <ele>260.6</ele>
      </trkpt>
      <trkpt lat="24.089300" lon="-110.704540">
        <ele>262.7</ele>
      </trkpt>
      <trkpt lat="24.089410" lon="-110.703590">
        <ele>263.4</ele>
      </trkpt>
      <trkpt lat="24.089520" lon="-110.702650">
        <ele>261.7</ele>
      </trkpt>
      <trkpt lat="24.089630" lon="-110.701700">
        <ele>264.7</ele>
      </trkpt>
      <trkpt lat="24.089740" lon="-110.700760">
        <ele>271.9</ele>
      </trkpt>
      <trkpt lat="24.089850" lon="-110.699820">
        <ele>272.5</ele>
      </trkpt>
      <trkpt lat="24.089960" lon="-110.698870">
        <ele>267.3</ele>
      </trkpt>
      <trkpt lat="24.090070" lon="-110.697930">
        <ele>263.2</ele>
      </trkpt>
      <trkpt lat="24.090170" lon="-110.697100">
        <ele>264.1</ele>
      </trkpt>
      <trkpt lat="24.090270" lon="-110.696280">
        <ele>266.0</ele>
      </trkpt>
      <trkpt lat="24.090370" lon="-110.695460">
        <ele>263.8</ele>
      </trkpt>
      <trkpt lat="24.090460" lon="-110.694640">
        <ele>261.3</ele>
      </trkpt>
      <trkpt lat="24.090560" lon="-110.693810">
        <ele>262.8</ele>
      </trkpt>
      <trkpt lat="24.090640" lon="-110.693140">
        <ele>264.1</ele>
      </trkpt>
      <trkpt lat="24.090710" lon="-110.692460">
        <ele>262.6</ele>
      </trkpt>
      <trkpt lat="24.090820" lon="-110.691570">
        <ele>256.7</ele>
      </trkpt>
      <trkpt lat="24.090930" lon="-110.690690">
        <ele>255.5</ele>
      </trkpt>
      <trkpt lat="24.091030" lon="-110.689800">
        <ele>257.4</ele>
      </trkpt>
      <trkpt lat="24.091140" lon="-110.688910">
        <ele>262.3</ele>
      </trkpt>
      <trkpt lat="24.091240" lon="-110.688010">
        <ele>265.7</ele>
      </trkpt>
      <trkpt lat="24.091330" lon="-110.687210">
        <ele>264.5</ele>
      </trkpt>
      <trkpt lat="24.091430" lon="-110.686410">
        <ele>260.5</ele>
      </trkpt>
      <trkpt lat="24.091530" lon="-110.685610">
        <ele>259.4</ele>
      </trkpt>
      <trkpt lat="24.091620" lon="-110.684810">
        <ele>262.7</ele>
      </trkpt>
      <trkpt lat="24.091720" lon="-110.684010">
        <ele>262.8</ele>
      </trkpt>
      <trkpt lat="24.091820" lon="-110.683140">
        <ele>262.1</ele>
      </trkpt>
      <trkpt lat="24.091920" lon="-110.682260">
        <ele>263.9</ele>
      </trkpt>
      <trkpt lat="24.092020" lon="-110.681390">
        <ele>263.0</ele>
      </trkpt>
      <trkpt lat="24.092120" lon="-110.680520">
        <ele>262.0</ele>
      </trkpt>
      <trkpt lat="24.092210" lon="-110.679790">
        <ele>263.5</ele>
      </trkpt>
      <trkpt lat="24.092300" lon="-110.679070">
        <ele>266.0</ele>
      </trkpt>
      <trkpt lat="24.092380" lon="-110.678350">
        <ele>263.8</ele>
      </trkpt>
      <trkpt lat="24.092490" lon="-110.677470">
        <ele>266.1</ele>
      </trkpt>
      <trkpt lat="24.092590" lon="-110.676600">
        <ele>268.6</ele>
      </trkpt>
      <trkpt lat="24.092690" lon="-110.675730">
        <ele>272.4</ele>
      </trkpt>
      <trkpt lat="24.092790" lon="-110.674860">
        <ele>272.4</ele>
      </trkpt>
      <trkpt lat="24.092900" lon="-110.673990">
        <ele>268.1</ele>
      </trkpt>
      <trkpt lat="24.093000" lon="-110.673120">
        <ele>265.7</ele>
      </trkpt>
      <trkpt lat="24.093100" lon="-110.672250">
        <ele>267.0</ele>
      </trkpt>
      <trkpt lat="24.093210" lon="-110.671380">
        <ele>266.5</ele>
      </trkpt>
      <trkpt lat="24.093300" lon="-110.670560">
        <ele>267.6</ele>
      </trkpt>
      <trkpt lat="24.093390" lon="-110.669750">
        <ele>270.0</ele>
      </trkpt>
      <trkpt lat="24.093470" lon="-110.669080">
        <ele>273.2</ele>
      </trkpt>
      <trkpt lat="24.093560" lon="-110.668410">
        <ele>279.8</ele>
      </trkpt>
      <trkpt lat="24.093640" lon="-110.667740">
        <ele>281.4</ele>
      </trkpt>
      <trkpt lat="24.093730" lon="-110.666950">
        <ele>281.2</ele>
      </trkpt>
      <trkpt lat="24.093810" lon="-110.666170">
        <ele>281.3</ele>
      </trkpt>
      <trkpt lat="24.093910" lon="-110.665400">
        <ele>282.7</ele>
      </trkpt>
      <trkpt lat="24.094010" lon="-110.664640">
        <ele>286.4</ele>
      </trkpt>
      <trkpt lat="24.094110" lon="-110.663870">
        <ele>289.7</ele>
      </trkpt>
      <trkpt lat="24.094170" lon="-110.663330">
        <ele>289.0</ele>
      </trkpt>
      <trkpt lat="24.094220" lon="-110.662800">
        <ele>284.3</ele>
      </trkpt>
      <trkpt lat="24.094320" lon="-110.661980">
        <ele>281.9</ele>
      </trkpt>
      <trkpt lat="24.094410" lon="-110.661150">
        <ele>280.3</ele>
      </trkpt>
      <trkpt lat="24.094510" lon="-110.660330">
        <ele>277.0</ele>
      </trkpt>
      <trkpt lat="24.094610" lon="-110.659510">
        <ele>275.1</ele>
      </trkpt>
      <trkpt lat="24.094700" lon="-110.658680">
        <ele>273.3</ele>
      </trkpt>
      <trkpt lat="24.094810" lon="-110.657790">
        <ele>269.8</ele>
      </trkpt>
      <trkpt lat="24.094920" lon="-110.656910">
        <ele>267.0</ele>
      </trkpt>
      <trkpt lat="24.095010" lon="-110.656140">
        <ele>265.4</ele>
      </trkpt>
      <trkpt lat="24.095100" lon="-110.655360">
        <ele>265.0</ele>
      </trkpt>
      <trkpt lat="24.095190" lon="-110.654590">
        <ele>265.4</ele>
      </trkpt>
      <trkpt lat="24.095300" lon="-110.653630">
        <ele>268.4</ele>
      </trkpt>
      <trkpt lat="24.095410" lon="-110.652660">
        <ele>273.7</ele>
      </trkpt>
      <trkpt lat="24.095530" lon="-110.651690">
        <ele>279.5</ele>
      </trkpt>
      <trkpt lat="24.095640" lon="-110.650720">
        <ele>275.5</ele>
      </trkpt>
      <trkpt lat="24.095760" lon="-110.649750">
        <ele>271.0</ele>
      </trkpt>
      <trkpt lat="24.095870" lon="-110.648790">
        <ele>272.5</ele>
      </trkpt>
      <trkpt lat="24.095990" lon="-110.647820">
        <ele>273.9</ele>
      </trkpt>
      <trkpt lat="24.096100" lon="-110.646850">
        <ele>272.2</ele>
      </trkpt>
      <trkpt lat="24.096220" lon="-110.645880">
        <ele>267.8</ele>
      </trkpt>
      <trkpt lat="24.096330" lon="-110.644910">
        <ele>267.6</ele>
      </trkpt>
      <trkpt lat="24.096310" lon="-110.644570">
        <ele>267.6</ele>
      </trkpt>
      <trkpt lat="24.096280" lon="-110.644310">
        <ele>267.6</ele>
      </trkpt>
      <trkpt lat="24.096240" lon="-110.644130">
        <ele>267.4</ele>
      </trkpt>
      <trkpt lat="24.096200" lon="-110.643870">
        <ele>267.1</ele>
      </trkpt>
      <trkpt lat="24.096140" lon="-110.643610">
        <ele>267.0</ele>
      </trkpt>
      <trkpt lat="24.096040" lon="-110.643330">
        <ele>267.2</ele>
      </trkpt>
      <trkpt lat="24.095830" lon="-110.642860">
        <ele>264.6</ele>
      </trkpt>
      <trkpt lat="24.095470" lon="-110.642290">
        <ele>261.9</ele>
      </trkpt>
      <trkpt lat="24.095100" lon="-110.641710">
        <ele>260.0</ele>
      </trkpt>
      <trkpt lat="24.094740" lon="-110.641130">
        <ele>258.8</ele>
      </trkpt>
      <trkpt lat="24.094320" lon="-110.640550">
        <ele>256.5</ele>
      </trkpt>
      <trkpt lat="24.093900" lon="-110.639960">
        <ele>256.4</ele>
      </trkpt>
      <trkpt lat="24.093370" lon="-110.639210">
        <ele>263.5</ele>
      </trkpt>
      <trkpt lat="24.092850" lon="-110.638470">
        <ele>268.0</ele>
      </trkpt>
      <trkpt lat="24.092320" lon="-110.637720">
        <ele>267.3</ele>
      </trkpt>
      <trkpt lat="24.091790" lon="-110.636980">
        <ele>264.9</ele>
      </trkpt>
      <trkpt lat="24.091270" lon="-110.636240">
        <ele>265.5</ele>
      </trkpt>
      <trkpt lat="24.090740" lon="-110.635490">
        <ele>266.2</ele>
      </trkpt>
      <trkpt lat="24.090330" lon="-110.634920">
        <ele>267.8</ele>
      </trkpt>
      <trkpt lat="24.089910" lon="-110.634360">
        <ele>270.2</ele>
      </trkpt>
      <trkpt lat="24.089370" lon="-110.633580">
        <ele>273.2</ele>
      </trkpt>
      <trkpt lat="24.088830" lon="-110.632810">
        <ele>278.8</ele>
      </trkpt>
      <trkpt lat="24.088290" lon="-110.632030">
        <ele>285.8</ele>
      </trkpt>
      <trkpt lat="24.087740" lon="-110.631260">
        <ele>285.0</ele>
      </trkpt>
      <trkpt lat="24.087250" lon="-110.630560">
        <ele>286.4</ele>
      </trkpt>
      <trkpt lat="24.086750" lon="-110.629860">
        <ele>288.7</ele>
      </trkpt>
      <trkpt lat="24.086250" lon="-110.629150">
        <ele>288.4</ele>
      </trkpt>
      <trkpt lat="24.085760" lon="-110.628450">
        <ele>288.2</ele>
      </trkpt>
      <trkpt lat="24.085260" lon="-110.627750">
        <ele>289.2</ele>
      </trkpt>
      <trkpt lat="24.084760" lon="-110.627050">
        <ele>290.4</ele>
      </trkpt>
      <trkpt lat="24.084260" lon="-110.626340">
        <ele>292.2</ele>
      </trkpt>
      <trkpt lat="24.083770" lon="-110.625640">
        <ele>288.8</ele>
      </trkpt>
      <trkpt lat="24.083270" lon="-110.624940">
        <ele>281.3</ele>
      </trkpt>
      <trkpt lat="24.082770" lon="-110.624240">
        <ele>271.8</ele>
      </trkpt>
      <trkpt lat="24.082290" lon="-110.623610">
        <ele>267.4</ele>
      </trkpt>
      <trkpt lat="24.081960" lon="-110.623150">
        <ele>267.5</ele>
      </trkpt>
      <trkpt lat="24.081620" lon="-110.622700">
        <ele>269.6</ele>
      </trkpt>
      <trkpt lat="24.081210" lon="-110.622110">
        <ele>268.7</ele>
      </trkpt>
      <trkpt lat="24.080800" lon="-110.621520">
        <ele>265.8</ele>
      </trkpt>
      <trkpt lat="24.080380" lon="-110.620930">
        <ele>264.2</ele>
      </trkpt>
      <trkpt lat="24.079980" lon="-110.620370">
        <ele>264.6</ele>
      </trkpt>
      <trkpt lat="24.079580" lon="-110.619800">
        <ele>267.3</ele>
      </trkpt>
      <trkpt lat="24.079130" lon="-110.619190">
        <ele>270.9</ele>
      </trkpt>
      <trkpt lat="24.078820" lon="-110.618740">
        <ele>273.4</ele>
      </trkpt>
      <trkpt lat="24.078510" lon="-110.618300">
        <ele>273.0</ele>
      </trkpt>
      <trkpt lat="24.078050" lon="-110.617630">
        <ele>268.4</ele>
      </trkpt>
      <trkpt lat="24.077600" lon="-110.616960">
        <ele>262.4</ele>
      </trkpt>
      <trkpt lat="24.077140" lon="-110.616330">
        <ele>259.8</ele>
      </trkpt>
      <trkpt lat="24.076740" lon="-110.615770">
        <ele>260.2</ele>
      </trkpt>
      <trkpt lat="24.076190" lon="-110.615000">
        <ele>261.7</ele>
      </trkpt>
      <trkpt lat="24.075630" lon="-110.614230">
        <ele>266.3</ele>
      </trkpt>
      <trkpt lat="24.075190" lon="-110.613580">
        <ele>268.5</ele>
      </trkpt>
      <trkpt lat="24.074660" lon="-110.612850">
        <ele>266.4</ele>
      </trkpt>
      <trkpt lat="24.074140" lon="-110.612120">
        <ele>267.6</ele>
      </trkpt>
      <trkpt lat="24.073630" lon="-110.611400">
        <ele>273.4</ele>
      </trkpt>
      <trkpt lat="24.073120" lon="-110.610670">
        <ele>276.8</ele>
      </trkpt>
      <trkpt lat="24.072640" lon="-110.609990">
        <ele>277.5</ele>
      </trkpt>
      <trkpt lat="24.072150" lon="-110.609310">
        <ele>277.1</ele>
      </trkpt>
      <trkpt lat="24.071660" lon="-110.608620">
        <ele>273.3</ele>
      </trkpt>
      <trkpt lat="24.071180" lon="-110.607940">
        <ele>271.4</ele>
      </trkpt>
      <trkpt lat="24.070690" lon="-110.607260">
        <ele>272.6</ele>
      </trkpt>
      <trkpt lat="24.070210" lon="-110.606570">
        <ele>275.6</ele>
      </trkpt>
      <trkpt lat="24.069720" lon="-110.605890">
        <ele>278.2</ele>
      </trkpt>
      <trkpt lat="24.069270" lon="-110.605240">
        <ele>281.8</ele>
      </trkpt>
      <trkpt lat="24.068810" lon="-110.604600">
        <ele>281.8</ele>
      </trkpt>
      <trkpt lat="24.068360" lon="-110.603950">
        <ele>283.4</ele>
      </trkpt>
      <trkpt lat="24.067910" lon="-110.603300">
        <ele>283.5</ele>
      </trkpt>
      <trkpt lat="24.067460" lon="-110.602650">
        <ele>282.7</ele>
      </trkpt>
      <trkpt lat="24.066920" lon="-110.601890">
        <ele>278.7</ele>
      </trkpt>
      <trkpt lat="24.066380" lon="-110.601130">
        <ele>277.6</ele>
      </trkpt>
      <trkpt lat="24.065840" lon="-110.600370">
        <ele>278.7</ele>
      </trkpt>
      <trkpt lat="24.065300" lon="-110.599610">
        <ele>279.2</ele>
      </trkpt>
      <trkpt lat="24.064760" lon="-110.598850">
        <ele>278.2</ele>
      </trkpt>
      <trkpt lat="24.064220" lon="-110.598090">
        <ele>274.6</ele>
      </trkpt>
      <trkpt lat="24.063680" lon="-110.597330">
        <ele>274.3</ele>
      </trkpt>
      <trkpt lat="24.063140" lon="-110.596570">
        <ele>277.5</ele>
      </trkpt>
      <trkpt lat="24.062610" lon="-110.595810">
        <ele>274.5</ele>
      </trkpt>
      <trkpt lat="24.062070" lon="-110.595050">
        <ele>278.3</ele>
      </trkpt>
      <trkpt lat="24.061530" lon="-110.594290">
        <ele>276.1</ele>
      </trkpt>
      <trkpt lat="24.060990" lon="-110.593530">
        <ele>278.9</ele>
      </trkpt>
      <trkpt lat="24.060450" lon="-110.592770">
        <ele>280.9</ele>
      </trkpt>
      <trkpt lat="24.059910" lon="-110.592010">
        <ele>280.2</ele>
      </trkpt>
      <trkpt lat="24.059370" lon="-110.591250">
        <ele>282.8</ele>
      </trkpt>
      <trkpt lat="24.058830" lon="-110.590490">
        <ele>283.0</ele>
      </trkpt>
      <trkpt lat="24.058290" lon="-110.589730">
        <ele>280.8</ele>
      </trkpt>
      <trkpt lat="24.057760" lon="-110.588970">
        <ele>279.3</ele>
      </trkpt>
      <trkpt lat="24.057240" lon="-110.588240">
        <ele>278.6</ele>
      </trkpt>
      <trkpt lat="24.056720" lon="-110.587520">
        <ele>283.7</ele>
      </trkpt>
      <trkpt lat="24.056200" lon="-110.586800">
        <ele>281.6</ele>
      </trkpt>
      <trkpt lat="24.055770" lon="-110.586170">
        <ele>278.9</ele>
      </trkpt>
      <trkpt lat="24.055340" lon="-110.585550">
        <ele>277.1</ele>
      </trkpt>
      <trkpt lat="24.054910" lon="-110.584920">
        <ele>274.8</ele>
      </trkpt>
      <trkpt lat="24.054420" lon="-110.584230">
        <ele>273.4</ele>
      </trkpt>
      <trkpt lat="24.053930" lon="-110.583550">
        <ele>271.5</ele>
      </trkpt>
      <trkpt lat="24.053430" lon="-110.582860">
        <ele>267.6</ele>
      </trkpt>
      <trkpt lat="24.052940" lon="-110.582170">
        <ele>263.2</ele>
      </trkpt>
      <trkpt lat="24.052450" lon="-110.581480">
        <ele>263.6</ele>
      </trkpt>
      <trkpt lat="24.051980" lon="-110.580780">
        <ele>268.4</ele>
      </trkpt>
      <trkpt lat="24.051820" lon="-110.580520">
        <ele>268.3</ele>
      </trkpt>
      <trkpt lat="24.051730" lon="-110.580320">
        <ele>268.1</ele>
      </trkpt>
      <trkpt lat="24.051680" lon="-110.580100">
        <ele>268.0</ele>
      </trkpt>
      <trkpt lat="24.051650" lon="-110.579880">
        <ele>267.5</ele>
      </trkpt>
      <trkpt lat="24.051660" lon="-110.579670">
        <ele>266.8</ele>
      </trkpt>
      <trkpt lat="24.051700" lon="-110.579440">
        <ele>266.1</ele>
      </trkpt>
      <trkpt lat="24.051770" lon="-110.579230">
        <ele>265.6</ele>
      </trkpt>
      <trkpt lat="24.051930" lon="-110.578950">
        <ele>266.7</ele>
      </trkpt>
      <trkpt lat="24.052120" lon="-110.578750">
        <ele>267.5</ele>
      </trkpt>
      <trkpt lat="24.052740" lon="-110.578220">
        <ele>268.8</ele>
      </trkpt>
      <trkpt lat="24.053360" lon="-110.577700">
        <ele>270.6</ele>
      </trkpt>
      <trkpt lat="24.053980" lon="-110.577170">
        <ele>272.7</ele>
      </trkpt>
      <trkpt lat="24.054600" lon="-110.576640">
        <ele>275.1</ele>
      </trkpt>
      <trkpt lat="24.055220" lon="-110.576110">
        <ele>276.4</ele>
      </trkpt>
      <trkpt lat="24.055840" lon="-110.575590">
        <ele>277.0</ele>
      </trkpt>
      <trkpt lat="24.056160" lon="-110.575310">
        <ele>277.9</ele>
      </trkpt>
      <trkpt lat="24.056790" lon="-110.574780">
        <ele>279.8</ele>
      </trkpt>
      <trkpt lat="24.057420" lon="-110.574260">
        <ele>275.1</ele>
      </trkpt>
      <trkpt lat="24.057850" lon="-110.573870">
        <ele>270.2</ele>
      </trkpt>
      <trkpt lat="24.058280" lon="-110.573470">
        <ele>268.5</ele>
      </trkpt>
      <trkpt lat="24.058390" lon="-110.573330">
        <ele>267.5</ele>
      </trkpt>
      <trkpt lat="24.058470" lon="-110.573200">
        <ele>265.4</ele>
      </trkpt>
      <trkpt lat="24.058520" lon="-110.573070">
        <ele>264.3</ele>
      </trkpt>
      <trkpt lat="24.058560" lon="-110.572920">
        <ele>263.6</ele>
      </trkpt>
      <trkpt lat="24.058560" lon="-110.572800">
        <ele>263.8</ele>
      </trkpt>
      <trkpt lat="24.058540" lon="-110.572690">
        <ele>264.3</ele>
      </trkpt>
      <trkpt lat="24.058480" lon="-110.572510">
        <ele>265.5</ele>
      </trkpt>
      <trkpt lat="24.058370" lon="-110.572330">
        <ele>265.4</ele>
      </trkpt>
      <trkpt lat="24.057860" lon="-110.571610">
        <ele>258.1</ele>
      </trkpt>
      <trkpt lat="24.057750" lon="-110.571460">
        <ele>256.7</ele>
      </trkpt>
      <trkpt lat="24.057560" lon="-110.571260">
        <ele>257.9</ele>
      </trkpt>
      <trkpt lat="24.057160" lon="-110.570930">
        <ele>257.1</ele>
      </trkpt>
      <trkpt lat="24.057010" lon="-110.570840">
        <ele>256.3</ele>
      </trkpt>
      <trkpt lat="24.056820" lon="-110.570750">
        <ele>255.9</ele>
      </trkpt>
      <trkpt lat="24.056630" lon="-110.570680">
        <ele>255.7</ele>
      </trkpt>
      <trkpt lat="24.055770" lon="-110.570480">
        <ele>251.9</ele>
      </trkpt>
      <trkpt lat="24.055140" lon="-110.570390">
        <ele>250.6</ele>
      </trkpt>
      <trkpt lat="24.054710" lon="-110.570310">
        <ele>249.1</ele>
      </trkpt>
      <trkpt lat="24.053960" lon="-110.570080">
        <ele>243.6</ele>
      </trkpt>
      <trkpt lat="24.053710" lon="-110.569990">
        <ele>239.9</ele>
      </trkpt>
      <trkpt lat="24.053500" lon="-110.569880">
        <ele>236.9</ele>
      </trkpt>
      <trkpt lat="24.053360" lon="-110.569770">
        <ele>235.2</ele>
      </trkpt>
      <trkpt lat="24.053250" lon="-110.569620">
        <ele>235.0</ele>
      </trkpt>
      <trkpt lat="24.053170" lon="-110.569470">
        <ele>234.8</ele>
      </trkpt>
      <trkpt lat="24.053110" lon="-110.569300">
        <ele>234.5</ele>
      </trkpt>
      <trkpt lat="24.053100" lon="-110.569120">
        <ele>233.9</ele>
      </trkpt>
      <trkpt lat="24.053120" lon="-110.568920">
        <ele>231.7</ele>
      </trkpt>
      <trkpt lat="24.053180" lon="-110.568720">
        <ele>229.6</ele>
      </trkpt>
      <trkpt lat="24.053280" lon="-110.568540">
        <ele>227.7</ele>
      </trkpt>
      <trkpt lat="24.053430" lon="-110.568390">
        <ele>226.9</ele>
      </trkpt>
      <trkpt lat="24.053640" lon="-110.568210">
        <ele>226.9</ele>
      </trkpt>
      <trkpt lat="24.054320" lon="-110.567700">
        <ele>221.5</ele>
      </trkpt>
      <trkpt lat="24.055000" lon="-110.567190">
        <ele>215.5</ele>
      </trkpt>
      <trkpt lat="24.055670" lon="-110.566680">
        <ele>217.1</ele>
      </trkpt>
      <trkpt lat="24.056350" lon="-110.566170">
        <ele>215.4</ele>
      </trkpt>
      <trkpt lat="24.057030" lon="-110.565650">
        <ele>214.7</ele>
      </trkpt>
      <trkpt lat="24.057490" lon="-110.565320">
        <ele>214.3</ele>
      </trkpt>
      <trkpt lat="24.057960" lon="-110.564980">
        <ele>212.0</ele>
      </trkpt>
      <trkpt lat="24.058460" lon="-110.564580">
        <ele>206.6</ele>
      </trkpt>
      <trkpt lat="24.058950" lon="-110.564190">
        <ele>204.8</ele>
      </trkpt>
      <trkpt lat="24.059440" lon="-110.563860">
        <ele>202.3</ele>
      </trkpt>
      <trkpt lat="24.059930" lon="-110.563520">
        <ele>201.7</ele>
      </trkpt>
      <trkpt lat="24.060050" lon="-110.563420">
        <ele>202.0</ele>
      </trkpt>
      <trkpt lat="24.060230" lon="-110.563250">
        <ele>199.7</ele>
      </trkpt>
      <trkpt lat="24.060350" lon="-110.563100">
        <ele>196.6</ele>
      </trkpt>
      <trkpt lat="24.060670" lon="-110.562620">
        <ele>188.8</ele>
      </trkpt>
      <trkpt lat="24.060920" lon="-110.562160">
        <ele>183.7</ele>
      </trkpt>
      <trkpt lat="24.061160" lon="-110.561740">
        <ele>179.9</ele>
      </trkpt>
      <trkpt lat="24.061300" lon="-110.561540">
        <ele>178.5</ele>
      </trkpt>
      <trkpt lat="24.061520" lon="-110.561280">
        <ele>176.4</ele>
      </trkpt>
      <trkpt lat="24.061760" lon="-110.561040">
        <ele>173.7</ele>
      </trkpt>
      <trkpt lat="24.062010" lon="-110.560860">
        <ele>171.5</ele>
      </trkpt>
      <trkpt lat="24.062220" lon="-110.560740">
        <ele>170.3</ele>
      </trkpt>
      <trkpt lat="24.062430" lon="-110.560640">
        <ele>169.3</ele>
      </trkpt>
      <trkpt lat="24.063230" lon="-110.560300">
        <ele>166.9</ele>
      </trkpt>
      <trkpt lat="24.063890" lon="-110.560030">
        <ele>165.2</ele>
      </trkpt>
      <trkpt lat="24.064550" lon="-110.559770">
        <ele>164.7</ele>
      </trkpt>
      <trkpt lat="24.065350" lon="-110.559410">
        <ele>162.8</ele>
      </trkpt>
      <trkpt lat="24.065610" lon="-110.559240">
        <ele>161.4</ele>
      </trkpt>
      <trkpt lat="24.065820" lon="-110.559080">
        <ele>160.4</ele>
      </trkpt>
      <trkpt lat="24.066000" lon="-110.558940">
        <ele>160.2</ele>
      </trkpt>
      <trkpt lat="24.066200" lon="-110.558720">
        <ele>160.1</ele>
      </trkpt>
      <trkpt lat="24.066380" lon="-110.558480">
        <ele>160.0</ele>
      </trkpt>
      <trkpt lat="24.066510" lon="-110.558260">
        <ele>159.9</ele>
      </trkpt>
      <trkpt lat="24.066630" lon="-110.557990">
        <ele>159.6</ele>
      </trkpt>
      <trkpt lat="24.066740" lon="-110.557680">
        <ele>159.4</ele>
      </trkpt>
      <trkpt lat="24.066980" lon="-110.556880">
        <ele>160.0</ele>
      </trkpt>
      <trkpt lat="24.067220" lon="-110.556080">
        <ele>161.3</ele>
      </trkpt>
      <trkpt lat="24.067450" lon="-110.555280">
        <ele>162.2</ele>
      </trkpt>
      <trkpt lat="24.067620" lon="-110.554660">
        <ele>160.7</ele>
      </trkpt>
      <trkpt lat="24.067790" lon="-110.554050">
        <ele>157.2</ele>
      </trkpt>
      <trkpt lat="24.067970" lon="-110.553460">
        <ele>153.1</ele>
      </trkpt>
      <trkpt lat="24.068150" lon="-110.552860">
        <ele>151.0</ele>
      </trkpt>
      <trkpt lat="24.068270" lon="-110.552490">
        <ele>149.4</ele>
      </trkpt>
      <trkpt lat="24.068370" lon="-110.552260">
        <ele>149.7</ele>
      </trkpt>
      <trkpt lat="24.068500" lon="-110.551980">
        <ele>150.4</ele>
      </trkpt>
      <trkpt lat="24.068700" lon="-110.551580">
        <ele>151.8</ele>
      </trkpt>
      <trkpt lat="24.068940" lon="-110.551180">
        <ele>152.6</ele>
      </trkpt>
      <trkpt lat="24.069340" lon="-110.550610">
        <ele>152.5</ele>
      </trkpt>
      <trkpt lat="24.069730" lon="-110.550050">
        <ele>149.9</ele>
      </trkpt>
      <trkpt lat="24.070130" lon="-110.549480">
        <ele>147.1</ele>
      </trkpt>
      <trkpt lat="24.070610" lon="-110.548790">
        <ele>144.9</ele>
      </trkpt>
      <trkpt lat="24.071090" lon="-110.548100">
        <ele>142.9</ele>
      </trkpt>
      <trkpt lat="24.071570" lon="-110.547410">
        <ele>143.2</ele>
      </trkpt>
      <trkpt lat="24.072050" lon="-110.546710">
        <ele>139.7</ele>
      </trkpt>
      <trkpt lat="24.072520" lon="-110.546020">
        <ele>141.0</ele>
      </trkpt>
      <trkpt lat="24.073000" lon="-110.545330">
        <ele>138.4</ele>
      </trkpt>
      <trkpt lat="24.073480" lon="-110.544640">
        <ele>137.1</ele>
      </trkpt>
      <trkpt lat="24.073960" lon="-110.543950">
        <ele>135.9</ele>
      </trkpt>
      <trkpt lat="24.074440" lon="-110.543250">
        <ele>136.4</ele>
      </trkpt>
      <trkpt lat="24.074920" lon="-110.542560">
        <ele>132.4</ele>
      </trkpt>
      <trkpt lat="24.075390" lon="-110.541860">
        <ele>130.7</ele>
      </trkpt>
      <trkpt lat="24.075870" lon="-110.541170">
        <ele>125.9</ele>
      </trkpt>
      <trkpt lat="24.076330" lon="-110.540500">
        <ele>123.4</ele>
      </trkpt>
      <trkpt lat="24.076780" lon="-110.539830">
        <ele>122.0</ele>
      </trkpt>
      <trkpt lat="24.077300" lon="-110.539070">
        <ele>122.3</ele>
      </trkpt>
      <trkpt lat="24.077820" lon="-110.538310">
        <ele>118.5</ele>
      </trkpt>
      <trkpt lat="24.078340" lon="-110.537550">
        <ele>115.2</ele>
      </trkpt>
      <trkpt lat="24.078860" lon="-110.536790">
        <ele>113.2</ele>
      </trkpt>
      <trkpt lat="24.079380" lon="-110.536040">
        <ele>113.7</ele>
      </trkpt>
      <trkpt lat="24.079900" lon="-110.535280">
        <ele>114.1</ele>
      </trkpt>
      <trkpt lat="24.080420" lon="-110.534520">
        <ele>112.2</ele>
      </trkpt>
      <trkpt lat="24.080940" lon="-110.533760">
        <ele>111.4</ele>
      </trkpt>
      <trkpt lat="24.081460" lon="-110.533000">
        <ele>108.8</ele>
      </trkpt>
      <trkpt lat="24.081980" lon="-110.532240">
        <ele>107.1</ele>
      </trkpt>
      <trkpt lat="24.082500" lon="-110.531490">
        <ele>107.8</ele>
      </trkpt>
      <trkpt lat="24.083030" lon="-110.530730">
        <ele>106.2</ele>
      </trkpt>
      <trkpt lat="24.083550" lon="-110.529970">
        <ele>104.7</ele>
      </trkpt>
      <trkpt lat="24.084070" lon="-110.529210">
        <ele>103.2</ele>
      </trkpt>
      <trkpt lat="24.084590" lon="-110.528450">
        <ele>105.1</ele>
      </trkpt>
      <trkpt lat="24.085110" lon="-110.527690">
        <ele>103.6</ele>
      </trkpt>
      <trkpt lat="24.085630" lon="-110.526930">
        <ele>100.8</ele>
      </trkpt>
      <trkpt lat="24.086150" lon="-110.526180">
        <ele>99.9</ele>
      </trkpt>
      <trkpt lat="24.086670" lon="-110.525420">
        <ele>97.0</ele>
      </trkpt>
      <trkpt lat="24.087190" lon="-110.524660">
        <ele>99.3</ele>
      </trkpt>
      <trkpt lat="24.087710" lon="-110.523900">
        <ele>101.7</ele>
      </trkpt>
      <trkpt lat="24.088230" lon="-110.523140">
        <ele>105.0</ele>
      </trkpt>
      <trkpt lat="24.088750" lon="-110.522380">
        <ele>107.6</ele>
      </trkpt>
      <trkpt lat="24.089160" lon="-110.521770">
        <ele>106.0</ele>
      </trkpt>
      <trkpt lat="24.089580" lon="-110.521160">
        <ele>103.8</ele>
      </trkpt>
      <trkpt lat="24.089990" lon="-110.520540">
        <ele>101.4</ele>
      </trkpt>
      <trkpt lat="24.090400" lon="-110.519930">
        <ele>101.6</ele>
      </trkpt>
      <trkpt lat="24.090930" lon="-110.519160">
        <ele>102.9</ele>
      </trkpt>
      <trkpt lat="24.091450" lon="-110.518400">
        <ele>102.0</ele>
      </trkpt>
      <trkpt lat="24.091980" lon="-110.517640">
        <ele>99.4</ele>
      </trkpt>
      <trkpt lat="24.092500" lon="-110.516870">
        <ele>96.2</ele>
      </trkpt>
      <trkpt lat="24.093030" lon="-110.516110">
        <ele>94.0</ele>
      </trkpt>
      <trkpt lat="24.093550" lon="-110.515340">
        <ele>89.8</ele>
      </trkpt>
      <trkpt lat="24.094080" lon="-110.514580">
        <ele>89.4</ele>
      </trkpt>
      <trkpt lat="24.094610" lon="-110.513810">
        <ele>87.7</ele>
      </trkpt>
      <trkpt lat="24.095130" lon="-110.513050">
        <ele>85.9</ele>
      </trkpt>
      <trkpt lat="24.095660" lon="-110.512280">
        <ele>84.2</ele>
      </trkpt>
      <trkpt lat="24.096180" lon="-110.511520">
        <ele>83.8</ele>
      </trkpt>
      <trkpt lat="24.096710" lon="-110.510760">
        <ele>82.7</ele>
      </trkpt>
      <trkpt lat="24.097200" lon="-110.510030">
        <ele>79.5</ele>
      </trkpt>
      <trkpt lat="24.097700" lon="-110.509310">
        <ele>81.2</ele>
      </trkpt>
      <trkpt lat="24.098190" lon="-110.508580">
        <ele>79.6</ele>
      </trkpt>
      <trkpt lat="24.098690" lon="-110.507860">
        <ele>78.0</ele>
      </trkpt>
      <trkpt lat="24.099180" lon="-110.507130">
        <ele>77.0</ele>
      </trkpt>
      <trkpt lat="24.099600" lon="-110.506530">
        <ele>77.6</ele>
      </trkpt>
      <trkpt lat="24.100020" lon="-110.505930">
        <ele>79.8</ele>
      </trkpt>
      <trkpt lat="24.100440" lon="-110.505330">
        <ele>80.9</ele>
      </trkpt>
      <trkpt lat="24.100860" lon="-110.504730">
        <ele>82.7</ele>
      </trkpt>
      <trkpt lat="24.101310" lon="-110.504070">
        <ele>84.0</ele>
      </trkpt>
      <trkpt lat="24.101760" lon="-110.503410">
        <ele>84.0</ele>
      </trkpt>
      <trkpt lat="24.102200" lon="-110.502750">
        <ele>84.6</ele>
      </trkpt>
      <trkpt lat="24.102650" lon="-110.502090">
        <ele>83.3</ele>
      </trkpt>
      <trkpt lat="24.103100" lon="-110.501440">
        <ele>80.9</ele>
      </trkpt>
      <trkpt lat="24.103550" lon="-110.500780">
        <ele>78.6</ele>
      </trkpt>
      <trkpt lat="24.104060" lon="-110.500040">
        <ele>74.6</ele>
      </trkpt>
      <trkpt lat="24.104560" lon="-110.499300">
        <ele>75.5</ele>
      </trkpt>
      <trkpt lat="24.105070" lon="-110.498560">
        <ele>73.0</ele>
      </trkpt>
      <trkpt lat="24.105570" lon="-110.497830">
        <ele>71.1</ele>
      </trkpt>
      <trkpt lat="24.106080" lon="-110.497090">
        <ele>71.6</ele>
      </trkpt>
      <trkpt lat="24.106580" lon="-110.496350">
        <ele>71.2</ele>
      </trkpt>
      <trkpt lat="24.107090" lon="-110.495610">
        <ele>68.2</ele>
      </trkpt>
      <trkpt lat="24.107610" lon="-110.494870">
        <ele>65.6</ele>
      </trkpt>
      <trkpt lat="24.108120" lon="-110.494130">
        <ele>65.3</ele>
      </trkpt>
      <trkpt lat="24.108530" lon="-110.493550">
        <ele>65.4</ele>
      </trkpt>
      <trkpt lat="24.108930" lon="-110.492970">
        <ele>64.2</ele>
      </trkpt>
      <trkpt lat="24.109330" lon="-110.492390">
        <ele>63.9</ele>
      </trkpt>
      <trkpt lat="24.109690" lon="-110.491850">
        <ele>63.2</ele>
      </trkpt>
      <trkpt lat="24.110050" lon="-110.491320">
        <ele>62.0</ele>
      </trkpt>
      <trkpt lat="24.110420" lon="-110.490790">
        <ele>62.2</ele>
      </trkpt>
      <trkpt lat="24.110880" lon="-110.490110">
        <ele>64.4</ele>
      </trkpt>
      <trkpt lat="24.111340" lon="-110.489440">
        <ele>64.1</ele>
      </trkpt>
      <trkpt lat="24.111800" lon="-110.488760">
        <ele>63.7</ele>
      </trkpt>
      <trkpt lat="24.112270" lon="-110.488090">
        <ele>63.2</ele>
      </trkpt>
      <trkpt lat="24.112730" lon="-110.487420">
        <ele>61.3</ele>
      </trkpt>
      <trkpt lat="24.113190" lon="-110.486740">
        <ele>60.8</ele>
      </trkpt>
      <trkpt lat="24.113610" lon="-110.486120">
        <ele>59.6</ele>
      </trkpt>
      <trkpt lat="24.114030" lon="-110.485510">
        <ele>58.0</ele>
      </trkpt>
      <trkpt lat="24.114550" lon="-110.484750">
        <ele>56.9</ele>
      </trkpt>
      <trkpt lat="24.115060" lon="-110.484000">
        <ele>56.4</ele>
      </trkpt>
      <trkpt lat="24.115580" lon="-110.483250">
        <ele>58.2</ele>
      </trkpt>
      <trkpt lat="24.116100" lon="-110.482500">
        <ele>57.3</ele>
      </trkpt>
      <trkpt lat="24.116550" lon="-110.481840">
        <ele>55.6</ele>
      </trkpt>
      <trkpt lat="24.117000" lon="-110.481190">
        <ele>55.3</ele>
      </trkpt>
      <trkpt lat="24.117440" lon="-110.480530">
        <ele>54.0</ele>
      </trkpt>
      <trkpt lat="24.117890" lon="-110.479880">
        <ele>50.7</ele>
      </trkpt>
      <trkpt lat="24.118190" lon="-110.479460">
        <ele>48.9</ele>
      </trkpt>
      <trkpt lat="24.118360" lon="-110.479200">
        <ele>48.1</ele>
      </trkpt>
      <trkpt lat="24.118720" lon="-110.478650">
        <ele>50.6</ele>
      </trkpt>
      <trkpt lat="24.119220" lon="-110.477940">
        <ele>49.9</ele>
      </trkpt>
      <trkpt lat="24.119720" lon="-110.477220">
        <ele>49.0</ele>
      </trkpt>
      <trkpt lat="24.120070" lon="-110.476690">
        <ele>49.1</ele>
      </trkpt>
      <trkpt lat="24.120420" lon="-110.476150">
        <ele>47.3</ele>
      </trkpt>
      <trkpt lat="24.120770" lon="-110.475620">
        <ele>46.3</ele>
      </trkpt>
      <trkpt lat="24.121110" lon="-110.475000">
        <ele>47.7</ele>
      </trkpt>
      <trkpt lat="24.121450" lon="-110.474380">
        <ele>47.4</ele>
      </trkpt>
      <trkpt lat="24.121620" lon="-110.473920">
        <ele>48.7</ele>
      </trkpt>
      <trkpt lat="24.121730" lon="-110.473430">
        <ele>52.0</ele>
      </trkpt>
      <trkpt lat="24.121840" lon="-110.472950">
        <ele>51.8</ele>
      </trkpt>
      <trkpt lat="24.121850" lon="-110.472180">
        <ele>50.1</ele>
      </trkpt>
      <trkpt lat="24.121870" lon="-110.471410">
        <ele>48.1</ele>
      </trkpt>
      <trkpt lat="24.121800" lon="-110.470440">
        <ele>46.6</ele>
      </trkpt>
      <trkpt lat="24.121740" lon="-110.469470">
        <ele>45.1</ele>
      </trkpt>
      <trkpt lat="24.121670" lon="-110.468500">
        <ele>45.8</ele>
      </trkpt>
      <trkpt lat="24.121600" lon="-110.467530">
        <ele>46.8</ele>
      </trkpt>
      <trkpt lat="24.121540" lon="-110.466550">
        <ele>44.7</ele>
      </trkpt>
      <trkpt lat="24.121470" lon="-110.465580">
        <ele>45.6</ele>
      </trkpt>
    </trkseg>
  </trk>
</gpx>