<?xml version="1.0" encoding="UTF-8"?>
<gpx version="1.1" creator="BikeTerra" xmlns="http://www.topografix.com/GPX/1/1" xmlns:biketerra="https://biketerra.com/xmlns/gpx/1">
    <metadata>
        <name>Lauca Altiplano Sky Climb Chile</name>
        <extensions>
            <biketerra:version>2.0.0</biketerra:version>
            <biketerra:isLoop>false</biketerra:isLoop>
            <biketerra:defaultSurface>asphalt</biketerra:defaultSurface>
        </extensions>
    </metadata>
    <trk>
        <name>Lauca Altiplano Sky Climb Chile</name>
        <trkseg>
            <trkpt lat="-18.1980065" lon="-69.5589491"><ele>3546.38</ele></trkpt>
            <trkpt lat="-18.1974886" lon="-69.5573529"><ele>3553.65</ele></trkpt>
            <trkpt lat="-18.1972802" lon="-69.5567091"><ele>3556.02</ele></trkpt>
            <trkpt lat="-18.1969036" lon="-69.5551954"><ele>3559.99</ele></trkpt>
            <trkpt lat="-18.1968649" lon="-69.5550194"><ele>3560.59</ele></trkpt>
            <trkpt lat="-18.1968683" lon="-69.554743"><ele>3561.75</ele></trkpt>
            <trkpt lat="-18.1968819" lon="-69.5546477"><ele>3562.23</ele></trkpt>
            <trkpt lat="-18.1969597" lon="-69.5544744"><ele>3563.34</ele></trkpt>
            <trkpt lat="-18.197082" lon="-69.5542633"><ele>3565.09</ele></trkpt>
            <trkpt lat="-18.1972288" lon="-69.5540898"><ele>3567.08</ele></trkpt>
            <trkpt lat="-18.1978897" lon="-69.5533684"><ele>3577.06</ele></trkpt>
            <trkpt lat="-18.1979968" lon="-69.5532164"><ele>3579.09</ele></trkpt>
            <trkpt lat="-18.1984498" lon="-69.5524456"><ele>3589.44</ele></trkpt>
            <trkpt lat="-18.1985494" lon="-69.5521862"><ele>3592.71</ele></trkpt>
            <trkpt lat="-18.1985667" lon="-69.5519585"><ele>3595.36</ele></trkpt>
            <trkpt lat="-18.1985292" lon="-69.5514745"><ele>3600.9</ele></trkpt>
            <trkpt lat="-18.1985073" lon="-69.5513236"><ele>3602.62</ele></trkpt>
            <trkpt lat="-18.1983688" lon="-69.5509039"><ele>3607.56</ele></trkpt>
            <trkpt lat="-18.1983178" lon="-69.5507819"><ele>3609.02</ele></trkpt>
            <trkpt lat="-18.1980811" lon="-69.5503628"><ele>3614.31</ele></trkpt>
            <trkpt lat="-18.1977" lon="-69.54976"><ele>3621.88</ele></trkpt>
            <trkpt lat="-18.1973743" lon="-69.5492457"><ele>3627.54</ele></trkpt>
            <trkpt lat="-18.19727" lon="-69.54907"><ele>3629.17</ele></trkpt>
            <trkpt lat="-18.1968698" lon="-69.5483512"><ele>3634.73</ele></trkpt>
            <trkpt lat="-18.1963425" lon="-69.5476098"><ele>3639.07</ele></trkpt>
            <trkpt lat="-18.1962446" lon="-69.5474869"><ele>3639.78</ele></trkpt>
            <trkpt lat="-18.1960829" lon="-69.5473807"><ele>3640.71</ele></trkpt>
            <trkpt lat="-18.1959799" lon="-69.5472755"><ele>3641.45</ele></trkpt>
            <trkpt lat="-18.1956505" lon="-69.546832"><ele>3644.58</ele></trkpt>
            <trkpt lat="-18.1954397" lon="-69.5466005"><ele>3646.61</ele></trkpt>
            <trkpt lat="-18.1950426" lon="-69.5462306"><ele>3650.45</ele></trkpt>
            <trkpt lat="-18.1948409" lon="-69.5460823"><ele>3652.31</ele></trkpt>
            <trkpt lat="-18.194541" lon="-69.546026"><ele>3654.65</ele></trkpt>
            <trkpt lat="-18.1944209" lon="-69.5459775"><ele>3655.64</ele></trkpt>
            <trkpt lat="-18.1940721" lon="-69.5457682"><ele>3658.68</ele></trkpt>
            <trkpt lat="-18.1939606" lon="-69.5456722"><ele>3659.76</ele></trkpt>
            <trkpt lat="-18.1938432" lon="-69.5455277"><ele>3661.08</ele></trkpt>
            <trkpt lat="-18.1937033" lon="-69.5452514"><ele>3663.22</ele></trkpt>
            <trkpt lat="-18.1936658" lon="-69.5452018"><ele>3663.65</ele></trkpt>
            <trkpt lat="-18.1935704" lon="-69.5451775"><ele>3664.36</ele></trkpt>
            <trkpt lat="-18.1933165" lon="-69.5452492"><ele>3666.27</ele></trkpt>
            <trkpt lat="-18.193219" lon="-69.5452554"><ele>3666.99</ele></trkpt>
            <trkpt lat="-18.1930064" lon="-69.5451655"><ele>3668.72</ele></trkpt>
            <trkpt lat="-18.1928445" lon="-69.5450631"><ele>3670.2</ele></trkpt>
            <trkpt lat="-18.1927018" lon="-69.5449499"><ele>3671.65</ele></trkpt>
            <trkpt lat="-18.1923472" lon="-69.5445659"><ele>3675.89</ele></trkpt>
            <trkpt lat="-18.1922415" lon="-69.5444439"><ele>3677.21</ele></trkpt>
            <trkpt lat="-18.192192" lon="-69.5443518"><ele>3678.06</ele></trkpt>
            <trkpt lat="-18.1921346" lon="-69.5441001"><ele>3680.13</ele></trkpt>
            <trkpt lat="-18.1920662" lon="-69.5440153"><ele>3681.01</ele></trkpt>
            <trkpt lat="-18.1919986" lon="-69.5439826"><ele>3681.63</ele></trkpt>
            <trkpt lat="-18.1918852" lon="-69.5440178"><ele>3682.61</ele></trkpt>
            <trkpt lat="-18.1917358" lon="-69.5441861"><ele>3684.38</ele></trkpt>
            <trkpt lat="-18.1916577" lon="-69.5442279"><ele>3685.07</ele></trkpt>
            <trkpt lat="-18.1913999" lon="-69.5441769"><ele>3687.14</ele></trkpt>
            <trkpt lat="-18.1911821" lon="-69.5440696"><ele>3689.03</ele></trkpt>
            <trkpt lat="-18.1910951" lon="-69.5440675"><ele>3689.74</ele></trkpt>
            <trkpt lat="-18.1910446" lon="-69.5441438"><ele>3690.47</ele></trkpt>
            <trkpt lat="-18.1910326" lon="-69.5444805"><ele>3693.13</ele></trkpt>
            <trkpt lat="-18.1909775" lon="-69.5445602"><ele>3693.94</ele></trkpt>
            <trkpt lat="-18.1909153" lon="-69.544586"><ele>3694.54</ele></trkpt>
            <trkpt lat="-18.1907304" lon="-69.544598"><ele>3696.25</ele></trkpt>
            <trkpt lat="-18.1905358" lon="-69.5446361"><ele>3698.19</ele></trkpt>
            <trkpt lat="-18.1904391" lon="-69.5446113"><ele>3699.21</ele></trkpt>
            <trkpt lat="-18.1903169" lon="-69.5445192"><ele>3700.82</ele></trkpt>
            <trkpt lat="-18.1902926" lon="-69.54443"><ele>3701.82</ele></trkpt>
            <trkpt lat="-18.1903576" lon="-69.5441901"><ele>3704.52</ele></trkpt>
            <trkpt lat="-18.1903053" lon="-69.544041"><ele>3706.31</ele></trkpt>
            <trkpt lat="-18.1902146" lon="-69.5439774"><ele>3707.61</ele></trkpt>
            <trkpt lat="-18.1897954" lon="-69.5438146"><ele>3712.98</ele></trkpt>
            <trkpt lat="-18.1896974" lon="-69.5437588"><ele>3714.31</ele></trkpt>
            <trkpt lat="-18.1895646" lon="-69.543608"><ele>3716.62</ele></trkpt>
            <trkpt lat="-18.1895382" lon="-69.5434342"><ele>3718.55</ele></trkpt>
            <trkpt lat="-18.1895581" lon="-69.543263"><ele>3720.38</ele></trkpt>
            <trkpt lat="-18.1896215" lon="-69.5430069"><ele>3723.09</ele></trkpt>
            <trkpt lat="-18.1897155" lon="-69.5427382"><ele>3725.89</ele></trkpt>
            <trkpt lat="-18.1897378" lon="-69.5426367"><ele>3726.88</ele></trkpt>
            <trkpt lat="-18.189749" lon="-69.5424426"><ele>3728.67</ele></trkpt>
            <trkpt lat="-18.1898264" lon="-69.5423196"><ele>3730.01</ele></trkpt>
            <trkpt lat="-18.189972" lon="-69.5422492"><ele>3731.5</ele></trkpt>
            <trkpt lat="-18.1900638" lon="-69.5421533"><ele>3732.68</ele></trkpt>
            <trkpt lat="-18.1901526" lon="-69.5421248"><ele>3733.51</ele></trkpt>
            <trkpt lat="-18.1902933" lon="-69.5421231"><ele>3734.77</ele></trkpt>
            <trkpt lat="-18.1904004" lon="-69.5420781"><ele>3735.79</ele></trkpt>
            <trkpt lat="-18.1904475" lon="-69.542014"><ele>3736.48</ele></trkpt>
            <trkpt lat="-18.1904396" lon="-69.5419146"><ele>3737.32</ele></trkpt>
            <trkpt lat="-18.1903406" lon="-69.541833"><ele>3738.47</ele></trkpt>
            <trkpt lat="-18.1901697" lon="-69.541822"><ele>3740.01</ele></trkpt>
            <trkpt lat="-18.1900606" lon="-69.5417921"><ele>3741.04</ele></trkpt>
            <trkpt lat="-18.1900044" lon="-69.5417274"><ele>3741.8</ele></trkpt>
            <trkpt lat="-18.1899019" lon="-69.5414662"><ele>3744.33</ele></trkpt>
            <trkpt lat="-18.1897726" lon="-69.541361"><ele>3745.92</ele></trkpt>
            <trkpt lat="-18.1892291" lon="-69.5411343"><ele>3751.79</ele></trkpt>
            <trkpt lat="-18.1881591" lon="-69.5406924"><ele>3763.87</ele></trkpt>
            <trkpt lat="-18.1880838" lon="-69.5406537"><ele>3764.77</ele></trkpt>
            <trkpt lat="-18.1880155" lon="-69.5405844"><ele>3765.8</ele></trkpt>
            <trkpt lat="-18.1879298" lon="-69.5404604"><ele>3767.38</ele></trkpt>
            <trkpt lat="-18.187382" lon="-69.5394786"><ele>3779.04</ele></trkpt>
            <trkpt lat="-18.1873085" lon="-69.5393047"><ele>3780.93</ele></trkpt>
            <trkpt lat="-18.1872656" lon="-69.538995"><ele>3783.94</ele></trkpt>
            <trkpt lat="-18.1868971" lon="-69.5377657"><ele>3795.87</ele></trkpt>
            <trkpt lat="-18.1866717" lon="-69.5370154"><ele>3803.59</ele></trkpt>
            <trkpt lat="-18.1865976" lon="-69.5367862"><ele>3806.21</ele></trkpt>
            <trkpt lat="-18.1865359" lon="-69.5366631"><ele>3807.79</ele></trkpt>
            <trkpt lat="-18.1861785" lon="-69.5362531"><ele>3814.55</ele></trkpt>
            <trkpt lat="-18.1859779" lon="-69.5360882"><ele>3817.98</ele></trkpt>
            <trkpt lat="-18.1855081" lon="-69.5357336"><ele>3825.97</ele></trkpt>
            <trkpt lat="-18.1853722" lon="-69.5356832"><ele>3827.96</ele></trkpt>
            <trkpt lat="-18.1852309" lon="-69.5357016"><ele>3829.92</ele></trkpt>
            <trkpt lat="-18.1849743" lon="-69.5358024"><ele>3833.66</ele></trkpt>
            <trkpt lat="-18.184829" lon="-69.5358895"><ele>3835.92</ele></trkpt>
            <trkpt lat="-18.1846401" lon="-69.5360222"><ele>3838.98</ele></trkpt>
            <trkpt lat="-18.1845411" lon="-69.5360625"><ele>3840.4</ele></trkpt>
            <trkpt lat="-18.1841281" lon="-69.5361257"><ele>3845.99</ele></trkpt>
            <trkpt lat="-18.1838598" lon="-69.5361186"><ele>3849.6</ele></trkpt>
            <trkpt lat="-18.1836011" lon="-69.5360612"><ele>3853.18</ele></trkpt>
            <trkpt lat="-18.1834611" lon="-69.5359803"><ele>3855.36</ele></trkpt>
            <trkpt lat="-18.1833162" lon="-69.5357782"><ele>3858.61</ele></trkpt>
            <trkpt lat="-18.1828717" lon="-69.5350738"><ele>3869.23</ele></trkpt>
            <trkpt lat="-18.1826284" lon="-69.5348196"><ele>3873.35</ele></trkpt>
            <trkpt lat="-18.1823015" lon="-69.5346686"><ele>3877.27</ele></trkpt>
            <trkpt lat="-18.1819969" lon="-69.5344462"><ele>3881</ele></trkpt>
            <trkpt lat="-18.1818806" lon="-69.5342949"><ele>3882.72</ele></trkpt>
            <trkpt lat="-18.1818534" lon="-69.5341975"><ele>3883.56</ele></trkpt>
            <trkpt lat="-18.1818625" lon="-69.5340405"><ele>3884.8</ele></trkpt>
            <trkpt lat="-18.1818912" lon="-69.5339426"><ele>3885.57</ele></trkpt>
            <trkpt lat="-18.1820409" lon="-69.5336366"><ele>3887.99</ele></trkpt>
            <trkpt lat="-18.1821058" lon="-69.5334392"><ele>3889.4</ele></trkpt>
            <trkpt lat="-18.1821111" lon="-69.5333303"><ele>3890.12</ele></trkpt>
            <trkpt lat="-18.182081" lon="-69.5332286"><ele>3890.82</ele></trkpt>
            <trkpt lat="-18.1819456" lon="-69.5329268"><ele>3893.02</ele></trkpt>
            <trkpt lat="-18.1816414" lon="-69.5322886"><ele>3898.09</ele></trkpt>
            <trkpt lat="-18.1813803" lon="-69.5317393"><ele>3903.03</ele></trkpt>
            <trkpt lat="-18.1810693" lon="-69.5309685"><ele>3910.19</ele></trkpt>
            <trkpt lat="-18.1810067" lon="-69.5308721"><ele>3911.22</ele></trkpt>
            <trkpt lat="-18.1808295" lon="-69.5306412"><ele>3913.85</ele></trkpt>
            <trkpt lat="-18.1807937" lon="-69.5305553"><ele>3914.68</ele></trkpt>
            <trkpt lat="-18.1807406" lon="-69.5299715"><ele>3919.82</ele></trkpt>
            <trkpt lat="-18.180749" lon="-69.5295963"><ele>3922.98</ele></trkpt>
            <trkpt lat="-18.180701" lon="-69.5291923"><ele>3926.24</ele></trkpt>
            <trkpt lat="-18.1807014" lon="-69.5289572"><ele>3927.99</ele></trkpt>
            <trkpt lat="-18.1808001" lon="-69.5283567"><ele>3932</ele></trkpt>
            <trkpt lat="-18.1808208" lon="-69.5282067"><ele>3932.84</ele></trkpt>
            <trkpt lat="-18.1807443" lon="-69.5281394"><ele>3933.25</ele></trkpt>
            <trkpt lat="-18.18065" lon="-69.5281904"><ele>3933.76</ele></trkpt>
            <trkpt lat="-18.1806019" lon="-69.5285599"><ele>3935.3</ele></trkpt>
            <trkpt lat="-18.1803816" lon="-69.5291303"><ele>3937.64</ele></trkpt>
            <trkpt lat="-18.1803261" lon="-69.5296488"><ele>3939.97</ele></trkpt>
            <trkpt lat="-18.1802428" lon="-69.5297164"><ele>3940.59</ele></trkpt>
            <trkpt lat="-18.1801516" lon="-69.5296525"><ele>3941.3</ele></trkpt>
            <trkpt lat="-18.1800636" lon="-69.52924"><ele>3944.2</ele></trkpt>
            <trkpt lat="-18.1800687" lon="-69.5289263"><ele>3946.79</ele></trkpt>
            <trkpt lat="-18.180155" lon="-69.528455"><ele>3951.57</ele></trkpt>
            <trkpt lat="-18.1802542" lon="-69.5279415"><ele>3957.36</ele></trkpt>
            <trkpt lat="-18.1804526" lon="-69.5274969"><ele>3962.92</ele></trkpt>
            <trkpt lat="-18.1808336" lon="-69.5266724"><ele>3972.96</ele></trkpt>
            <trkpt lat="-18.1809953" lon="-69.5264964"><ele>3975.49</ele></trkpt>
            <trkpt lat="-18.1810855" lon="-69.5263281"><ele>3977.42</ele></trkpt>
            <trkpt lat="-18.1811103" lon="-69.5262096"><ele>3978.6</ele></trkpt>
            <trkpt lat="-18.1811114" lon="-69.5260928"><ele>3979.72</ele></trkpt>
            <trkpt lat="-18.1810692" lon="-69.5257977"><ele>3982.51</ele></trkpt>
            <trkpt lat="-18.1810926" lon="-69.5256569"><ele>3983.84</ele></trkpt>
            <trkpt lat="-18.1811524" lon="-69.5255903"><ele>3984.69</ele></trkpt>
            <trkpt lat="-18.1813084" lon="-69.5254975"><ele>3986.44</ele></trkpt>
            <trkpt lat="-18.181419" lon="-69.5253856"><ele>3987.95</ele></trkpt>
            <trkpt lat="-18.1814954" lon="-69.525283"><ele>3989.19</ele></trkpt>
            <trkpt lat="-18.1815457" lon="-69.5251588"><ele>3990.49</ele></trkpt>
            <trkpt lat="-18.18156" lon="-69.5249064"><ele>3992.97</ele></trkpt>
            <trkpt lat="-18.1815475" lon="-69.5246609"><ele>3995.42</ele></trkpt>
            <trkpt lat="-18.1815067" lon="-69.5245603"><ele>3996.52</ele></trkpt>
            <trkpt lat="-18.1813449" lon="-69.5243156"><ele>3999.5</ele></trkpt>
            <trkpt lat="-18.181187" lon="-69.5242035"><ele>4001.49</ele></trkpt>
            <trkpt lat="-18.180939" lon="-69.524094"><ele>4004.25</ele></trkpt>
            <trkpt lat="-18.1807391" lon="-69.5239602"><ele>4006.62</ele></trkpt>
            <trkpt lat="-18.1807056" lon="-69.5238564"><ele>4007.65</ele></trkpt>
            <trkpt lat="-18.1807171" lon="-69.5237722"><ele>4008.42</ele></trkpt>
            <trkpt lat="-18.1807755" lon="-69.5236708"><ele>4009.48</ele></trkpt>
            <trkpt lat="-18.1810024" lon="-69.5234179"><ele>4012.51</ele></trkpt>
            <trkpt lat="-18.1814567" lon="-69.523007"><ele>4017.78</ele></trkpt>
            <trkpt lat="-18.1815389" lon="-69.5228872"><ele>4018.97</ele></trkpt>
            <trkpt lat="-18.1819238" lon="-69.5221131"><ele>4025.82</ele></trkpt>
            <trkpt lat="-18.181988" lon="-69.5219542"><ele>4027.11</ele></trkpt>
            <trkpt lat="-18.1820032" lon="-69.5218431"><ele>4027.94</ele></trkpt>
            <trkpt lat="-18.1819492" lon="-69.5216901"><ele>4029.11</ele></trkpt>
            <trkpt lat="-18.1818307" lon="-69.5215322"><ele>4030.51</ele></trkpt>
            <trkpt lat="-18.1817483" lon="-69.5214613"><ele>4031.26</ele></trkpt>
            <trkpt lat="-18.1815696" lon="-69.5213504"><ele>4032.69</ele></trkpt>
            <trkpt lat="-18.1812239" lon="-69.5211794"><ele>4035.18</ele></trkpt>
            <trkpt lat="-18.1810725" lon="-69.5210769"><ele>4036.31</ele></trkpt>
            <trkpt lat="-18.1807835" lon="-69.520773"><ele>4038.79</ele></trkpt>
            <trkpt lat="-18.1803856" lon="-69.5202899"><ele>4042.4</ele></trkpt>
            <trkpt lat="-18.1802439" lon="-69.5201339"><ele>4043.64</ele></trkpt>
            <trkpt lat="-18.1799384" lon="-69.5198294"><ele>4046.25</ele></trkpt>
            <trkpt lat="-18.178896" lon="-69.5189597"><ele>4055.33</ele></trkpt>
            <trkpt lat="-18.1787442" lon="-69.5187642"><ele>4057.04</ele></trkpt>
            <trkpt lat="-18.1786278" lon="-69.5185751"><ele>4058.56</ele></trkpt>
            <trkpt lat="-18.1784841" lon="-69.5183082"><ele>4060.62</ele></trkpt>
            <trkpt lat="-18.1782854" lon="-69.5175583"><ele>4065.82</ele></trkpt>
            <trkpt lat="-18.1781488" lon="-69.5171492"><ele>4068.72</ele></trkpt>
            <trkpt lat="-18.177515" lon="-69.51585"><ele>4078.62</ele></trkpt>
            <trkpt lat="-18.1769052" lon="-69.5146014"><ele>4088.64</ele></trkpt>
            <trkpt lat="-18.176817" lon="-69.5144056"><ele>4090.23</ele></trkpt>
            <trkpt lat="-18.1767821" lon="-69.5142399"><ele>4091.48</ele></trkpt>
            <trkpt lat="-18.1767891" lon="-69.5138728"><ele>4094.18</ele></trkpt>
            <trkpt lat="-18.176849" lon="-69.5136918"><ele>4095.58</ele></trkpt>
            <trkpt lat="-18.1769792" lon="-69.5135057"><ele>4097.22</ele></trkpt>
            <trkpt lat="-18.1770828" lon="-69.5133938"><ele>4098.31</ele></trkpt>
            <trkpt lat="-18.1772624" lon="-69.5132789"><ele>4099.82</ele></trkpt>
            <trkpt lat="-18.177746" lon="-69.5129937"><ele>4103.66</ele></trkpt>
            <trkpt lat="-18.1779989" lon="-69.5128937"><ele>4105.48</ele></trkpt>
            <trkpt lat="-18.1781774" lon="-69.5127758"><ele>4106.86</ele></trkpt>
            <trkpt lat="-18.1789094" lon="-69.5124107"><ele>4112.05</ele></trkpt>
            <trkpt lat="-18.1794314" lon="-69.5121958"><ele>4115.36</ele></trkpt>
            <trkpt lat="-18.1796626" lon="-69.5121918"><ele>4116.61</ele></trkpt>
            <trkpt lat="-18.1797978" lon="-69.5122319"><ele>4117.32</ele></trkpt>
            <trkpt lat="-18.179877" lon="-69.5122744"><ele>4117.75</ele></trkpt>
            <trkpt lat="-18.1799869" lon="-69.5123832"><ele>4118.47</ele></trkpt>
            <trkpt lat="-18.1804212" lon="-69.5129367"><ele>4121.62</ele></trkpt>
            <trkpt lat="-18.180533" lon="-69.5130356"><ele>4122.32</ele></trkpt>
            <trkpt lat="-18.1806491" lon="-69.5130951"><ele>4122.97</ele></trkpt>
            <trkpt lat="-18.1807506" lon="-69.5131178"><ele>4123.51</ele></trkpt>
            <trkpt lat="-18.1809428" lon="-69.5131011"><ele>4124.57</ele></trkpt>
            <trkpt lat="-18.1810899" lon="-69.5130301"><ele>4125.53</ele></trkpt>
            <trkpt lat="-18.1812211" lon="-69.5129431"><ele>4126.5</ele></trkpt>
            <trkpt lat="-18.1813002" lon="-69.512855"><ele>4127.27</ele></trkpt>
            <trkpt lat="-18.1813809" lon="-69.5126557"><ele>4128.72</ele></trkpt>
            <trkpt lat="-18.1814287" lon="-69.5123606"><ele>4130.85</ele></trkpt>
            <trkpt lat="-18.1814675" lon="-69.5108505"><ele>4142.11</ele></trkpt>
            <trkpt lat="-18.1814688" lon="-69.5103313"><ele>4145.85</ele></trkpt>
            <trkpt lat="-18.1814532" lon="-69.5101596"><ele>4147.04</ele></trkpt>
            <trkpt lat="-18.1814244" lon="-69.5100268"><ele>4147.95</ele></trkpt>
            <trkpt lat="-18.1813531" lon="-69.5098205"><ele>4149.36</ele></trkpt>
            <trkpt lat="-18.1812086" lon="-69.5094976"><ele>4151.52</ele></trkpt>
            <trkpt lat="-18.1807678" lon="-69.5086044"><ele>4157.18</ele></trkpt>
            <trkpt lat="-18.1797065" lon="-69.5064551"><ele>4170.46</ele></trkpt>
            <trkpt lat="-18.179264" lon="-69.5055591"><ele>4176.29</ele></trkpt>
            <trkpt lat="-18.17883" lon="-69.5046633"><ele>4182.13</ele></trkpt>
            <trkpt lat="-18.178049" lon="-69.5030499"><ele>4192.37</ele></trkpt>
            <trkpt lat="-18.1778081" lon="-69.5026882"><ele>4194.92</ele></trkpt>
            <trkpt lat="-18.177521" lon="-69.5023118"><ele>4197.8</ele></trkpt>
            <trkpt lat="-18.1772505" lon="-69.5019913"><ele>4200.42</ele></trkpt>
            <trkpt lat="-18.1767782" lon="-69.5015189"><ele>4204.67</ele></trkpt>
            <trkpt lat="-18.1757267" lon="-69.5005933"><ele>4213.18</ele></trkpt>
            <trkpt lat="-18.1752017" lon="-69.5001304"><ele>4216.93</ele></trkpt>
            <trkpt lat="-18.1743429" lon="-69.4991571"><ele>4222.69</ele></trkpt>
            <trkpt lat="-18.1738429" lon="-69.4985896"><ele>4225.07</ele></trkpt>
            <trkpt lat="-18.1731992" lon="-69.4978601"><ele>4227.61</ele></trkpt>
            <trkpt lat="-18.1726603" lon="-69.497359"><ele>4229.77</ele></trkpt>
            <trkpt lat="-18.1723293" lon="-69.4969606"><ele>4231.62</ele></trkpt>
            <trkpt lat="-18.1721751" lon="-69.4968179"><ele>4232.42</ele></trkpt>
            <trkpt lat="-18.1719297" lon="-69.4966672"><ele>4233.56</ele></trkpt>
            <trkpt lat="-18.1717579" lon="-69.4966124"><ele>4234.27</ele></trkpt>
            <trkpt lat="-18.1710688" lon="-69.4964282"><ele>4237.07</ele></trkpt>
            <trkpt lat="-18.1709803" lon="-69.4963769"><ele>4237.46</ele></trkpt>
            <trkpt lat="-18.1708339" lon="-69.4962473"><ele>4238.18</ele></trkpt>
            <trkpt lat="-18.1707032" lon="-69.496058"><ele>4239.02</ele></trkpt>
            <trkpt lat="-18.1706146" lon="-69.4958492"><ele>4239.84</ele></trkpt>
            <trkpt lat="-18.1702512" lon="-69.4949517"><ele>4243.57</ele></trkpt>
            <trkpt lat="-18.1701724" lon="-69.4947859"><ele>4244.35</ele></trkpt>
            <trkpt lat="-18.1700438" lon="-69.4946163"><ele>4245.3</ele></trkpt>
            <trkpt lat="-18.1697126" lon="-69.4943567"><ele>4247.31</ele></trkpt>
            <trkpt lat="-18.1695552" lon="-69.4941666"><ele>4248.51</ele></trkpt>
            <trkpt lat="-18.169225" lon="-69.4933"><ele>4253.01</ele></trkpt>
            <trkpt lat="-18.1689123" lon="-69.4924661"><ele>4257.25</ele></trkpt>
            <trkpt lat="-18.1687301" lon="-69.4921737"><ele>4258.85</ele></trkpt>
            <trkpt lat="-18.1685762" lon="-69.4919857"><ele>4259.95</ele></trkpt>
            <trkpt lat="-18.1683971" lon="-69.4918075"><ele>4261.07</ele></trkpt>
            <trkpt lat="-18.1681981" lon="-69.4916473"><ele>4262.17</ele></trkpt>
            <trkpt lat="-18.1679706" lon="-69.4915017"><ele>4263.3</ele></trkpt>
            <trkpt lat="-18.166728" lon="-69.4909187"><ele>4268.77</ele></trkpt>
            <trkpt lat="-18.1664272" lon="-69.4907437"><ele>4270.1</ele></trkpt>
            <trkpt lat="-18.1662282" lon="-69.490576"><ele>4271.08</ele></trkpt>
            <trkpt lat="-18.1661117" lon="-69.4904529"><ele>4271.71</ele></trkpt>
            <trkpt lat="-18.1659657" lon="-69.4902606"><ele>4272.61</ele></trkpt>
            <trkpt lat="-18.16585" lon="-69.4900586"><ele>4273.48</ele></trkpt>
            <trkpt lat="-18.1652515" lon="-69.4886845"><ele>4279.15</ele></trkpt>
            <trkpt lat="-18.1648668" lon="-69.4878002"><ele>4283.24</ele></trkpt>
            <trkpt lat="-18.1644813" lon="-69.4869143"><ele>4287.87</ele></trkpt>
            <trkpt lat="-18.164156" lon="-69.4861644"><ele>4292.15</ele></trkpt>
            <trkpt lat="-18.1640164" lon="-69.4855399"><ele>4295.66</ele></trkpt>
            <trkpt lat="-18.1637523" lon="-69.4842798"><ele>4302.86</ele></trkpt>
            <trkpt lat="-18.1636943" lon="-69.4840325"><ele>4304.27</ele></trkpt>
            <trkpt lat="-18.1635675" lon="-69.4838137"><ele>4305.68</ele></trkpt>
            <trkpt lat="-18.1628833" lon="-69.48271"><ele>4312.52</ele></trkpt>
            <trkpt lat="-18.162589" lon="-69.4822352"><ele>4315.12</ele></trkpt>
            <trkpt lat="-18.1624868" lon="-69.4820458"><ele>4316.04</ele></trkpt>
            <trkpt lat="-18.1621387" lon="-69.4812888"><ele>4319.27</ele></trkpt>
            <trkpt lat="-18.1619746" lon="-69.4809893"><ele>4320.61</ele></trkpt>
            <trkpt lat="-18.1618907" lon="-69.4808574"><ele>4321.25</ele></trkpt>
            <trkpt lat="-18.16177" lon="-69.4807291"><ele>4322.04</ele></trkpt>
            <trkpt lat="-18.1614129" lon="-69.4804414"><ele>4324.41</ele></trkpt>
            <trkpt lat="-18.1610206" lon="-69.4801199"><ele>4327.46</ele></trkpt>
            <trkpt lat="-18.160716" lon="-69.479836"><ele>4330.26</ele></trkpt>
            <trkpt lat="-18.1601852" lon="-69.4793482"><ele>4335.55</ele></trkpt>
            <trkpt lat="-18.1595091" lon="-69.4787875"><ele>4342.27</ele></trkpt>
            <trkpt lat="-18.1593316" lon="-69.4785994"><ele>4344.22</ele></trkpt>
            <trkpt lat="-18.1591831" lon="-69.4783702"><ele>4346.21</ele></trkpt>
            <trkpt lat="-18.1590734" lon="-69.4781101"><ele>4348.19</ele></trkpt>
            <trkpt lat="-18.1590201" lon="-69.4779303"><ele>4349.45</ele></trkpt>
            <trkpt lat="-18.1589518" lon="-69.4775743"><ele>4351.77</ele></trkpt>
            <trkpt lat="-18.1589464" lon="-69.4773443"><ele>4353.13</ele></trkpt>
            <trkpt lat="-18.1589702" lon="-69.4771222"><ele>4354.37</ele></trkpt>
            <trkpt lat="-18.1590297" lon="-69.4768767"><ele>4355.62</ele></trkpt>
            <trkpt lat="-18.159112" lon="-69.4766365"><ele>4356.71</ele></trkpt>
            <trkpt lat="-18.1591952" lon="-69.4764533"><ele>4357.45</ele></trkpt>
            <trkpt lat="-18.1602604" lon="-69.4741198"><ele>4365.04</ele></trkpt>
            <trkpt lat="-18.1603488" lon="-69.4739434"><ele>4365.46</ele></trkpt>
            <trkpt lat="-18.1605421" lon="-69.4736379"><ele>4365.95</ele></trkpt>
            <trkpt lat="-18.1609096" lon="-69.4731514"><ele>4366.11</ele></trkpt>
            <trkpt lat="-18.1612016" lon="-69.472829"><ele>4365.75</ele></trkpt>
            <trkpt lat="-18.1613422" lon="-69.4726928"><ele>4365.49</ele></trkpt>
            <trkpt lat="-18.163844" lon="-69.4702759"><ele>4359.44</ele></trkpt>
            <trkpt lat="-18.1639435" lon="-69.4701505"><ele>4359.29</ele></trkpt>
            <trkpt lat="-18.1640077" lon="-69.4699975"><ele>4359.24</ele></trkpt>
            <trkpt lat="-18.1640279" lon="-69.4698499"><ele>4359.3</ele></trkpt>
            <trkpt lat="-18.1640184" lon="-69.4695689"><ele>4359.68</ele></trkpt>
            <trkpt lat="-18.1639696" lon="-69.4693813"><ele>4360.13</ele></trkpt>
            <trkpt lat="-18.1633432" lon="-69.4676391"><ele>4365.99</ele></trkpt>
            <trkpt lat="-18.16314" lon="-69.4663818"><ele>4370.09</ele></trkpt>
            <trkpt lat="-18.1630027" lon="-69.4657053"><ele>4372.12</ele></trkpt>
            <trkpt lat="-18.1629943" lon="-69.4655537"><ele>4372.53</ele></trkpt>
            <trkpt lat="-18.1630104" lon="-69.4652601"><ele>4373.23</ele></trkpt>
            <trkpt lat="-18.1630667" lon="-69.4648133"><ele>4374.12</ele></trkpt>
            <trkpt lat="-18.1631332" lon="-69.4642885"><ele>4374.96</ele></trkpt>
            <trkpt lat="-18.1631936" lon="-69.463889"><ele>4375.55</ele></trkpt>
            <trkpt lat="-18.1632743" lon="-69.4636881"><ele>4375.87</ele></trkpt>
            <trkpt lat="-18.1634826" lon="-69.4632818"><ele>4376.56</ele></trkpt>
            <trkpt lat="-18.1652196" lon="-69.4610492"><ele>4380.93</ele></trkpt>
            <trkpt lat="-18.1653255" lon="-69.4608811"><ele>4381.21</ele></trkpt>
            <trkpt lat="-18.1654142" lon="-69.4607028"><ele>4381.49</ele></trkpt>
            <trkpt lat="-18.1654864" lon="-69.460511"><ele>4381.78</ele></trkpt>
            <trkpt lat="-18.1655439" lon="-69.460287"><ele>4382.13</ele></trkpt>
            <trkpt lat="-18.1655752" lon="-69.4600618"><ele>4382.5</ele></trkpt>
            <trkpt lat="-18.1655794" lon="-69.4597964"><ele>4382.98</ele></trkpt>
            <trkpt lat="-18.1655061" lon="-69.4590494"><ele>4384.58</ele></trkpt>
            <trkpt lat="-18.1653902" lon="-69.4578709"><ele>4387.68</ele></trkpt>
            <trkpt lat="-18.1653531" lon="-69.45738"><ele>4389.28</ele></trkpt>
            <trkpt lat="-18.1654711" lon="-69.4562056"><ele>4393.81</ele></trkpt>
            <trkpt lat="-18.1656295" lon="-69.4547919"><ele>4399.79</ele></trkpt>
            <trkpt lat="-18.1656385" lon="-69.4545375"><ele>4400.83</ele></trkpt>
            <trkpt lat="-18.1656071" lon="-69.4543156"><ele>4401.71</ele></trkpt>
            <trkpt lat="-18.1655597" lon="-69.4541998"><ele>4402.19</ele></trkpt>
            <trkpt lat="-18.1654341" lon="-69.4539887"><ele>4403.09</ele></trkpt>
            <trkpt lat="-18.1652988" lon="-69.4538119"><ele>4403.86</ele></trkpt>
            <trkpt lat="-18.163855" lon="-69.4519625"><ele>4411.41</ele></trkpt>
            <trkpt lat="-18.1633258" lon="-69.4512798"><ele>4414.14</ele></trkpt>
            <trkpt lat="-18.1631874" lon="-69.4510029"><ele>4415.13</ele></trkpt>
            <trkpt lat="-18.1631325" lon="-69.450717"><ele>4416.07</ele></trkpt>
            <trkpt lat="-18.163101" lon="-69.4499921"><ele>4418.42</ele></trkpt>
            <trkpt lat="-18.1631508" lon="-69.4495372"><ele>4419.9</ele></trkpt>
            <trkpt lat="-18.16323" lon="-69.4490524"><ele>4421.45</ele></trkpt>
            <trkpt lat="-18.1634693" lon="-69.4479712"><ele>4424.91</ele></trkpt>
            <trkpt lat="-18.1635192" lon="-69.447619"><ele>4426.02</ele></trkpt>
            <trkpt lat="-18.1635095" lon="-69.4471707"><ele>4427.42</ele></trkpt>
            <trkpt lat="-18.1633606" lon="-69.4460238"><ele>4430.97</ele></trkpt>
            <trkpt lat="-18.1633524" lon="-69.4458221"><ele>4431.56</ele></trkpt>
            <trkpt lat="-18.1633638" lon="-69.4456105"><ele>4432.16</ele></trkpt>
            <trkpt lat="-18.1634725" lon="-69.4451936"><ele>4433.3</ele></trkpt>
            <trkpt lat="-18.1647236" lon="-69.4418959"><ele>4442.28</ele></trkpt>
            <trkpt lat="-18.1648413" lon="-69.4415462"><ele>4443.19</ele></trkpt>
            <trkpt lat="-18.1648624" lon="-69.4414305"><ele>4443.47</ele></trkpt>
            <trkpt lat="-18.1648723" lon="-69.4412378"><ele>4443.92</ele></trkpt>
            <trkpt lat="-18.1648794" lon="-69.4407831"><ele>4444.92</ele></trkpt>
            <trkpt lat="-18.1648366" lon="-69.4404108"><ele>4445.69</ele></trkpt>
            <trkpt lat="-18.1644375" lon="-69.4391344"><ele>4448.21</ele></trkpt>
            <trkpt lat="-18.1641945" lon="-69.4383491"><ele>4449.55</ele></trkpt>
            <trkpt lat="-18.1641766" lon="-69.4380828"><ele>4449.91</ele></trkpt>
            <trkpt lat="-18.1641773" lon="-69.437916"><ele>4450.09</ele></trkpt>
            <trkpt lat="-18.1642043" lon="-69.437776"><ele>4450.22</ele></trkpt>
            <trkpt lat="-18.1642863" lon="-69.4375361"><ele>4450.41</ele></trkpt>
            <trkpt lat="-18.1643574" lon="-69.4373856"><ele>4450.51</ele></trkpt>
            <trkpt lat="-18.1644336" lon="-69.4372672"><ele>4450.59</ele></trkpt>
            <trkpt lat="-18.164893" lon="-69.436779"><ele>4451.02</ele></trkpt>
            <trkpt lat="-18.1651702" lon="-69.4364741"><ele>4451.47</ele></trkpt>
            <trkpt lat="-18.166081" lon="-69.4353577"><ele>4453.71</ele></trkpt>
            <trkpt lat="-18.1667597" lon="-69.434379"><ele>4456.21</ele></trkpt>
            <trkpt lat="-18.1669991" lon="-69.4339596"><ele>4457.28</ele></trkpt>
            <trkpt lat="-18.1674692" lon="-69.4328935"><ele>4459.77</ele></trkpt>
            <trkpt lat="-18.1677606" lon="-69.4323999"><ele>4461.01</ele></trkpt>
            <trkpt lat="-18.1679548" lon="-69.4321303"><ele>4461.79</ele></trkpt>
            <trkpt lat="-18.1681979" lon="-69.4318134"><ele>4462.85</ele></trkpt>
            <trkpt lat="-18.168521" lon="-69.4314697"><ele>4464.28</ele></trkpt>
            <trkpt lat="-18.1688537" lon="-69.43118"><ele>4465.72</ele></trkpt>
            <trkpt lat="-18.1693561" lon="-69.4307601"><ele>4467.91</ele></trkpt>
            <trkpt lat="-18.1695144" lon="-69.4306183"><ele>4468.61</ele></trkpt>
            <trkpt lat="-18.1699059" lon="-69.4302408"><ele>4470.31</ele></trkpt>
            <trkpt lat="-18.170025" lon="-69.4301139"><ele>4470.83</ele></trkpt>
            <trkpt lat="-18.1703992" lon="-69.4295908"><ele>4472.65</ele></trkpt>
            <trkpt lat="-18.1708406" lon="-69.4289386"><ele>4474.78</ele></trkpt>
            <trkpt lat="-18.1716686" lon="-69.4276043"><ele>4478.7</ele></trkpt>
            <trkpt lat="-18.1719995" lon="-69.4270717"><ele>4480.04</ele></trkpt>
            <trkpt lat="-18.1722699" lon="-69.4267111"><ele>4480.86</ele></trkpt>
            <trkpt lat="-18.1729205" lon="-69.4260396"><ele>4482.12</ele></trkpt>
            <trkpt lat="-18.1731621" lon="-69.4257989"><ele>4482.55</ele></trkpt>
            <trkpt lat="-18.1737805" lon="-69.4252854"><ele>4483.66</ele></trkpt>
            <trkpt lat="-18.1751765" lon="-69.4241274"><ele>4486.73</ele></trkpt>
            <trkpt lat="-18.175952" lon="-69.4234841"><ele>4488.79</ele></trkpt>
            <trkpt lat="-18.17665" lon="-69.4229051"><ele>4490.94</ele></trkpt>
            <trkpt lat="-18.178046" lon="-69.421747"><ele>4496.02</ele></trkpt>
            <trkpt lat="-18.180139" lon="-69.4200108"><ele>4504.6</ele></trkpt>
            <trkpt lat="-18.181955" lon="-69.4185158"><ele>4511.97</ele></trkpt>
            <trkpt lat="-18.1828454" lon="-69.4178032"><ele>4516.01</ele></trkpt>
            <trkpt lat="-18.1830883" lon="-69.4175697"><ele>4517.32</ele></trkpt>
            <trkpt lat="-18.1832497" lon="-69.4173582"><ele>4518.37</ele></trkpt>
            <trkpt lat="-18.1834397" lon="-69.4170481"><ele>4519.8</ele></trkpt>
            <trkpt lat="-18.1835082" lon="-69.4168632"><ele>4520.55</ele></trkpt>
            <trkpt lat="-18.1835301" lon="-69.4166121"><ele>4521.49</ele></trkpt>
            <trkpt lat="-18.1835267" lon="-69.4162813"><ele>4522.68</ele></trkpt>
            <trkpt lat="-18.1834902" lon="-69.4161427"><ele>4523.19</ele></trkpt>
            <trkpt lat="-18.1833295" lon="-69.4157008"><ele>4524.86</ele></trkpt>
            <trkpt lat="-18.182409" lon="-69.4139089"><ele>4532.11</ele></trkpt>
            <trkpt lat="-18.1820383" lon="-69.413278"><ele>4534.38</ele></trkpt>
            <trkpt lat="-18.1818414" lon="-69.4129738"><ele>4535.2</ele></trkpt>
            <trkpt lat="-18.1814799" lon="-69.4125605"><ele>4536.19</ele></trkpt>
            <trkpt lat="-18.1807735" lon="-69.411867"><ele>4537.81</ele></trkpt>
            <trkpt lat="-18.180067" lon="-69.411174"><ele>4540.44</ele></trkpt>
            <trkpt lat="-18.1783398" lon="-69.4094796"><ele>4550.47</ele></trkpt>
            <trkpt lat="-18.1778858" lon="-69.4090172"><ele>4552.88</ele></trkpt>
            <trkpt lat="-18.1775533" lon="-69.4086117"><ele>4554.56</ele></trkpt>
            <trkpt lat="-18.1771683" lon="-69.4081192"><ele>4556.3</ele></trkpt>
            <trkpt lat="-18.1767833" lon="-69.4076267"><ele>4558.15</ele></trkpt>
            <trkpt lat="-18.17627" lon="-69.4069693"><ele>4561.5</ele></trkpt>
            <trkpt lat="-18.1759228" lon="-69.4064735"><ele>4563.97</ele></trkpt>
            <trkpt lat="-18.1756522" lon="-69.4059873"><ele>4565.88</ele></trkpt>
            <trkpt lat="-18.1754618" lon="-69.4053139"><ele>4567.49</ele></trkpt>
            <trkpt lat="-18.1753903" lon="-69.4048589"><ele>4567.93</ele></trkpt>
            <trkpt lat="-18.175335" lon="-69.40421"><ele>4567.66</ele></trkpt>
            <trkpt lat="-18.1752892" lon="-69.4036686"><ele>4566.83</ele></trkpt>
            <trkpt lat="-18.1752708" lon="-69.4031634"><ele>4565.49</ele></trkpt>
            <trkpt lat="-18.1753404" lon="-69.4025789"><ele>4563.45</ele></trkpt>
            <trkpt lat="-18.1756328" lon="-69.4007196"><ele>4556.22</ele></trkpt>
            <trkpt lat="-18.1756857" lon="-69.4004021"><ele>4554.96</ele></trkpt>
            <trkpt lat="-18.1761504" lon="-69.3976995"><ele>4544.3</ele></trkpt>
            <trkpt lat="-18.1766038" lon="-69.3954863"><ele>4535.78</ele></trkpt>
            <trkpt lat="-18.1768104" lon="-69.394481"><ele>4531.75</ele></trkpt>
            <trkpt lat="-18.17764" lon="-69.391615"><ele>4519.28</ele></trkpt>
            <trkpt lat="-18.1779364" lon="-69.3905918"><ele>4514.63</ele></trkpt>
            <trkpt lat="-18.1780847" lon="-69.3900802"><ele>4512.52</ele></trkpt>
            <trkpt lat="-18.1784701" lon="-69.3887515"><ele>4507.83</ele></trkpt>
            <trkpt lat="-18.1788408" lon="-69.3878407"><ele>4504.69</ele></trkpt>
            <trkpt lat="-18.179101" lon="-69.3873998"><ele>4502.94</ele></trkpt>
            <trkpt lat="-18.1794429" lon="-69.38692"><ele>4500.7</ele></trkpt>
            <trkpt lat="-18.1799005" lon="-69.3862802"><ele>4496.99</ele></trkpt>
            <trkpt lat="-18.180449" lon="-69.385596"><ele>4492.39</ele></trkpt>
            <trkpt lat="-18.1807893" lon="-69.3851197"><ele>4489.47</ele></trkpt>
            <trkpt lat="-18.18119" lon="-69.3844375"><ele>4485.88</ele></trkpt>
            <trkpt lat="-18.18164" lon="-69.3836697"><ele>4482.49</ele></trkpt>
            <trkpt lat="-18.1824462" lon="-69.3822953"><ele>4477.27</ele></trkpt>
            <trkpt lat="-18.1832864" lon="-69.3808791"><ele>4470.49</ele></trkpt>
            <trkpt lat="-18.1838466" lon="-69.3799348"><ele>4466.59</ele></trkpt>
            <trkpt lat="-18.1845189" lon="-69.3788016"><ele>4463.4</ele></trkpt>
            <trkpt lat="-18.184743" lon="-69.3784239"><ele>4462.05</ele></trkpt>
            <trkpt lat="-18.1854713" lon="-69.3771963"><ele>4456.53</ele></trkpt>
            <trkpt lat="-18.1859755" lon="-69.3763464"><ele>4452.48</ele></trkpt>
            <trkpt lat="-18.1864797" lon="-69.3754965"><ele>4449.49</ele></trkpt>
            <trkpt lat="-18.1873218" lon="-69.3740778"><ele>4447.65</ele></trkpt>
            <trkpt lat="-18.1874786" lon="-69.3738433"><ele>4447.23</ele></trkpt>
            <trkpt lat="-18.1882017" lon="-69.3729788"><ele>4444.56</ele></trkpt>
            <trkpt lat="-18.1891903" lon="-69.3719605"><ele>4439.86</ele></trkpt>
            <trkpt lat="-18.1902485" lon="-69.3710099"><ele>4434.8</ele></trkpt>
            <trkpt lat="-18.1907901" lon="-69.3703396"><ele>4431.59</ele></trkpt>
            <trkpt lat="-18.1919398" lon="-69.3688193"><ele>4424.57</ele></trkpt>
            <trkpt lat="-18.1922687" lon="-69.3682901"><ele>4422.41</ele></trkpt>
            <trkpt lat="-18.19261" lon="-69.3676595"><ele>4420.08</ele></trkpt>
            <trkpt lat="-18.1927883" lon="-69.3673017"><ele>4418.92</ele></trkpt>
            <trkpt lat="-18.1930128" lon="-69.3666659"><ele>4417.28</ele></trkpt>
            <trkpt lat="-18.1931279" lon="-69.3663629"><ele>4416.64</ele></trkpt>
            <trkpt lat="-18.1935561" lon="-69.3652786"><ele>4414.86</ele></trkpt>
            <trkpt lat="-18.1941397" lon="-69.3638015"><ele>4412.71</ele></trkpt>
            <trkpt lat="-18.1949906" lon="-69.3619497"><ele>4409.41</ele></trkpt>
            <trkpt lat="-18.1958205" lon="-69.3603984"><ele>4406.33</ele></trkpt>
            <trkpt lat="-18.1964397" lon="-69.359111"><ele>4404.29</ele></trkpt>
            <trkpt lat="-18.1972741" lon="-69.357495"><ele>4402.55</ele></trkpt>
            <trkpt lat="-18.1989719" lon="-69.3541938"><ele>4401.41</ele></trkpt>
            <trkpt lat="-18.1993914" lon="-69.3533514"><ele>4401.39</ele></trkpt>
            <trkpt lat="-18.20032" lon="-69.3514802"><ele>4401.62</ele></trkpt>
            <trkpt lat="-18.200705" lon="-69.35073"><ele>4401.46</ele></trkpt>
            <trkpt lat="-18.2014269" lon="-69.3493238"><ele>4400.79</ele></trkpt>
            <trkpt lat="-18.20263" lon="-69.34698"><ele>4400.5</ele></trkpt>
            <trkpt lat="-18.2034" lon="-69.34548"><ele>4400.02</ele></trkpt>
            <trkpt lat="-18.2045937" lon="-69.3431491"><ele>4398.95</ele></trkpt>
            <trkpt lat="-18.2054881" lon="-69.3413951"><ele>4398.62</ele></trkpt>
            <trkpt lat="-18.2062883" lon="-69.3398256"><ele>4397.95</ele></trkpt>
            <trkpt lat="-18.2067591" lon="-69.3389024"><ele>4397.08</ele></trkpt>
            <trkpt lat="-18.2083124" lon="-69.3358558"><ele>4393.24</ele></trkpt>
            <trkpt lat="-18.2089244" lon="-69.3346556"><ele>4391.17</ele></trkpt>
            <trkpt lat="-18.2104777" lon="-69.3316089"><ele>4387.89</ele></trkpt>
            <trkpt lat="-18.2110425" lon="-69.330501"><ele>4387.1</ele></trkpt>
            <trkpt lat="-18.2125487" lon="-69.3275466"><ele>4385.79</ele></trkpt>
            <trkpt lat="-18.2134893" lon="-69.3257022"><ele>4385.28</ele></trkpt>
            <trkpt lat="-18.2137303" lon="-69.3253103"><ele>4385.19</ele></trkpt>
            <trkpt lat="-18.2139323" lon="-69.3250328"><ele>4385.1</ele></trkpt>
            <trkpt lat="-18.2143688" lon="-69.3245025"><ele>4384.9</ele></trkpt>
            <trkpt lat="-18.2156197" lon="-69.3233207"><ele>4384.5</ele></trkpt>
            <trkpt lat="-18.21613" lon="-69.3228933"><ele>4384.58</ele></trkpt>
            <trkpt lat="-18.2171221" lon="-69.3220647"><ele>4385.35</ele></trkpt>
            <trkpt lat="-18.2177016" lon="-69.3217667"><ele>4385.92</ele></trkpt>
            <trkpt lat="-18.2182386" lon="-69.3214993"><ele>4386.45</ele></trkpt>
            <trkpt lat="-18.2183648" lon="-69.3213894"><ele>4386.59</ele></trkpt>
            <trkpt lat="-18.2184345" lon="-69.3212598"><ele>4386.7</ele></trkpt>
            <trkpt lat="-18.2184731" lon="-69.3210953"><ele>4386.81</ele></trkpt>
            <trkpt lat="-18.218505" lon="-69.3208303"><ele>4386.97</ele></trkpt>
            <trkpt lat="-18.2184665" lon="-69.3204705"><ele>4387.15</ele></trkpt>
            <trkpt lat="-18.2185438" lon="-69.3201111"><ele>4387.32</ele></trkpt>
            <trkpt lat="-18.2189202" lon="-69.3193106"><ele>4387.79</ele></trkpt>
            <trkpt lat="-18.2195984" lon="-69.3180781"><ele>4388.94</ele></trkpt>
            <trkpt lat="-18.2196534" lon="-69.3179971"><ele>4389.06</ele></trkpt>
            <trkpt lat="-18.2199726" lon="-69.3176532"><ele>4389.78</ele></trkpt>
            <trkpt lat="-18.2204786" lon="-69.3171103"><ele>4391.31</ele></trkpt>
            <trkpt lat="-18.2206715" lon="-69.3168369"><ele>4391.91</ele></trkpt>
            <trkpt lat="-18.2208668" lon="-69.316524"><ele>4392.42</ele></trkpt>
            <trkpt lat="-18.2209697" lon="-69.3162985"><ele>4392.67</ele></trkpt>
            <trkpt lat="-18.2210292" lon="-69.316081"><ele>4392.82</ele></trkpt>
            <trkpt lat="-18.2210798" lon="-69.3157159"><ele>4392.95</ele></trkpt>
            <trkpt lat="-18.221099" lon="-69.3153227"><ele>4392.99</ele></trkpt>
            <trkpt lat="-18.221059" lon="-69.3148697"><ele>4392.94</ele></trkpt>
            <trkpt lat="-18.2207995" lon="-69.3137616"><ele>4392.68</ele></trkpt>
            <trkpt lat="-18.2207602" lon="-69.3127283"><ele>4392.25</ele></trkpt>
            <trkpt lat="-18.2207496" lon="-69.311341"><ele>4391.5</ele></trkpt>
            <trkpt lat="-18.2206595" lon="-69.3096801"><ele>4391.05</ele></trkpt>
            <trkpt lat="-18.22055" lon="-69.30875"><ele>4391.15</ele></trkpt>
            <trkpt lat="-18.2202322" lon="-69.3060633"><ele>4391.87</ele></trkpt>
            <trkpt lat="-18.2201288" lon="-69.3054392"><ele>4392.06</ele></trkpt>
            <trkpt lat="-18.2199521" lon="-69.3048428"><ele>4392.28</ele></trkpt>
            <trkpt lat="-18.2198279" lon="-69.3045757"><ele>4392.38</ele></trkpt>
            <trkpt lat="-18.219625" lon="-69.3042127"><ele>4392.51</ele></trkpt>
            <trkpt lat="-18.2194702" lon="-69.3040025"><ele>4392.57</ele></trkpt>
            <trkpt lat="-18.2193347" lon="-69.3038644"><ele>4392.6</ele></trkpt>
            <trkpt lat="-18.2191928" lon="-69.3037429"><ele>4392.61</ele></trkpt>
            <trkpt lat="-18.2189058" lon="-69.3035384"><ele>4392.59</ele></trkpt>
            <trkpt lat="-18.2181023" lon="-69.3031017"><ele>4392.5</ele></trkpt>
            <trkpt lat="-18.2175274" lon="-69.3028276"><ele>4392.52</ele></trkpt>
            <trkpt lat="-18.2173036" lon="-69.302691"><ele>4392.57</ele></trkpt>
            <trkpt lat="-18.2168132" lon="-69.3022678"><ele>4392.83</ele></trkpt>
            <trkpt lat="-18.2166889" lon="-69.3021194"><ele>4392.92</ele></trkpt>
            <trkpt lat="-18.2165519" lon="-69.3018897"><ele>4393.03</ele></trkpt>
            <trkpt lat="-18.216473" lon="-69.3016692"><ele>4393.09</ele></trkpt>
            <trkpt lat="-18.2164416" lon="-69.3014146"><ele>4393.12</ele></trkpt>
            <trkpt lat="-18.2165329" lon="-69.2985057"><ele>4392.95</ele></trkpt>
            <trkpt lat="-18.2165401" lon="-69.29828"><ele>4393.13</ele></trkpt>
            <trkpt lat="-18.216585" lon="-69.29749"><ele>4394.89</ele></trkpt>
            <trkpt lat="-18.2166301" lon="-69.2967001"><ele>4397.8</ele></trkpt>
            <trkpt lat="-18.2166953" lon="-69.2958938"><ele>4401.57</ele></trkpt>
            <trkpt lat="-18.2166616" lon="-69.2958498"><ele>4401.82</ele></trkpt>
            <trkpt lat="-18.2165536" lon="-69.2958117"><ele>4402.34</ele></trkpt>
            <trkpt lat="-18.216515" lon="-69.2957475"><ele>4402.65</ele></trkpt>
            <trkpt lat="-18.2165083" lon="-69.2954248"><ele>4403.9</ele></trkpt>
            <trkpt lat="-18.216444" lon="-69.2952955"><ele>4404.42</ele></trkpt>
            <trkpt lat="-18.2163877" lon="-69.2948455"><ele>4405.92</ele></trkpt>
            <trkpt lat="-18.2164453" lon="-69.2947719"><ele>4406.23</ele></trkpt>
            <trkpt lat="-18.2166572" lon="-69.2947307"><ele>4406.9</ele></trkpt>
            <trkpt lat="-18.2167011" lon="-69.2946838"><ele>4407.08</ele></trkpt>
            <trkpt lat="-18.2167705" lon="-69.2942663"><ele>4408.21</ele></trkpt>
            <trkpt lat="-18.2167935" lon="-69.2941832"><ele>4408.43</ele></trkpt>
            <trkpt lat="-18.2169636" lon="-69.293853"><ele>4409.31</ele></trkpt>
            <trkpt lat="-18.2171309" lon="-69.2931097"><ele>4410.96</ele></trkpt>
            <trkpt lat="-18.2174011" lon="-69.2923193"><ele>4412.7</ele></trkpt>
            <trkpt lat="-18.2177867" lon="-69.2915644"><ele>4414.94</ele></trkpt>
            <trkpt lat="-18.2182698" lon="-69.2906211"><ele>4419.32</ele></trkpt>
            <trkpt lat="-18.2190511" lon="-69.2892687"><ele>4426.49</ele></trkpt>
            <trkpt lat="-18.2195436" lon="-69.2884881"><ele>4430.3</ele></trkpt>
            <trkpt lat="-18.2199824" lon="-69.2877931"><ele>4433.18</ele></trkpt>
            <trkpt lat="-18.2213535" lon="-69.2856213"><ele>4441.67</ele></trkpt>
            <trkpt lat="-18.221847" lon="-69.2848394"><ele>4445.26</ele></trkpt>
            <trkpt lat="-18.2225609" lon="-69.2837105"><ele>4450.58</ele></trkpt>
            <trkpt lat="-18.2230212" lon="-69.28318"><ele>4452.98</ele></trkpt>
            <trkpt lat="-18.2232282" lon="-69.2829928"><ele>4453.75</ele></trkpt>
            <trkpt lat="-18.2237031" lon="-69.2826787"><ele>4454.88</ele></trkpt>
            <trkpt lat="-18.2242343" lon="-69.2823971"><ele>4455.96</ele></trkpt>
            <trkpt lat="-18.2245905" lon="-69.2822086"><ele>4457.16</ele></trkpt>
            <trkpt lat="-18.2266039" lon="-69.2811344"><ele>4466.57</ele></trkpt>
            <trkpt lat="-18.2272284" lon="-69.2808012"><ele>4469.68</ele></trkpt>
            <trkpt lat="-18.2274319" lon="-69.2807066"><ele>4470.61</ele></trkpt>
            <trkpt lat="-18.2276385" lon="-69.2806311"><ele>4471.46</ele></trkpt>
            <trkpt lat="-18.2278786" lon="-69.2805875"><ele>4472.37</ele></trkpt>
            <trkpt lat="-18.2281241" lon="-69.2805704"><ele>4473.24</ele></trkpt>
            <trkpt lat="-18.228611" lon="-69.2805808"><ele>4474.94</ele></trkpt>
            <trkpt lat="-18.2289781" lon="-69.2806203"><ele>4476.28</ele></trkpt>
            <trkpt lat="-18.2296788" lon="-69.2807423"><ele>4478.97</ele></trkpt>
            <trkpt lat="-18.2301264" lon="-69.2808402"><ele>4480.55</ele></trkpt>
            <trkpt lat="-18.2306697" lon="-69.2808488"><ele>4482.23</ele></trkpt>
            <trkpt lat="-18.2311727" lon="-69.2807662"><ele>4483.77</ele></trkpt>
            <trkpt lat="-18.2315457" lon="-69.2806128"><ele>4485.09</ele></trkpt>
            <trkpt lat="-18.2316902" lon="-69.2805289"><ele>4485.71</ele></trkpt>
            <trkpt lat="-18.2320111" lon="-69.2802688"><ele>4487.43</ele></trkpt>
            <trkpt lat="-18.233074" lon="-69.2793398"><ele>4494.27</ele></trkpt>
            <trkpt lat="-18.23391" lon="-69.2786089"><ele>4500.57</ele></trkpt>
            <trkpt lat="-18.23429" lon="-69.2782767"><ele>4502.91</ele></trkpt>
            <trkpt lat="-18.235431" lon="-69.2772789"><ele>4507.74</ele></trkpt>
            <trkpt lat="-18.2357513" lon="-69.2769698"><ele>4508.99</ele></trkpt>
            <trkpt lat="-18.2359175" lon="-69.2767319"><ele>4509.73</ele></trkpt>
            <trkpt lat="-18.2360791" lon="-69.2763032"><ele>4510.82</ele></trkpt>
            <trkpt lat="-18.2360897" lon="-69.2761759"><ele>4511.11</ele></trkpt>
            <trkpt lat="-18.236078" lon="-69.2758653"><ele>4511.8</ele></trkpt>
            <trkpt lat="-18.2359658" lon="-69.2755626"><ele>4512.5</ele></trkpt>
            <trkpt lat="-18.2355985" lon="-69.2750691"><ele>4513.76</ele></trkpt>
            <trkpt lat="-18.23494" lon="-69.274365"><ele>4515.48</ele></trkpt>
            <trkpt lat="-18.2343589" lon="-69.2737442"><ele>4516.51</ele></trkpt>
            <trkpt lat="-18.2321678" lon="-69.2714033"><ele>4518.26</ele></trkpt>
            <trkpt lat="-18.2319609" lon="-69.2711815"><ele>4518.24</ele></trkpt>
            <trkpt lat="-18.23148" lon="-69.27073"><ele>4517.96</ele></trkpt>
            <trkpt lat="-18.23116" lon="-69.27043"><ele>4518.33</ele></trkpt>
            <trkpt lat="-18.2297184" lon="-69.2690779"><ele>4523.24</ele></trkpt>
            <trkpt lat="-18.229445" lon="-69.2687936"><ele>4524.5</ele></trkpt>
            <trkpt lat="-18.2292328" lon="-69.2685354"><ele>4525.72</ele></trkpt>
            <trkpt lat="-18.2291463" lon="-69.2683666"><ele>4526.45</ele></trkpt>
            <trkpt lat="-18.2289694" lon="-69.2679427"><ele>4528.25</ele></trkpt>
            <trkpt lat="-18.2288931" lon="-69.2676295"><ele>4529.49</ele></trkpt>
            <trkpt lat="-18.2288732" lon="-69.2673763"><ele>4530.41</ele></trkpt>
            <trkpt lat="-18.2288182" lon="-69.2665648"><ele>4532.96</ele></trkpt>
            <trkpt lat="-18.2287664" lon="-69.2663354"><ele>4533.6</ele></trkpt>
            <trkpt lat="-18.2286708" lon="-69.2661132"><ele>4534.22</ele></trkpt>
            <trkpt lat="-18.2285827" lon="-69.2659778"><ele>4534.61</ele></trkpt>
            <trkpt lat="-18.2284168" lon="-69.2658007"><ele>4535.18</ele></trkpt>
            <trkpt lat="-18.2281964" lon="-69.2656488"><ele>4535.8</ele></trkpt>
            <trkpt lat="-18.228008" lon="-69.2655779"><ele>4536.26</ele></trkpt>
            <trkpt lat="-18.2275894" lon="-69.2655307"><ele>4537.26</ele></trkpt>
            <trkpt lat="-18.2269045" lon="-69.2655237"><ele>4539.13</ele></trkpt>
            <trkpt lat="-18.2264017" lon="-69.2655325"><ele>4540.75</ele></trkpt>
            <trkpt lat="-18.2258607" lon="-69.265447"><ele>4542.74</ele></trkpt>
            <trkpt lat="-18.2255309" lon="-69.2653376"><ele>4544.08</ele></trkpt>
            <trkpt lat="-18.2251284" lon="-69.265179"><ele>4545.77</ele></trkpt>
            <trkpt lat="-18.2243722" lon="-69.2648205"><ele>4548.99</ele></trkpt>
            <trkpt lat="-18.2240677" lon="-69.2646274"><ele>4550.36</ele></trkpt>
            <trkpt lat="-18.2237587" lon="-69.2643676"><ele>4551.85</ele></trkpt>
            <trkpt lat="-18.2236346" lon="-69.2642403"><ele>4552.5</ele></trkpt>
            <trkpt lat="-18.2235234" lon="-69.2641028"><ele>4553.13</ele></trkpt>
            <trkpt lat="-18.2234091" lon="-69.263906"><ele>4553.93</ele></trkpt>
            <trkpt lat="-18.2233194" lon="-69.263696"><ele>4554.73</ele></trkpt>
            <trkpt lat="-18.2231842" lon="-69.2632411"><ele>4556.37</ele></trkpt>
            <trkpt lat="-18.2228725" lon="-69.2620461"><ele>4560.69</ele></trkpt>
            <trkpt lat="-18.2228469" lon="-69.2619154"><ele>4561.18</ele></trkpt>
            <trkpt lat="-18.2228207" lon="-69.2616034"><ele>4562.37</ele></trkpt>
            <trkpt lat="-18.2228206" lon="-69.2612367"><ele>4563.81</ele></trkpt>
            <trkpt lat="-18.2228507" lon="-69.2608318"><ele>4565.38</ele></trkpt>
            <trkpt lat="-18.22298" lon="-69.26018"><ele>4567.78</ele></trkpt>
            <trkpt lat="-18.2231093" lon="-69.2595299"><ele>4569.74</ele></trkpt>
            <trkpt lat="-18.2231601" lon="-69.258977"><ele>4570.69</ele></trkpt>
            <trkpt lat="-18.223207" lon="-69.25833"><ele>4570.69</ele></trkpt>
            <trkpt lat="-18.2231887" lon="-69.2581064"><ele>4570.44</ele></trkpt>
            <trkpt lat="-18.2230942" lon="-69.2571133"><ele>4568.84</ele></trkpt>
            <trkpt lat="-18.2228723" lon="-69.2547814"><ele>4565.77</ele></trkpt>
            <trkpt lat="-18.2227854" lon="-69.2538689"><ele>4565.67</ele></trkpt>
            <trkpt lat="-18.2227564" lon="-69.2535647"><ele>4566.01</ele></trkpt>
            <trkpt lat="-18.2221" lon="-69.2466703"><ele>4581.33</ele></trkpt>
            <trkpt lat="-18.2220035" lon="-69.2456564"><ele>4583.39</ele></trkpt>
            <trkpt lat="-18.2218196" lon="-69.2437307"><ele>4586.22</ele></trkpt>
            <trkpt lat="-18.2217189" lon="-69.2431096"><ele>4587.16</ele></trkpt>
            <trkpt lat="-18.2215193" lon="-69.2424307"><ele>4588.29</ele></trkpt>
            <trkpt lat="-18.2211297" lon="-69.2414806"><ele>4589.99</ele></trkpt>
            <trkpt lat="-18.2192809" lon="-69.2377316"><ele>4597.23</ele></trkpt>
            <trkpt lat="-18.218989" lon="-69.2371069"><ele>4598.7</ele></trkpt>
            <trkpt lat="-18.2187317" lon="-69.2364709"><ele>4600.3</ele></trkpt>
            <trkpt lat="-18.2179599" lon="-69.2328687"><ele>4609.51</ele></trkpt>
            <trkpt lat="-18.2175605" lon="-69.2307485"><ele>4617.31</ele></trkpt>
            <trkpt lat="-18.217511" lon="-69.2302699"><ele>4619.28</ele></trkpt>
            <trkpt lat="-18.2175106" lon="-69.2298547"><ele>4621.1</ele></trkpt>
            <trkpt lat="-18.217578" lon="-69.2294461"><ele>4622.96</ele></trkpt>
            <trkpt lat="-18.2177156" lon="-69.22871"><ele>4626.08</ele></trkpt>
            <trkpt lat="-18.2178799" lon="-69.2278296"><ele>4628.77</ele></trkpt>
            <trkpt lat="-18.21818" lon="-69.225868"><ele>4632.86</ele></trkpt>
            <trkpt lat="-18.2182795" lon="-69.2249692"><ele>4634.14</ele></trkpt>
            <trkpt lat="-18.2183295" lon="-69.2240015"><ele>4635.02</ele></trkpt>
            <trkpt lat="-18.2183575" lon="-69.217833"><ele>4638.85</ele></trkpt>
            <trkpt lat="-18.2183616" lon="-69.217716"><ele>4638.96</ele></trkpt>
            <trkpt lat="-18.2184729" lon="-69.2170909"><ele>4639.78</ele></trkpt>
            <trkpt lat="-18.2188532" lon="-69.2160826"><ele>4641.49</ele></trkpt>
            <trkpt lat="-18.2193594" lon="-69.2152413"><ele>4643.14</ele></trkpt>
            <trkpt lat="-18.2207704" lon="-69.2130187"><ele>4647.89</ele></trkpt>
            <trkpt lat="-18.2211291" lon="-69.2123905"><ele>4649.13</ele></trkpt>
            <trkpt lat="-18.2213999" lon="-69.2118044"><ele>4649.85</ele></trkpt>
            <trkpt lat="-18.2216" lon="-69.2113258"><ele>4649.9</ele></trkpt>
            <trkpt lat="-18.2216737" lon="-69.2111343"><ele>4649.76</ele></trkpt>
            <trkpt lat="-18.2231612" lon="-69.2069206"><ele>4643.34</ele></trkpt>
            <trkpt lat="-18.2235002" lon="-69.2063004"><ele>4642.04</ele></trkpt>
            <trkpt lat="-18.2238703" lon="-69.2056911"><ele>4640.44</ele></trkpt>
            <trkpt lat="-18.2246401" lon="-69.2046987"><ele>4637.09</ele></trkpt>
            <trkpt lat="-18.2249086" lon="-69.20428"><ele>4635.59</ele></trkpt>
            <trkpt lat="-18.225159" lon="-69.2037091"><ele>4633.66</ele></trkpt>
            <trkpt lat="-18.225389" lon="-69.2028215"><ele>4631.51</ele></trkpt>
            <trkpt lat="-18.2254252" lon="-69.2026019"><ele>4631.21</ele></trkpt>
            <trkpt lat="-18.2257607" lon="-69.2005282"><ele>4629.5</ele></trkpt>
            <trkpt lat="-18.2263406" lon="-69.1977497"><ele>4626.88</ele></trkpt>
            <trkpt lat="-18.2265204" lon="-69.1970804"><ele>4626.09</ele></trkpt>
            <trkpt lat="-18.2269585" lon="-69.1957551"><ele>4624.57</ele></trkpt>
            <trkpt lat="-18.2270624" lon="-69.1955062"><ele>4624.44</ele></trkpt>
            <trkpt lat="-18.2272596" lon="-69.1951513"><ele>4624.44</ele></trkpt>
            <trkpt lat="-18.2274797" lon="-69.1948081"><ele>4624.36</ele></trkpt>
            <trkpt lat="-18.2277275" lon="-69.1945337"><ele>4623.76</ele></trkpt>
            <trkpt lat="-18.2280174" lon="-69.1942574"><ele>4622.15</ele></trkpt>
            <trkpt lat="-18.2296668" lon="-69.1926873"><ele>4608.11</ele></trkpt>
            <trkpt lat="-18.2298762" lon="-69.1923529"><ele>4605.88</ele></trkpt>
            <trkpt lat="-18.2299773" lon="-69.1920123"><ele>4604.13</ele></trkpt>
            <trkpt lat="-18.2300014" lon="-69.1918224"><ele>4603.34</ele></trkpt>
            <trkpt lat="-18.2299801" lon="-69.191413"><ele>4601.98</ele></trkpt>
            <trkpt lat="-18.2299349" lon="-69.1911903"><ele>4601.43</ele></trkpt>
            <trkpt lat="-18.2298121" lon="-69.1909153"><ele>4600.95</ele></trkpt>
            <trkpt lat="-18.2287903" lon="-69.1888376"><ele>4599.25</ele></trkpt>
            <trkpt lat="-18.2287329" lon="-69.1886475"><ele>4599.04</ele></trkpt>
            <trkpt lat="-18.2286974" lon="-69.188451"><ele>4598.77</ele></trkpt>
            <trkpt lat="-18.2286846" lon="-69.1882311"><ele>4598.35</ele></trkpt>
            <trkpt lat="-18.2287025" lon="-69.1879963"><ele>4597.74</ele></trkpt>
            <trkpt lat="-18.2287655" lon="-69.1877208"><ele>4596.75</ele></trkpt>
            <trkpt lat="-18.2289114" lon="-69.1873864"><ele>4595.15</ele></trkpt>
            <trkpt lat="-18.2290393" lon="-69.187192"><ele>4593.98</ele></trkpt>
            <trkpt lat="-18.229125" lon="-69.187089"><ele>4593.25</ele></trkpt>
            <trkpt lat="-18.2292953" lon="-69.1869272"><ele>4591.94</ele></trkpt>
            <trkpt lat="-18.2295829" lon="-69.1867391"><ele>4590.02</ele></trkpt>
            <trkpt lat="-18.23021" lon="-69.18645"><ele>4586.53</ele></trkpt>
            <trkpt lat="-18.2308386" lon="-69.1861598"><ele>4583.99</ele></trkpt>
            <trkpt lat="-18.2311987" lon="-69.1859397"><ele>4583.35</ele></trkpt>
            <trkpt lat="-18.2314516" lon="-69.1857177"><ele>4583.71</ele></trkpt>
            <trkpt lat="-18.2320616" lon="-69.1850802"><ele>4586.24</ele></trkpt>
            <trkpt lat="-18.2322761" lon="-69.1849087"><ele>4587.21</ele></trkpt>
            <trkpt lat="-18.2324285" lon="-69.1848042"><ele>4587.92</ele></trkpt>
            <trkpt lat="-18.2325914" lon="-69.1847126"><ele>4588.68</ele></trkpt>
            <trkpt lat="-18.2330543" lon="-69.1845421"><ele>4590.78</ele></trkpt>
        </trkseg>
    </trk>
</gpx>
