<?xml version="1.0" encoding="UTF-8"?>
<gpx version="1.1" creator="GPX Segmenter" xmlns="http://www.topografix.com/GPX/1/1">
  <trk>
    <name>Grassroots Gravel - The Half - Segment 3 of 4</name>
    <trkseg>
      <trkpt lat="38.071139" lon="-104.962501">
        <ele>1882.0</ele>
      </trkpt>
      <trkpt lat="38.071288" lon="-104.962675">
        <ele>1882.1</ele>
      </trkpt>
      <trkpt lat="38.071343" lon="-104.962751">
        <ele>1882.2</ele>
      </trkpt>
      <trkpt lat="38.071415" lon="-104.962872">
        <ele>1882.3</ele>
      </trkpt>
      <trkpt lat="38.071522" lon="-104.963090">
        <ele>1882.5</ele>
      </trkpt>
      <trkpt lat="38.071588" lon="-104.963293">
        <ele>1882.7</ele>
      </trkpt>
      <trkpt lat="38.071780" lon="-104.963940">
        <ele>1883.2</ele>
      </trkpt>
      <trkpt lat="38.072080" lon="-104.965259">
        <ele>1884.6</ele>
      </trkpt>
      <trkpt lat="38.072143" lon="-104.965434">
        <ele>1884.8</ele>
      </trkpt>
      <trkpt lat="38.072254" lon="-104.965651">
        <ele>1885.0</ele>
      </trkpt>
      <trkpt lat="38.072302" lon="-104.965717">
        <ele>1885.1</ele>
      </trkpt>
      <trkpt lat="38.072359" lon="-104.965772">
        <ele>1885.1</ele>
      </trkpt>
      <trkpt lat="38.072579" lon="-104.965929">
        <ele>1885.2</ele>
      </trkpt>
      <trkpt lat="38.072961" lon="-104.966131">
        <ele>1885.6</ele>
      </trkpt>
      <trkpt lat="38.073418" lon="-104.966339">
        <ele>1887.8</ele>
      </trkpt>
      <trkpt lat="38.073583" lon="-104.966391">
        <ele>1889.3</ele>
      </trkpt>
      <trkpt lat="38.074719" lon="-104.966585">
        <ele>1895.8</ele>
      </trkpt>
      <trkpt lat="38.074951" lon="-104.966697">
        <ele>1896.5</ele>
      </trkpt>
      <trkpt lat="38.075052" lon="-104.966762">
        <ele>1896.9</ele>
      </trkpt>
      <trkpt lat="38.075142" lon="-104.966836">
        <ele>1897.3</ele>
      </trkpt>
      <trkpt lat="38.075269" lon="-104.966966">
        <ele>1898.2</ele>
      </trkpt>
      <trkpt lat="38.075401" lon="-104.967146">
        <ele>1899.5</ele>
      </trkpt>
      <trkpt lat="38.075518" lon="-104.967366">
        <ele>1901.0</ele>
      </trkpt>
      <trkpt lat="38.075856" lon="-104.968293">
        <ele>1904.3</ele>
      </trkpt>
      <trkpt lat="38.075960" lon="-104.968533">
        <ele>1904.7</ele>
      </trkpt>
      <trkpt lat="38.076007" lon="-104.968621">
        <ele>1904.8</ele>
      </trkpt>
      <trkpt lat="38.076647" lon="-104.969624">
        <ele>1906.9</ele>
      </trkpt>
      <trkpt lat="38.076764" lon="-104.969856">
        <ele>1907.4</ele>
      </trkpt>
      <trkpt lat="38.076794" lon="-104.969960">
        <ele>1907.6</ele>
      </trkpt>
      <trkpt lat="38.076826" lon="-104.970160">
        <ele>1907.8</ele>
      </trkpt>
      <trkpt lat="38.076817" lon="-104.970714">
        <ele>1908.4</ele>
      </trkpt>
      <trkpt lat="38.076800" lon="-104.970954">
        <ele>1908.4</ele>
      </trkpt>
      <trkpt lat="38.076807" lon="-104.971024">
        <ele>1908.4</ele>
      </trkpt>
      <trkpt lat="38.076837" lon="-104.971074">
        <ele>1908.4</ele>
      </trkpt>
      <trkpt lat="38.076888" lon="-104.971101">
        <ele>1908.2</ele>
      </trkpt>
      <trkpt lat="38.076999" lon="-104.971089">
        <ele>1907.9</ele>
      </trkpt>
      <trkpt lat="38.077134" lon="-104.971090">
        <ele>1907.3</ele>
      </trkpt>
      <trkpt lat="38.079728" lon="-104.971250">
        <ele>1895.7</ele>
      </trkpt>
      <trkpt lat="38.079903" lon="-104.971285">
        <ele>1895.9</ele>
      </trkpt>
      <trkpt lat="38.080119" lon="-104.971364">
        <ele>1896.0</ele>
      </trkpt>
      <trkpt lat="38.080341" lon="-104.971495">
        <ele>1896.1</ele>
      </trkpt>
      <trkpt lat="38.080701" lon="-104.971763">
        <ele>1896.5</ele>
      </trkpt>
      <trkpt lat="38.080799" lon="-104.971818">
        <ele>1896.7</ele>
      </trkpt>
      <trkpt lat="38.080897" lon="-104.971856">
        <ele>1897.0</ele>
      </trkpt>
      <trkpt lat="38.081012" lon="-104.971878">
        <ele>1897.3</ele>
      </trkpt>
      <trkpt lat="38.081157" lon="-104.971890">
        <ele>1897.8</ele>
      </trkpt>
      <trkpt lat="38.082261" lon="-104.971950">
        <ele>1902.9</ele>
      </trkpt>
      <trkpt lat="38.082324" lon="-104.971965">
        <ele>1903.2</ele>
      </trkpt>
      <trkpt lat="38.082387" lon="-104.971992">
        <ele>1903.5</ele>
      </trkpt>
      <trkpt lat="38.082433" lon="-104.972022">
        <ele>1903.8</ele>
      </trkpt>
      <trkpt lat="38.082461" lon="-104.972053">
        <ele>1903.9</ele>
      </trkpt>
      <trkpt lat="38.083120" lon="-104.973339">
        <ele>1904.7</ele>
      </trkpt>
      <trkpt lat="38.083609" lon="-104.974089">
        <ele>1908.4</ele>
      </trkpt>
      <trkpt lat="38.084320" lon="-104.975560">
        <ele>1911.6</ele>
      </trkpt>
      <trkpt lat="38.084720" lon="-104.976269">
        <ele>1912.4</ele>
      </trkpt>
      <trkpt lat="38.084955" lon="-104.976604">
        <ele>1913.2</ele>
      </trkpt>
      <trkpt lat="38.085066" lon="-104.976900">
        <ele>1913.4</ele>
      </trkpt>
      <trkpt lat="38.085111" lon="-104.976998">
        <ele>1913.3</ele>
      </trkpt>
      <trkpt lat="38.085552" lon="-104.977672">
        <ele>1912.0</ele>
      </trkpt>
      <trkpt lat="38.085928" lon="-104.978162">
        <ele>1913.8</ele>
      </trkpt>
      <trkpt lat="38.086320" lon="-104.978879">
        <ele>1917.2</ele>
      </trkpt>
      <trkpt lat="38.087361" lon="-104.980640">
        <ele>1922.3</ele>
      </trkpt>
      <trkpt lat="38.087403" lon="-104.980741">
        <ele>1922.2</ele>
      </trkpt>
      <trkpt lat="38.087499" lon="-104.981039">
        <ele>1921.8</ele>
      </trkpt>
      <trkpt lat="38.088074" lon="-104.983087">
        <ele>1926.4</ele>
      </trkpt>
      <trkpt lat="38.088199" lon="-104.983330">
        <ele>1927.6</ele>
      </trkpt>
      <trkpt lat="38.088361" lon="-104.983581">
        <ele>1928.8</ele>
      </trkpt>
      <trkpt lat="38.088688" lon="-104.983979">
        <ele>1930.1</ele>
      </trkpt>
      <trkpt lat="38.089000" lon="-104.984492">
        <ele>1930.1</ele>
      </trkpt>
      <trkpt lat="38.089130" lon="-104.984803">
        <ele>1930.1</ele>
      </trkpt>
      <trkpt lat="38.089162" lon="-104.984902">
        <ele>1930.2</ele>
      </trkpt>
      <trkpt lat="38.089500" lon="-104.986299">
        <ele>1932.9</ele>
      </trkpt>
      <trkpt lat="38.089823" lon="-104.987479">
        <ele>1934.3</ele>
      </trkpt>
      <trkpt lat="38.089908" lon="-104.987670">
        <ele>1934.2</ele>
      </trkpt>
      <trkpt lat="38.089959" lon="-104.987754">
        <ele>1934.1</ele>
      </trkpt>
      <trkpt lat="38.090073" lon="-104.987870">
        <ele>1933.9</ele>
      </trkpt>
      <trkpt lat="38.090287" lon="-104.988065">
        <ele>1933.4</ele>
      </trkpt>
      <trkpt lat="38.090296" lon="-104.988091">
        <ele>1933.4</ele>
      </trkpt>
      <trkpt lat="38.090290" lon="-104.988112">
        <ele>1933.4</ele>
      </trkpt>
      <trkpt lat="38.090272" lon="-104.988124">
        <ele>1933.4</ele>
      </trkpt>
      <trkpt lat="38.090245" lon="-104.988126">
        <ele>1933.3</ele>
      </trkpt>
      <trkpt lat="38.089433" lon="-104.988036">
        <ele>1931.9</ele>
      </trkpt>
      <trkpt lat="38.089261" lon="-104.987976">
        <ele>1931.6</ele>
      </trkpt>
      <trkpt lat="38.089199" lon="-104.987937">
        <ele>1931.5</ele>
      </trkpt>
      <trkpt lat="38.089111" lon="-104.987866">
        <ele>1931.2</ele>
      </trkpt>
      <trkpt lat="38.088899" lon="-104.987655">
        <ele>1930.7</ele>
      </trkpt>
      <trkpt lat="38.088821" lon="-104.987559">
        <ele>1930.6</ele>
      </trkpt>
      <trkpt lat="38.088776" lon="-104.987485">
        <ele>1930.5</ele>
      </trkpt>
      <trkpt lat="38.088738" lon="-104.987376">
        <ele>1930.5</ele>
      </trkpt>
      <trkpt lat="38.088616" lon="-104.986854">
        <ele>1930.6</ele>
      </trkpt>
      <trkpt lat="38.088592" lon="-104.986786">
        <ele>1930.7</ele>
      </trkpt>
      <trkpt lat="38.088565" lon="-104.986742">
        <ele>1930.8</ele>
      </trkpt>
      <trkpt lat="38.087994" lon="-104.986072">
        <ele>1933.0</ele>
      </trkpt>
      <trkpt lat="38.087880" lon="-104.986000">
        <ele>1933.6</ele>
      </trkpt>
      <trkpt lat="38.087758" lon="-104.985954">
        <ele>1934.3</ele>
      </trkpt>
      <trkpt lat="38.086646" lon="-104.985951">
        <ele>1941.1</ele>
      </trkpt>
      <trkpt lat="38.086518" lon="-104.985961">
        <ele>1941.8</ele>
      </trkpt>
      <trkpt lat="38.086420" lon="-104.985989">
        <ele>1942.3</ele>
      </trkpt>
      <trkpt lat="38.086363" lon="-104.986018">
        <ele>1942.5</ele>
      </trkpt>
      <trkpt lat="38.086294" lon="-104.986078">
        <ele>1942.9</ele>
      </trkpt>
      <trkpt lat="38.085525" lon="-104.986852">
        <ele>1945.2</ele>
      </trkpt>
      <trkpt lat="38.085469" lon="-104.986886">
        <ele>1945.3</ele>
      </trkpt>
      <trkpt lat="38.085379" lon="-104.986902">
        <ele>1945.4</ele>
      </trkpt>
      <trkpt lat="38.085315" lon="-104.986889">
        <ele>1945.5</ele>
      </trkpt>
      <trkpt lat="38.085243" lon="-104.986854">
        <ele>1945.6</ele>
      </trkpt>
      <trkpt lat="38.085197" lon="-104.986811">
        <ele>1945.7</ele>
      </trkpt>
      <trkpt lat="38.085174" lon="-104.986764">
        <ele>1945.8</ele>
      </trkpt>
      <trkpt lat="38.085152" lon="-104.986597">
        <ele>1946.3</ele>
      </trkpt>
      <trkpt lat="38.085155" lon="-104.986156">
        <ele>1948.3</ele>
      </trkpt>
      <trkpt lat="38.085146" lon="-104.986102">
        <ele>1948.5</ele>
      </trkpt>
      <trkpt lat="38.085125" lon="-104.986044">
        <ele>1948.7</ele>
      </trkpt>
      <trkpt lat="38.085091" lon="-104.985994">
        <ele>1948.8</ele>
      </trkpt>
      <trkpt lat="38.085047" lon="-104.985961">
        <ele>1949.0</ele>
      </trkpt>
      <trkpt lat="38.084995" lon="-104.985943">
        <ele>1949.1</ele>
      </trkpt>
      <trkpt lat="38.084859" lon="-104.985922">
        <ele>1949.3</ele>
      </trkpt>
      <trkpt lat="38.082078" lon="-104.985810">
        <ele>1957.4</ele>
      </trkpt>
      <trkpt lat="38.079621" lon="-104.985760">
        <ele>1939.6</ele>
      </trkpt>
      <trkpt lat="38.076906" lon="-104.985670">
        <ele>1935.5</ele>
      </trkpt>
      <trkpt lat="38.076712" lon="-104.985678">
        <ele>1938.4</ele>
      </trkpt>
      <trkpt lat="38.076657" lon="-104.985660">
        <ele>1939.2</ele>
      </trkpt>
      <trkpt lat="38.076620" lon="-104.985615">
        <ele>1939.8</ele>
      </trkpt>
      <trkpt lat="38.076606" lon="-104.985548">
        <ele>1940.4</ele>
      </trkpt>
      <trkpt lat="38.076618" lon="-104.985420">
        <ele>1941.5</ele>
      </trkpt>
      <trkpt lat="38.076623" lon="-104.985251">
        <ele>1942.7</ele>
      </trkpt>
      <trkpt lat="38.076660" lon="-104.981060">
        <ele>1941.0</ele>
      </trkpt>
      <trkpt lat="38.076700" lon="-104.979183">
        <ele>1934.8</ele>
      </trkpt>
      <trkpt lat="38.076696" lon="-104.979071">
        <ele>1934.0</ele>
      </trkpt>
      <trkpt lat="38.076678" lon="-104.978920">
        <ele>1932.9</ele>
      </trkpt>
      <trkpt lat="38.076708" lon="-104.978675">
        <ele>1930.9</ele>
      </trkpt>
      <trkpt lat="38.076715" lon="-104.978493">
        <ele>1929.7</ele>
      </trkpt>
      <trkpt lat="38.076739" lon="-104.976721">
        <ele>1927.3</ele>
      </trkpt>
      <trkpt lat="38.076749" lon="-104.976611">
        <ele>1927.2</ele>
      </trkpt>
      <trkpt lat="38.076745" lon="-104.976554">
        <ele>1927.2</ele>
      </trkpt>
      <trkpt lat="38.076717" lon="-104.976499">
        <ele>1927.1</ele>
      </trkpt>
      <trkpt lat="38.076680" lon="-104.976473">
        <ele>1926.9</ele>
      </trkpt>
      <trkpt lat="38.076656" lon="-104.976467">
        <ele>1926.8</ele>
      </trkpt>
      <trkpt lat="38.076446" lon="-104.976473">
        <ele>1925.7</ele>
      </trkpt>
      <trkpt lat="38.069339" lon="-104.976314">
        <ele>1908.1</ele>
      </trkpt>
      <trkpt lat="38.068944" lon="-104.976307">
        <ele>1910.3</ele>
      </trkpt>
      <trkpt lat="38.068794" lon="-104.976312">
        <ele>1911.0</ele>
      </trkpt>
      <trkpt lat="38.068740" lon="-104.976295">
        <ele>1911.2</ele>
      </trkpt>
      <trkpt lat="38.068715" lon="-104.976253">
        <ele>1911.4</ele>
      </trkpt>
      <trkpt lat="38.068718" lon="-104.976182">
        <ele>1911.6</ele>
      </trkpt>
      <trkpt lat="38.068832" lon="-104.975715">
        <ele>1912.3</ele>
      </trkpt>
      <trkpt lat="38.069279" lon="-104.973732">
        <ele>1910.6</ele>
      </trkpt>
      <trkpt lat="38.069670" lon="-104.970790">
        <ele>1905.0</ele>
      </trkpt>
      <trkpt lat="38.069731" lon="-104.970457">
        <ele>1905.3</ele>
      </trkpt>
      <trkpt lat="38.069889" lon="-104.969924">
        <ele>1904.8</ele>
      </trkpt>
      <trkpt lat="38.070101" lon="-104.969449">
        <ele>1904.2</ele>
      </trkpt>
      <trkpt lat="38.070810" lon="-104.968150">
        <ele>1900.3</ele>
      </trkpt>
      <trkpt lat="38.071812" lon="-104.966176">
        <ele>1888.1</ele>
      </trkpt>
      <trkpt lat="38.072017" lon="-104.965728">
        <ele>1886.0</ele>
      </trkpt>
      <trkpt lat="38.072055" lon="-104.965591">
        <ele>1885.6</ele>
      </trkpt>
      <trkpt lat="38.072079" lon="-104.965411">
        <ele>1885.1</ele>
      </trkpt>
      <trkpt lat="38.072078" lon="-104.965298">
        <ele>1884.8</ele>
      </trkpt>
      <trkpt lat="38.072063" lon="-104.965186">
        <ele>1884.6</ele>
      </trkpt>
      <trkpt lat="38.071780" lon="-104.963940">
        <ele>1883.2</ele>
      </trkpt>
      <trkpt lat="38.071533" lon="-104.963115">
        <ele>1882.5</ele>
      </trkpt>
      <trkpt lat="38.071480" lon="-104.963001">
        <ele>1882.4</ele>
      </trkpt>
      <trkpt lat="38.071415" lon="-104.962872">
        <ele>1882.3</ele>
      </trkpt>
      <trkpt lat="38.071318" lon="-104.962713">
        <ele>1882.1</ele>
      </trkpt>
      <trkpt lat="38.071139" lon="-104.962501">
        <ele>1882.0</ele>
      </trkpt>
      <trkpt lat="38.070349" lon="-104.961719">
        <ele>1880.1</ele>
      </trkpt>
      <trkpt lat="38.070100" lon="-104.961419">
        <ele>1879.4</ele>
      </trkpt>
      <trkpt lat="38.069961" lon="-104.961191">
        <ele>1878.5</ele>
      </trkpt>
      <trkpt lat="38.069677" lon="-104.960602">
        <ele>1877.3</ele>
      </trkpt>
      <trkpt lat="38.069644" lon="-104.960496">
        <ele>1877.1</ele>
      </trkpt>
      <trkpt lat="38.069522" lon="-104.959951">
        <ele>1875.9</ele>
      </trkpt>
      <trkpt lat="38.069507" lon="-104.959847">
        <ele>1875.7</ele>
      </trkpt>
      <trkpt lat="38.069491" lon="-104.959596">
        <ele>1875.5</ele>
      </trkpt>
      <trkpt lat="38.069560" lon="-104.954618">
        <ele>1877.5</ele>
      </trkpt>
      <trkpt lat="38.069590" lon="-104.954028">
        <ele>1883.0</ele>
      </trkpt>
      <trkpt lat="38.069619" lon="-104.953759">
        <ele>1884.5</ele>
      </trkpt>
      <trkpt lat="38.069663" lon="-104.953497">
        <ele>1885.7</ele>
      </trkpt>
      <trkpt lat="38.069716" lon="-104.953268">
        <ele>1887.1</ele>
      </trkpt>
      <trkpt lat="38.069781" lon="-104.953044">
        <ele>1888.7</ele>
      </trkpt>
      <trkpt lat="38.069868" lon="-104.952801">
        <ele>1890.4</ele>
      </trkpt>
      <trkpt lat="38.069920" lon="-104.952681">
        <ele>1891.3</ele>
      </trkpt>
      <trkpt lat="38.069973" lon="-104.952561">
        <ele>1892.3</ele>
      </trkpt>
      <trkpt lat="38.070088" lon="-104.952346">
        <ele>1894.0</ele>
      </trkpt>
      <trkpt lat="38.070218" lon="-104.952153">
        <ele>1895.6</ele>
      </trkpt>
      <trkpt lat="38.070740" lon="-104.951521">
        <ele>1899.6</ele>
      </trkpt>
      <trkpt lat="38.072209" lon="-104.950021">
        <ele>1905.7</ele>
      </trkpt>
      <trkpt lat="38.075950" lon="-104.946160">
        <ele>1890.3</ele>
      </trkpt>
      <trkpt lat="38.076801" lon="-104.945208">
        <ele>1885.5</ele>
      </trkpt>
      <trkpt lat="38.077359" lon="-104.944411">
        <ele>1881.6</ele>
      </trkpt>
      <trkpt lat="38.078851" lon="-104.942139">
        <ele>1874.5</ele>
      </trkpt>
      <trkpt lat="38.080443" lon="-104.939752">
        <ele>1868.9</ele>
      </trkpt>
      <trkpt lat="38.080629" lon="-104.939493">
        <ele>1868.6</ele>
      </trkpt>
      <trkpt lat="38.080653" lon="-104.939437">
        <ele>1868.5</ele>
      </trkpt>
      <trkpt lat="38.080651" lon="-104.939418">
        <ele>1868.5</ele>
      </trkpt>
      <trkpt lat="38.080638" lon="-104.939402">
        <ele>1868.5</ele>
      </trkpt>
      <trkpt lat="38.080596" lon="-104.939393">
        <ele>1868.4</ele>
      </trkpt>
      <trkpt lat="38.080323" lon="-104.939393">
        <ele>1867.5</ele>
      </trkpt>
      <trkpt lat="38.076900" lon="-104.939240">
        <ele>1858.5</ele>
      </trkpt>
      <trkpt lat="38.075608" lon="-104.939170">
        <ele>1857.6</ele>
      </trkpt>
      <trkpt lat="38.075171" lon="-104.939116">
        <ele>1857.7</ele>
      </trkpt>
      <trkpt lat="38.074963" lon="-104.939045">
        <ele>1857.4</ele>
      </trkpt>
      <trkpt lat="38.074658" lon="-104.938902">
        <ele>1856.5</ele>
      </trkpt>
      <trkpt lat="38.074473" lon="-104.938789">
        <ele>1855.7</ele>
      </trkpt>
      <trkpt lat="38.074313" lon="-104.938657">
        <ele>1854.9</ele>
      </trkpt>
      <trkpt lat="38.074232" lon="-104.938565">
        <ele>1854.4</ele>
      </trkpt>
      <trkpt lat="38.074083" lon="-104.938364">
        <ele>1853.2</ele>
      </trkpt>
      <trkpt lat="38.073941" lon="-104.938142">
        <ele>1851.4</ele>
      </trkpt>
      <trkpt lat="38.073378" lon="-104.937088">
        <ele>1842.0</ele>
      </trkpt>
      <trkpt lat="38.073235" lon="-104.936875">
        <ele>1839.4</ele>
      </trkpt>
      <trkpt lat="38.073182" lon="-104.936813">
        <ele>1838.7</ele>
      </trkpt>
      <trkpt lat="38.073124" lon="-104.936755">
        <ele>1838.1</ele>
      </trkpt>
      <trkpt lat="38.073025" lon="-104.936682">
        <ele>1837.0</ele>
      </trkpt>
      <trkpt lat="38.072934" lon="-104.936632">
        <ele>1836.1</ele>
      </trkpt>
      <trkpt lat="38.072763" lon="-104.936568">
        <ele>1834.7</ele>
      </trkpt>
      <trkpt lat="38.072684" lon="-104.936551">
        <ele>1834.3</ele>
      </trkpt>
      <trkpt lat="38.072592" lon="-104.936541">
        <ele>1833.9</ele>
      </trkpt>
      <trkpt lat="38.072492" lon="-104.936547">
        <ele>1833.6</ele>
      </trkpt>
      <trkpt lat="38.072394" lon="-104.936567">
        <ele>1833.5</ele>
      </trkpt>
      <trkpt lat="38.072305" lon="-104.936599">
        <ele>1833.5</ele>
      </trkpt>
      <trkpt lat="38.072179" lon="-104.936669">
        <ele>1833.6</ele>
      </trkpt>
      <trkpt lat="38.072036" lon="-104.936780">
        <ele>1834.2</ele>
      </trkpt>
      <trkpt lat="38.071922" lon="-104.936883">
        <ele>1835.5</ele>
      </trkpt>
      <trkpt lat="38.071130" lon="-104.937870">
        <ele>1850.3</ele>
      </trkpt>
      <trkpt lat="38.070805" lon="-104.938194">
        <ele>1854.4</ele>
      </trkpt>
      <trkpt lat="38.070595" lon="-104.938370">
        <ele>1857.0</ele>
      </trkpt>
      <trkpt lat="38.070517" lon="-104.938422">
        <ele>1858.0</ele>
      </trkpt>
      <trkpt lat="38.070374" lon="-104.938496">
        <ele>1859.8</ele>
      </trkpt>
      <trkpt lat="38.070172" lon="-104.938579">
        <ele>1862.1</ele>
      </trkpt>
      <trkpt lat="38.069953" lon="-104.938639">
        <ele>1863.9</ele>
      </trkpt>
      <trkpt lat="38.069670" lon="-104.938690">
        <ele>1866.4</ele>
      </trkpt>
      <trkpt lat="38.068859" lon="-104.938740">
        <ele>1870.7</ele>
      </trkpt>
      <trkpt lat="38.065971" lon="-104.938818">
        <ele>1869.7</ele>
      </trkpt>
      <trkpt lat="38.065832" lon="-104.938841">
        <ele>1869.9</ele>
      </trkpt>
      <trkpt lat="38.065648" lon="-104.938899">
        <ele>1870.2</ele>
      </trkpt>
      <trkpt lat="38.065452" lon="-104.938990">
        <ele>1870.6</ele>
      </trkpt>
      <trkpt lat="38.064451" lon="-104.939669">
        <ele>1872.6</ele>
      </trkpt>
      <trkpt lat="38.063351" lon="-104.940299">
        <ele>1873.5</ele>
      </trkpt>
      <trkpt lat="38.062156" lon="-104.941093">
        <ele>1875.0</ele>
      </trkpt>
      <trkpt lat="38.061789" lon="-104.941315">
        <ele>1875.9</ele>
      </trkpt>
      <trkpt lat="38.061469" lon="-104.941410">
        <ele>1876.9</ele>
      </trkpt>
      <trkpt lat="38.061241" lon="-104.941449">
        <ele>1877.8</ele>
      </trkpt>
      <trkpt lat="38.059716" lon="-104.941491">
        <ele>1884.2</ele>
      </trkpt>
      <trkpt lat="38.059421" lon="-104.941544">
        <ele>1885.0</ele>
      </trkpt>
      <trkpt lat="38.059211" lon="-104.941626">
        <ele>1885.5</ele>
      </trkpt>
      <trkpt lat="38.058351" lon="-104.942170">
        <ele>1887.6</ele>
      </trkpt>
      <trkpt lat="38.057742" lon="-104.942663">
        <ele>1890.1</ele>
      </trkpt>
      <trkpt lat="38.057020" lon="-104.943510">
        <ele>1889.7</ele>
      </trkpt>
      <trkpt lat="38.055691" lon="-104.944839">
        <ele>1891.2</ele>
      </trkpt>
      <trkpt lat="38.054818" lon="-104.945662">
        <ele>1897.1</ele>
      </trkpt>
      <trkpt lat="38.053851" lon="-104.946419">
        <ele>1906.9</ele>
      </trkpt>
      <trkpt lat="38.052820" lon="-104.947180">
        <ele>1918.0</ele>
      </trkpt>
      <trkpt lat="38.051762" lon="-104.947809">
        <ele>1923.9</ele>
      </trkpt>
      <trkpt lat="38.051389" lon="-104.947990">
        <ele>1925.1</ele>
      </trkpt>
      <trkpt lat="38.046961" lon="-104.949240">
        <ele>1931.2</ele>
      </trkpt>
      <trkpt lat="38.045878" lon="-104.949430">
        <ele>1935.8</ele>
      </trkpt>
      <trkpt lat="38.044679" lon="-104.949600">
        <ele>1939.6</ele>
      </trkpt>
      <trkpt lat="38.044233" lon="-104.949610">
        <ele>1942.0</ele>
      </trkpt>
      <trkpt lat="38.043818" lon="-104.949650">
        <ele>1943.5</ele>
      </trkpt>
      <trkpt lat="38.040220" lon="-104.950090">
        <ele>1934.9</ele>
      </trkpt>
      <trkpt lat="38.039850" lon="-104.950150">
        <ele>1931.1</ele>
      </trkpt>
      <trkpt lat="38.038021" lon="-104.950850">
        <ele>1918.1</ele>
      </trkpt>
      <trkpt lat="38.037486" lon="-104.951091">
        <ele>1915.0</ele>
      </trkpt>
      <trkpt lat="38.037182" lon="-104.951209">
        <ele>1913.5</ele>
      </trkpt>
      <trkpt lat="38.036663" lon="-104.951299">
        <ele>1911.3</ele>
      </trkpt>
      <trkpt lat="38.036532" lon="-104.951298">
        <ele>1910.8</ele>
      </trkpt>
      <trkpt lat="38.036440" lon="-104.951279">
        <ele>1910.6</ele>
      </trkpt>
      <trkpt lat="38.036344" lon="-104.951239">
        <ele>1910.4</ele>
      </trkpt>
      <trkpt lat="38.036129" lon="-104.951119">
        <ele>1909.9</ele>
      </trkpt>
      <trkpt lat="38.034953" lon="-104.950133">
        <ele>1908.8</ele>
      </trkpt>
      <trkpt lat="38.033212" lon="-104.948718">
        <ele>1909.8</ele>
      </trkpt>
      <trkpt lat="38.033109" lon="-104.948621">
        <ele>1910.0</ele>
      </trkpt>
      <trkpt lat="38.032989" lon="-104.948475">
        <ele>1910.3</ele>
      </trkpt>
      <trkpt lat="38.032842" lon="-104.948253">
        <ele>1910.7</ele>
      </trkpt>
      <trkpt lat="38.032699" lon="-104.947948">
        <ele>1910.8</ele>
      </trkpt>
      <trkpt lat="38.031120" lon="-104.943769">
        <ele>1892.3</ele>
      </trkpt>
      <trkpt lat="38.030201" lon="-104.941402">
        <ele>1903.4</ele>
      </trkpt>
      <trkpt lat="38.030008" lon="-104.940957">
        <ele>1906.4</ele>
      </trkpt>
      <trkpt lat="38.029828" lon="-104.940643">
        <ele>1908.0</ele>
      </trkpt>
      <trkpt lat="38.029679" lon="-104.940461">
        <ele>1908.8</ele>
      </trkpt>
      <trkpt lat="38.029564" lon="-104.940347">
        <ele>1909.7</ele>
      </trkpt>
      <trkpt lat="38.029471" lon="-104.940294">
        <ele>1910.3</ele>
      </trkpt>
      <trkpt lat="38.029325" lon="-104.940259">
        <ele>1911.0</ele>
      </trkpt>
      <trkpt lat="38.029040" lon="-104.940240">
        <ele>1911.9</ele>
      </trkpt>
      <trkpt lat="38.027484" lon="-104.940290">
        <ele>1914.0</ele>
      </trkpt>
      <trkpt lat="38.027121" lon="-104.940288">
        <ele>1914.1</ele>
      </trkpt>
      <trkpt lat="38.027001" lon="-104.940256">
        <ele>1914.2</ele>
      </trkpt>
      <trkpt lat="38.026921" lon="-104.940195">
        <ele>1914.3</ele>
      </trkpt>
      <trkpt lat="38.026828" lon="-104.940073">
        <ele>1914.6</ele>
      </trkpt>
      <trkpt lat="38.026620" lon="-104.939733">
        <ele>1916.0</ele>
      </trkpt>
      <trkpt lat="38.026251" lon="-104.939121">
        <ele>1917.0</ele>
      </trkpt>
      <trkpt lat="38.025981" lon="-104.938582">
        <ele>1914.2</ele>
      </trkpt>
      <trkpt lat="38.025839" lon="-104.938247">
        <ele>1912.7</ele>
      </trkpt>
      <trkpt lat="38.025815" lon="-104.938178">
        <ele>1912.5</ele>
      </trkpt>
      <trkpt lat="38.025795" lon="-104.938059">
        <ele>1912.2</ele>
      </trkpt>
      <trkpt lat="38.025799" lon="-104.937946">
        <ele>1912.1</ele>
      </trkpt>
      <trkpt lat="38.025816" lon="-104.937835">
        <ele>1912.0</ele>
      </trkpt>
      <trkpt lat="38.026090" lon="-104.936521">
        <ele>1912.6</ele>
      </trkpt>
      <trkpt lat="38.026106" lon="-104.936285">
        <ele>1912.6</ele>
      </trkpt>
      <trkpt lat="38.026099" lon="-104.936046">
        <ele>1912.6</ele>
      </trkpt>
      <trkpt lat="38.026051" lon="-104.935764">
        <ele>1912.7</ele>
      </trkpt>
      <trkpt lat="38.025989" lon="-104.935538">
        <ele>1912.8</ele>
      </trkpt>
      <trkpt lat="38.025619" lon="-104.934638">
        <ele>1912.6</ele>
      </trkpt>
      <trkpt lat="38.025574" lon="-104.934548">
        <ele>1912.3</ele>
      </trkpt>
      <trkpt lat="38.025390" lon="-104.934250">
        <ele>1910.7</ele>
      </trkpt>
      <trkpt lat="38.025161" lon="-104.933941">
        <ele>1908.7</ele>
      </trkpt>
      <trkpt lat="38.024988" lon="-104.933728">
        <ele>1907.3</ele>
      </trkpt>
      <trkpt lat="38.024800" lon="-104.933541">
        <ele>1905.8</ele>
      </trkpt>
      <trkpt lat="38.024576" lon="-104.933389">
        <ele>1903.7</ele>
      </trkpt>
      <trkpt lat="38.024395" lon="-104.933302">
        <ele>1902.9</ele>
      </trkpt>
      <trkpt lat="38.023992" lon="-104.933172">
        <ele>1901.8</ele>
      </trkpt>
      <trkpt lat="38.023918" lon="-104.933129">
        <ele>1901.7</ele>
      </trkpt>
      <trkpt lat="38.023870" lon="-104.933063">
        <ele>1901.6</ele>
      </trkpt>
      <trkpt lat="38.023855" lon="-104.933012">
        <ele>1901.6</ele>
      </trkpt>
      <trkpt lat="38.023847" lon="-104.932951">
        <ele>1901.6</ele>
      </trkpt>
      <trkpt lat="38.023844" lon="-104.932858">
        <ele>1901.5</ele>
      </trkpt>
      <trkpt lat="38.023850" lon="-104.932782">
        <ele>1901.5</ele>
      </trkpt>
      <trkpt lat="38.024050" lon="-104.931921">
        <ele>1901.5</ele>
      </trkpt>
      <trkpt lat="38.024120" lon="-104.931386">
        <ele>1902.2</ele>
      </trkpt>
      <trkpt lat="38.024140" lon="-104.931112">
        <ele>1902.7</ele>
      </trkpt>
      <trkpt lat="38.024140" lon="-104.930802">
        <ele>1903.1</ele>
      </trkpt>
      <trkpt lat="38.024106" lon="-104.930424">
        <ele>1903.3</ele>
      </trkpt>
      <trkpt lat="38.024037" lon="-104.930121">
        <ele>1903.3</ele>
      </trkpt>
      <trkpt lat="38.023983" lon="-104.929973">
        <ele>1903.2</ele>
      </trkpt>
      <trkpt lat="38.023900" lon="-104.929760">
        <ele>1902.9</ele>
      </trkpt>
      <trkpt lat="38.023611" lon="-104.929142">
        <ele>1901.6</ele>
      </trkpt>
      <trkpt lat="38.023180" lon="-104.928350">
        <ele>1899.7</ele>
      </trkpt>
      <trkpt lat="38.022891" lon="-104.927746">
        <ele>1896.0</ele>
      </trkpt>
      <trkpt lat="38.022852" lon="-104.927678">
        <ele>1895.5</ele>
      </trkpt>
      <trkpt lat="38.022738" lon="-104.927520">
        <ele>1893.8</ele>
      </trkpt>
      <trkpt lat="38.022675" lon="-104.927448">
        <ele>1893.0</ele>
      </trkpt>
      <trkpt lat="38.022549" lon="-104.927335">
        <ele>1891.7</ele>
      </trkpt>
      <trkpt lat="38.022000" lon="-104.926940">
        <ele>1888.3</ele>
      </trkpt>
      <trkpt lat="38.021260" lon="-104.926330">
        <ele>1892.2</ele>
      </trkpt>
      <trkpt lat="38.021026" lon="-104.926175">
        <ele>1894.2</ele>
      </trkpt>
      <trkpt lat="38.020854" lon="-104.926088">
        <ele>1895.7</ele>
      </trkpt>
      <trkpt lat="38.020629" lon="-104.926004">
        <ele>1897.2</ele>
      </trkpt>
      <trkpt lat="38.020398" lon="-104.925951">
        <ele>1898.1</ele>
      </trkpt>
      <trkpt lat="38.020204" lon="-104.925931">
        <ele>1898.3</ele>
      </trkpt>
      <trkpt lat="38.017259" lon="-104.925970">
        <ele>1898.2</ele>
      </trkpt>
      <trkpt lat="38.015200" lon="-104.926047">
        <ele>1906.6</ele>
      </trkpt>
      <trkpt lat="38.015113" lon="-104.926033">
        <ele>1907.4</ele>
      </trkpt>
      <trkpt lat="38.014970" lon="-104.925987">
        <ele>1908.7</ele>
      </trkpt>
      <trkpt lat="38.014887" lon="-104.925937">
        <ele>1909.3</ele>
      </trkpt>
      <trkpt lat="38.014819" lon="-104.925868">
        <ele>1909.9</ele>
      </trkpt>
      <trkpt lat="38.014763" lon="-104.925791">
        <ele>1910.3</ele>
      </trkpt>
      <trkpt lat="38.014621" lon="-104.925560">
        <ele>1911.1</ele>
      </trkpt>
      <trkpt lat="38.014447" lon="-104.925184">
        <ele>1911.7</ele>
      </trkpt>
      <trkpt lat="38.014235" lon="-104.924750">
        <ele>1911.7</ele>
      </trkpt>
      <trkpt lat="38.014091" lon="-104.924516">
        <ele>1911.5</ele>
      </trkpt>
      <trkpt lat="38.014015" lon="-104.924424">
        <ele>1911.4</ele>
      </trkpt>
      <trkpt lat="38.013316" lon="-104.923717">
        <ele>1909.6</ele>
      </trkpt>
      <trkpt lat="38.013246" lon="-104.923634">
        <ele>1909.2</ele>
      </trkpt>
      <trkpt lat="38.013209" lon="-104.923552">
        <ele>1908.9</ele>
      </trkpt>
      <trkpt lat="38.013194" lon="-104.923485">
        <ele>1908.6</ele>
      </trkpt>
      <trkpt lat="38.013193" lon="-104.923150">
        <ele>1907.2</ele>
      </trkpt>
      <trkpt lat="38.013440" lon="-104.921498">
        <ele>1901.4</ele>
      </trkpt>
      <trkpt lat="38.014120" lon="-104.917410">
        <ele>1884.5</ele>
      </trkpt>
      <trkpt lat="38.014848" lon="-104.912325">
        <ele>1866.8</ele>
      </trkpt>
      <trkpt lat="38.014875" lon="-104.912172">
        <ele>1866.2</ele>
      </trkpt>
      <trkpt lat="38.014925" lon="-104.912029">
        <ele>1865.8</ele>
      </trkpt>
      <trkpt lat="38.017681" lon="-104.904958">
        <ele>1846.6</ele>
      </trkpt>
      <trkpt lat="38.018099" lon="-104.903933">
        <ele>1844.3</ele>
      </trkpt>
      <trkpt lat="38.018351" lon="-104.903268">
        <ele>1843.1</ele>
      </trkpt>
      <trkpt lat="38.018390" lon="-104.903124">
        <ele>1843.0</ele>
      </trkpt>
      <trkpt lat="38.018422" lon="-104.902926">
        <ele>1842.8</ele>
      </trkpt>
      <trkpt lat="38.018450" lon="-104.902317">
        <ele>1841.6</ele>
      </trkpt>
      <trkpt lat="38.018461" lon="-104.898654">
        <ele>1832.1</ele>
      </trkpt>
      <trkpt lat="38.018466" lon="-104.898569">
        <ele>1832.1</ele>
      </trkpt>
      <trkpt lat="38.018482" lon="-104.898495">
        <ele>1832.0</ele>
      </trkpt>
      <trkpt lat="38.018507" lon="-104.898451">
        <ele>1832.0</ele>
      </trkpt>
      <trkpt lat="38.018559" lon="-104.898405">
        <ele>1832.0</ele>
      </trkpt>
      <trkpt lat="38.018640" lon="-104.898361">
        <ele>1832.0</ele>
      </trkpt>
      <trkpt lat="38.018720" lon="-104.898342">
        <ele>1832.0</ele>
      </trkpt>
      <trkpt lat="38.020652" lon="-104.898290">
        <ele>1832.7</ele>
      </trkpt>
      <trkpt lat="38.021002" lon="-104.898248">
        <ele>1832.3</ele>
      </trkpt>
      <trkpt lat="38.021173" lon="-104.898209">
        <ele>1832.0</ele>
      </trkpt>
      <trkpt lat="38.021322" lon="-104.898137">
        <ele>1831.6</ele>
      </trkpt>
      <trkpt lat="38.021531" lon="-104.897979">
        <ele>1831.2</ele>
      </trkpt>
      <trkpt lat="38.022070" lon="-104.897504">
        <ele>1830.0</ele>
      </trkpt>
      <trkpt lat="38.022129" lon="-104.897436">
        <ele>1829.9</ele>
      </trkpt>
      <trkpt lat="38.022208" lon="-104.897307">
        <ele>1829.7</ele>
      </trkpt>
      <trkpt lat="38.022258" lon="-104.897182">
        <ele>1829.4</ele>
      </trkpt>
      <trkpt lat="38.022298" lon="-104.897037">
        <ele>1829.1</ele>
      </trkpt>
      <trkpt lat="38.022331" lon="-104.896824">
        <ele>1828.7</ele>
      </trkpt>
      <trkpt lat="38.022340" lon="-104.896716">
        <ele>1828.4</ele>
      </trkpt>
      <trkpt lat="38.022370" lon="-104.891311">
        <ele>1806.5</ele>
      </trkpt>
      <trkpt lat="38.022405" lon="-104.890364">
        <ele>1803.0</ele>
      </trkpt>
      <trkpt lat="38.022431" lon="-104.890176">
        <ele>1802.6</ele>
      </trkpt>
      <trkpt lat="38.022495" lon="-104.889947">
        <ele>1802.0</ele>
      </trkpt>
      <trkpt lat="38.022528" lon="-104.889869">
        <ele>1801.9</ele>
      </trkpt>
      <trkpt lat="38.022571" lon="-104.889798">
        <ele>1801.7</ele>
      </trkpt>
      <trkpt lat="38.023680" lon="-104.888131">
        <ele>1797.8</ele>
      </trkpt>
      <trkpt lat="38.024679" lon="-104.886692">
        <ele>1794.4</ele>
      </trkpt>
      <trkpt lat="38.024861" lon="-104.886379">
        <ele>1793.8</ele>
      </trkpt>
      <trkpt lat="38.027274" lon="-104.881383">
        <ele>1782.3</ele>
      </trkpt>
      <trkpt lat="38.027367" lon="-104.881158">
        <ele>1781.7</ele>
      </trkpt>
      <trkpt lat="38.027397" lon="-104.881016">
        <ele>1781.2</ele>
      </trkpt>
      <trkpt lat="38.027408" lon="-104.880881">
        <ele>1780.7</ele>
      </trkpt>
      <trkpt lat="38.027400" lon="-104.880615">
        <ele>1780.0</ele>
      </trkpt>
      <trkpt lat="38.026810" lon="-104.874698">
        <ele>1795.9</ele>
      </trkpt>
      <trkpt lat="38.026720" lon="-104.874113">
        <ele>1794.3</ele>
      </trkpt>
      <trkpt lat="38.026649" lon="-104.873758">
        <ele>1793.2</ele>
      </trkpt>
      <trkpt lat="38.026520" lon="-104.873310">
        <ele>1790.9</ele>
      </trkpt>
      <trkpt lat="38.025741" lon="-104.871112">
        <ele>1783.3</ele>
      </trkpt>
      <trkpt lat="38.025683" lon="-104.870882">
        <ele>1782.3</ele>
      </trkpt>
      <trkpt lat="38.025640" lon="-104.870647">
        <ele>1781.5</ele>
      </trkpt>
      <trkpt lat="38.025605" lon="-104.869861">
        <ele>1779.5</ele>
      </trkpt>
      <trkpt lat="38.025570" lon="-104.868608">
        <ele>1778.0</ele>
      </trkpt>
      <trkpt lat="38.025430" lon="-104.858941">
        <ele>1759.4</ele>
      </trkpt>
      <trkpt lat="38.025430" lon="-104.857679">
        <ele>1758.2</ele>
      </trkpt>
      <trkpt lat="38.025470" lon="-104.856481">
        <ele>1756.2</ele>
      </trkpt>
      <trkpt lat="38.025430" lon="-104.854137">
        <ele>1752.0</ele>
      </trkpt>
      <trkpt lat="38.025418" lon="-104.854032">
        <ele>1751.9</ele>
      </trkpt>
      <trkpt lat="38.025354" lon="-104.853792">
        <ele>1751.7</ele>
      </trkpt>
      <trkpt lat="38.025320" lon="-104.853699">
        <ele>1751.6</ele>
      </trkpt>
      <trkpt lat="38.025258" lon="-104.853582">
        <ele>1751.5</ele>
      </trkpt>
      <trkpt lat="38.025189" lon="-104.853490">
        <ele>1751.4</ele>
      </trkpt>
      <trkpt lat="38.025129" lon="-104.853432">
        <ele>1751.4</ele>
      </trkpt>
      <trkpt lat="38.025081" lon="-104.853399">
        <ele>1751.3</ele>
      </trkpt>
      <trkpt lat="38.024913" lon="-104.853313">
        <ele>1751.2</ele>
      </trkpt>
      <trkpt lat="38.024874" lon="-104.853283">
        <ele>1751.2</ele>
      </trkpt>
      <trkpt lat="38.024844" lon="-104.853238">
        <ele>1751.1</ele>
      </trkpt>
      <trkpt lat="38.024830" lon="-104.853183">
        <ele>1751.1</ele>
      </trkpt>
      <trkpt lat="38.024790" lon="-104.852369">
        <ele>1750.9</ele>
      </trkpt>
      <trkpt lat="38.024810" lon="-104.852050">
        <ele>1751.0</ele>
      </trkpt>
      <trkpt lat="38.025307" lon="-104.848770">
        <ele>1751.2</ele>
      </trkpt>
      <trkpt lat="38.025291" lon="-104.845364">
        <ele>1749.2</ele>
      </trkpt>
      <trkpt lat="38.025318" lon="-104.844903">
        <ele>1747.4</ele>
      </trkpt>
      <trkpt lat="38.025344" lon="-104.844744">
        <ele>1746.9</ele>
      </trkpt>
      <trkpt lat="38.025385" lon="-104.844602">
        <ele>1746.6</ele>
      </trkpt>
      <trkpt lat="38.025445" lon="-104.844473">
        <ele>1746.3</ele>
      </trkpt>
      <trkpt lat="38.025547" lon="-104.844353">
        <ele>1745.9</ele>
      </trkpt>
      <trkpt lat="38.025676" lon="-104.844240">
        <ele>1745.3</ele>
      </trkpt>
      <trkpt lat="38.026660" lon="-104.843750">
        <ele>1743.2</ele>
      </trkpt>
      <trkpt lat="38.028112" lon="-104.842909">
        <ele>1740.8</ele>
      </trkpt>
      <trkpt lat="38.028522" lon="-104.842692">
        <ele>1739.4</ele>
      </trkpt>
      <trkpt lat="38.028803" lon="-104.842558">
        <ele>1738.4</ele>
      </trkpt>
      <trkpt lat="38.028906" lon="-104.842491">
        <ele>1738.0</ele>
      </trkpt>
      <trkpt lat="38.028970" lon="-104.842436">
        <ele>1737.7</ele>
      </trkpt>
      <trkpt lat="38.029061" lon="-104.842333">
        <ele>1737.4</ele>
      </trkpt>
      <trkpt lat="38.029162" lon="-104.842183">
        <ele>1737.0</ele>
      </trkpt>
      <trkpt lat="38.029351" lon="-104.841849">
        <ele>1736.3</ele>
      </trkpt>
      <trkpt lat="38.030311" lon="-104.840228">
        <ele>1738.0</ele>
      </trkpt>
      <trkpt lat="38.030837" lon="-104.839278">
        <ele>1736.8</ele>
      </trkpt>
      <trkpt lat="38.031270" lon="-104.838120">
        <ele>1734.4</ele>
      </trkpt>
      <trkpt lat="38.034420" lon="-104.828799">
        <ele>1721.2</ele>
      </trkpt>
      <trkpt lat="38.037791" lon="-104.819110">
        <ele>1699.4</ele>
      </trkpt>
    </trkseg>
  </trk>
</gpx>