<?xml version='1.0' encoding='UTF-8'?>
<gpx version="1.1"
  creator="GPXmagic"
  xmlns="http://www.topografix.com/GPX/1/1"
  xmlns:rgt="http://www.rgtcycling.com/XML/GpxExtensions/v1"
  xmlns:xsi="http://www.w3.org/2001/XMLSchema-instance" xsi:schemaLocation="http://www.topografix.com/GPX/1/1
  http://www.topografix.com/GPX/1/1/gpx.xsd">
  <metadata>
    <name>Smoothed with GPXmagic</name>
    <author>
      <link href="https://www.stepwiserefinement.co.uk">
        <text>GPXmagic v3</text>
        <type>text/html</type>
      </link>
    </author>
  </metadata>
<trk>  <name>3&#32;Minute&#32;Lookout</name>
<trkseg>
<trkpt lat="39.74446375289354" lon="-105.23575489882994"><ele>1908.1711226851853</ele></trkpt>
<trkpt lat="39.74446088834036" lon="-105.23577932791329"><ele>1907.9898342586816</ele></trkpt>
<trkpt lat="39.74446195551153" lon="-105.23583139472048"><ele>1907.6077266344255</ele></trkpt>
<trkpt lat="39.74447690787909" lon="-105.2358797136696"><ele>1907.2256190101693</ele></trkpt>
<trkpt lat="39.7445038706436" lon="-105.23591822632133"><ele>1906.8435113859132</ele></trkpt>
<trkpt lat="39.744539463084536" lon="-105.23594210377777"><ele>1906.4614037616573</ele></trkpt>
<trkpt lat="39.74457922245121" lon="-105.23594835215155"><ele>1906.0792961374011</ele></trkpt>
<trkpt lat="39.74461816352383" lon="-105.23593618796218"><ele>1905.697188513145</ele></trkpt>
<trkpt lat="39.74465140368425" lon="-105.23590713638694"><ele>1905.3150808888888</ele></trkpt>
<trkpt lat="39.74485178156327" lon="-105.23565459826239"><ele>1902.6528583683694</ele></trkpt>
<trkpt lat="39.74486452667633" lon="-105.23563441150782"><ele>1902.4588399340337</ele></trkpt>
<trkpt lat="39.74488450681779" lon="-105.23558877011695"><ele>1902.0687236256163</ele></trkpt>
<trkpt lat="39.74489164633393" lon="-105.23553707719489"><ele>1901.6786073171986</ele></trkpt>
<trkpt lat="39.744885128583775" lon="-105.23548524557322"><ele>1901.2884910087812</ele></trkpt>
<trkpt lat="39.74468891577091" lon="-105.23474513109679"><ele>1895.47335073856</ele></trkpt>
<trkpt lat="39.74466338153947" lon="-105.23465297162691"><ele>1894.685537080218</ele></trkpt>
<trkpt lat="39.74463672847112" lon="-105.23456309214772"><ele>1893.9108148930534</ele></trkpt>
<trkpt lat="39.74460837646664" lon="-105.23447581768208"><ele>1893.1488631477664</ele></trkpt>
<trkpt lat="39.7445772408101" lon="-105.23438930632113"><ele>1892.3806775666844</ele></trkpt>
<trkpt lat="39.7445421589083" lon="-105.23430066051934"><ele>1891.5788817183293</ele></trkpt>
<trkpt lat="39.74450240545947" lon="-105.23420732123068"><ele>1890.720764188721</ele></trkpt>
<trkpt lat="39.74445819768963" lon="-105.23410850610112"><ele>1889.8013438890507</ele></trkpt>
<trkpt lat="39.74441072188518" lon="-105.23400551550993"><ele>1888.8356255846638</ele></trkpt>
<trkpt lat="39.74436188248349" lon="-105.23390137004975"><ele>1887.854579044362</ele></trkpt>
<trkpt lat="39.744313588195" lon="-105.23379935047778"><ele>1886.8910886312162</ele></trkpt>
<trkpt lat="39.74422261117893" lon="-105.23360828977061"><ele>1885.083752530712</ele></trkpt>
<trkpt lat="39.74336087704378" lon="-105.23180264399001"><ele>1867.9924765702872</ele></trkpt>
<trkpt lat="39.74245536433734" lon="-105.22990540867927"><ele>1850.0337218931763</ele></trkpt>
<trkpt lat="39.74184089659722" lon="-105.2286180377957"><ele>1837.847522127068</ele></trkpt>
<trkpt lat="39.74177565971938" lon="-105.22848265192908"><ele>1836.5625475114348</ele></trkpt>
<trkpt lat="39.741739497767185" lon="-105.22841228190411"><ele>1835.8818418434173</ele></trkpt>
<trkpt lat="39.741700146881676" lon="-105.22834659949916"><ele>1835.2121761627934</ele></trkpt>
<trkpt lat="39.74165649532343" lon="-105.22829239531364"><ele>1834.5809113844568</ele></trkpt>
<trkpt lat="39.741607105958394" lon="-105.22825199137338"><ele>1834.960708085896</ele></trkpt>
<trkpt lat="39.74155279101795" lon="-105.22822239480513"><ele>1835.3440304566013</ele></trkpt>
<trkpt lat="39.741497169928536" lon="-105.22819930179875"><ele>1835.724077393952</ele></trkpt>
<trkpt lat="39.741443146454706" lon="-105.22817936334842"><ele>1836.0896090792853</ele></trkpt>
<trkpt lat="39.74128354117376" lon="-105.22812250742733"><ele>1837.1667692174462</ele></trkpt>
<trkpt lat="39.74118194164683" lon="-105.22808635513118"><ele>1837.8524010884921</ele></trkpt>
<trkpt lat="39.741055356315776" lon="-105.22804126374676"><ele>1838.7067105804308</ele></trkpt>
<trkpt lat="39.74098143501819" lon="-105.22801483252638"><ele>1839.205728514223</ele></trkpt>
<trkpt lat="39.74084278109001" lon="-105.22796455300634"><ele>1840.142673235273</ele></trkpt>
<trkpt lat="39.74077676125897" lon="-105.2279397596109"><ele>1840.58996339167</ele></trkpt>
<trkpt lat="39.74070744404997" lon="-105.22791217977245"><ele>1841.0618021003488</ele></trkpt>
<trkpt lat="39.74063844454814" lon="-105.22788206173746"><ele>1841.5355517461853</ele></trkpt>
<trkpt lat="39.740607128481535" lon="-105.22786698329394"><ele>1841.7529144750404</ele></trkpt>
<trkpt lat="39.74055057400041" lon="-105.22783652096788"><ele>1842.151360558936</ele></trkpt>
<trkpt lat="39.74049881220301" lon="-105.22780438507115"><ele>1842.5247090936307</ele></trkpt>
<trkpt lat="39.740449974163305" lon="-105.22776966952124"><ele>1842.886990137431</ele></trkpt>
<trkpt lat="39.74040826130944" lon="-105.22773594291087"><ele>1843.2067025296963</ele></trkpt>
<trkpt lat="39.74037593119341" lon="-105.22770594728836"><ele>1843.4652086479027</ele></trkpt>
<trkpt lat="39.740345211943755" lon="-105.22767310804008"><ele>1843.7240494089308</ele></trkpt>
<trkpt lat="39.74028594832093" lon="-105.22760314991139"><ele>1844.245023511148</ele></trkpt>
<trkpt lat="39.74025429470553" lon="-105.22756915965712"><ele>1844.5122216488571</ele></trkpt>
<trkpt lat="39.74021820612847" lon="-105.22754068245257"><ele>1844.7869875716144</ele></trkpt>
<trkpt lat="39.74017752428008" lon="-105.227522801092"><ele>1845.066506702066</ele></trkpt>
<trkpt lat="39.7401546451696" lon="-105.22751840161888"><ele>1845.2170488642435</ele></trkpt>
<trkpt lat="39.740110459941896" lon="-105.22752101643228"><ele>1845.5049536234812</ele></trkpt>
<trkpt lat="39.740068843936655" lon="-105.22753839299683"><ele>1845.78945732868</ele></trkpt>
<trkpt lat="39.74003260676128" lon="-105.22757582113815"><ele>1846.0906721880735</ele></trkpt>
<trkpt lat="39.74001575117287" lon="-105.22762998096977"><ele>1846.3831145596082</ele></trkpt>
<trkpt lat="39.74002047058094" lon="-105.2276849594384"><ele>1846.6600027896193</ele></trkpt>
<trkpt lat="39.74003757828829" lon="-105.22773257205804"><ele>1846.9230473440512</ele></trkpt>
<trkpt lat="39.74005872086182" lon="-105.22777648349856"><ele>1847.182363826738</ele></trkpt>
<trkpt lat="39.740092277451545" lon="-105.22784023908906"><ele>1847.5690681421027</ele></trkpt>
<trkpt lat="39.74015535448555" lon="-105.22795489563379"><ele>1848.2746958465718</ele></trkpt>
<trkpt lat="39.74017702834206" lon="-105.22799607266865"><ele>1848.5244555162353</ele></trkpt>
<trkpt lat="39.74019810034019" lon="-105.22803841218011"><ele>1848.7768877853298</ele></trkpt>
<trkpt lat="39.74021831146626" lon="-105.22808239188933"><ele>1849.0333310342508</ele></trkpt>
<trkpt lat="39.74023750375649" lon="-105.22812812587789"><ele>1849.2941086218045</ele></trkpt>
<trkpt lat="39.74025534212208" lon="-105.22817488298423"><ele>1849.5553582067348</ele></trkpt>
<trkpt lat="39.74027145465536" lon="-105.228220965724"><ele>1849.8087360471372</ele></trkpt>
<trkpt lat="39.74028577573472" lon="-105.22826548835926"><ele>1850.0502917483627</ele></trkpt>
<trkpt lat="39.74029882908177" lon="-105.22830911016189"><ele>1850.2845770185934</ele></trkpt>
<trkpt lat="39.740323920598115" lon="-105.22839976922596"><ele>1850.7668405957334</ele></trkpt>
<trkpt lat="39.74034944972611" lon="-105.22849794057824"><ele>1851.2855446761198</ele></trkpt>
<trkpt lat="39.74037492716328" lon="-105.2285997830045"><ele>1851.821582712982</ele></trkpt>
<trkpt lat="39.74039929767724" lon="-105.22869979502303"><ele>1852.3466948046082</ele></trkpt>
<trkpt lat="39.740421445774935" lon="-105.22879272621672"><ele>1852.8336614618663</ele></trkpt>
<trkpt lat="39.7404411178056" lon="-105.22887765801326"><ele>1853.2776270621898</ele></trkpt>
<trkpt lat="39.7404597172215" lon="-105.22896223039746"><ele>1853.7178995820782</ele></trkpt>
<trkpt lat="39.740476358878595" lon="-105.2290448009028"><ele>1854.1451399126593</ele></trkpt>
<trkpt lat="39.74048322458629" lon="-105.22908261719873"><ele>1854.3396214626973</ele></trkpt>
<trkpt lat="39.74049425429213" lon="-105.22915266059404"><ele>1854.697476780703</ele></trkpt>
<trkpt lat="39.7405023112364" lon="-105.22921852288613"><ele>1855.0312747227167</ele></trkpt>
<trkpt lat="39.740507102992126" lon="-105.22928039375549"><ele>1855.342516110351</ele></trkpt>
<trkpt lat="39.74050785860631" lon="-105.22933739339167"><ele>1855.6278517399983</ele></trkpt>
<trkpt lat="39.740504029306926" lon="-105.22939048765798"><ele>1855.894764283047</ele></trkpt>
<trkpt lat="39.7404952230262" lon="-105.22944319684028"><ele>1856.1647384856278</ele></trkpt>
<trkpt lat="39.74048873705957" lon="-105.22947096497265"><ele>1856.3099935341127</ele></trkpt>
<trkpt lat="39.74047115535786" lon="-105.22953228083823"><ele>1856.6375336511742</ele></trkpt>
<trkpt lat="39.740447389885574" lon="-105.22960336093622"><ele>1857.0254783592586</ele></trkpt>
<trkpt lat="39.74040454284419" lon="-105.22972373784363"><ele>1857.6894058540024</ele></trkpt>
<trkpt lat="39.74037640142749" lon="-105.22980532606462"><ele>1858.1369711626553</ele></trkpt>
<trkpt lat="39.740351909400744" lon="-105.22988326897475"><ele>1858.5584067587715</ele></trkpt>
<trkpt lat="39.74033174755126" lon="-105.2299571447821"><ele>1858.9507676527255</ele></trkpt>
<trkpt lat="39.74031542698156" lon="-105.23002807638979"><ele>1859.321346851641</ele></trkpt>
<trkpt lat="39.74030241957094" lon="-105.23009722945325"><ele>1859.677676045338</ele></trkpt>
<trkpt lat="39.74029248719353" lon="-105.23016575516174"><ele>1860.0267003959261</ele></trkpt>
<trkpt lat="39.74028560824322" lon="-105.23023432928467"><ele>1860.3728353901954</ele></trkpt>
<trkpt lat="39.74028219081924" lon="-105.23030213492025"><ele>1860.712943878426</ele></trkpt>
<trkpt lat="39.74028209937423" lon="-105.23033517829396"><ele>1860.8783334062718</ele></trkpt>
<trkpt lat="39.74028327028472" lon="-105.23036742095881"><ele>1861.0398940337975</ele></trkpt>
<trkpt lat="39.74028589699374" lon="-105.2303987848044"><ele>1861.197804462136</ele></trkpt>
<trkpt lat="39.74029002311841" lon="-105.23042934600319"><ele>1861.3531090541774</ele></trkpt>
<trkpt lat="39.740295720655816" lon="-105.23045916042753"><ele>1861.5068752510108</ele></trkpt>
<trkpt lat="39.74030287375063" lon="-105.2304882884525"><ele>1861.6599209484884</ele></trkpt>
<trkpt lat="39.74031139487689" lon="-105.23051659882478"><ele>1861.8120883878955</ele></trkpt>
<trkpt lat="39.74032106242144" lon="-105.23054390245011"><ele>1861.9625402104696</ele></trkpt>
<trkpt lat="39.740343270997684" lon="-105.2305941385151"><ele>1862.2525741850873</ele></trkpt>
<trkpt lat="39.740355651028295" lon="-105.23061651355006"><ele>1862.3905440596327</ele></trkpt>
<trkpt lat="39.7403689526267" lon="-105.23063696669786"><ele>1862.5246201270515</ele></trkpt>
<trkpt lat="39.74038351146783" lon="-105.23065560537357"><ele>1862.657599427037</ele></trkpt>
<trkpt lat="39.740399714271774" lon="-105.23067284420426"><ele>1862.7938636509443</ele></trkpt>
<trkpt lat="39.74041819262933" lon="-105.23068914345447"><ele>1862.939198423337</ele></trkpt>
<trkpt lat="39.74043942347167" lon="-105.23070507287936"><ele>1863.098742945861</ele></trkpt>
<trkpt lat="39.74046395435626" lon="-105.23072113002279"><ele>1863.277502923951</ele></trkpt>
<trkpt lat="39.740491867269085" lon="-105.23073769957573"><ele>1863.4772245559584</ele></trkpt>
<trkpt lat="39.74055694574015" lon="-105.23077308213037"><ele>1863.9363576231472</ele></trkpt>
<trkpt lat="39.74062900684073" lon="-105.23081106710111"><ele>1864.4424785114925</ele></trkpt>
<trkpt lat="39.74069985982513" lon="-105.23085034212437"><ele>1864.94381664201</ele></trkpt>
<trkpt lat="39.74073282253357" lon="-105.23087019892223"><ele>1865.180275861162</ele></trkpt>
<trkpt lat="39.74076370177472" lon="-105.23089020722837"><ele>1865.4048391953447</ele></trkpt>
<trkpt lat="39.74079240166058" lon="-105.2309104580524"><ele>1865.6173761341597</ele></trkpt>
<trkpt lat="39.74081911666643" lon="-105.23093104614375"><ele>1865.8195067337076</ele></trkpt>
<trkpt lat="39.74084395280753" lon="-105.23095210463062"><ele>1866.012493284201</ele></trkpt>
<trkpt lat="39.740867138584825" lon="-105.23097374155206"><ele>1866.1982474575998</ele></trkpt>
<trkpt lat="39.740888739524415" lon="-105.23099613042505"><ele>1866.3780435257017</ele></trkpt>
<trkpt lat="39.740908916229984" lon="-105.2310194086656"><ele>1866.5536086010543</ele></trkpt>
<trkpt lat="39.740927720724585" lon="-105.23104378108329"><ele>1866.7264174822508</ele></trkpt>
<trkpt lat="39.740945317630654" lon="-105.2310693416914"><ele>1866.8981345893126</ele></trkpt>
<trkpt lat="39.74096178830164" lon="-105.23109618803906"><ele>1867.0700332823662</ele></trkpt>
<trkpt lat="39.74097728402432" lon="-105.23112424007351"><ele>1867.242911474681</ele></trkpt>
<trkpt lat="39.74100553581668" lon="-105.23118353213306"><ele>1867.5920342403047</ele></trkpt>
<trkpt lat="39.74103028186356" lon="-105.23124618189765"><ele>1867.9445563449283</ele></trkpt>
<trkpt lat="39.74105171691479" lon="-105.23131189240146"><ele>1868.3018174442489</ele></trkpt>
<trkpt lat="39.74107060209301" lon="-105.23138061154363"><ele>1868.6670728080871</ele></trkpt>
<trkpt lat="39.74109695238825" lon="-105.23148655046394"><ele>1869.2243618933162</ele></trkpt>
<trkpt lat="39.74111514306845" lon="-105.23155658445673"><ele>1869.5943493674363</ele></trkpt>
<trkpt lat="39.741135032565516" lon="-105.23162553112552"><ele>1869.962922105324</ele></trkpt>
<trkpt lat="39.74115710442525" lon="-105.2316934228993"><ele>1870.3318523642433</ele></trkpt>
<trkpt lat="39.74118154867545" lon="-105.23175956031854"><ele>1870.6991323612838</ele></trkpt>
<trkpt lat="39.741208770911065" lon="-105.2318232220826"><ele>1871.0637221412558</ele></trkpt>
<trkpt lat="39.74122364097065" lon="-105.2318542269298"><ele>1871.2466164154307</ele></trkpt>
<trkpt lat="39.741256402257314" lon="-105.23191542575816"><ele>1871.6198439567306</ele></trkpt>
<trkpt lat="39.74129367573678" lon="-105.23197685671546"><ele>1872.0115080428181</ele></trkpt>
<trkpt lat="39.7413360258476" lon="-105.23203971586092"><ele>1872.4298066637098</ele></trkpt>
<trkpt lat="39.74138383519212" lon="-105.2321046180073"><ele>1872.8796580971314</ele></trkpt>
<trkpt lat="39.741436461887" lon="-105.23217096055448"><ele>1873.3567340166946</ele></trkpt>
<trkpt lat="39.74149216172108" lon="-105.23223669295027"><ele>1873.8463125545563</ele></trkpt>
<trkpt lat="39.741550064155575" lon="-105.23230002009363"><ele>1874.3387677417074</ele></trkpt>
<trkpt lat="39.74158051404809" lon="-105.23233101347664"><ele>1874.590457711704</ele></trkpt>
<trkpt lat="39.74161237301436" lon="-105.23236184596126"><ele>1874.8489504531285</ele></trkpt>
<trkpt lat="39.74167789176926" lon="-105.23242114504565"><ele>1875.3685321685111</ele></trkpt>
<trkpt lat="39.74174119512212" lon="-105.23247468181279"><ele>1875.8600454127213</ele></trkpt>
<trkpt lat="39.741807183634364" lon="-105.23252827221995"><ele>1876.3664426816601</ele></trkpt>
<trkpt lat="39.74187926830192" lon="-105.23258575714446"><ele>1876.9168398521865</ele></trkpt>
<trkpt lat="39.742065629083264" lon="-105.23273351531945"><ele>1878.3375434585143</ele></trkpt>
<trkpt lat="39.74213346229326" lon="-105.23278819231513"><ele>1878.8570082671974</ele></trkpt>
<trkpt lat="39.74219465655903" lon="-105.23283875253482"><ele>1879.32891651102</ele></trkpt>
<trkpt lat="39.74225185186228" lon="-105.23288792633757"><ele>1879.7752063551225</ele></trkpt>
<trkpt lat="39.74231479759445" lon="-105.23294510148077"><ele>1880.2749680867175</ele></trkpt>
<trkpt lat="39.74234969317203" lon="-105.232978051344"><ele>1880.5556628420181</ele></trkpt>
<trkpt lat="39.74242167632932" lon="-105.23304848553285"><ele>1881.1420169290132</ele></trkpt>
<trkpt lat="39.742492302996986" lon="-105.23312031166644"><ele>1881.7256050752637</ele></trkpt>
<trkpt lat="39.74255826523743" lon="-105.23318966452408"><ele>1882.277723225542</ele></trkpt>
<trkpt lat="39.74261711200784" lon="-105.2332541784407"><ele>1882.778703022743</ele></trkpt>
<trkpt lat="39.74266932938639" lon="-105.23331475540989"><ele>1883.2341680468846</ele></trkpt>
<trkpt lat="39.74271691286471" lon="-105.23337362838777"><ele>1883.6616670079607</ele></trkpt>
<trkpt lat="39.74276028197629" lon="-105.23343114029707"><ele>1884.0648380165035</ele></trkpt>
<trkpt lat="39.74279760277161" lon="-105.23348542984753"><ele>1884.4293164841788</ele></trkpt>
<trkpt lat="39.74281330152" lon="-105.23351072719285"><ele>1884.5920210081817</ele></trkpt>
<trkpt lat="39.74283851239553" lon="-105.23355726760717"><ele>1884.876955789548</ele></trkpt>
<trkpt lat="39.74285663276399" lon="-105.23359868324596"><ele>1885.1154488964394</ele></trkpt>
<trkpt lat="39.742869895392786" lon="-105.23363531951881"><ele>1885.3181189951315</ele></trkpt>
<trkpt lat="39.74288012361829" lon="-105.23366796816518"><ele>1885.4945678347758</ele></trkpt>
<trkpt lat="39.742888248938364" lon="-105.23369942073363"><ele>1885.6606351218034</ele></trkpt>
<trkpt lat="39.742894610816066" lon="-105.23373443018738"><ele>1885.8406843082337</ele></trkpt>
<trkpt lat="39.74289916015473" lon="-105.23377693895411"><ele>1886.0554916911333</ele></trkpt>
<trkpt lat="39.74290132668803" lon="-105.23382772604904"><ele>1886.310072126356</ele></trkpt>
<trkpt lat="39.74289981067942" lon="-105.2338860413874"><ele>1886.6021073147144</ele></trkpt>
<trkpt lat="39.742897092918405" lon="-105.23391830524042"><ele>1886.7645540844553</ele></trkpt>
<trkpt lat="39.742892691267365" lon="-105.23395335720568"><ele>1886.9423134178871</ele></trkpt>
<trkpt lat="39.7428864667711" lon="-105.23399174258904"><ele>1887.1386581368545</ele></trkpt>
<trkpt lat="39.742878261044076" lon="-105.23403413309319"><ele>1887.3574427043472</ele></trkpt>
<trkpt lat="39.74286818985295" lon="-105.2340806072093"><ele>1887.5991070228906</ele></trkpt>
<trkpt lat="39.74284343718033" lon="-105.23418414461847"><ele>1888.141781748739</ele></trkpt>
<trkpt lat="39.74280269999431" lon="-105.23434513862865"><ele>1888.9900665827076</ele></trkpt>
<trkpt lat="39.742779787309125" lon="-105.23443711544212"><ele>1889.4739680607015</ele></trkpt>
<trkpt lat="39.74276330177414" lon="-105.23450887920824"><ele>1889.848833190135</ele></trkpt>
<trkpt lat="39.74275746020206" lon="-105.23453782390841"><ele>1889.998608681763</ele></trkpt>
<trkpt lat="39.7427497423597" lon="-105.23458581129802"><ele>1890.243983778865</ele></trkpt>
<trkpt lat="39.7427459723792" lon="-105.23462630349012"><ele>1890.4481280014322</ele></trkpt>
<trkpt lat="39.74274526125609" lon="-105.23466374386929"><ele>1890.635574779522</ele></trkpt>
<trkpt lat="39.74274754648643" lon="-105.23469982827486"><ele>1890.8167892556246</ele></trkpt>
<trkpt lat="39.74275316762516" lon="-105.23473452528509"><ele>1890.994260894904</ele></trkpt>
<trkpt lat="39.742762597798276" lon="-105.2347672025452"><ele>1891.1689503609834</ele></trkpt>
<trkpt lat="39.74277645948837" lon="-105.23479762747493"><ele>1891.3459512741192</ele></trkpt>
<trkpt lat="39.74279523988422" lon="-105.23482639095629"><ele>1891.5348123420101</ele></trkpt>
<trkpt lat="39.74281845149926" lon="-105.23485391979374"><ele>1891.7392903903824</ele></trkpt>
<trkpt lat="39.742844127725256" lon="-105.23487915744958"><ele>1891.9487844109176</ele></trkpt>
<trkpt lat="39.742869742927375" lon="-105.23489979258783"><ele>1892.1449126496987</ele></trkpt>
<trkpt lat="39.74289406524073" lon="-105.23491401731104"><ele>1892.3185011231865</ele></trkpt>
<trkpt lat="39.74291796647173" lon="-105.23492185534595"><ele>1892.478946943216</ele></trkpt>
<trkpt lat="39.74294331864746" lon="-105.23492468622489"><ele>1892.6445745373858</ele></trkpt>
<trkpt lat="39.742971280084284" lon="-105.2349237979837"><ele>1892.8266332881185</ele></trkpt>
<trkpt lat="39.74300227177523" lon="-105.2349192776639"><ele>1893.029626756297</ele></trkpt>
<trkpt lat="39.74303780048141" lon="-105.23490961830228"><ele>1893.265886745741</ele></trkpt>
<trkpt lat="39.74308177918108" lon="-105.2348921096835"><ele>1893.5652619308275</ele></trkpt>
<trkpt lat="39.743133914247665" lon="-105.23486699760093"><ele>1893.927142803594</ele></trkpt>
<trkpt lat="39.743188409788594" lon="-105.23483826575044"><ele>1894.3099014407353</ele></trkpt>
<trkpt lat="39.74324774270042" lon="-105.23480567165987"><ele>1894.729146980671</ele></trkpt>
<trkpt lat="39.743452638871865" lon="-105.23469116187229"><ele>1896.1807687084329</ele></trkpt>
<trkpt lat="39.74351759756201" lon="-105.23465539872142"><ele>1896.6399188291352</ele></trkpt>
<trkpt lat="39.743577819009474" lon="-105.23462327474951"><ele>1897.0635993520286</ele></trkpt>
<trkpt lat="39.74363933361178" lon="-105.23459263333181"><ele>1897.492369726781</ele></trkpt>
<trkpt lat="39.74370170761951" lon="-105.23456493660865"><ele>1897.9213823233138</ele></trkpt>
<trkpt lat="39.74373134095733" lon="-105.2345533673277"><ele>1898.1227731132365</ele></trkpt>
<trkpt lat="39.74378810853696" lon="-105.23453439412259"><ele>1898.5042871292412</ele></trkpt>
<trkpt lat="39.74384279648348" lon="-105.23451981761019"><ele>1898.8676567119178</ele></trkpt>
<trkpt lat="39.74389395767945" lon="-105.23450987103813"><ele>1899.2043716478313</ele></trkpt>
<trkpt lat="39.74393970594374" lon="-105.23450543552252"><ele>1899.502979112693</ele></trkpt>
<trkpt lat="39.74398031013987" lon="-105.23450677122528"><ele>1899.767361399095</ele></trkpt>
<trkpt lat="39.744018580289115" lon="-105.23451337612003"><ele>1900.01865036003</ele></trkpt>
<trkpt lat="39.744058541720285" lon="-105.23452477737408"><ele>1900.2849497467585</ele></trkpt>
<trkpt lat="39.74410357633534" lon="-105.23454098863229"><ele>1900.5891071189337</ele></trkpt>
<trkpt lat="39.7441545178943" lon="-105.23456220086864"><ele>1900.9372732587035</ele></trkpt>
<trkpt lat="39.744209059994986" lon="-105.234588564819"><ele>1901.3160221406476</ele></trkpt>
<trkpt lat="39.74423649024244" lon="-105.23460382195762"><ele>1901.5102125752228</ele></trkpt>
<trkpt lat="39.74426346892686" lon="-105.23462055705521"><ele>1901.7047719790294</ele></trkpt>
<trkpt lat="39.744289713863196" lon="-105.23463892413734"><ele>1901.8987660722773</ele></trkpt>
<trkpt lat="39.74431510553308" lon="-105.23465890604479"><ele>1902.0919451489222</ele></trkpt>
<trkpt lat="39.74433953985022" lon="-105.2346804814386"><ele>1902.2841842912499</ele></trkpt>
<trkpt lat="39.744362982391046" lon="-105.2347033969034"><ele>1902.4750704488151</ele></trkpt>
<trkpt lat="39.74438527037333" lon="-105.23472738006096"><ele>1902.6633648872266</ele></trkpt>
<trkpt lat="39.74440627355402" lon="-105.234752044643"><ele>1902.8475620185204</ele></trkpt>
<trkpt lat="39.74442573593113" lon="-105.23477710207155"><ele>1903.0258207973852</ele></trkpt>
<trkpt lat="39.744443537098185" lon="-105.23480233232202"><ele>1903.1972009243807</ele></trkpt>
<trkpt lat="39.744459519210565" lon="-105.23482769442514"><ele>1903.3613183351192</ele></trkpt>
<trkpt lat="39.744473749255306" lon="-105.23485325767888"><ele>1903.5192688856584</ele></trkpt>
<trkpt lat="39.74448626924399" lon="-105.23487919137946"><ele>1903.6725271937953</ele></trkpt>
<trkpt lat="39.744497292226335" lon="-105.2349056259852"><ele>1903.8230327861108</ele></trkpt>
<trkpt lat="39.7445153392487" lon="-105.23496014607665"><ele>1904.1201112058445</ele></trkpt>
<trkpt lat="39.744528714295434" lon="-105.23501597666228"><ele>1904.4127852760294</ele></trkpt>
<trkpt lat="39.74453769713512" lon="-105.23507130711069"><ele>1904.6958132768032</ele></trkpt>
<trkpt lat="39.74454251874167" lon="-105.23512535763788"><ele>1904.9681443451486</ele></trkpt>
<trkpt lat="39.74454359623175" lon="-105.23517972605592"><ele>1905.2403423057701</ele></trkpt>
<trkpt lat="39.744541372336535" lon="-105.23523761891161"><ele>1905.530450668717</ele></trkpt>
<trkpt lat="39.744536225448044" lon="-105.2353016625247"><ele>1905.8527275381089</ele></trkpt>
<trkpt lat="39.744528388134334" lon="-105.23537261767792"><ele>1906.2114952832296</ele></trkpt>
<trkpt lat="39.74451782569501" lon="-105.23545041596108"><ele>1906.60689001048</ele></trkpt>
<trkpt lat="39.74451146804541" lon="-105.2354918884682"><ele>1906.8185402409188</ele></trkpt>
<trkpt lat="39.74449678765865" lon="-105.23557910665623"><ele>1907.265393928517</ele></trkpt>
<trkpt lat="39.744480441616595" lon="-105.23566816766147"><ele>1907.7236569887364</ele></trkpt>
<trkpt lat="39.74446375289354" lon="-105.23575489882994"><ele>1908.1711226851853</ele></trkpt>
</trkseg>
</trk></gpx>
