<?xml version='1.0' encoding='UTF-8'?>
<gpx version="1.1"
  creator="GPXmagic"
  xmlns="http://www.topografix.com/GPX/1/1"
  xmlns:rgt="http://www.rgtcycling.com/XML/GpxExtensions/v1"
  xmlns:xsi="http://www.w3.org/2001/XMLSchema-instance" xsi:schemaLocation="http://www.topografix.com/GPX/1/1
  http://www.topografix.com/GPX/1/1/gpx.xsd">
  <metadata>
    <name>Smoothed with GPXmagic</name>
    <author>
      <link href="https://www.stepwiserefinement.co.uk">
        <text>GPXmagic v3</text>
        <type>text/html</type>
      </link>
    </author>
  </metadata>
<trk>  <name>5&#32;minute&#32;climb&#32;repeats</name>
<trkseg>
<trkpt lat="39.74458468171296" lon="-105.23635729168635"><ele>1928.4497933790233</ele></trkpt>
<trkpt lat="39.74464610906982" lon="-105.23633944289446"><ele>1927.5128685167479</ele></trkpt>
<trkpt lat="39.74468473885044" lon="-105.23632286903053"><ele>1926.9074820843678</ele></trkpt>
<trkpt lat="39.744758119129855" lon="-105.23627739938166"><ele>1925.6967092196073</ele></trkpt>
<trkpt lat="39.744824621852096" lon="-105.23621661476156"><ele>1924.485936354847</ele></trkpt>
<trkpt lat="39.744854700131704" lon="-105.23618099838595"><ele>1923.8805499224668</ele></trkpt>
<trkpt lat="39.74490745189237" lon="-105.2361005710544"><ele>1922.6697770577061</ele></trkpt>
<trkpt lat="39.74494912284569" lon="-105.23600980590176"><ele>1921.459004192946</ele></trkpt>
<trkpt lat="39.744978540084674" lon="-105.23591125771262"><ele>1920.2482313281853</ele></trkpt>
<trkpt lat="39.744988380630566" lon="-105.23585992535773"><ele>1919.6428448958052</ele></trkpt>
<trkpt lat="39.74516696830383" lon="-105.23472778422125"><ele>1906.4177698612657</ele></trkpt>
<trkpt lat="39.74534349818828" lon="-105.23360785055802"><ele>1893.5650093925422</ele></trkpt>
<trkpt lat="39.74537098222652" lon="-105.23343035754547"><ele>1891.5294752533036</ele></trkpt>
<trkpt lat="39.74539729236857" lon="-105.23325346667139"><ele>1889.5039076292137</ele></trkpt>
<trkpt lat="39.74541908905108" lon="-105.23309122919235"><ele>1887.6523140412078</ele></trkpt>
<trkpt lat="39.74543422356313" lon="-105.2329477487175"><ele>1886.0241232779717</ele></trkpt>
<trkpt lat="39.745442320156954" lon="-105.23281454833297"><ele>1884.5219430280642</ele></trkpt>
<trkpt lat="39.74544416930354" lon="-105.2326768788952"><ele>1882.9739555581302</ele></trkpt>
<trkpt lat="39.745441162687015" lon="-105.23252379637825"><ele>1881.2523609879663</ele></trkpt>
<trkpt lat="39.74543497756694" lon="-105.23235538498747"><ele>1879.3568338786267</ele></trkpt>
<trkpt lat="39.745412512096195" lon="-105.23186499791154"><ele>1873.8338602349993</ele></trkpt>
<trkpt lat="39.74531751209541" lon="-105.22985499789522"><ele>1851.193717992679</ele></trkpt>
<trkpt lat="39.7453019922215" lon="-105.22953246081934"><ele>1847.5604879179132</ele></trkpt>
<trkpt lat="39.74529235973841" lon="-105.2293527837466"><ele>1845.535556568324</ele></trkpt>
<trkpt lat="39.7452803503119" lon="-105.22917359168648"><ele>1843.5133433299518</ele></trkpt>
<trkpt lat="39.74526407568086" lon="-105.22900779699678"><ele>1841.6342602523541</ele></trkpt>
<trkpt lat="39.745240227848484" lon="-105.22885607466078"><ele>1839.8932380315196</ele></trkpt>
<trkpt lat="39.74520530428426" lon="-105.22870661232588"><ele>1838.1370225185926</ele></trkpt>
<trkpt lat="39.74515810580773" lon="-105.22854712770591"><ele>1836.2157797213697</ele></trkpt>
<trkpt lat="39.74510194041794" lon="-105.2283769459231"><ele>1834.133697206694</ele></trkpt>
<trkpt lat="39.74498808863091" lon="-105.22804942050419"><ele>1830.0926300094575</ele></trkpt>
<trkpt lat="39.744603340207206" lon="-105.22695665746615"><ele>1816.5803257758712</ele></trkpt>
<trkpt lat="39.744496364538904" lon="-105.22665420256428"><ele>1812.8374217000455</ele></trkpt>
<trkpt lat="39.74443678452885" lon="-105.22649064150545"><ele>1810.8026381341026</ele></trkpt>
<trkpt lat="39.74437739856321" lon="-105.22633952721552"><ele>1808.8946673525381</ele></trkpt>
<trkpt lat="39.744322524115745" lon="-105.22622550648542"><ele>1808.364833676269</ele></trkpt>
<trkpt lat="39.74427243135473" lon="-105.22616590160493"><ele>1808.1120833333334</ele></trkpt>
<trkpt lat="39.74422288526439" lon="-105.22616492549035"><ele>1808.161555624143</ele></trkpt>
<trkpt lat="39.74416956036017" lon="-105.22621452754649"><ele>1808.4764803840878</ele></trkpt>
<trkpt lat="39.74411251389894" lon="-105.22629669343473"><ele>1808.9644483539093</ele></trkpt>
<trkpt lat="39.744057883877836" lon="-105.2263869641126"><ele>1809.6609883726885</ele></trkpt>
<trkpt lat="39.743982961262" lon="-105.22651427409268"><ele>1810.6330645440812</ele></trkpt>
<trkpt lat="39.74391652547374" lon="-105.22660978607374"><ele>1811.4143929149473</ele></trkpt>
<trkpt lat="39.74382759587281" lon="-105.2267516226488"><ele>1812.524083485762</ele></trkpt>
<trkpt lat="39.74374307300759" lon="-105.22687620568252"><ele>1813.53153531888</ele></trkpt>
<trkpt lat="39.74361195020447" lon="-105.22706176360788"><ele>1815.0596090866961</ele></trkpt>
<trkpt lat="39.74286101250792" lon="-105.22811567839022"><ele>1823.7718007169733</ele></trkpt>
<trkpt lat="39.742618889201985" lon="-105.22845479270842"><ele>1826.5777669729482</ele></trkpt>
<trkpt lat="39.74257179931993" lon="-105.22851839181975"><ele>1827.113119210738</ele></trkpt>
<trkpt lat="39.74253466621225" lon="-105.22855366001188"><ele>1827.4765953054796</ele></trkpt>
<trkpt lat="39.74250713763171" lon="-105.22857021865119"><ele>1827.7157711200553</ele></trkpt>
<trkpt lat="39.74247304526749" lon="-105.22858374488005"><ele>1827.9968444034143</ele></trkpt>
<trkpt lat="39.74243658007297" lon="-105.22858947594275"><ele>1828.2864890009396</ele></trkpt>
<trkpt lat="39.74240234888861" lon="-105.2285836864624"><ele>1828.5586978446888</ele></trkpt>
<trkpt lat="39.74237276425136" lon="-105.22856815648684"><ele>1828.8102801133286</ele></trkpt>
<trkpt lat="39.74231609491397" lon="-105.22852618797991"><ele>1829.3245329774636</ele></trkpt>
<trkpt lat="39.74227611518238" lon="-105.22850377499535"><ele>1829.6678439339805</ele></trkpt>
<trkpt lat="39.742217507331695" lon="-105.22847744803994"><ele>1830.156798720866</ele></trkpt>
<trkpt lat="39.74213357366325" lon="-105.22844385388296"><ele>1830.849308107276</ele></trkpt>
<trkpt lat="39.742023474634614" lon="-105.22840204453206"><ele>1831.753767874448</ele></trkpt>
<trkpt lat="39.741762924844316" lon="-105.22830567149468"><ele>1833.8898621991948</ele></trkpt>
<trkpt lat="39.741054454329486" lon="-105.2280455510545"><ele>1839.695005697735</ele></trkpt>
<trkpt lat="39.74081292146587" lon="-105.22795555887016"><ele>1841.67628448216</ele></trkpt>
<trkpt lat="39.74065849127567" lon="-105.22789365834244"><ele>1842.9506632371738</ele></trkpt>
<trkpt lat="39.74060685086622" lon="-105.22786942344483"><ele>1843.3835862897797</ele></trkpt>
<trkpt lat="39.74051648824811" lon="-105.2278178418436"><ele>1844.1619604216187</ele></trkpt>
<trkpt lat="39.740470927478334" lon="-105.22778707335493"><ele>1844.5667917462138</ele></trkpt>
<trkpt lat="39.74042520080851" lon="-105.22775202198862"><ele>1844.9853548483818</ele></trkpt>
<trkpt lat="39.740380428240734" lon="-105.22771283262328"><ele>1845.41093835426</ele></trkpt>
<trkpt lat="39.74026442708333" lon="-105.22759920999873"><ele>1846.5561440006995</ele></trkpt>
<trkpt lat="39.740235023148145" lon="-105.22757432866132"><ele>1846.8327775735847</ele></trkpt>
<trkpt lat="39.74018254703619" lon="-105.22754801644976"><ele>1847.2762795847816</ele></trkpt>
<trkpt lat="39.74013516790295" lon="-105.22753886619816"><ele>1847.6539931625941</ele></trkpt>
<trkpt lat="39.74008672270605" lon="-105.22754512268392"><ele>1848.037895047011</ele></trkpt>
<trkpt lat="39.740041760978826" lon="-105.22757054270265"><ele>1848.4245047113404</ele></trkpt>
<trkpt lat="39.74001395526052" lon="-105.22762768858927"><ele>1848.8345672211053</ele></trkpt>
<trkpt lat="39.74001200737678" lon="-105.22768026841983"><ele>1849.153765911983</ele></trkpt>
<trkpt lat="39.74003163969827" lon="-105.22774122138762"><ele>1849.5544807304882</ele></trkpt>
<trkpt lat="39.74005914040722" lon="-105.22779338484683"><ele>1849.9379870761798</ele></trkpt>
<trkpt lat="39.74011953311018" lon="-105.22789075293707"><ele>1850.6965297891425</ele></trkpt>
<trkpt lat="39.74017819256516" lon="-105.22799501382747"><ele>1851.4798913720667</ele></trkpt>
<trkpt lat="39.74021974239369" lon="-105.22807942843653"><ele>1852.0876400923992</ele></trkpt>
<trkpt lat="39.740256875" lon="-105.22817208287356"><ele>1852.721194710546</ele></trkpt>
<trkpt lat="39.74029254372428" lon="-105.22828357024163"><ele>1853.453398960819</ele></trkpt>
<trkpt lat="39.74032993312757" lon="-105.22842009617733"><ele>1854.3321861310628</ele></trkpt>
<trkpt lat="39.740368973765435" lon="-105.22857446169941"><ele>1855.3175380540245</ele></trkpt>
<trkpt lat="39.74043769804528" lon="-105.22886131724205"><ele>1857.1394243035934</ele></trkpt>
<trkpt lat="39.74046125" lon="-105.22896645802999"><ele>1857.8034644909685</ele></trkpt>
<trkpt lat="39.74047792813357" lon="-105.22904889782751"><ele>1858.3203637552824</ele></trkpt>
<trkpt lat="39.74049958879887" lon="-105.22918704694384"><ele>1859.1754519342853</ele></trkpt>
<trkpt lat="39.74050641375171" lon="-105.22925165977298"><ele>1859.5709219046898</ele></trkpt>
<trkpt lat="39.74050958515517" lon="-105.22931145006986"><ele>1859.9343319033255</ele></trkpt>
<trkpt lat="39.74050815104167" lon="-105.22936528646866"><ele>1860.2609737414068</ele></trkpt>
<trkpt lat="39.740502031249996" lon="-105.2294159896155"><ele>1860.572185203244</ele></trkpt>
<trkpt lat="39.740490859375" lon="-105.22946837680016"><ele>1860.9018337109453</ele></trkpt>
<trkpt lat="39.740473515625006" lon="-105.22952841446592"><ele>1861.2907252049117</ele></trkpt>
<trkpt lat="39.74044913194444" lon="-105.22960008408211"><ele>1861.7659439737956</ele></trkpt>
<trkpt lat="39.74038903645833" lon="-105.2297660215959"><ele>1862.8781469141786</ele></trkpt>
<trkpt lat="39.74036197048612" lon="-105.22984656842968"><ele>1863.4111555852355</ele></trkpt>
<trkpt lat="39.74033986111111" lon="-105.22992185485123"><ele>1863.8998282162884</ele></trkpt>
<trkpt lat="39.740321979166666" lon="-105.22999368063753"><ele>1864.3576157882158</ele></trkpt>
<trkpt lat="39.74030746527778" lon="-105.23006326105954"><ele>1864.7947775232064</ele></trkpt>
<trkpt lat="39.74029604456018" lon="-105.23013145259418"><ele>1865.2179635994678</ele></trkpt>
<trkpt lat="39.74028763599537" lon="-105.23019986982618"><ele>1865.6380897580357</ele></trkpt>
<trkpt lat="39.74028214409722" lon="-105.23026901043822"><ele>1866.0595676276014</ele></trkpt>
<trkpt lat="39.74028030092592" lon="-105.23033646701704"><ele>1866.468861385028</ele></trkpt>
<trkpt lat="39.740283698559665" lon="-105.23040000029921"><ele>1866.855037885245</ele></trkpt>
<trkpt lat="39.74029356995884" lon="-105.23045990221547"><ele>1867.2265118727387</ele></trkpt>
<trkpt lat="39.74030979648919" lon="-105.23051791756701"><ele>1867.6008472729109</ele></trkpt>
<trkpt lat="39.74033064011059" lon="-105.2305722137972"><ele>1867.9688308998225</ele></trkpt>
<trkpt lat="39.74035459522891" lon="-105.23061954533657"><ele>1868.3124221784292</ele></trkpt>
<trkpt lat="39.74038134066358" lon="-105.23065770730958"><ele>1868.625516519713</ele></trkpt>
<trkpt lat="39.74041422325103" lon="-105.2306896346931"><ele>1868.949116646306</ele></trkpt>
<trkpt lat="39.74045871270576" lon="-105.23072016448006"><ele>1869.3457921618724</ele></trkpt>
<trkpt lat="39.74051894675926" lon="-105.23075377296077"><ele>1869.8626501330564</ele></trkpt>
<trkpt lat="39.74066715856481" lon="-105.23083050036635"><ele>1871.1205973798396</ele></trkpt>
<trkpt lat="39.74073607349537" lon="-105.2308700432217"><ele>1871.7145830521174</ele></trkpt>
<trkpt lat="39.74079520543981" lon="-105.23090997669607"><ele>1872.2400008929794</ele></trkpt>
<trkpt lat="39.74084620659721" lon="-105.23095131930344"><ele>1872.7139113792432</ele></trkpt>
<trkpt lat="39.740890752314805" lon="-105.23099490727746"><ele>1873.1535110807254</ele></trkpt>
<trkpt lat="39.74092944733795" lon="-105.23104200508597"><ele>1873.5714418863427</ele></trkpt>
<trkpt lat="39.740963098958325" lon="-105.231094371985"><ele>1873.985261112218</ele></trkpt>
<trkpt lat="39.74099302083333" lon="-105.23115214397764"><ele>1874.4076232963384</ele></trkpt>
<trkpt lat="39.741019574652775" lon="-105.23121356470506"><ele>1874.8348841417815</ele></trkpt>
<trkpt lat="39.74104249421296" lon="-105.23127751147764"><ele>1875.262686460249</ele></trkpt>
<trkpt lat="39.74106209780092" lon="-105.2313448263004"><ele>1875.6991509091217</ele></trkpt>
<trkpt lat="39.74111449652778" lon="-105.23155700511701"><ele>1877.0504722352186</ele></trkpt>
<trkpt lat="39.74115631944445" lon="-105.23169401030465"><ele>1877.9444744676666</ele></trkpt>
<trkpt lat="39.74118064525463" lon="-105.23176059016077"><ele>1878.3914444007605</ele></trkpt>
<trkpt lat="39.741207537615736" lon="-105.23182402186656"><ele>1878.8306568658531</ele></trkpt>
<trkpt lat="39.7412380324074" lon="-105.23188504036929"><ele>1879.2719286987328</ele></trkpt>
<trkpt lat="39.74127280381944" lon="-105.23194565956108"><ele>1879.730504239973</ele></trkpt>
<trkpt lat="39.74131234664351" lon="-105.2320074014285"><ele>1880.2177326481149</ele></trkpt>
<trkpt lat="39.74135722768775" lon="-105.23207103349645"><ele>1880.7413060101842</ele></trkpt>
<trkpt lat="39.741408207304524" lon="-105.23213741053654"><ele>1881.3101675476232</ele></trkpt>
<trkpt lat="39.74146343364196" lon="-105.23220476752728"><ele>1881.9072171160474</ele></trkpt>
<trkpt lat="39.741520282921805" lon="-105.23226997025077"><ele>1882.5049454347125</ele></trkpt>
<trkpt lat="39.741578119855966" lon="-105.23233095997324"><ele>1883.092121175387</ele></trkpt>
<trkpt lat="39.74164270833333" lon="-105.2323918743652"><ele>1883.721276261009</ele></trkpt>
<trkpt lat="39.74172238597394" lon="-105.23245997422784"><ele>1884.4731304764737</ele></trkpt>
<trkpt lat="39.74182180898491" lon="-105.2325403811888"><ele>1885.396379976582</ele></trkpt>
<trkpt lat="39.74205018089849" lon="-105.23272088271037"><ele>1887.5037477663918</ele></trkpt>
<trkpt lat="39.7421527254801" lon="-105.23280327664457"><ele>1888.454265902666</ele></trkpt>
<trkpt lat="39.74223874999999" lon="-105.23287541593422"><ele>1889.2614263206042</ele></trkpt>
<trkpt lat="39.74231363910836" lon="-105.23294262321375"><ele>1889.9789333101844</ele></trkpt>
<trkpt lat="39.74238551969821" lon="-105.23301161274674"><ele>1890.6834065888493</ele></trkpt>
<trkpt lat="39.74245822547325" lon="-105.23308459461795"><ele>1891.4076581427944</ele></trkpt>
<trkpt lat="39.74259147367627" lon="-105.23322455183718"><ele>1892.7583492759663</ele></trkpt>
<trkpt lat="39.74264579298611" lon="-105.23328563914853"><ele>1893.324632021448</ele></trkpt>
<trkpt lat="39.74269458506944" lon="-105.23334410252822"><ele>1893.8477983532093</ele></trkpt>
<trkpt lat="39.742780723888885" lon="-105.233455825388"><ele>1894.8071973998244</ele></trkpt>
<trkpt lat="39.74281191349794" lon="-105.23350068725085"><ele>1895.1739205370893</ele></trkpt>
<trkpt lat="39.742843847415116" lon="-105.2335619418512"><ele>1895.6236921751643</ele></trkpt>
<trkpt lat="39.742875" lon="-105.23366125511426"><ele>1896.2740548005968</ele></trkpt>
<trkpt lat="39.74288687736625" lon="-105.23370921692594"><ele>1896.5795796409006</ele></trkpt>
<trkpt lat="39.74289618436214" lon="-105.233763963437"><ele>1896.9195491453133</ele></trkpt>
<trkpt lat="39.74290134320987" lon="-105.23382226353799"><ele>1897.275382394688</ele></trkpt>
<trkpt lat="39.74290152016461" lon="-105.23388283597528"><ele>1897.6426634009495</ele></trkpt>
<trkpt lat="39.74289534650205" lon="-105.2339484988146"><ele>1898.0437725744587</ele></trkpt>
<trkpt lat="39.74288110814815" lon="-105.23402772020542"><ele>1898.537075763297</ele></trkpt>
<trkpt lat="39.74285834518518" lon="-105.23412622697393"><ele>1899.160756916505</ele></trkpt>
<trkpt lat="39.74277728592592" lon="-105.23444505354198"><ele>1901.1968889335174</ele></trkpt>
<trkpt lat="39.74276103506172" lon="-105.2345153144596"><ele>1901.6417701833197</ele></trkpt>
<trkpt lat="39.74274639111111" lon="-105.23460801417403"><ele>1902.2160519474396</ele></trkpt>
<trkpt lat="39.74274494432098" lon="-105.23468226595803"><ele>1902.6669256577243</ele></trkpt>
<trkpt lat="39.74275599622771" lon="-105.23475202416427"><ele>1903.0997802933073</ele></trkpt>
<trkpt lat="39.742767273662544" lon="-105.2347834653449"><ele>1903.3101446837893</ele></trkpt>
<trkpt lat="39.742804977709184" lon="-105.23484065068227"><ele>1903.7683230768737</ele></trkpt>
<trkpt lat="39.742857633744855" lon="-105.23489232506857"><ele>1904.2888895610254</ele></trkpt>
<trkpt lat="39.742882633744856" lon="-105.23491024689308"><ele>1904.513997643327</ele></trkpt>
<trkpt lat="39.74292941958162" lon="-105.23492517232383"><ele>1904.8955878699003</ele></trkpt>
<trkpt lat="39.74298535236625" lon="-105.23492333078323"><ele>1905.337125830022</ele></trkpt>
<trkpt lat="39.74305448473936" lon="-105.2349053542363"><ele>1905.8937821782063</ele></trkpt>
<trkpt lat="39.743103125" lon="-105.23488354198332"><ele>1906.2995050261832</ele></trkpt>
<trkpt lat="39.74317084533608" lon="-105.23484823613228"><ele>1906.874835821456</ele></trkpt>
<trkpt lat="39.74347191443758" lon="-105.2346801987975"><ele>1909.4583738082713</ele></trkpt>
<trkpt lat="39.743565660150885" lon="-105.23462897689576"><ele>1910.260213200957</ele></trkpt>
<trkpt lat="39.74364145833333" lon="-105.23459020868692"><ele>1910.9024942299727</ele></trkpt>
<trkpt lat="39.7437037296382" lon="-105.23456245991244"><ele>1911.4215699297147</ele></trkpt>
<trkpt lat="39.74376033929183" lon="-105.23454183311786"><ele>1911.88516399416</ele></trkpt>
<trkpt lat="39.74381643197016" lon="-105.2345252264238"><ele>1912.3388084903752</ele></trkpt>
<trkpt lat="39.74387067301097" lon="-105.23451245033073"><ele>1912.7734937865505</ele></trkpt>
<trkpt lat="39.74391982724623" lon="-105.23450481602063"><ele>1913.16386202527</ele></trkpt>
<trkpt lat="39.743962071759256" lon="-105.2345034577565"><ele>1913.4970900534488</ele></trkpt>
<trkpt lat="39.743999670138884" lon="-105.23450780380284"><ele>1913.7947471787695</ele></trkpt>
<trkpt lat="39.74403670717592" lon="-105.23451692126237"><ele>1914.0919949669221</ele></trkpt>
<trkpt lat="39.74412633680555" lon="-105.23454922734534"><ele>1914.8255674851987</ele></trkpt>
<trkpt lat="39.74418098958333" lon="-105.23457296864267"><ele>1915.2799466590184</ele></trkpt>
<trkpt lat="39.744237326388884" lon="-105.23460176203116"><ele>1915.757273281719</ele></trkpt>
<trkpt lat="39.74429100694444" lon="-105.23463650159955"><ele>1916.2300915683713</ele></trkpt>
<trkpt lat="39.74434083333333" lon="-105.23467843734572"><ele>1916.6981034777523</ele></trkpt>
<trkpt lat="39.74438703124999" lon="-105.23472648421563"><ele>1917.1645637646109</ele></trkpt>
<trkpt lat="39.74442817708333" lon="-105.23477705715155"><ele>1917.6109985485473</ele></trkpt>
<trkpt lat="39.74446211869856" lon="-105.2348275855197"><ele>1918.0178156761342</ele></trkpt>
<trkpt lat="39.74448827674897" lon="-105.23487885365911"><ele>1918.3908836456364</ele></trkpt>
<trkpt lat="39.74450817901234" lon="-105.23493455369493"><ele>1918.7632953527582</ele></trkpt>
<trkpt lat="39.74452286522634" lon="-105.23499685823819"><ele>1919.1584204295</ele></trkpt>
<trkpt lat="39.74453259773662" lon="-105.23506512728945"><ele>1919.5794117888017</ele></trkpt>
<trkpt lat="39.74453951989025" lon="-105.23519292180856"><ele>1920.3564867332996</ele></trkpt>
<trkpt lat="39.74453843621399" lon="-105.2352703909525"><ele>1920.8262841031726</ele></trkpt>
<trkpt lat="39.74451830873052" lon="-105.23541553827671"><ele>1921.7206130550474</ele></trkpt>
<trkpt lat="39.744491340401154" lon="-105.23558587000524"><ele>1922.7750771000162</ele></trkpt>
<trkpt lat="39.74445091455395" lon="-105.23581171380862"><ele>1924.1810567068862</ele></trkpt>
<trkpt lat="39.74443138603711" lon="-105.23592483797881"><ele>1924.8840399820865</ele></trkpt>
<trkpt lat="39.74441448800323" lon="-105.23603865327728"><ele>1925.5869408398353</ele></trkpt>
<trkpt lat="39.74440875712165" lon="-105.23609609498695"><ele>1925.9381482105985</ele></trkpt>
<trkpt lat="39.74440759575088" lon="-105.23615394699924"><ele>1926.2890432488991</ele></trkpt>
<trkpt lat="39.74441323780348" lon="-105.23621130098412"><ele>1926.6396335687475</ele></trkpt>
<trkpt lat="39.744427637220966" lon="-105.23626598054247"><ele>1926.9900790608795</ele></trkpt>
<trkpt lat="39.744454014558464" lon="-105.23631238167702"><ele>1927.339965084419</ele></trkpt>
<trkpt lat="39.74448946240352" lon="-105.23634687707624"><ele>1927.6890832374697</ele></trkpt>
<trkpt lat="39.74453242020658" lon="-105.23636013246477"><ele>1928.0372381468267</ele></trkpt>
<trkpt lat="39.74458468171296" lon="-105.23635729168635"><ele>1928.4497933790233</ele></trkpt>
</trkseg>
</trk></gpx>
