<?xml version="1.0" encoding="UTF-8"?>
<gpx version="1.1" creator="GPX Segmenter" xmlns="http://www.topografix.com/GPX/1/1">
  <trk>
    <name>Fort Stockton Mini Climb 2min - Segment 1 of 1</name>
    <trkseg>
      <trkpt lat="32.758600" lon="-117.195707">
        <ele>7.9</ele>
      </trkpt>
      <trkpt lat="32.758687" lon="-117.195636">
        <ele>8.6</ele>
      </trkpt>
      <trkpt lat="32.758775" lon="-117.195567">
        <ele>9.7</ele>
      </trkpt>
      <trkpt lat="32.758854" lon="-117.195510">
        <ele>10.8</ele>
      </trkpt>
      <trkpt lat="32.758983" lon="-117.195420">
        <ele>12.7</ele>
      </trkpt>
      <trkpt lat="32.759120" lon="-117.195402">
        <ele>14.6</ele>
      </trkpt>
      <trkpt lat="32.759310" lon="-117.195430">
        <ele>17.1</ele>
      </trkpt>
      <trkpt lat="32.759436" lon="-117.195421">
        <ele>18.5</ele>
      </trkpt>
      <trkpt lat="32.759554" lon="-117.195379">
        <ele>19.8</ele>
      </trkpt>
      <trkpt lat="32.759665" lon="-117.195308">
        <ele>20.8</ele>
      </trkpt>
      <trkpt lat="32.759745" lon="-117.195236">
        <ele>21.8</ele>
      </trkpt>
      <trkpt lat="32.759804" lon="-117.195147">
        <ele>22.7</ele>
      </trkpt>
      <trkpt lat="32.759838" lon="-117.195050">
        <ele>23.4</ele>
      </trkpt>
      <trkpt lat="32.759857" lon="-117.194912">
        <ele>24.4</ele>
      </trkpt>
      <trkpt lat="32.759850" lon="-117.194730">
        <ele>25.8</ele>
      </trkpt>
      <trkpt lat="32.759777" lon="-117.194363">
        <ele>28.8</ele>
      </trkpt>
      <trkpt lat="32.759737" lon="-117.194243">
        <ele>30.0</ele>
      </trkpt>
      <trkpt lat="32.759672" lon="-117.194094">
        <ele>31.5</ele>
      </trkpt>
      <trkpt lat="32.759616" lon="-117.194009">
        <ele>32.4</ele>
      </trkpt>
      <trkpt lat="32.759555" lon="-117.193951">
        <ele>33.2</ele>
      </trkpt>
      <trkpt lat="32.759477" lon="-117.193910">
        <ele>34.0</ele>
      </trkpt>
      <trkpt lat="32.759394" lon="-117.193893">
        <ele>34.7</ele>
      </trkpt>
      <trkpt lat="32.759170" lon="-117.193929">
        <ele>36.7</ele>
      </trkpt>
      <trkpt lat="32.759008" lon="-117.193997">
        <ele>38.4</ele>
      </trkpt>
      <trkpt lat="32.758895" lon="-117.194069">
        <ele>40.0</ele>
      </trkpt>
      <trkpt lat="32.758829" lon="-117.194102">
        <ele>40.9</ele>
      </trkpt>
      <trkpt lat="32.758743" lon="-117.194118">
        <ele>41.9</ele>
      </trkpt>
      <trkpt lat="32.758640" lon="-117.194109">
        <ele>43.0</ele>
      </trkpt>
      <trkpt lat="32.758531" lon="-117.194061">
        <ele>44.3</ele>
      </trkpt>
      <trkpt lat="32.758427" lon="-117.193965">
        <ele>45.4</ele>
      </trkpt>
      <trkpt lat="32.758328" lon="-117.193864">
        <ele>46.4</ele>
      </trkpt>
      <trkpt lat="32.758239" lon="-117.193815">
        <ele>47.0</ele>
      </trkpt>
      <trkpt lat="32.758170" lon="-117.193805">
        <ele>47.5</ele>
      </trkpt>
      <trkpt lat="32.757825" lon="-117.193898">
        <ele>50.2</ele>
      </trkpt>
      <trkpt lat="32.757651" lon="-117.193945">
        <ele>50.2</ele>
      </trkpt>
      <trkpt lat="32.757629" lon="-117.193953">
        <ele>50.2</ele>
      </trkpt>
      <trkpt lat="32.757609" lon="-117.193965">
        <ele>50.2</ele>
      </trkpt>
      <trkpt lat="32.757591" lon="-117.193980">
        <ele>50.2</ele>
      </trkpt>
      <trkpt lat="32.757576" lon="-117.193998">
        <ele>50.2</ele>
      </trkpt>
      <trkpt lat="32.757564" lon="-117.194019">
        <ele>50.2</ele>
      </trkpt>
      <trkpt lat="32.757556" lon="-117.194041">
        <ele>50.2</ele>
      </trkpt>
      <trkpt lat="32.757546" lon="-117.194068">
        <ele>50.2</ele>
      </trkpt>
      <trkpt lat="32.757529" lon="-117.194093">
        <ele>50.2</ele>
      </trkpt>
      <trkpt lat="32.757508" lon="-117.194113">
        <ele>50.2</ele>
      </trkpt>
      <trkpt lat="32.757483" lon="-117.194129">
        <ele>50.2</ele>
      </trkpt>
      <trkpt lat="32.757455" lon="-117.194138">
        <ele>50.2</ele>
      </trkpt>
      <trkpt lat="32.757426" lon="-117.194141">
        <ele>50.2</ele>
      </trkpt>
      <trkpt lat="32.757397" lon="-117.194138">
        <ele>50.2</ele>
      </trkpt>
      <trkpt lat="32.757369" lon="-117.194129">
        <ele>50.2</ele>
      </trkpt>
      <trkpt lat="32.757344" lon="-117.194114">
        <ele>50.2</ele>
      </trkpt>
      <trkpt lat="32.757323" lon="-117.194093">
        <ele>50.2</ele>
      </trkpt>
      <trkpt lat="32.757306" lon="-117.194069">
        <ele>50.2</ele>
      </trkpt>
      <trkpt lat="32.757295" lon="-117.194042">
        <ele>50.2</ele>
      </trkpt>
      <trkpt lat="32.757291" lon="-117.194013">
        <ele>50.2</ele>
      </trkpt>
      <trkpt lat="32.757293" lon="-117.193983">
        <ele>50.2</ele>
      </trkpt>
      <trkpt lat="32.757301" lon="-117.193955">
        <ele>50.2</ele>
      </trkpt>
      <trkpt lat="32.757315" lon="-117.193929">
        <ele>50.2</ele>
      </trkpt>
      <trkpt lat="32.757334" lon="-117.193907">
        <ele>50.2</ele>
      </trkpt>
      <trkpt lat="32.757358" lon="-117.193890">
        <ele>50.2</ele>
      </trkpt>
      <trkpt lat="32.757385" lon="-117.193878">
        <ele>50.2</ele>
      </trkpt>
      <trkpt lat="32.757414" lon="-117.193872">
        <ele>50.2</ele>
      </trkpt>
      <trkpt lat="32.757443" lon="-117.193872">
        <ele>50.2</ele>
      </trkpt>
      <trkpt lat="32.757472" lon="-117.193879">
        <ele>50.2</ele>
      </trkpt>
      <trkpt lat="32.757498" lon="-117.193892">
        <ele>50.2</ele>
      </trkpt>
      <trkpt lat="32.757521" lon="-117.193911">
        <ele>50.2</ele>
      </trkpt>
      <trkpt lat="32.757539" lon="-117.193926">
        <ele>50.2</ele>
      </trkpt>
      <trkpt lat="32.757559" lon="-117.193937">
        <ele>50.2</ele>
      </trkpt>
      <trkpt lat="32.757582" lon="-117.193945">
        <ele>50.2</ele>
      </trkpt>
      <trkpt lat="32.757605" lon="-117.193950">
        <ele>50.2</ele>
      </trkpt>
      <trkpt lat="32.757628" lon="-117.193949">
        <ele>50.2</ele>
      </trkpt>
      <trkpt lat="32.757651" lon="-117.193945">
        <ele>50.2</ele>
      </trkpt>
      <trkpt lat="32.757825" lon="-117.193898">
        <ele>50.2</ele>
      </trkpt>
      <trkpt lat="32.758170" lon="-117.193805">
        <ele>47.5</ele>
      </trkpt>
      <trkpt lat="32.758239" lon="-117.193815">
        <ele>47.0</ele>
      </trkpt>
      <trkpt lat="32.758328" lon="-117.193864">
        <ele>46.4</ele>
      </trkpt>
      <trkpt lat="32.758427" lon="-117.193965">
        <ele>45.4</ele>
      </trkpt>
      <trkpt lat="32.758531" lon="-117.194061">
        <ele>44.3</ele>
      </trkpt>
      <trkpt lat="32.758640" lon="-117.194109">
        <ele>43.0</ele>
      </trkpt>
      <trkpt lat="32.758743" lon="-117.194118">
        <ele>41.9</ele>
      </trkpt>
      <trkpt lat="32.758829" lon="-117.194102">
        <ele>40.9</ele>
      </trkpt>
      <trkpt lat="32.758895" lon="-117.194069">
        <ele>40.0</ele>
      </trkpt>
      <trkpt lat="32.759008" lon="-117.193997">
        <ele>38.4</ele>
      </trkpt>
      <trkpt lat="32.759170" lon="-117.193929">
        <ele>36.7</ele>
      </trkpt>
      <trkpt lat="32.759394" lon="-117.193893">
        <ele>34.7</ele>
      </trkpt>
      <trkpt lat="32.759477" lon="-117.193910">
        <ele>34.0</ele>
      </trkpt>
      <trkpt lat="32.759555" lon="-117.193951">
        <ele>33.2</ele>
      </trkpt>
      <trkpt lat="32.759616" lon="-117.194009">
        <ele>32.4</ele>
      </trkpt>
      <trkpt lat="32.759672" lon="-117.194094">
        <ele>31.5</ele>
      </trkpt>
      <trkpt lat="32.759737" lon="-117.194243">
        <ele>30.0</ele>
      </trkpt>
      <trkpt lat="32.759777" lon="-117.194363">
        <ele>28.8</ele>
      </trkpt>
      <trkpt lat="32.759850" lon="-117.194730">
        <ele>25.8</ele>
      </trkpt>
      <trkpt lat="32.759857" lon="-117.194912">
        <ele>24.4</ele>
      </trkpt>
      <trkpt lat="32.759838" lon="-117.195050">
        <ele>23.4</ele>
      </trkpt>
      <trkpt lat="32.759804" lon="-117.195147">
        <ele>22.7</ele>
      </trkpt>
      <trkpt lat="32.759745" lon="-117.195236">
        <ele>21.8</ele>
      </trkpt>
      <trkpt lat="32.759665" lon="-117.195308">
        <ele>20.8</ele>
      </trkpt>
      <trkpt lat="32.759554" lon="-117.195379">
        <ele>19.8</ele>
      </trkpt>
      <trkpt lat="32.759436" lon="-117.195421">
        <ele>18.5</ele>
      </trkpt>
      <trkpt lat="32.759310" lon="-117.195430">
        <ele>17.1</ele>
      </trkpt>
      <trkpt lat="32.759120" lon="-117.195402">
        <ele>14.6</ele>
      </trkpt>
      <trkpt lat="32.758983" lon="-117.195420">
        <ele>12.7</ele>
      </trkpt>
      <trkpt lat="32.758854" lon="-117.195510">
        <ele>10.8</ele>
      </trkpt>
      <trkpt lat="32.758775" lon="-117.195567">
        <ele>9.7</ele>
      </trkpt>
      <trkpt lat="32.758687" lon="-117.195636">
        <ele>8.6</ele>
      </trkpt>
      <trkpt lat="32.758600" lon="-117.195707">
        <ele>7.9</ele>
      </trkpt>
      <trkpt lat="32.758459" lon="-117.195819">
        <ele>7.9</ele>
      </trkpt>
      <trkpt lat="32.758442" lon="-117.195836">
        <ele>7.9</ele>
      </trkpt>
      <trkpt lat="32.758429" lon="-117.195855">
        <ele>7.9</ele>
      </trkpt>
      <trkpt lat="32.758418" lon="-117.195876">
        <ele>7.9</ele>
      </trkpt>
      <trkpt lat="32.758412" lon="-117.195898">
        <ele>7.9</ele>
      </trkpt>
      <trkpt lat="32.758409" lon="-117.195922">
        <ele>7.9</ele>
      </trkpt>
      <trkpt lat="32.758411" lon="-117.195945">
        <ele>7.9</ele>
      </trkpt>
      <trkpt lat="32.758412" lon="-117.195975">
        <ele>7.9</ele>
      </trkpt>
      <trkpt lat="32.758407" lon="-117.196004">
        <ele>7.9</ele>
      </trkpt>
      <trkpt lat="32.758396" lon="-117.196031">
        <ele>7.9</ele>
      </trkpt>
      <trkpt lat="32.758379" lon="-117.196055">
        <ele>7.9</ele>
      </trkpt>
      <trkpt lat="32.758357" lon="-117.196075">
        <ele>7.9</ele>
      </trkpt>
      <trkpt lat="32.758332" lon="-117.196090">
        <ele>7.9</ele>
      </trkpt>
      <trkpt lat="32.758304" lon="-117.196098">
        <ele>7.9</ele>
      </trkpt>
      <trkpt lat="32.758275" lon="-117.196101">
        <ele>7.9</ele>
      </trkpt>
      <trkpt lat="32.758245" lon="-117.196097">
        <ele>7.9</ele>
      </trkpt>
      <trkpt lat="32.758218" lon="-117.196087">
        <ele>7.9</ele>
      </trkpt>
      <trkpt lat="32.758193" lon="-117.196072">
        <ele>7.9</ele>
      </trkpt>
      <trkpt lat="32.758172" lon="-117.196051">
        <ele>7.9</ele>
      </trkpt>
      <trkpt lat="32.758156" lon="-117.196026">
        <ele>7.9</ele>
      </trkpt>
      <trkpt lat="32.758146" lon="-117.195998">
        <ele>7.9</ele>
      </trkpt>
      <trkpt lat="32.758142" lon="-117.195969">
        <ele>7.9</ele>
      </trkpt>
      <trkpt lat="32.758145" lon="-117.195940">
        <ele>7.9</ele>
      </trkpt>
      <trkpt lat="32.758154" lon="-117.195912">
        <ele>7.9</ele>
      </trkpt>
      <trkpt lat="32.758168" lon="-117.195886">
        <ele>7.9</ele>
      </trkpt>
      <trkpt lat="32.758188" lon="-117.195865">
        <ele>7.9</ele>
      </trkpt>
      <trkpt lat="32.758212" lon="-117.195848">
        <ele>7.9</ele>
      </trkpt>
      <trkpt lat="32.758239" lon="-117.195837">
        <ele>7.9</ele>
      </trkpt>
      <trkpt lat="32.758268" lon="-117.195831">
        <ele>7.9</ele>
      </trkpt>
      <trkpt lat="32.758298" lon="-117.195833">
        <ele>7.9</ele>
      </trkpt>
      <trkpt lat="32.758326" lon="-117.195840">
        <ele>7.9</ele>
      </trkpt>
      <trkpt lat="32.758349" lon="-117.195847">
        <ele>7.9</ele>
      </trkpt>
      <trkpt lat="32.758372" lon="-117.195849">
        <ele>7.9</ele>
      </trkpt>
      <trkpt lat="32.758395" lon="-117.195848">
        <ele>7.9</ele>
      </trkpt>
      <trkpt lat="32.758418" lon="-117.195842">
        <ele>7.9</ele>
      </trkpt>
      <trkpt lat="32.758440" lon="-117.195833">
        <ele>7.9</ele>
      </trkpt>
      <trkpt lat="32.758459" lon="-117.195819">
        <ele>7.9</ele>
      </trkpt>
    </trkseg>
  </trk>
</gpx>