<?xml version='1.0' encoding='UTF-8'?>
<gpx version="1.1"
  creator="GPXmagic"
  xmlns="http://www.topografix.com/GPX/1/1"
  xmlns:rgt="http://www.rgtcycling.com/XML/GpxExtensions/v1"
  xmlns:xsi="http://www.w3.org/2001/XMLSchema-instance" xsi:schemaLocation="http://www.topografix.com/GPX/1/1
  http://www.topografix.com/GPX/1/1/gpx.xsd">
  <metadata>
    <name>Smoothed with GPXmagic</name>
    <author>
      <link href="https://www.stepwiserefinement.co.uk">
        <text>GPXmagic v3</text>
        <type>text/html</type>
      </link>
    </author>
  </metadata>
<trk>  <name>Lagoona&#32;Seeker&#32;Training</name>
<trkseg>
<trkpt lat="-1.4239513554526744" lon="149.63750336882617"><ele>118.92294190019965</ele></trkpt>
<trkpt lat="-1.4239801780692725" lon="149.63752729029397"><ele>118.72757877182596</ele></trkpt>
<trkpt lat="-1.4240078641117966" lon="149.63754912534208"><ele>118.54362866979599</ele></trkpt>
<trkpt lat="-1.424035469135802" lon="149.63756980452584"><ele>118.36372687436601</ele></trkpt>
<trkpt lat="-1.42406340946502" lon="149.6375899245533"><ele>118.18420400978557</ele></trkpt>
<trkpt lat="-1.4240915349794239" lon="149.63760961865484"><ele>118.0052179461797</ele></trkpt>
<trkpt lat="-1.4241482743484224" lon="149.63764824828442"><ele>117.6474407726569</ele></trkpt>
<trkpt lat="-1.4242073909465016" lon="149.6376876563776"><ele>117.27714491869425</ele></trkpt>
<trkpt lat="-1.4242686844993135" lon="149.63772781001273"><ele>116.89521356754398</ele></trkpt>
<trkpt lat="-1.424299812757201" lon="149.63774760905252"><ele>116.70284664457293</ele></trkpt>
<trkpt lat="-1.4243313936899857" lon="149.63776685390852"><ele>116.50988958948314</ele></trkpt>
<trkpt lat="-1.4243636289437578" lon="149.63778527160403"><ele>116.31607033727394</ele></trkpt>
<trkpt lat="-1.4243967037037033" lon="149.6378026399168"><ele>116.12092714980449</ele></trkpt>
<trkpt lat="-1.4244307633744853" lon="149.63781878943675"><ele>115.92391189791408</ele></trkpt>
<trkpt lat="-1.4244658477366252" lon="149.63783357475916"><ele>115.72486254767931</ele></trkpt>
<trkpt lat="-1.4245017345679007" lon="149.63784686625442"><ele>115.52480658544617</ele></trkpt>
<trkpt lat="-1.4245379615912204" lon="149.63785854801034"><ele>115.32586159151171</ele></trkpt>
<trkpt lat="-1.424574114540466" lon="149.6378685137169"><ele>115.12983525718279</ele></trkpt>
<trkpt lat="-1.4246101563786002" lon="149.63787667078148"><ele>114.9365597827002</ele></trkpt>
<trkpt lat="-1.4246464266117966" lon="149.6378829355278"><ele>114.74389573481476</ele></trkpt>
<trkpt lat="-1.4246833079561039" lon="149.63788720027415"><ele>114.54942079432011</ele></trkpt>
<trkpt lat="-1.424720930041152" lon="149.63788927983535"><ele>114.35187602990771</ele></trkpt>
<trkpt lat="-1.4247591515775038" lon="149.6378889245543"><ele>114.15126869094321</ele></trkpt>
<trkpt lat="-1.4247977496570647" lon="149.6378859519893"><ele>113.94804269026892</ele></trkpt>
<trkpt lat="-1.4248365390946502" lon="149.6378804362144"><ele>113.74262336998659</ele></trkpt>
<trkpt lat="-1.4248753957475992" lon="149.63787271056293"><ele>113.53531861081507</ele></trkpt>
<trkpt lat="-1.4249142770919065" lon="149.637863194788"><ele>113.32618072245408</ele></trkpt>
<trkpt lat="-1.4249533127572014" lon="149.637852296297"><ele>113.11464927307429</ele></trkpt>
<trkpt lat="-1.4249927887517144" lon="149.63784039917772"><ele>112.89962658215981</ele></trkpt>
<trkpt lat="-1.4250738518518515" lon="149.63781523456876"><ele>112.45712517179581</ele></trkpt>
<trkpt lat="-1.425115237311385" lon="149.63780289506252"><ele>112.23191513904212</ele></trkpt>
<trkpt lat="-1.425156869684499" lon="149.6377912901242"><ele>112.0064802891342</ele></trkpt>
<trkpt lat="-1.4251986563786003" lon="149.63778058642043"><ele>111.78148997270043</ele></trkpt>
<trkpt lat="-1.4252406700960214" lon="149.63777070439022"><ele>111.55641363553406</ele></trkpt>
<trkpt lat="-1.4252830171467759" lon="149.63776148285385"><ele>111.33043966405644</ele></trkpt>
<trkpt lat="-1.425325734567901" lon="149.63775277366312"><ele>111.10315332274733</ele></trkpt>
<trkpt lat="-1.4253687860082302" lon="149.63774445267546"><ele>110.8745752451483</ele></trkpt>
<trkpt lat="-1.4254121399176953" lon="149.63773639094705"><ele>110.64471444245268</ele></trkpt>
<trkpt lat="-1.425500068587105" lon="149.63772034087847"><ele>110.1788142955371</ele></trkpt>
<trkpt lat="-1.425544970507544" lon="149.63771193895806"><ele>109.9406952588947</ele></trkpt>
<trkpt lat="-1.4255907427983534" lon="149.63770303086486"><ele>109.69761447838984</ele></trkpt>
<trkpt lat="-1.4256375274348418" lon="149.63769347119413"><ele>109.4486815971456</ele></trkpt>
<trkpt lat="-1.425685163923182" lon="149.6376832201654"><ele>109.19465793800428</ele></trkpt>
<trkpt lat="-1.4257326707818927" lon="149.6376725000008"><ele>108.94077450383091</ele></trkpt>
<trkpt lat="-1.425777862556927" lon="149.63766182168527"><ele>108.69851298435087</ele></trkpt>
<trkpt lat="-1.4258185491961588" lon="149.63765121581417"><ele>108.4774331282285</ele></trkpt>
<trkpt lat="-1.4258533352921807" lon="149.637639154536"><ele>108.27748622504082</ele></trkpt>
<trkpt lat="-1.4258833937997253" lon="149.63762098554392"><ele>108.07520168405055</ele></trkpt>
<trkpt lat="-1.4259117763566527" lon="149.637588630084"><ele>107.82564093723869</ele></trkpt>
<trkpt lat="-1.4259426343077417" lon="149.63753440640556"><ele>107.48064246386834</ele></trkpt>
<trkpt lat="-1.4259781646776806" lon="149.63745619803123"><ele>107.02177191244985</ele></trkpt>
<trkpt lat="-1.4260164845208938" lon="149.6373621491653"><ele>106.48686148155407</ele></trkpt>
<trkpt lat="-1.4260529312627142" lon="149.63726429038596"><ele>105.93855305184174</ele></trkpt>
<trkpt lat="-1.426082813277615" lon="149.63717120749595"><ele>105.42345961510189</ele></trkpt>
<trkpt lat="-1.4261045626822153" lon="149.63708062245593"><ele>104.93008122205636</ele></trkpt>
<trkpt lat="-1.4261189169096204" lon="149.63698277551472"><ele>104.40653436518636</ele></trkpt>
<trkpt lat="-1.4261278406219626" lon="149.6368663755563"><ele>103.79204267724562</ele></trkpt>
<trkpt lat="-1.4261331553287975" lon="149.63672672405983"><ele>103.06030908714798</ele></trkpt>
<trkpt lat="-1.426136353741496" lon="149.63657009361984"><ele>102.24243034493762</ele></trkpt>
<trkpt lat="-1.4261384523809517" lon="149.636411069864"><ele>101.41322251729333</ele></trkpt>
<trkpt lat="-1.4261400142533196" lon="149.63626325148564"><ele>100.64282988308614</ele></trkpt>
<trkpt lat="-1.4261424985422737" lon="149.63600375364513"><ele>99.2905898672876</ele></trkpt>
<trkpt lat="-1.4261436661267677" lon="149.63587076125773"><ele>98.59736563580378</ele></trkpt>
<trkpt lat="-1.426144451301155" lon="149.6357230702955"><ele>97.82565225635422</ele></trkpt>
<trkpt lat="-1.4261433394881755" lon="149.63556463265297"><ele>96.99035120515065</ele></trkpt>
<trkpt lat="-1.4261368492603386" lon="149.63540982426076"><ele>96.15351616097472</ele></trkpt>
<trkpt lat="-1.4261192812871173" lon="149.6352745176485"><ele>95.37656822818654</ele></trkpt>
<trkpt lat="-1.4260831326530607" lon="149.63516670552747"><ele>94.67270093205958</ele></trkpt>
<trkpt lat="-1.426019948979591" lon="149.63508365158438"><ele>93.99519496148163</ele></trkpt>
<trkpt lat="-1.4259231997624444" lon="149.6350167713799"><ele>93.27402404196857</ele></trkpt>
<trkpt lat="-1.4257928504481152" lon="149.63495764109578"><ele>92.46487455003866</ele></trkpt>
<trkpt lat="-1.4256393456430188" lon="149.63490212953917"><ele>91.58606979145274</ele></trkpt>
<trkpt lat="-1.4254804728970947" lon="149.6348502420019"><ele>90.70574873494358</ele></trkpt>
<trkpt lat="-1.4253318061764382" lon="149.634803478212"><ele>89.89142507174981</ele></trkpt>
<trkpt lat="-1.4250703804664722" lon="149.63472206411336"><ele>88.46407920855326</ele></trkpt>
<trkpt lat="-1.4247872800453507" lon="149.6346338072216"><ele>86.91846759239868</ele></trkpt>
<trkpt lat="-1.4244647199546479" lon="149.63453319270917"><ele>85.15733565916285</ele></trkpt>
<trkpt lat="-1.4241816195335275" lon="149.63444493583353"><ele>83.6117240196466</ele></trkpt>
<trkpt lat="-1.424054186588921" lon="149.63440525799098"><ele>82.9160693427869</ele></trkpt>
<trkpt lat="-1.4237709183673468" lon="149.6343171688997"><ele>81.36988241848061</ele></trkpt>
<trkpt lat="-1.4234480816326527" lon="149.63421683103127"><ele>79.60780203477638</ele></trkpt>
<trkpt lat="-1.4231648134110784" lon="149.63412874195603"><ele>78.06161508696051</ele></trkpt>
<trkpt lat="-1.4230373804664718" lon="149.63408906411345"><ele>77.36596038291489</ele></trkpt>
<trkpt lat="-1.4227542800453508" lon="149.63400080722167"><ele>75.82034864608553</ele></trkpt>
<trkpt lat="-1.422431719954648" lon="149.63390019270923"><ele>74.05921657522514</ele></trkpt>
<trkpt lat="-1.4221486195335276" lon="149.6338119358336"><ele>72.51360481506325</ele></trkpt>
<trkpt lat="-1.422021186588921" lon="149.63377225799107"><ele>71.81795008403651</ele></trkpt>
<trkpt lat="-1.421586148732335" lon="149.6336369564837"><ele>69.443319300133</ele></trkpt>
<trkpt lat="-1.421433725149484" lon="149.63358947824452"><ele>68.61120651671837</ele></trkpt>
<trkpt lat="-1.4212950360858874" lon="149.63354611190064"><ele>67.8538090445192</ele></trkpt>
<trkpt lat="-1.4211718867187497" lon="149.63350730856592"><ele>67.18080509862777</ele></trkpt>
<trkpt lat="-1.4210575156249996" lon="149.63347084372214"><ele>66.55509444099894</ele></trkpt>
<trkpt lat="-1.4209402851562498" lon="149.63343297262446"><ele>65.91295432965899</ele></trkpt>
<trkpt lat="-1.4208095355179393" lon="149.63339029119425"><ele>65.19605767103724</ele></trkpt>
<trkpt lat="-1.4206605083188655" lon="149.63334133849676"><ele>64.37846116389403</ele></trkpt>
<trkpt lat="-1.4204982484809023" lon="149.6332878762544"><ele>63.48800856409598</ele></trkpt>
<trkpt lat="-1.4203355606192127" lon="149.63323420351375"><ele>62.59509661599852</ele></trkpt>
<trkpt lat="-1.4198066464843746" lon="149.633059609341"><ele>59.69199546330829</ele></trkpt>
<trkpt lat="-1.4196729223090272" lon="149.63301548155056"><ele>58.95801878495926</ele></trkpt>
<trkpt lat="-1.4195223860677078" lon="149.63296595195868"><ele>58.13186318120902</ele></trkpt>
<trkpt lat="-1.4193594752604162" lon="149.63291292974895"><ele>57.23818366028347</ele></trkpt>
<trkpt lat="-1.41919652235243" lon="149.6328614898296"><ele>56.345344992712896</ele></trkpt>
<trkpt lat="-1.419045842447916" lon="149.63281735959404"><ele>55.52205869267913</ele></trkpt>
<trkpt lat="-1.4189118261718745" lon="149.6327842099378"><ele>54.79391597626722</ele></trkpt>
<trkpt lat="-1.418788968749999" lon="149.6327627577999"><ele>54.13240397504592</ele></trkpt>
<trkpt lat="-1.4186658300781247" lon="149.63275187597264"><ele>53.476509228072565</ele></trkpt>
<trkpt lat="-1.4185301540716355" lon="149.6327497883076"><ele>52.760288384289225</ele></trkpt>
<trkpt lat="-1.4183754525429213" lon="149.63275478544574"><ele>51.94684969782296</ele></trkpt>
<trkpt lat="-1.4182056089858928" lon="149.6327656836256"><ele>51.0505553079207</ele></trkpt>
<trkpt lat="-1.4180359944797483" lon="149.63278270046268"><ele>50.14054379594688</ele></trkpt>
<trkpt lat="-1.4178842489781995" lon="149.63280843504404"><ele>49.29165499348112</ele></trkpt>
<trkpt lat="-1.417761067055393" lon="149.6328480889386"><ele>48.53722304322892</ele></trkpt>
<trkpt lat="-1.4176644737609327" lon="149.6329088906936"><ele>47.84148330927617</ele></trkpt>
<trkpt lat="-1.4175853838678327" lon="149.6329970088306"><ele>47.137341100054</ele></trkpt>
<trkpt lat="-1.4175143542274051" lon="149.63311282408367"><ele>46.37621190727912</ele></trkpt>
<trkpt lat="-1.417447545189504" lon="149.6332466046709"><ele>45.5727758771111</ele></trkpt>
<trkpt lat="-1.4173867691933912" lon="149.63338056331074"><ele>44.79785069266064</ele></trkpt>
<trkpt lat="-1.4173363265306116" lon="149.6334969861509"><ele>44.13401108681889</ele></trkpt>
<trkpt lat="-1.4172990947521864" lon="149.63358633966712"><ele>43.6276812401526</ele></trkpt>
<trkpt lat="-1.4172747113702622" lon="149.6336492726041"><ele>43.27318987607708</ele></trkpt>
<trkpt lat="-1.4172606204873484" lon="149.63369298183378"><ele>43.03000955588842</ele></trkpt>
<trkpt lat="-1.4172535797250114" lon="149.633726088503"><ele>42.84969406434853</ele></trkpt>
<trkpt lat="-1.4172507197926785" lon="149.63375609180122"><ele>42.69007811179317</ele></trkpt>
<trkpt lat="-1.4172498460529415" lon="149.63378680624453"><ele>42.528974553429194</ele></trkpt>
<trkpt lat="-1.417249421810699" lon="149.63385353909467"><ele>42.180980469969164</ele></trkpt>
<trkpt lat="-1.4172485390946499" lon="149.6339588045268"><ele>41.63244750467449</ele></trkpt>
<trkpt lat="-1.417248125514403" lon="149.63402836213993"><ele>41.2699920332474</ele></trkpt>
<trkpt lat="-1.417248000685871" lon="149.6341304862826"><ele>40.73784825757519</ele></trkpt>
<trkpt lat="-1.4172479999999998" lon="149.63428423456787"><ele>39.93670821833953</ele></trkpt>
<trkpt lat="-1.4172479999999998" lon="149.63446399999998"><ele>39</ele></trkpt>
<trkpt lat="-1.4172423816872428" lon="149.63453999862844"><ele>39.25580261308987</ele></trkpt>
<trkpt lat="-1.4172373063271602" lon="149.6345786970167"><ele>39.492155088946724</ele></trkpt>
<trkpt lat="-1.4172315119170091" lon="149.63461314866285"><ele>39.703666161048375</ele></trkpt>
<trkpt lat="-1.4172184300411517" lon="149.63467675102913"><ele>40.09667455185884</ele></trkpt>
<trkpt lat="-1.4172124650205757" lon="149.63470984979452"><ele>40.3007916147653</ele></trkpt>
<trkpt lat="-1.4172080864197527" lon="149.63474458436232"><ele>40.51385307184493</ele></trkpt>
<trkpt lat="-1.4172060720164605" lon="149.6347797880659"><ele>40.72932021692326</ele></trkpt>
<trkpt lat="-1.417207145061728" lon="149.63481359636478"><ele>40.937791766166825</ele></trkpt>
<trkpt lat="-1.4172123137860075" lon="149.63484485219453"><ele>41.13552699074076</ele></trkpt>
<trkpt lat="-1.4172222812071325" lon="149.63487390672105"><ele>41.32784322106959</ele></trkpt>
<trkpt lat="-1.4172369056927292" lon="149.63490144615855"><ele>41.52155930768284</ele></trkpt>
<trkpt lat="-1.4172552153635114" lon="149.63492702880592"><ele>41.71639732086133</ele></trkpt>
<trkpt lat="-1.4172765922496566" lon="149.63494955315434"><ele>41.909513477589925</ele></trkpt>
<trkpt lat="-1.4173008995198897" lon="149.6349686176262"><ele>42.10155598368816</ele></trkpt>
<trkpt lat="-1.4173275864197525" lon="149.6349845061722"><ele>42.29320337369632</ele></trkpt>
<trkpt lat="-1.417355242455418" lon="149.63499731678618"><ele>42.48048810784884</ele></trkpt>
<trkpt lat="-1.4173830373799723" lon="149.63500669452984"><ele>42.66094506722838</ele></trkpt>
<trkpt lat="-1.4174117420267487" lon="149.63501263477346"><ele>42.84111104592041</ele></trkpt>
<trkpt lat="-1.4174428210733878" lon="149.63501568166998"><ele>43.031882345566125</ele></trkpt>
<trkpt lat="-1.4174764093792867" lon="149.63501662594305"><ele>43.23597609144604</ele></trkpt>
<trkpt lat="-1.4175112499999998" lon="149.63501605555558"><ele>43.44701789789959</ele></trkpt>
<trkpt lat="-1.4175461064814812" lon="149.63501443750008"><ele>43.65807107929757</ele></trkpt>
<trkpt lat="-1.4175808287037037" lon="149.6350120162038"><ele>43.868464420217016</ele></trkpt>
<trkpt lat="-1.4176159374999997" lon="149.635008951389"><ele>44.08146431809375</ele></trkpt>
<trkpt lat="-1.4176518171296293" lon="149.6350052083335"><ele>44.2994974467691</ele></trkpt>
<trkpt lat="-1.4176884236111107" lon="149.63500075000022"><ele>44.52241009162646</ele></trkpt>
<trkpt lat="-1.4177254351851847" lon="149.63499550462987"><ele>44.74839543933814</ele></trkpt>
<trkpt lat="-1.4177623703703701" lon="149.63498956250027"><ele>44.97453929291779</ele></trkpt>
<trkpt lat="-1.4177987499999993" lon="149.63498309027807"><ele>45.197865828054645</ele></trkpt>
<trkpt lat="-1.4178343726851852" lon="149.63497626851884"><ele>45.41705179149919</ele></trkpt>
<trkpt lat="-1.4178694606481477" lon="149.6349690671299"><ele>45.633516714077864</ele></trkpt>
<trkpt lat="-1.4179045115740738" lon="149.63496135879666"><ele>45.850411668828855</ele></trkpt>
<trkpt lat="-1.4179399074074068" lon="149.63495299074108"><ele>46.07022794625048</ele></trkpt>
<trkpt lat="-1.4179756921296292" lon="149.6349439699078"><ele>46.29325578807059</ele></trkpt>
<trkpt lat="-1.4180115023148143" lon="149.6349344375004"><ele>46.51719284257571</ele></trkpt>
<trkpt lat="-1.41804674537037" lon="149.63492469907447"><ele>46.73813081632998</ele></trkpt>
<trkpt lat="-1.4181468541666664" lon="149.63489624537075"><ele>47.36694483492758</ele></trkpt>
<trkpt lat="-1.4182138819444439" lon="149.63487724305597"><ele>47.787890456991384</ele></trkpt>
<trkpt lat="-1.4182480972222216" lon="149.63486770833373"><ele>48.00249950183101</ele></trkpt>
<trkpt lat="-1.4183156064814813" lon="149.6348492222226"><ele>48.425414598879854</ele></trkpt>
<trkpt lat="-1.418348983796296" lon="149.63484039583372"><ele>48.63405528318064</ele></trkpt>
<trkpt lat="-1.418382935185185" lon="149.63483193981517"><ele>48.8455675489892</ele></trkpt>
<trkpt lat="-1.4184178773148144" lon="149.63482403472256"><ele>49.06219498795243</ele></trkpt>
<trkpt lat="-1.4184533842592588" lon="149.63481685416696"><ele>49.28124154711703</ele></trkpt>
<trkpt lat="-1.4184884606481478" lon="149.6348105462965"><ele>49.49669251531311</ele></trkpt>
<trkpt lat="-1.418522460648148" lon="149.63480505555574"><ele>49.70485494525205</ele></trkpt>
<trkpt lat="-1.4185556249999998" lon="149.63480030555573"><ele>49.907367185329825</ele></trkpt>
<trkpt lat="-1.4185887523148144" lon="149.63479629629646"><ele>50.1092081509596</ele></trkpt>
<trkpt lat="-1.4186226874999996" lon="149.63479349074086"><ele>50.315606726702235</ele></trkpt>
<trkpt lat="-1.4186580509259255" lon="149.63479259027778"><ele>50.530715354018035</ele></trkpt>
<trkpt lat="-1.4186948356481477" lon="149.6347945578702"><ele>50.75577974360697</ele></trkpt>
<trkpt lat="-1.418731719907407" lon="149.63480001157376"><ele>50.98531474155541</ele></trkpt>
<trkpt lat="-1.418765972222222" lon="149.63480981018478"><ele>51.20911745275716</ele></trkpt>
<trkpt lat="-1.4187950671296292" lon="149.63482468518473"><ele>51.421187370156474</ele></trkpt>
<trkpt lat="-1.4188173773148143" lon="149.63484557870325"><ele>51.62533697316152</ele></trkpt>
<trkpt lat="-1.4188326736111105" lon="149.63487217824039"><ele>51.830255352144924</ele></trkpt>
<trkpt lat="-1.4188404398148142" lon="149.6349031597221"><ele>52.04052232595285</ele></trkpt>
<trkpt lat="-1.4188406898148143" lon="149.63493624074093"><ele>52.25523173349752</ele></trkpt>
<trkpt lat="-1.418833314814814" lon="149.63496954398192"><ele>52.473147213071556</ele></trkpt>
<trkpt lat="-1.418819166666666" lon="149.63500176388953"><ele>52.69520409119031</ele></trkpt>
<trkpt lat="-1.4187987592592588" lon="149.6350319884267"><ele>52.92341828422913</ele></trkpt>
<trkpt lat="-1.4187731018518517" lon="149.63505959490826"><ele>53.157841931462436</ele></trkpt>
<trkpt lat="-1.4187430277777775" lon="149.6350840555564"><ele>53.39707061639259</ele></trkpt>
<trkpt lat="-1.4187098657407404" lon="149.63510540509338"><ele>53.63871454583721</ele></trkpt>
<trkpt lat="-1.4186747731481475" lon="149.63512384490815"><ele>53.88009546188417</ele></trkpt>
<trkpt lat="-1.4186389768518515" lon="149.63513997685249"><ele>54.11825992760698</ele></trkpt>
<trkpt lat="-1.4186032129629627" lon="149.63515432638945"><ele>54.35144942220932</ele></trkpt>
<trkpt lat="-1.4185675763888883" lon="149.63516754398202"><ele>54.58124905514084</ele></trkpt>
<trkpt lat="-1.418531534722222" lon="149.63518006481533"><ele>54.81186329768563</ele></trkpt>
<trkpt lat="-1.4184946782407404" lon="149.6351921550931"><ele>55.046305732794394</ele></trkpt>
<trkpt lat="-1.4184572407407403" lon="149.63520369675976"><ele>55.283102247259215</ele></trkpt>
<trkpt lat="-1.4184199282407404" lon="149.635214430556"><ele>55.51781610559808</ele></trkpt>
<trkpt lat="-1.41838330324074" lon="149.63522405787074"><ele>55.74679761536057</ele></trkpt>
<trkpt lat="-1.4183474374999994" lon="149.63523252777807"><ele>55.969649540533084</ele></trkpt>
<trkpt lat="-1.4183121018518512" lon="149.63523991435213"><ele>56.187919285475765</ele></trkpt>
<trkpt lat="-1.4182769999999993" lon="149.63524645138915"><ele>56.40375806675515</ele></trkpt>
<trkpt lat="-1.4182418981481477" lon="149.63525231018542"><ele>56.61884357056163</ele></trkpt>
<trkpt lat="-1.418206585648148" lon="149.6352576666669"><ele>56.83468858714279</ele></trkpt>
<trkpt lat="-1.4181709513888885" lon="149.63526257870387"><ele>57.05206439819944</ele></trkpt>
<trkpt lat="-1.4181351064814813" lon="149.63526706944464"><ele>57.27037210965979</ele></trkpt>
<trkpt lat="-1.4180993680555554" lon="149.63527109259275"><ele>57.48770789854121</ele></trkpt>
<trkpt lat="-1.4180292037037032" lon="149.63527792361123"><ele>57.91369299959677</ele></trkpt>
<trkpt lat="-1.417893092592592" lon="149.6352900000001"><ele>58.73929456992366</ele></trkpt>
<trkpt lat="-1.4177889120370366" lon="149.63529920370388"><ele>59.37121890945246</ele></trkpt>
<trkpt lat="-1.4177200231481475" lon="149.63530576620383"><ele>59.789435831080795</ele></trkpt>
<trkpt lat="-1.4176863217592583" lon="149.63530864583345"><ele>59.994003608892534</ele></trkpt>
<trkpt lat="-1.417652692129629" lon="149.63531060648157"><ele>60.19797387621477</ele></trkpt>
<trkpt lat="-1.4176188472222218" lon="149.63531109953703"><ele>60.40316170719551</ele></trkpt>
<trkpt lat="-1.4175846898148146" lon="149.63530990277772"><ele>60.610385904963806</ele></trkpt>
<trkpt lat="-1.417550296296296" lon="149.63530710879616"><ele>60.81940024611967</ele></trkpt>
<trkpt lat="-1.4174819050925922" lon="149.63529932870355"><ele>61.235855034615774</ele></trkpt>
<trkpt lat="-1.4174484328703698" lon="149.63529622916656"><ele>61.439631804822916</ele></trkpt>
<trkpt lat="-1.4174154490740734" lon="149.6352950625"><ele>61.640576576486865</ele></trkpt>
<trkpt lat="-1.4173828518518514" lon="149.63529662962975"><ele>61.840262340880855</ele></trkpt>
<trkpt lat="-1.4173508657407403" lon="149.63530165972247"><ele>62.03931215057422</ele></trkpt>
<trkpt lat="-1.417319872685185" lon="149.63531032870407"><ele>62.23751001566545</ele></trkpt>
<trkpt lat="-1.417290159722222" lon="149.6353225486116"><ele>62.43479677280497</ele></trkpt>
<trkpt lat="-1.4172615601851846" lon="149.63533752314868"><ele>62.63183348889027</ele></trkpt>
<trkpt lat="-1.4172337430555553" lon="149.6353542800932"><ele>62.8288453484034</ele></trkpt>
<trkpt lat="-1.4172064421296293" lon="149.63537172222286"><ele>63.02480766010612</ele></trkpt>
<trkpt lat="-1.417153636574074" lon="149.63540661342645"><ele>63.40726836295542</ele></trkpt>
<trkpt lat="-1.4171281782407406" lon="149.63542417592646"><ele>63.5942127392894</ele></trkpt>
<trkpt lat="-1.4171031157407405" lon="149.6354422592598"><ele>63.78105314724411</ele></trkpt>
<trkpt lat="-1.4170782430555553" lon="149.63546121296355"><ele>63.97014549118622</ele></trkpt>
<trkpt lat="-1.4170534259259255" lon="149.6354812685191"><ele>64.16313449937654</ele></trkpt>
<trkpt lat="-1.4170287939814812" lon="149.63550251851916"><ele>64.35994259442506</ele></trkpt>
<trkpt lat="-1.4170047800925922" lon="149.63552462500064"><ele>64.55742569448165</ele></trkpt>
<trkpt lat="-1.4169820648148144" lon="149.6355470046302"><ele>64.75035517111013</ele></trkpt>
<trkpt lat="-1.4169609884259253" lon="149.63556921296347"><ele>64.9355849080747</ele></trkpt>
<trkpt lat="-1.4169413819444439" lon="149.635591393519"><ele>65.11465979508499</ele></trkpt>
<trkpt lat="-1.4169226481481476" lon="149.63561405555603"><ele>65.29249693427168</ele></trkpt>
<trkpt lat="-1.4169043958333327" lon="149.63563769907458"><ele>65.47316433364408</ele></trkpt>
<trkpt lat="-1.4168865370370367" lon="149.63566247685236"><ele>65.65795028351347</ele></trkpt>
<trkpt lat="-1.4168692523148148" lon="149.63568837963015"><ele>65.84638070023618</ele></trkpt>
<trkpt lat="-1.416852657407407" lon="149.6357152638894"><ele>66.03754014307214</ele></trkpt>
<trkpt lat="-1.4168368680555552" lon="149.6357430601857"><ele>66.23095923785266</ele></trkpt>
<trkpt lat="-1.416822020833333" lon="149.63577166898196"><ele>66.42613428082717</ele></trkpt>
<trkpt lat="-1.4168086944444438" lon="149.63580118750042"><ele>66.6230674878264</ele></trkpt>
<trkpt lat="-1.416797770833333" lon="149.63583179398182"><ele>66.82234065099448</ele></trkpt>
<trkpt lat="-1.4167907291666664" lon="149.63586382407425"><ele>67.02613195514726</ele></trkpt>
<trkpt lat="-1.4167888425925925" lon="149.63589736805548"><ele>67.23725784996981</ele></trkpt>
<trkpt lat="-1.4167935393518514" lon="149.63593215046262"><ele>67.45933774911293</ele></trkpt>
<trkpt lat="-1.4168050964506167" lon="149.6359670623279"><ele>67.69193635094443</ele></trkpt>
<trkpt lat="-1.4168230833333326" lon="149.63600022650812"><ele>67.92949283277032</ele></trkpt>
<trkpt lat="-1.416845956018518" lon="149.63602957818838"><ele>68.16332650447482</ele></trkpt>
<trkpt lat="-1.4168728663408772" lon="149.63605398748197"><ele>68.39106276459594</ele></trkpt>
<trkpt lat="-1.4169032519718787" lon="149.6360737223928"><ele>68.61671959188864</ele></trkpt>
<trkpt lat="-1.4169360781893" lon="149.63608945884698"><ele>68.84140133599584</ele></trkpt>
<trkpt lat="-1.4169688038408776" lon="149.63610126405982"><ele>69.05566054329634</ele></trkpt>
<trkpt lat="-1.4169989862825787" lon="149.63610854458133"><ele>69.24813033418825</ele></trkpt>
<trkpt lat="-1.4170262181069957" lon="149.6361107078189"><ele>69.4197510397392</ele></trkpt>
<trkpt lat="-1.4170523786008227" lon="149.6361075294927"><ele>69.58615478578034</ele></trkpt>
<trkpt lat="-1.4170796255144027" lon="149.63609911659861"><ele>69.76424601959498</ele></trkpt>
<trkpt lat="-1.417108625514403" lon="149.63608615432173"><ele>69.95987259785208</ele></trkpt>
<trkpt lat="-1.4171384670781892" lon="149.63606986762773"><ele>70.16724062039285</ele></trkpt>
<trkpt lat="-1.417167907407407" lon="149.6360515438966"><ele>70.3777323450169</ele></trkpt>
<trkpt lat="-1.4171963353909462" lon="149.63603210905436"><ele>70.58630366623298</ele></trkpt>
<trkpt lat="-1.417223849108367" lon="149.63601209190756"><ele>70.7920889640402</ele></trkpt>
<trkpt lat="-1.4172507578875166" lon="149.63599183402005"><ele>70.99563271786563</ele></trkpt>
<trkpt lat="-1.4173034341563784" lon="149.6359512942395"><ele>71.3972116250698</ele></trkpt>
<trkpt lat="-1.4173806778978049" lon="149.63589112894456"><ele>71.98873324495752</ele></trkpt>
<trkpt lat="-1.4174078272462274" lon="149.635870478053"><ele>72.19486502331017</ele></trkpt>
<trkpt lat="-1.4174378330761317" lon="149.6358484398158"><ele>72.41992053943252</ele></trkpt>
<trkpt lat="-1.4174714566186555" lon="149.6358249243838"><ele>72.66805493559065</ele></trkpt>
<trkpt lat="-1.4175080801611795" lon="149.63580073302577"><ele>72.93356177272938</ele></trkpt>
<trkpt lat="-1.4175463449074073" lon="149.63577712037142"><ele>73.2055839485513</ele></trkpt>
<trkpt lat="-1.417585210648148" lon="149.63575480555656"><ele>73.47670046227404</ele></trkpt>
<trkpt lat="-1.4176242685185179" lon="149.63573401851946"><ele>73.7443191235954</ele></trkpt>
<trkpt lat="-1.4176633958333327" lon="149.63571458796386"><ele>74.00850303744569</ele></trkpt>
<trkpt lat="-1.4177024374999998" lon="149.63569643055638"><ele>74.26881790340191</ele></trkpt>
<trkpt lat="-1.4177412962962959" lon="149.63567937500076"><ele>74.52534770536757</ele></trkpt>
<trkpt lat="-1.4177800254629627" lon="149.63566337963036"><ele>74.7786535453519</ele></trkpt>
<trkpt lat="-1.417818796296296" lon="149.6356483773155"><ele>75.02999922368247</ele></trkpt>
<trkpt lat="-1.4178576782407406" lon="149.63563445601915"><ele>75.27972904770684</ele></trkpt>
<trkpt lat="-1.4178964745370366" lon="149.63562168518573"><ele>75.52672722404184</ele></trkpt>
<trkpt lat="-1.4179348009259256" lon="149.63561021064862"><ele>75.76866181869046</ele></trkpt>
<trkpt lat="-1.417972472222222" lon="149.63559997453743"><ele>76.0047061977525</ele></trkpt>
<trkpt lat="-1.4180096527777775" lon="149.635590842593"><ele>76.23616360295678</ele></trkpt>
<trkpt lat="-1.4180466898148145" lon="149.63558255787072"><ele>76.46557408244395</ele></trkpt>
<trkpt lat="-1.418083731481481" lon="149.63557503472254"><ele>76.69404314204577</ele></trkpt>
<trkpt lat="-1.4181206874999994" lon="149.6355682546299"><ele>76.92116601808404</ele></trkpt>
<trkpt lat="-1.4181573865740735" lon="149.635562303241"><ele>77.14591739479762</ele></trkpt>
<trkpt lat="-1.4181937893518513" lon="149.63555714351872"><ele>77.36816916119234</ele></trkpt>
<trkpt lat="-1.4182299999999997" lon="149.63555266435202"><ele>77.58869155258591</ele></trkpt>
<trkpt lat="-1.418302384259259" lon="149.6355448078705"><ele>78.02864784890362</ele></trkpt>
<trkpt lat="-1.4183738263888883" lon="149.63553753703715"><ele>78.46253378344142</ele></trkpt>
<trkpt lat="-1.418477173611111" lon="149.63552738194457"><ele>79.0899703120815</ele></trkpt>
<trkpt lat="-1.4185109027777776" lon="149.63552379629644"><ele>79.29495806901315</ele></trkpt>
<trkpt lat="-1.418544171296296" lon="149.63551974768532"><ele>79.49759116065258</ele></trkpt>
<trkpt lat="-1.418577037037037" lon="149.63551489120388"><ele>79.69858411876679</ele></trkpt>
<trkpt lat="-1.4186095601851851" lon="149.6355090370373"><ele>79.89856006381594</ele></trkpt>
<trkpt lat="-1.4186415324074073" lon="149.63550218287065"><ele>80.09639277287386</ele></trkpt>
<trkpt lat="-1.4186727638888885" lon="149.63549455092624"><ele>80.29082302188533</ele></trkpt>
<trkpt lat="-1.4187033333333328" lon="149.6354862847225"><ele>80.48226071736202</ele></trkpt>
<trkpt lat="-1.4187335787037032" lon="149.63547745601883"><ele>80.67271173152565</ele></trkpt>
<trkpt lat="-1.418763680555555" lon="149.6354679907411"><ele>80.86346952086696</ele></trkpt>
<trkpt lat="-1.4187935763888884" lon="149.63545784953737"><ele>81.05435245177111</ele></trkpt>
<trkpt lat="-1.418823067129629" lon="149.63544696527816"><ele>81.24445758136211</ele></trkpt>
<trkpt lat="-1.418852069444444" lon="149.63543535185224"><ele>81.43339096592102</ele></trkpt>
<trkpt lat="-1.4188806041666664" lon="149.63542301620413"><ele>81.6213619238576</ele></trkpt>
<trkpt lat="-1.4189087824074071" lon="149.6354100625004"><ele>81.80884021570165</ele></trkpt>
<trkpt lat="-1.4189367060185178" lon="149.63539657870416"><ele>81.99624573186837</ele></trkpt>
<trkpt lat="-1.4189644953703702" lon="149.63538266666714"><ele>82.18404013407861</ele></trkpt>
<trkpt lat="-1.4189922430555553" lon="149.63536831018567"><ele>82.37282656020061</ele></trkpt>
<trkpt lat="-1.4190199930555554" lon="149.63535345833384"><ele>82.5630401154078</ele></trkpt>
<trkpt lat="-1.4190476805555556" lon="149.63533799074125"><ele>82.75474600049179</ele></trkpt>
<trkpt lat="-1.41907518287037" lon="149.63532184722277"><ele>82.94754754421805</ele></trkpt>
<trkpt lat="-1.419102386574074" lon="149.63530493981537"><ele>83.14121699721585</ele></trkpt>
<trkpt lat="-1.4191292777777778" lon="149.63528724074132"><ele>83.33587924839648</ele></trkpt>
<trkpt lat="-1.419155872685185" lon="149.6352686712969"><ele>83.53201352582576</ele></trkpt>
<trkpt lat="-1.4191821759259253" lon="149.63524924074133"><ele>83.72975920284675</ele></trkpt>
<trkpt lat="-1.4192081180555551" lon="149.63522893981542"><ele>83.9289526242016</ele></trkpt>
<trkpt lat="-1.4192336782407404" lon="149.6352078472229"><ele>84.12932205257627</ele></trkpt>
<trkpt lat="-1.419258898148148" lon="149.63518599074143"><ele>84.33105648209904</ele></trkpt>
<trkpt lat="-1.419283881944444" lon="149.63516345601923"><ele>84.53439796468288</ele></trkpt>
<trkpt lat="-1.4193086550925922" lon="149.63514028472292"><ele>84.73938702437445</ele></trkpt>
<trkpt lat="-1.4193331782407403" lon="149.63511657407477"><ele>84.94552832575982</ele></trkpt>
<trkpt lat="-1.419357361111111" lon="149.6350924375007"><ele>85.15199803815129</ele></trkpt>
<trkpt lat="-1.4193811805555552" lon="149.6350680925933"><ele>85.35779604431991</ele></trkpt>
<trkpt lat="-1.419428" lon="149.63501939351917"><ele>85.76593560798938</ele></trkpt>
<trkpt lat="-1.4194748310185181" lon="149.63497029629696"><ele>86.17586838622007</ele></trkpt>
<trkpt lat="-1.4194987662037033" lon="149.63494551157476"><ele>86.38408518070216</ele></trkpt>
<trkpt lat="-1.419523354166666" lon="149.63492082407475"><ele>86.59471588624699</ele></trkpt>
<trkpt lat="-1.4195488148148143" lon="149.6348964976859"><ele>86.80766720770899</ele></trkpt>
<trkpt lat="-1.419575145833333" lon="149.63487275926"><ele>87.02209816618102</ele></trkpt>
<trkpt lat="-1.4196021782407402" lon="149.63484989120442"><ele>87.23627135829575</ele></trkpt>
<trkpt lat="-1.4196296157407406" lon="149.63482807175996"><ele>87.44830024939903</ele></trkpt>
<trkpt lat="-1.419657243055555" lon="149.6348073796303"><ele>87.65702273579674</ele></trkpt>
<trkpt lat="-1.4196849027777774" lon="149.63478765740805"><ele>87.86237995909104</ele></trkpt>
<trkpt lat="-1.4197125393518517" lon="149.63476874074135"><ele>88.06478592243859</ele></trkpt>
<trkpt lat="-1.4197402268518515" lon="149.63475044444505"><ele>88.26536030476589</ele></trkpt>
<trkpt lat="-1.4197682523148147" lon="149.63473274074133"><ele>88.46577813749937</ele></trkpt>
<trkpt lat="-1.4197969490740736" lon="149.63471565509317"><ele>88.66780256903985</ele></trkpt>
<trkpt lat="-1.419826520833333" lon="149.63469935416722"><ele>88.87213251201585</ele></trkpt>
<trkpt lat="-1.4198568217592589" lon="149.63468397453758"><ele>89.07775263676707</ele></trkpt>
<trkpt lat="-1.4198874629629628" lon="149.63466969907458"><ele>89.28225164330505</ele></trkpt>
<trkpt lat="-1.4199179884259254" lon="149.63465657638938"><ele>89.48321482790973</ele></trkpt>
<trkpt lat="-1.4199481689814812" lon="149.63464462268564"><ele>89.67951863031743</ele></trkpt>
<trkpt lat="-1.4199780995370368" lon="149.634633655093"><ele>89.87225876688464</ele></trkpt>
<trkpt lat="-1.420008074074074" lon="149.6346234722226"><ele>90.06362955502453</ele></trkpt>
<trkpt lat="-1.4200383240740737" lon="149.6346138379633"><ele>90.25551345382699</ele></trkpt>
<trkpt lat="-1.4200689351851847" lon="149.63460468981512"><ele>90.44861334019042</ele></trkpt>
<trkpt lat="-1.4200999259259255" lon="149.6345960439818"><ele>90.64310626442963</ele></trkpt>
<trkpt lat="-1.420131342592592" lon="149.63458803472253"><ele>90.83913939315353</ele></trkpt>
<trkpt lat="-1.4201631111111108" lon="149.6345807569447"><ele>91.03622386334875</ele></trkpt>
<trkpt lat="-1.4201950277777773" lon="149.63457432870393"><ele>91.23310489945759</ele></trkpt>
<trkpt lat="-1.4202269050925922" lon="149.63456876157426"><ele>91.4287851903305</ele></trkpt>
<trkpt lat="-1.4202587800925919" lon="149.6345640856483"><ele>91.62360268940438</ele></trkpt>
<trkpt lat="-1.420290819444444" lon="149.63456026620386"><ele>91.81873923831036</ele></trkpt>
<trkpt lat="-1.4203231782407402" lon="149.6345573796297"><ele>92.01524613938257</ele></trkpt>
<trkpt lat="-1.4203559236111107" lon="149.6345554745371"><ele>92.21368864218887</ele></trkpt>
<trkpt lat="-1.4203890740740737" lon="149.63455467361112"><ele>92.41433324593663</ele></trkpt>
<trkpt lat="-1.4204224930555553" lon="149.634554974537"><ele>92.61654840753734</ele></trkpt>
<trkpt lat="-1.4204558495370365" lon="149.63455637962954"><ele>92.81852754328614</ele></trkpt>
<trkpt lat="-1.420488770833333" lon="149.63455876620355"><ele>93.01818512391772</ele></trkpt>
<trkpt lat="-1.4205210925925926" lon="149.63456208564799"><ele>93.21469468108957</ele></trkpt>
<trkpt lat="-1.4205529884259258" lon="149.63456625694425"><ele>93.40922451890923</ele></trkpt>
<trkpt lat="-1.4205847800925926" lon="149.63457127777755"><ele>93.60383453080232</ele></trkpt>
<trkpt lat="-1.4206167129629628" lon="149.63457704629607"><ele>93.80000029159936</ele></trkpt>
<trkpt lat="-1.420648858796296" lon="149.63458347222195"><ele>93.99813164796113</ele></trkpt>
<trkpt lat="-1.4206812106481475" lon="149.63459043749972"><ele>94.19812497995929</ele></trkpt>
<trkpt lat="-1.4207137546296291" lon="149.63459793287007"><ele>94.39994677927315</ele></trkpt>
<trkpt lat="-1.4207463796296291" lon="149.6346059259256"><ele>94.60294411956286</ele></trkpt>
<trkpt lat="-1.4207787731481476" lon="149.63461434490708"><ele>94.80520901155954</ele></trkpt>
<trkpt lat="-1.42081055324074" lon="149.63462301157375"><ele>95.0042628791451</ele></trkpt>
<trkpt lat="-1.420871671296296" lon="149.63464060879602"><ele>95.38856145081161</ele></trkpt>
<trkpt lat="-1.4209311990740736" lon="149.63465871296262"><ele>95.76450315045948</ele></trkpt>
<trkpt lat="-1.420990893518518" lon="149.63467761342557"><ele>96.14282254331435</ele></trkpt>
<trkpt lat="-1.4210501782407405" lon="149.6346972129626"><ele>96.52011016593376</ele></trkpt>
<trkpt lat="-1.4211081782407402" lon="149.63471761342555"><ele>96.89162476987875</ele></trkpt>
<trkpt lat="-1.4211648912037034" lon="149.6347387175922"><ele>97.25725926547145</ele></trkpt>
<trkpt lat="-1.4212210902777773" lon="149.63476081712923"><ele>97.62215723806348</ele></trkpt>
<trkpt lat="-1.4212769722222216" lon="149.63478400925885"><ele>97.98773684731927</ele></trkpt>
<trkpt lat="-1.4213310787037032" lon="149.63480761574036"><ele>98.34443250121953</ele></trkpt>
<trkpt lat="-1.4213837986111106" lon="149.63483203009218"><ele>98.69551132412013</ele></trkpt>
<trkpt lat="-1.4214102685185181" lon="149.63484493286992"><ele>98.8734649387678</ele></trkpt>
<trkpt lat="-1.4214367824074075" lon="149.63485832407363"><ele>99.05297134511912</ele></trkpt>
<trkpt lat="-1.4214630416666665" lon="149.63487207638846"><ele>99.23210414783165</ele></trkpt>
<trkpt lat="-1.421488773148148" lon="149.6348860185181"><ele>99.4089591676413</ele></trkpt>
<trkpt lat="-1.4215139259259255" lon="149.6349001273144"><ele>99.58323679390878</ele></trkpt>
<trkpt lat="-1.4215387939814812" lon="149.6349145254625"><ele>99.75687882811009</ele></trkpt>
<trkpt lat="-1.421588886574074" lon="149.63494472222175"><ele>100.11029984107088</ele></trkpt>
<trkpt lat="-1.4216138518518515" lon="149.63496034722172"><ele>100.28826836095907</ele></trkpt>
<trkpt lat="-1.421638270833333" lon="149.63497612036994"><ele>100.46395648135957</ele></trkpt>
<trkpt lat="-1.4216620902777775" lon="149.63499212499954"><ele>100.6374033816905</ele></trkpt>
<trkpt lat="-1.4216855925925924" lon="149.63500853240694"><ele>100.81063250971587</ele></trkpt>
<trkpt lat="-1.421732706018518" lon="149.63504293055504"><ele>101.16311811337515</ele></trkpt>
<trkpt lat="-1.4217802916666664" lon="149.63507911574024"><ele>101.52430335265049</ele></trkpt>
<trkpt lat="-1.4218272893518515" lon="149.63511611342543"><ele>101.88567860148206</ele></trkpt>
<trkpt lat="-1.4218504606481475" lon="149.635134831018"><ele>102.0656399808821</ele></trkpt>
<trkpt lat="-1.421896756944444" lon="149.6351731018513"><ele>102.42853500897424</ele></trkpt>
<trkpt lat="-1.4219429745370364" lon="149.6352122939809"><ele>102.79462786354819</ele></trkpt>
<trkpt lat="-1.4219889999999995" lon="149.63525202546242"><ele>103.16194674665759</ele></trkpt>
<trkpt lat="-1.4220349745370366" lon="149.63529202546243"><ele>103.53009125487077</ele></trkpt>
<trkpt lat="-1.4220806296296291" lon="149.63533226851797"><ele>103.897772188532</ele></trkpt>
<trkpt lat="-1.422125194444444" lon="149.63537288425871"><ele>104.26208253186037</ele></trkpt>
<trkpt lat="-1.4221470995370362" lon="149.6353935393513"><ele>104.44399464274976</ele></trkpt>
<trkpt lat="-1.422169048611111" lon="149.63541478935127"><ele>104.62859021524055</ele></trkpt>
<trkpt lat="-1.422191192129629" lon="149.63543684027718"><ele>104.81742847120542</ele></trkpt>
<trkpt lat="-1.4222133611111107" lon="149.63545963888825"><ele>105.00960245792572</ele></trkpt>
<trkpt lat="-1.422235157407407" lon="149.63548280555494"><ele>105.2018296924827</ele></trkpt>
<trkpt lat="-1.422256185185185" lon="149.63550592592532"><ele>105.39068728256045</ele></trkpt>
<trkpt lat="-1.4222763564814809" lon="149.63552880092539"><ele>105.57497336473484</ele></trkpt>
<trkpt lat="-1.422295847222222" lon="149.63555158796245"><ele>105.75615561427634</ele></trkpt>
<trkpt lat="-1.4223149907407406" lon="149.6355746412032"><ele>105.93722139842158</ele></trkpt>
<trkpt lat="-1.422334050925926" lon="149.63559835416615"><ele>106.12106306941781</ele></trkpt>
<trkpt lat="-1.4223532060185184" lon="149.6356229583328"><ele>106.30948087845968</ele></trkpt>
<trkpt lat="-1.4223725115740737" lon="149.63564852083275"><ele>106.50303156079165</ele></trkpt>
<trkpt lat="-1.422411194444444" lon="149.63570153935123"><ele>106.89953643320636</ele></trkpt>
<trkpt lat="-1.422467893518518" lon="149.63578119212903"><ele>107.49016312895925</ele></trkpt>
<trkpt lat="-1.422505104166666" lon="149.6358334166661"><ele>107.87753168096219</ele></trkpt>
<trkpt lat="-1.422542604166666" lon="149.635886817129"><ele>108.27172051290479</ele></trkpt>
<trkpt lat="-1.4225804027777773" lon="149.6359412986105"><ele>108.67228161573503</ele></trkpt>
<trkpt lat="-1.422618212962962" lon="149.6359954884253"><ele>109.07144423393929</ele></trkpt>
<trkpt lat="-1.4226373703703699" lon="149.63602243749935"><ele>109.27120430377136</ele></trkpt>
<trkpt lat="-1.4226568263888884" lon="149.63604918749937"><ele>109.47105956236246</ele></trkpt>
<trkpt lat="-1.4226766643518511" lon="149.6360756805549"><ele>109.67104362116426</ele></trkpt>
<trkpt lat="-1.4226969282407407" lon="149.6361019930549"><ele>109.87170658871013</ele></trkpt>
<trkpt lat="-1.4227176388888887" lon="149.6361282430549"><ele>110.07371487397685</ele></trkpt>
<trkpt lat="-1.42278118287037" lon="149.63620720370307"><ele>110.68605243874977</ele></trkpt>
<trkpt lat="-1.4228020925925922" lon="149.63623372916598"><ele>110.89016345822984</ele></trkpt>
<trkpt lat="-1.422842782407407" lon="149.63628670833268"><ele>111.29383569051437</ele></trkpt>
<trkpt lat="-1.4228630208333333" lon="149.6363128912031"><ele>111.49379829484606</ele></trkpt>
<trkpt lat="-1.4228836874999997" lon="149.6363389467586"><ele>111.69475138015075</ele></trkpt>
<trkpt lat="-1.4229049212962959" lon="149.6363649861104"><ele>111.89776300906622</ele></trkpt>
<trkpt lat="-1.4229481898148144" lon="149.63641647222155"><ele>112.30406594086143</ele></trkpt>
<trkpt lat="-1.4230114374999998" lon="149.63649041203647"><ele>112.89184359934967</ele></trkpt>
<trkpt lat="-1.423052511574074" lon="149.636538217592"><ele>113.27258516469503</ele></trkpt>
<trkpt lat="-1.4230937569444442" lon="149.6365857314809"><ele>113.65267035210236</ele></trkpt>
<trkpt lat="-1.4231760254629626" lon="149.63667975694386"><ele>114.40738832259095</ele></trkpt>
<trkpt lat="-1.4232172175925926" lon="149.63672640972163"><ele>114.78334995879975</ele></trkpt>
<trkpt lat="-1.4232581689814812" lon="149.63677236342542"><ele>115.15520598327413</ele></trkpt>
<trkpt lat="-1.4233183009259256" lon="149.63683890509208"><ele>115.6970269087772</ele></trkpt>
<trkpt lat="-1.423378657407407" lon="149.63690619444392"><ele>116.24310745356973</ele></trkpt>
<trkpt lat="-1.4234576134259256" lon="149.63699590740686"><ele>116.96507806244101</ele></trkpt>
<trkpt lat="-1.4234984884259256" lon="149.63704278240684"><ele>117.3407880538938</ele></trkpt>
<trkpt lat="-1.4235392939814815" lon="149.63708997453645"><ele>117.71767054023822</ele></trkpt>
<trkpt lat="-1.423580537037037" lon="149.63713694907347"><ele>118.0953179400905</ele></trkpt>
<trkpt lat="-1.4236223217592592" lon="149.63718346296235"><ele>118.47305836707821</ele></trkpt>
<trkpt lat="-1.4236646365740737" lon="149.63722956249939"><ele>118.85114296567636</ele></trkpt>
<trkpt lat="-1.4236864189814813" lon="149.63725280092532"><ele>119.04359811402762</ele></trkpt>
<trkpt lat="-1.4237308333333327" lon="149.63729949768458"><ele>119.43096961014956</ele></trkpt>
<trkpt lat="-1.4237533055555553" lon="149.63732254166604"><ele>119.60504661888633</ele></trkpt>
<trkpt lat="-1.4237765046296291" lon="149.63734554861045"><ele>119.7306563220541</ele></trkpt>
<trkpt lat="-1.4238013194444439" lon="149.63736923379554"><ele>119.76961767595495</ele></trkpt>
<trkpt lat="-1.4238283541666663" lon="149.63739430092505"><ele>119.70689110926666</ele></trkpt>
<trkpt lat="-1.4238578356481475" lon="149.6374210949064"><ele>119.55481907451008</ele></trkpt>
<trkpt lat="-1.4238890860768172" lon="149.63744908513263"><ele>119.35200449117109</ele></trkpt>
<trkpt lat="-1.4239207902091902" lon="149.6374770329207"><ele>119.13329344108342</ele></trkpt>
<trkpt lat="-1.4239513554526744" lon="149.63750336882617"><ele>118.92294190019965</ele></trkpt>
</trkseg>
</trk></gpx>
