<?xml version='1.0' encoding='UTF-8'?>
<gpx version="1.1"
  creator="GPXmagic"
  xmlns="http://www.topografix.com/GPX/1/1"
  xmlns:rgt="http://www.rgtcycling.com/XML/GpxExtensions/v1"
  xmlns:xsi="http://www.w3.org/2001/XMLSchema-instance" xsi:schemaLocation="http://www.topografix.com/GPX/1/1
  http://www.topografix.com/GPX/1/1/gpx.xsd">
  <metadata>
    <name>Smoothed with GPXmagic</name>
    <author>
      <link href="https://www.stepwiserefinement.co.uk">
        <text>GPXmagic v3</text>
        <type>text/html</type>
      </link>
    </author>
  </metadata>
<trk>  <name>Paterberg&#32;circuit</name>
<trkseg>
<trkpt lat="50.78249" lon="3.54889"><ele>73.6</ele></trkpt>
<trkpt lat="50.7826153125" lon="3.5488938222942044"><ele>73.20049189814814</ele></trkpt>
<trkpt lat="50.78271440372086" lon="3.548909842247914"><ele>72.94867219650206</ele></trkpt>
<trkpt lat="50.78278078275035" lon="3.548944543726758"><ele>72.89825102880658</ele></trkpt>
<trkpt lat="50.78282772505145" lon="3.5489967664466557"><ele>72.99943094135803</ele></trkpt>
<trkpt lat="50.782868270318936" lon="3.54905911404259"><ele>73.17271840706447</ele></trkpt>
<trkpt lat="50.782981138545956" lon="3.5492396089202582"><ele>73.71522633744856</ele></trkpt>
<trkpt lat="50.78303226337449" lon="3.549328436149641"><ele>74.05390946502058</ele></trkpt>
<trkpt lat="50.78306820987655" lon="3.549409355224806"><ele>74.42009602194787</ele></trkpt>
<trkpt lat="50.783100384087795" lon="3.5495145403920936"><ele>74.92599451303155</ele></trkpt>
<trkpt lat="50.78311510973936" lon="3.5495842660360677"><ele>75.289231824417</ele></trkpt>
<trkpt lat="50.783128045267496" lon="3.5496654731721877"><ele>75.72345679012346</ele></trkpt>
<trkpt lat="50.78313821673526" lon="3.5497543072094704"><ele>76.1900548696845</ele></trkpt>
<trkpt lat="50.78314474622771" lon="3.5498458573055056"><ele>76.64368998628258</ele></trkpt>
<trkpt lat="50.78314726337449" lon="3.5499353086357273"><ele>77.04917695473252</ele></trkpt>
<trkpt lat="50.78314593964335" lon="3.5500182510435114"><ele>77.38395061728394</ele></trkpt>
<trkpt lat="50.783134218106994" lon="3.5501541358368858"><ele>77.81090534979424</ele></trkpt>
<trkpt lat="50.78310974119085" lon="3.5503030202311"><ele>78.094341563786</ele></trkpt>
<trkpt lat="50.78308656592936" lon="3.550411584611168"><ele>78.25936964163238</ele></trkpt>
<trkpt lat="50.783043185763894" lon="3.550579123543949"><ele>78.50824652777777</ele></trkpt>
<trkpt lat="50.78298698206018" lon="3.550775541391345"><ele>78.81507523148149</ele></trkpt>
<trkpt lat="50.78295663194444" lon="3.550872127052857"><ele>78.97925347222223</ele></trkpt>
<trkpt lat="50.78289336805556" lon="3.5510568839678935"><ele>79.32074652777779</ele></trkpt>
<trkpt lat="50.78286330118314" lon="3.5511368489818147"><ele>79.48317579732512</ele></trkpt>
<trkpt lat="50.782807935956804" lon="3.551266321915197"><ele>79.77400655864197</ele></trkpt>
<trkpt lat="50.78274969778808" lon="3.5513834329969147"><ele>80.00551376028807</ele></trkpt>
<trkpt lat="50.782656783264756" lon="3.551553904991823"><ele>80.19252400548697</ele></trkpt>
<trkpt lat="50.78242206961592" lon="3.5519732874353283"><ele>80.49368998628258</ele></trkpt>
<trkpt lat="50.78229125" lon="3.5522110427529316"><ele>80.61666666666666</ele></trkpt>
<trkpt lat="50.7822440204904" lon="3.5523011437874903"><ele>80.63146647805213</ele></trkpt>
<trkpt lat="50.78215974665638" lon="3.552472283808979"><ele>80.59127443415638</ele></trkpt>
<trkpt lat="50.78207843696416" lon="3.5526462061025983"><ele>80.52934456447187</ele></trkpt>
<trkpt lat="50.781974201388884" lon="3.5528834666778897"><ele>80.51221064814814</ele></trkpt>
<trkpt lat="50.781917603888886" lon="3.5530235416775375"><ele>80.55892592592593</ele></trkpt>
<trkpt lat="50.78184333340278" lon="3.5532269458079395"><ele>80.64852546296297</ele></trkpt>
<trkpt lat="50.78178504" lon="3.553402154585257"><ele>80.62973333333332</ele></trkpt>
<trkpt lat="50.78168360000001" lon="3.5537140907589087"><ele>80.52706666666667</ele></trkpt>
<trkpt lat="50.781631262002755" lon="3.553868520661946"><ele>80.47155281207134</ele></trkpt>
<trkpt lat="50.78158006102261" lon="3.5540090917411167"><ele>80.41551861530033</ele></trkpt>
<trkpt lat="50.7815347536863" lon="3.5541160849688893"><ele>80.3668568309158</ele></trkpt>
<trkpt lat="50.78151392390231" lon="3.5541478118057963"><ele>80.3631959191672</ele></trkpt>
<trkpt lat="50.781488448471706" lon="3.5541667138854027"><ele>80.39023363607642</ele></trkpt>
<trkpt lat="50.78145062682217" lon="3.5541761077840555"><ele>80.46370262390671</ele></trkpt>
<trkpt lat="50.781392332361534" lon="3.5541773613164964"><ele>80.60160349854227</ele></trkpt>
<trkpt lat="50.78130710398447" lon="3.554171592364429"><ele>80.8174711154303</ele></trkpt>
<trkpt lat="50.78119434888242" lon="3.554159874284739"><ele>81.11042004103228</ele></trkpt>
<trkpt lat="50.78079919339165" lon="3.554111676491053"><ele>82.13227513227513</ele></trkpt>
<trkpt lat="50.780575466472314" lon="3.554084387388619"><ele>82.65437317784256</ele></trkpt>
<trkpt lat="50.7800651112191" lon="3.554024888350208"><ele>83.63519598315517</ele></trkpt>
<trkpt lat="50.77986438775511" lon="3.5540008598391957"><ele>83.98819241982507</ele></trkpt>
<trkpt lat="50.77976006564766" lon="3.5539860045604157"><ele>84.13028090718946</ele></trkpt>
<trkpt lat="50.77969770261191" lon="3.5539723740847182"><ele>84.13920682911612</ele></trkpt>
<trkpt lat="50.779638712732016" lon="3.5539552822307385"><ele>84.11130744919954</ele></trkpt>
<trkpt lat="50.779581875857346" lon="3.553934440904439"><ele>84.09218106995884</ele></trkpt>
<trkpt lat="50.779501666666675" lon="3.5538935411559027"><ele>84.04791666666667</ele></trkpt>
<trkpt lat="50.77934181241427" lon="3.5538020598443687"><ele>83.93055555555556</ele></trkpt>
<trkpt lat="50.77901304355283" lon="3.553610466124142"><ele>83.65856481481481</ele></trkpt>
<trkpt lat="50.778721636659824" lon="3.5534415395251817"><ele>83.30472393689986</ele></trkpt>
<trkpt lat="50.77831895833334" lon="3.553208957418726"><ele>82.75208333333333</ele></trkpt>
<trkpt lat="50.77772104166667" lon="3.552861040752082"><ele>82.26875</ele></trkpt>
<trkpt lat="50.77723774777092" lon="3.5525812818241604"><ele>81.7219135802469</ele></trkpt>
<trkpt lat="50.777110520726175" lon="3.5525052008097715"><ele>81.55102987825789</ele></trkpt>
<trkpt lat="50.77700924157665" lon="3.5524400071662834"><ele>81.39018454218107</ele></trkpt>
<trkpt lat="50.776915765710726" lon="3.5523710140687266"><ele>81.24389253257887</ele></trkpt>
<trkpt lat="50.77683967013888" lon="3.552298185618479"><ele>81.16319444444443</ele></trkpt>
<trkpt lat="50.77676060474538" lon="3.5522120830784476"><ele>81.1749710648148</ele></trkpt>
<trkpt lat="50.776656154513894" lon="3.5521018138669485"><ele>81.30494791666666</ele></trkpt>
<trkpt lat="50.776560045760455" lon="3.5520045025520264"><ele>81.469700574417</ele></trkpt>
<trkpt lat="50.77650754179527" lon="3.5519583490266506"><ele>81.59738297325102</ele></trkpt>
<trkpt lat="50.77646149155522" lon="3.5519290192956694"><ele>81.75194401577502</ele></trkpt>
<trkpt lat="50.776167165637865" lon="3.5517533372005694"><ele>82.69511316872429</ele></trkpt>
<trkpt lat="50.775955166323726" lon="3.551627068516748"><ele>83.2616426611797</ele></trkpt>
<trkpt lat="50.77585895833334" lon="3.5515699989698715"><ele>83.40833333333333</ele></trkpt>
<trkpt lat="50.77565760631001" lon="3.5514512333030543"><ele>83.39642489711935</ele></trkpt>
<trkpt lat="50.77532722136489" lon="3.5512570976517965"><ele>83.0835133744856</ele></trkpt>
<trkpt lat="50.77502832475995" lon="3.5510815633873842"><ele>83.08250171467765</ele></trkpt>
<trkpt lat="50.774601986146855" lon="3.550832295486713"><ele>83.19554191536793</ele></trkpt>
<trkpt lat="50.774558187106216" lon="3.550778760283309"><ele>83.2093086604077</ele></trkpt>
<trkpt lat="50.77454156357264" lon="3.5506952615845875"><ele>83.22307540544747</ele></trkpt>
<trkpt lat="50.774558069574766" lon="3.550611705878769"><ele>83.23684215048725</ele></trkpt>
<trkpt lat="50.774572441481496" lon="3.5505789574911613"><ele>83.2431111111111</ele></trkpt>
<trkpt lat="50.77470709629629" lon="3.5502961680623635"><ele>82.40502222222223</ele></trkpt>
<trkpt lat="50.774745952592596" lon="3.550211846371081"><ele>82.15688888888889</ele></trkpt>
<trkpt lat="50.774772792777775" lon="3.550146712463118"><ele>81.97249444444445</ele></trkpt>
<trkpt lat="50.77478896944445" lon="3.550095172330695"><ele>81.83330555555555</ele></trkpt>
<trkpt lat="50.77479786333334" lon="3.5500480448577663"><ele>81.7036</ele></trkpt>
<trkpt lat="50.774801997175935" lon="3.549953675877262"><ele>81.36961481481481</ele></trkpt>
<trkpt lat="50.77479425347223" lon="3.5498660821455266"><ele>80.93680555555557</ele></trkpt>
<trkpt lat="50.774772083333346" lon="3.549765726119193"><ele>80.42433449074075</ele></trkpt>
<trkpt lat="50.774722690972226" lon="3.5496042271048465"><ele>79.68845486111111</ele></trkpt>
<trkpt lat="50.774656973379635" lon="3.5494024504274"><ele>78.87482638888889</ele></trkpt>
<trkpt lat="50.774585" lon="3.5491859891484143"><ele>78.17144097222223</ele></trkpt>
<trkpt lat="50.77451320203704" lon="3.548977044944172"><ele>77.62129791666666</ele></trkpt>
<trkpt lat="50.77444701611111" lon="3.5487975297396823"><ele>77.2946236111111</ele></trkpt>
<trkpt lat="50.774379038148155" lon="3.5486298927249464"><ele>77.23325509259259</ele></trkpt>
<trkpt lat="50.77428748740742" lon="3.548427668682181"><ele>77.59322962962962</ele></trkpt>
<trkpt lat="50.774127877037046" lon="3.548088627523568"><ele>78.52414814814814</ele></trkpt>
<trkpt lat="50.77404964576133" lon="3.547912319083094"><ele>79.06016625514404</ele></trkpt>
<trkpt lat="50.77402145086421" lon="3.5478370867149907"><ele>79.29850699588476</ele></trkpt>
<trkpt lat="50.77400363511661" lon="3.547770953341011"><ele>79.47688614540468</ele></trkpt>
<trkpt lat="50.77399000000001" lon="3.547685308615677"><ele>79.65</ele></trkpt>
<trkpt lat="50.77394960905351" lon="3.5473431275431007"><ele>80.04609053497941</ele></trkpt>
<trkpt lat="50.773933443072714" lon="3.547247585703018"><ele>80.11886145404664</ele></trkpt>
<trkpt lat="50.7739230452675" lon="3.5472049999621755"><ele>80.16172839506173</ele></trkpt>
<trkpt lat="50.77389449744857" lon="3.5471198991885933"><ele>80.29665075445816</ele></trkpt>
<trkpt lat="50.77385635198903" lon="3.547029212193986"><ele>80.49143758573388</ele></trkpt>
<trkpt lat="50.773801696296296" lon="3.5469114884453665"><ele>80.72595555555554</ele></trkpt>
<trkpt lat="50.77371415555556" lon="3.5467287326051085"><ele>81.04746666666665</ele></trkpt>
<trkpt lat="50.77362027407408" lon="3.546536466131176"><ele>81.34995555555555</ele></trkpt>
<trkpt lat="50.77357987703705" lon="3.5464566502047195"><ele>81.44544444444443</ele></trkpt>
<trkpt lat="50.77346440574075" lon="3.546235326353247"><ele>81.53997222222223</ele></trkpt>
<trkpt lat="50.773396322337966" lon="3.5460866722092694"><ele>81.44210069444443</ele></trkpt>
<trkpt lat="50.77334016219423" lon="3.5459443628778886"><ele>81.2511392830288</ele></trkpt>
<trkpt lat="50.77332384206256" lon="3.5458789298280413"><ele>81.17106624676882</ele></trkpt>
<trkpt lat="50.77332334333596" lon="3.5458085949389946"><ele>81.09099321050883</ele></trkpt>
<trkpt lat="50.773338731529165" lon="3.545742597621483"><ele>81.01092017424884</ele></trkpt>
<trkpt lat="50.77336798518612" lon="3.545689607501435"><ele>80.93084713798885</ele></trkpt>
<trkpt lat="50.773407261426605" lon="3.5456565855688296"><ele>80.85077410172886</ele></trkpt>
<trkpt lat="50.77345780296296" lon="3.5456312966118517"><ele>80.75534814814816</ele></trkpt>
<trkpt lat="50.7736151688889" lon="3.5455604227160666"><ele>80.65084444444445</ele></trkpt>
<trkpt lat="50.773773802962964" lon="3.545492718818494"><ele>80.55268148148147</ele></trkpt>
<trkpt lat="50.77383277794239" lon="3.5454706432986596"><ele>80.52404444444444</ele></trkpt>
<trkpt lat="50.77392846123457" lon="3.5454456360976465"><ele>80.50253333333333</ele></trkpt>
<trkpt lat="50.774030572455416" lon="3.5454336546654295"><ele>80.49400877914952</ele></trkpt>
<trkpt lat="50.77414676268861" lon="3.5454302126216493"><ele>80.39965706447188</ele></trkpt>
<trkpt lat="50.7743447446202" lon="3.5454275412724123"><ele>79.84172560871056</ele></trkpt>
<trkpt lat="50.7744770611497" lon="3.5454198878247922"><ele>79.38147183641975</ele></trkpt>
<trkpt lat="50.77459648304527" lon="3.5454085947433995"><ele>78.98798930041153</ele></trkpt>
<trkpt lat="50.77477808645833" lon="3.5453887059570133"><ele>78.35170023148149</ele></trkpt>
<trkpt lat="50.77491174222223" lon="3.545375377855778"><ele>77.59622222222222</ele></trkpt>
<trkpt lat="50.77518268444445" lon="3.5453519956594115"><ele>75.46364444444445</ele></trkpt>
<trkpt lat="50.77536488444445" lon="3.5453379378610217"><ele>73.77352592592594</ele></trkpt>
<trkpt lat="50.77555348000001" lon="3.545325253416825"><ele>71.74831111111111</ele></trkpt>
<trkpt lat="50.77573066222224" lon="3.545314471163521"><ele>69.7104148148148</ele></trkpt>
<trkpt lat="50.77587151817131" lon="3.5453077404177638"><ele>67.9403472222222</ele></trkpt>
<trkpt lat="50.77600142074075" lon="3.545305326299757"><ele>66.17793333333333</ele></trkpt>
<trkpt lat="50.776058335006866" lon="3.5453075879435256"><ele>65.38816790123455</ele></trkpt>
<trkpt lat="50.776149849858555" lon="3.545322493855898"><ele>64.10034722222223</ele></trkpt>
<trkpt lat="50.77621805373372" lon="3.545347695333072"><ele>63.1340920781893</ele></trkpt>
<trkpt lat="50.77627226337449" lon="3.545388429280575"><ele>62.40137174211249</ele></trkpt>
<trkpt lat="50.77634234567901" lon="3.5454666459248236"><ele>61.5343621399177</ele></trkpt>
<trkpt lat="50.77638358024693" lon="3.5455205210714604"><ele>61.05137174211249</ele></trkpt>
<trkpt lat="50.77642462962964" lon="3.5455814332713325"><ele>60.594307270233195</ele></trkpt>
<trkpt lat="50.77646382716051" lon="3.5456473454771085"><ele>60.18909465020576</ele></trkpt>
<trkpt lat="50.77653831275721" lon="3.545787880451957"><ele>59.53621399176956</ele></trkpt>
<trkpt lat="50.77661164609054" lon="3.545932071124683"><ele>59.057270233196164</ele></trkpt>
<trkpt lat="50.7766838271605" lon="3.5460699175149437"><ele>58.70781893004116</ele></trkpt>
<trkpt lat="50.77674941700961" lon="3.5461794786298206"><ele>58.404320987654316</ele></trkpt>
<trkpt lat="50.7768041718107" lon="3.5462466383255533"><ele>58.08017832647462</ele></trkpt>
<trkpt lat="50.77685251286009" lon="3.5462821373251425"><ele>57.704835390946506</ele></trkpt>
<trkpt lat="50.77690307098766" lon="3.5462978909386855"><ele>57.208916323731145</ele></trkpt>
<trkpt lat="50.776999976851855" lon="3.5463020447639595"><ele>56.19029492455419</ele></trkpt>
<trkpt lat="50.77707960905351" lon="3.5462888271944535"><ele>55.35390946502058</ele></trkpt>
<trkpt lat="50.777188436214" lon="3.5462596090759426"><ele>54.2156378600823</ele></trkpt>
<trkpt lat="50.777248380165474" lon="3.5462381495760704"><ele>53.58993698559671</ele></trkpt>
<trkpt lat="50.77731386574075" lon="3.5462053121641732"><ele>52.91564643347051</ele></trkpt>
<trkpt lat="50.77740490370371" lon="3.5461489152446988"><ele>52.07786111111111</ele></trkpt>
<trkpt lat="50.77752397557871" lon="3.5460672722500433"><ele>51.0769375</ele></trkpt>
<trkpt lat="50.77758658414353" lon="3.5460198561042233"><ele>50.59153472222222</ele></trkpt>
<trkpt lat="50.77765391111112" lon="3.545964145851379"><ele>50.10986666666666</ele></trkpt>
<trkpt lat="50.77773066666667" lon="3.545896326809074"><ele>49.59653333333333</ele></trkpt>
<trkpt lat="50.77790402222223" lon="3.545736798017218"><ele>48.47533333333333</ele></trkpt>
<trkpt lat="50.77806930962963" lon="3.545581799412778"><ele>47.35426666666667</ele></trkpt>
<trkpt lat="50.77839784296296" lon="3.5452694436604393"><ele>44.869822222222226</ele></trkpt>
<trkpt lat="50.778589062569445" lon="3.5450865883696836"><ele>43.25736875</ele></trkpt>
<trkpt lat="50.77870963481482" lon="3.5449748121737246"><ele>42.17402222222222</ele></trkpt>
<trkpt lat="50.778815309375005" lon="3.5448845628780505"><ele>41.196272916666665</ele></trkpt>
<trkpt lat="50.778912528819454" lon="3.5448067914405885"><ele>40.31300625</ele></trkpt>
<trkpt lat="50.779026955555544" lon="3.5447178078958452"><ele>39.35438518518519</ele></trkpt>
<trkpt lat="50.77916773333333" lon="3.544611567922363"><ele>38.23936296296296</ele></trkpt>
<trkpt lat="50.77923657777778" lon="3.544562997476659"><ele>37.72352592592593</ele></trkpt>
<trkpt lat="50.77930408090279" lon="3.544519705255275"><ele>37.251635648148145</ele></trkpt>
<trkpt lat="50.77937542881945" lon="3.5444786538678863"><ele>36.78835879629629</ele></trkpt>
<trkpt lat="50.77953657222223" lon="3.54439682260008"><ele>35.80517962962962</ele></trkpt>
<trkpt lat="50.779621039300416" lon="3.544359048690217"><ele>35.30283737997256</ele></trkpt>
<trkpt lat="50.779705151748985" lon="3.544325319237278"><ele>34.80840192043895</ele></trkpt>
<trkpt lat="50.77986453542954" lon="3.544269375923407"><ele>33.90545053155007</ele></trkpt>
<trkpt lat="50.780011250000015" lon="3.5442237503567307"><ele>33.210416666666674</ele></trkpt>
<trkpt lat="50.780095750171476" lon="3.5441994372059074"><ele>32.896064814814814</ele></trkpt>
<trkpt lat="50.78042517318245" lon="3.544107207423999"><ele>31.85578703703704</ele></trkpt>
<trkpt lat="50.78052936128258" lon="3.5440763817184004"><ele>31.54575617283951</ele></trkpt>
<trkpt lat="50.78062020833334" lon="3.544046875485878"><ele>31.28333333333333</ele></trkpt>
<trkpt lat="50.78070430744172" lon="3.544015969118601"><ele>31.050526200274348</ele></trkpt>
<trkpt lat="50.78088067232511" lon="3.543943656415976"><ele>30.593326748971194</ele></trkpt>
<trkpt lat="50.780970778155016" lon="3.54390824418184"><ele>30.377758573388203</ele></trkpt>
<trkpt lat="50.78105446176269" lon="3.5438814318698215"><ele>30.201341015089163</ele></trkpt>
<trkpt lat="50.78113088101853" lon="3.5438674589027"><ele>30.07836851851852</ele></trkpt>
<trkpt lat="50.781204907870375" lon="3.5438658134019985"><ele>30.001842592592592</ele></trkpt>
<trkpt lat="50.781425547685195" lon="3.543888169400612"><ele>29.870178703703704</ele></trkpt>
<trkpt lat="50.78149086805556" lon="3.543890532402108"><ele>29.815856481481482</ele></trkpt>
<trkpt lat="50.781649245970506" lon="3.543886033527858"><ele>29.690757887517147</ele></trkpt>
<trkpt lat="50.781685559842245" lon="3.543887614878316"><ele>29.713846021947873</ele></trkpt>
<trkpt lat="50.78174796124829" lon="3.5438982499381804"><ele>29.867436128257886</ele></trkpt>
<trkpt lat="50.78181284079218" lon="3.543915458429326"><ele>30.097112911522633</ele></trkpt>
<trkpt lat="50.78188466510202" lon="3.5439418898151844"><ele>30.388707776063104</ele></trkpt>
<trkpt lat="50.782020659722235" lon="3.544007737156348"><ele>31.013136574074075</ele></trkpt>
<trkpt lat="50.782095879629644" lon="3.544040324032681"><ele>31.3462962962963</ele></trkpt>
<trkpt lat="50.78212854331019" lon="3.5440499482867276"><ele>31.47462847222222</ele></trkpt>
<trkpt lat="50.7821953668287" lon="3.5440617573798057"><ele>31.700721064814818</ele></trkpt>
<trkpt lat="50.78226542907407" lon="3.5440617146780307"><ele>31.820444444444448</ele></trkpt>
<trkpt lat="50.78244974666667" lon="3.5440339690380105"><ele>31.771955555555557</ele></trkpt>
<trkpt lat="50.782523275555555" lon="3.5440298771304257"><ele>31.781703703703705</ele></trkpt>
<trkpt lat="50.78258457333333" lon="3.5440425140713976"><ele>31.885051851851852</ele></trkpt>
<trkpt lat="50.78262858" lon="3.544081531616586"><ele>32.13831388888889</ele></trkpt>
<trkpt lat="50.782657866666675" lon="3.544150182019755"><ele>32.562375</ele></trkpt>
<trkpt lat="50.782677910000004" lon="3.544241307468409"><ele>33.116975000000004</ele></trkpt>
<trkpt lat="50.78269273" lon="3.5443383424488797"><ele>33.704994444444445</ele></trkpt>
<trkpt lat="50.78271268347052" lon="3.544499660435898"><ele>34.68394204389575</ele></trkpt>
<trkpt lat="50.782723076989036" lon="3.54462040100503"><ele>35.431434327846375</ele></trkpt>
<trkpt lat="50.782724721364886" lon="3.5446763093726994"><ele>35.78996484910837</ele></trkpt>
<trkpt lat="50.78272033950617" lon="3.544781577582644"><ele>36.51851851851852</ele></trkpt>
<trkpt lat="50.78271369598766" lon="3.544839670111434"><ele>36.97430555555555</ele></trkpt>
<trkpt lat="50.78268434499314" lon="3.545024313048286"><ele>38.57028463648834</ele></trkpt>
<trkpt lat="50.782629609053515" lon="3.545336271563583"><ele>41.362705761316874</ele></trkpt>
<trkpt lat="50.782549375" lon="3.545780625481325"><ele>45.34791666666667</ele></trkpt>
<trkpt lat="50.78251138310184" lon="3.545977644211782"><ele>47.081912294238684</ele></trkpt>
<trkpt lat="50.782427560763885" lon="3.546386429657627"><ele>50.58726851851851</ele></trkpt>
<trkpt lat="50.78235572069445" lon="3.546721102007727"><ele>53.53068472222222</ele></trkpt>
<trkpt lat="50.782276040625014" lon="3.5470740839481616"><ele>57.007342592592586</ele></trkpt>
<trkpt lat="50.78225167520835" lon="3.5471904040391444"><ele>58.17850185185185</ele></trkpt>
<trkpt lat="50.78222854814817" lon="3.547312575239586"><ele>59.40017777777778</ele></trkpt>
<trkpt lat="50.78218084444445" lon="3.5475972982942685"><ele>62.22213333333333</ele></trkpt>
<trkpt lat="50.78213948148149" lon="3.5478617306706943"><ele>64.83484444444444</ele></trkpt>
<trkpt lat="50.78211697210649" lon="3.5480214088792383"><ele>66.4116400462963</ele></trkpt>
<trkpt lat="50.78210554203704" lon="3.5481431435504747"><ele>67.53321851851852</ele></trkpt>
<trkpt lat="50.782101468773156" lon="3.5482211275774853"><ele>68.15666064814815</ele></trkpt>
<trkpt lat="50.78209077835649" lon="3.54855098383966"><ele>70.46119791666666</ele></trkpt>
<trkpt lat="50.782085438635974" lon="3.548652638509159"><ele>71.11330911351166</ele></trkpt>
<trkpt lat="50.782076311027105" lon="3.548741991855294"><ele>71.4553520454298</ele></trkpt>
<trkpt lat="50.78208054454574" lon="3.548826747502354"><ele>71.77663989396754</ele></trkpt>
<trkpt lat="50.78210895598246" lon="3.548898921993354"><ele>72.09792774250528</ele></trkpt>
<trkpt lat="50.7821551756175" lon="3.548942334178434"><ele>72.419215591043</ele></trkpt>
<trkpt lat="50.782208841211016" lon="3.5489472511760036"><ele>72.74050343958073</ele></trkpt>
<trkpt lat="50.782301563786014" lon="3.548920390966155"><ele>73.3039094650206</ele></trkpt>
<trkpt lat="50.78249" lon="3.54889"><ele>73.6</ele></trkpt>
</trkseg>
</trk></gpx>
