<?xml version='1.0' encoding='UTF-8'?>
<gpx version="1.1"
  creator="GPXmagic"
  xmlns="http://www.topografix.com/GPX/1/1"
  xmlns:rgt="http://www.rgtcycling.com/XML/GpxExtensions/v1"
  xmlns:xsi="http://www.w3.org/2001/XMLSchema-instance" xsi:schemaLocation="http://www.topografix.com/GPX/1/1
  http://www.topografix.com/GPX/1/1/gpx.xsd">
  <metadata>
    <name>Smoothed with GPXmagic</name>
    <author>
      <link href="https://www.stepwiserefinement.co.uk">
        <text>GPXmagic v3</text>
        <type>text/html</type>
      </link>
    </author>
  </metadata>
<trk>  <name>Superior&#32;Koppenberg&#32;Loop</name>
<trkseg>
<trkpt lat="39.94030955260734" lon="-105.19880957740622"><ele>1748.0491626174282</ele></trkpt>
<trkpt lat="39.94042531296622" lon="-105.1988107415976"><ele>1747.9213200518304</ele></trkpt>
<trkpt lat="39.94055873880432" lon="-105.19881155377318"><ele>1747.7755539358602</ele></trkpt>
<trkpt lat="39.94069569089958" lon="-105.1988121739253"><ele>1747.6307304826696</ele></trkpt>
<trkpt lat="39.94082348415654" lon="-105.19881268286034"><ele>1747.5061046323292</ele></trkpt>
<trkpt lat="39.94093859087836" lon="-105.19881312431033"><ele>1747.4124635568514</ele></trkpt>
<trkpt lat="39.94104807581699" lon="-105.19881354218643"><ele>1747.349781341108</ele></trkpt>
<trkpt lat="39.941163218891965" lon="-105.19881398165963"><ele>1747.3116186157001</ele></trkpt>
<trkpt lat="39.94129137568056" lon="-105.19881447080476"><ele>1747.002923630447</ele></trkpt>
<trkpt lat="39.941430000021334" lon="-105.19881499990422"><ele>1746.6690151476755</ele></trkpt>
<trkpt lat="39.94156862436189" lon="-105.19881552900587"><ele>1746.3351066654495</ele></trkpt>
<trkpt lat="39.94169678114971" lon="-105.19881601815683"><ele>1746.0264116820347</ele></trkpt>
<trkpt lat="39.941811924223146" lon="-105.1988164576384"><ele>1745.7490632110803</ele></trkpt>
<trkpt lat="39.94192140915907" lon="-105.19881687552517"><ele>1745.4853436605504</ele></trkpt>
<trkpt lat="39.94203653153386" lon="-105.19881728513568"><ele>1745.2080452025714</ele></trkpt>
<trkpt lat="39.94216448135591" lon="-105.19881747555398"><ele>1744.8998498626283</ele></trkpt>
<trkpt lat="39.94230215366937" lon="-105.19881663046286"><ele>1744.5682323031906</ele></trkpt>
<trkpt lat="39.94243781846018" lon="-105.19881288758604"><ele>1744.2413808780316</ele></trkpt>
<trkpt lat="39.942558917869846" lon="-105.19880318967125"><ele>1743.949137166892</ele></trkpt>
<trkpt lat="39.94266011176266" lon="-105.19878349396772"><ele>1743.7026906522606</ele></trkpt>
<trkpt lat="39.94274556851501" lon="-105.19874922789633"><ele>1743.4873420303345</ele></trkpt>
<trkpt lat="39.94282457464331" lon="-105.19869627815885"><ele>1743.2733861171664</ele></trkpt>
<trkpt lat="39.94290498813005" lon="-105.19862350502707"><ele>1743.0376353296515</ele></trkpt>
<trkpt lat="39.942988481918" lon="-105.19853452033901"><ele>1742.777922152984</ele></trkpt>
<trkpt lat="39.94306969444748" lon="-105.19843691146346"><ele>1742.5119166491256</ele></trkpt>
<trkpt lat="39.943141389871215" lon="-105.19833575743822"><ele>1742.2575178278362</ele></trkpt>
<trkpt lat="39.94319979166668" lon="-105.19822833405127"><ele>1742.0143223503674</ele></trkpt>
<trkpt lat="39.943247201848564" lon="-105.198105760663"><ele>1741.760788616565</ele></trkpt>
<trkpt lat="39.94328815756639" lon="-105.19796231476609"><ele>1741.4781118414394</ele></trkpt>
<trkpt lat="39.94332517845896" lon="-105.19780424667302"><ele>1741.1728881478193</ele></trkpt>
<trkpt lat="39.94335734391686" lon="-105.19764600199662"><ele>1740.8705590811155</ele></trkpt>
<trkpt lat="39.94338211213543" lon="-105.19750014367314"><ele>1740.5946724766955</ele></trkpt>
<trkpt lat="39.943397784256575" lon="-105.19736708477285"><ele>1740.3460678798806</ele></trkpt>
<trkpt lat="39.94340405247815" lon="-105.19723607871745"><ele>1740.1036664653998</ele></trkpt>
<trkpt lat="39.9434017811253" lon="-105.19709271063209"><ele>1739.8388500720657</ele></trkpt>
<trkpt lat="39.94339259205425" lon="-105.19692911421983"><ele>1739.5359245257796</ele></trkpt>
<trkpt lat="39.943378861362085" lon="-105.19675052273838"><ele>1739.2044628621993</ele></trkpt>
<trkpt lat="39.94336319298783" lon="-105.19657282161475"><ele>1738.874136457304</ele></trkpt>
<trkpt lat="39.94334739182636" lon="-105.19641226336624"><ele>1738.57519824366</ele></trkpt>
<trkpt lat="39.94333167655552" lon="-105.19627507241711"><ele>1738.31903327408</ele></trkpt>
<trkpt lat="39.94331475252035" lon="-105.19615472242431"><ele>1738.0930733508162</ele></trkpt>
<trkpt lat="39.94329472060684" lon="-105.19603802245314"><ele>1737.8722260787954</ele></trkpt>
<trkpt lat="39.94327047334384" lon="-105.19591422759736"><ele>1737.6362694341342</ele></trkpt>
<trkpt lat="39.94324267693271" lon="-105.19578142992928"><ele>1737.3820541895943</ele></trkpt>
<trkpt lat="39.94321377217165" lon="-105.19564711438017"><ele>1737.1244250329542</ele></trkpt>
<trkpt lat="39.943186066691396" lon="-105.1955196259568"><ele>1736.8797143120855</ele></trkpt>
<trkpt lat="39.943160002059706" lon="-105.19539999801955"><ele>1736.6500471975924</ele></trkpt>
<trkpt lat="39.943133923194374" lon="-105.19528037611545"><ele>1736.4203813442987</ele></trkpt>
<trkpt lat="39.94310607679838" lon="-105.19515294738022"><ele>1736.1756835840251</ele></trkpt>
<trkpt lat="39.94307652556917" lon="-105.19501890552809"><ele>1735.9181145737862</ele></trkpt>
<trkpt lat="39.943046721029276" lon="-105.1948869577536"><ele>1735.6640880257187</ele></trkpt>
<trkpt lat="39.94301768634928" lon="-105.19476518864177"><ele>1735.4285898407604</ele></trkpt>
<trkpt lat="39.94298819275359" lon="-105.19465249185093"><ele>1735.208678817412</ele></trkpt>
<trkpt lat="39.942954971016164" lon="-105.19453903698934"><ele>1734.9843974526962</ele></trkpt>
<trkpt lat="39.94291440834725" lon="-105.19441236581655"><ele>1734.7308862150526</ele></trkpt>
<trkpt lat="39.94286494873774" lon="-105.19426612383873"><ele>1734.4357077470518</ele></trkpt>
<trkpt lat="39.942808676716794" lon="-105.19410595259306"><ele>1734.1103379506526</ele></trkpt>
<trkpt lat="39.942750152792826" lon="-105.19394740499965"><ele>1733.7853754107318</ele></trkpt>
<trkpt lat="39.94269300885449" lon="-105.19380670332595"><ele>1733.4913316131651</ele></trkpt>
<trkpt lat="39.942636822157446" lon="-105.19369129642062"><ele>1733.2388657833467</ele></trkpt>
<trkpt lat="39.94257664723034" lon="-105.1935972731626"><ele>1733.0126835621622</ele></trkpt>
<trkpt lat="39.942505679179824" lon="-105.19351450491297"><ele>1732.7833700437486</ele></trkpt>
<trkpt lat="39.94241987514599" lon="-105.19343394595002"><ele>1732.528716075292</ele></trkpt>
<trkpt lat="39.942321280466786" lon="-105.19335289521226"><ele>1732.2479954849623</ele></trkpt>
<trkpt lat="39.942217896215524" lon="-105.1932761362914"><ele>1731.9614523267844</ele></trkpt>
<trkpt lat="39.94211689152191" lon="-105.1932111178902"><ele>1731.6901436984815</ele></trkpt>
<trkpt lat="39.94201854166668" lon="-105.19316270783202"><ele>1731.4369385521566</ele></trkpt>
<trkpt lat="39.94191535665296" lon="-105.19312977675968"><ele>1731.1810626200647</ele></trkpt>
<trkpt lat="39.94180050497257" lon="-105.19310798758777"><ele>1730.9015060483503</ele></trkpt>
<trkpt lat="39.94167597736627" lon="-105.19309312739136"><ele>1730.6003012640808</ele></trkpt>
<trkpt lat="39.94155311299727" lon="-105.19308358955612"><ele>1730.3038318353815</ele></trkpt>
<trkpt lat="39.94144393689988" lon="-105.19307996223363"><ele>1730.0407720127935</ele></trkpt>
<trkpt lat="39.94135229166668" lon="-105.1930839583833"><ele>1729.8199010906258</ele></trkpt>
<trkpt lat="39.94127265089165" lon="-105.19309694201804"><ele>1729.6265761328643</ele></trkpt>
<trkpt lat="39.941196929869704" lon="-105.1931189456994"><ele>1729.4397135727513</ele></trkpt>
<trkpt lat="39.94112156378603" lon="-105.19314837219143"><ele>1729.250218210986</ele></trkpt>
<trkpt lat="39.941048858882056" lon="-105.19318353683255"><ele>1729.0634392932045</ele></trkpt>
<trkpt lat="39.94098221879289" lon="-105.19322512124634"><ele>1728.885496624918</ele></trkpt>
<trkpt lat="39.940921041666684" lon="-105.19327791714497"><ele>1728.7088012698605</ele></trkpt>
<trkpt lat="39.940856132544596" lon="-105.193355256175"><ele>1728.4970358974094</ele></trkpt>
<trkpt lat="39.940773453360784" lon="-105.19347489459496"><ele>1728.199582777497</ele></trkpt>
<trkpt lat="39.940662589163246" lon="-105.19364810438609"><ele>1727.7828875514888</ele></trkpt>
<trkpt lat="39.94053" lon="-105.19386"><ele>1727.2777798677232</ele></trkpt>
<trkpt lat="39.94045120370372" lon="-105.19398804131535"><ele>1726.9745647825764</ele></trkpt>
<trkpt lat="39.94038529578191" lon="-105.19409930270396"><ele>1726.7149044363377</ele></trkpt>
<trkpt lat="39.94033532150207" lon="-105.19419066725237"><ele>1726.5076358047472</ele></trkpt>
<trkpt lat="39.94029556327162" lon="-105.19427018189795"><ele>1726.3323207300186</ele></trkpt>
<trkpt lat="39.94026036008231" lon="-105.19434509340952"><ele>1726.1700559273563</ele></trkpt>
<trkpt lat="39.94022637602882" lon="-105.19442015542805"><ele>1726.0090668385144</ele></trkpt>
<trkpt lat="39.94019020833334" lon="-105.1945031255203"><ele>1725.832803684991</ele></trkpt>
<trkpt lat="39.940147514254825" lon="-105.19460400840427"><ele>1725.619995507593</ele></trkpt>
<trkpt lat="39.940095922896504" lon="-105.19472791896962"><ele>1725.3595923561159</ele></trkpt>
<trkpt lat="39.9400382596147" lon="-105.19486753331051"><ele>1725.066721456688</ele></trkpt>
<trkpt lat="39.93998028151959" lon="-105.19500867508047"><ele>1724.7710065232739</ele></trkpt>
<trkpt lat="39.93992694907109" lon="-105.1951394174296"><ele>1724.8579345258095</ele></trkpt>
<trkpt lat="39.93987865889215" lon="-105.19525918461885"><ele>1724.9696355685132</ele></trkpt>
<trkpt lat="39.93983164723034" lon="-105.1953776540941"><ele>1725.123833819242</ele></trkpt>
<trkpt lat="39.93978074074076" lon="-105.19550783247422"><ele>1725.336832415506</ele></trkpt>
<trkpt lat="39.93972307688156" lon="-105.19565670053518"><ele>1725.612218442933</ele></trkpt>
<trkpt lat="39.939660492387446" lon="-105.19581917065983"><ele>1725.9323242630387</ele></trkpt>
<trkpt lat="39.9395987458158" lon="-105.19598022657095"><ele>1726.2648941798943</ele></trkpt>
<trkpt lat="39.93954394125905" lon="-105.19612426904062"><ele>1726.5828123312817</ele></trkpt>
<trkpt lat="39.93949884839651" lon="-105.19624463639985"><ele>1726.8822886297376</ele></trkpt>
<trkpt lat="39.93946186588922" lon="-105.19634618136357"><ele>1727.185670553936</ele></trkpt>
<trkpt lat="39.93942902436843" lon="-105.19643997560101"><ele>1727.5275697993777</ele></trkpt>
<trkpt lat="39.93939697762322" lon="-105.19653576557933"><ele>1727.9351167655482</ele></trkpt>
<trkpt lat="39.939365341650785" lon="-105.19663690406304"><ele>1728.4188241535592</ele></trkpt>
<trkpt lat="39.93933746924579" lon="-105.19674007682528"><ele>1728.9821045143515</ele></trkpt>
<trkpt lat="39.939318627183106" lon="-105.19684170355255"><ele>1729.6559446149124</ele></trkpt>
<trkpt lat="39.939313750000004" lon="-105.1969439582328"><ele>1730.523125</ele></trkpt>
<trkpt lat="39.93932497856653" lon="-105.19705562549431"><ele>1731.6913906035666</ele></trkpt>
<trkpt lat="39.939351075960225" lon="-105.19718348106933"><ele>1733.20519633059</ele></trkpt>
<trkpt lat="39.93938729681071" lon="-105.19732372873463"><ele>1734.9641718107</ele></trkpt>
<trkpt lat="39.939427426268864" lon="-105.19746181433203"><ele>1736.7472642318246</ele></trkpt>
<trkpt lat="39.93946686128259" lon="-105.19758229198877"><ele>1738.3433659122086</ele></trkpt>
<trkpt lat="39.939505208333344" lon="-105.19767895790946"><ele>1739.6789583333334</ele></trkpt>
<trkpt lat="39.93954634709363" lon="-105.19775762072456"><ele>1740.845122492284</ele></trkpt>
<trkpt lat="39.93959411586936" lon="-105.19782851535852"><ele>1741.9771267361111</ele></trkpt>
<trkpt lat="39.93964863618828" lon="-105.19789893931936"><ele>1743.1393200231482</ele></trkpt>
<trkpt lat="39.93970407150207" lon="-105.19796882598678"><ele>1744.2519984567903</ele></trkpt>
<trkpt lat="39.93975410579562" lon="-105.19803652839848"><ele>1745.201384602195</ele></trkpt>
<trkpt lat="39.939795027434855" lon="-105.19810130641739"><ele>1745.9203232167354</ele></trkpt>
<trkpt lat="39.939827685828206" lon="-105.19816557665477"><ele>1746.4533407278807</ele></trkpt>
<trkpt lat="39.93985274712793" lon="-105.19822957146067"><ele>1746.867607917524</ele></trkpt>
<trkpt lat="39.9398704396005" lon="-105.19829240114153"><ele>1747.2153511874144</ele></trkpt>
<trkpt lat="39.93988069958849" lon="-105.1983518724048"><ele>1747.503477366255</ele></trkpt>
<trkpt lat="39.939885178326485" lon="-105.19840755829215"><ele>1747.728827160494</ele></trkpt>
<trkpt lat="39.93988613854598" lon="-105.19845991083668"><ele>1747.8891769547324</ele></trkpt>
<trkpt lat="39.939886172839515" lon="-105.19851078189187"><ele>1747.9989711934156</ele></trkpt>
<trkpt lat="39.93988790123458" lon="-105.19856261315805"><ele>1748.085500685871</ele></trkpt>
<trkpt lat="39.93989413580248" lon="-105.19861679009676"><ele>1748.1726474622772</ele></trkpt>
<trkpt lat="39.939908209876556" lon="-105.19867109049058"><ele>1748.2617078189303</ele></trkpt>
<trkpt lat="39.939932467876055" lon="-105.19871960909849"><ele>1748.3330413282306</ele></trkpt>
<trkpt lat="39.93996754220209" lon="-105.19875659044698"><ele>1748.3660413242312</ele></trkpt>
<trkpt lat="39.94000938523563" lon="-105.19878023451132"><ele>1748.3590935104203</ele></trkpt>
<trkpt lat="39.94005391618392" lon="-105.19879356003601"><ele>1748.3255564553867</ele></trkpt>
<trkpt lat="39.940099510372484" lon="-105.19880077282637"><ele>1748.279669762085</ele></trkpt>
<trkpt lat="39.940151632654015" lon="-105.19880508743788"><ele>1748.2233090379013</ele></trkpt>
<trkpt lat="39.940218911566475" lon="-105.19880780366564"><ele>1748.1493440233241</ele></trkpt>
<trkpt lat="39.94030955260734" lon="-105.19880957740622"><ele>1748.0491626174282</ele></trkpt>
</trkseg>
</trk></gpx>
