<?xml version="1.0" encoding="UTF-8"?>
<gpx version="1.1" creator="GPX Segmenter" xmlns="http://www.topografix.com/GPX/1/1">
  <trk>
    <name>stage-03-route - Segment 2 of 2</name>
    <trkseg>
      <trkpt lat="42.507390" lon="2.158130">
        <ele>1293.0</ele>
      </trkpt>
      <trkpt lat="42.507240" lon="2.158260">
        <ele>1294.0</ele>
      </trkpt>
      <trkpt lat="42.507120" lon="2.158340">
        <ele>1294.0</ele>
      </trkpt>
      <trkpt lat="42.507060" lon="2.158360">
        <ele>1295.0</ele>
      </trkpt>
      <trkpt lat="42.506970" lon="2.158370">
        <ele>1296.0</ele>
      </trkpt>
      <trkpt lat="42.506880" lon="2.158370">
        <ele>1296.0</ele>
      </trkpt>
      <trkpt lat="42.506810" lon="2.158410">
        <ele>1297.0</ele>
      </trkpt>
      <trkpt lat="42.506760" lon="2.158460">
        <ele>1297.0</ele>
      </trkpt>
      <trkpt lat="42.506720" lon="2.158520">
        <ele>1297.0</ele>
      </trkpt>
      <trkpt lat="42.506710" lon="2.158600">
        <ele>1298.0</ele>
      </trkpt>
      <trkpt lat="42.506710" lon="2.158700">
        <ele>1298.0</ele>
      </trkpt>
      <trkpt lat="42.506740" lon="2.158800">
        <ele>1298.0</ele>
      </trkpt>
      <trkpt lat="42.506780" lon="2.158860">
        <ele>1299.0</ele>
      </trkpt>
      <trkpt lat="42.506830" lon="2.158910">
        <ele>1299.0</ele>
      </trkpt>
      <trkpt lat="42.506890" lon="2.158930">
        <ele>1299.0</ele>
      </trkpt>
      <trkpt lat="42.506940" lon="2.158940">
        <ele>1300.0</ele>
      </trkpt>
      <trkpt lat="42.507000" lon="2.158930">
        <ele>1300.0</ele>
      </trkpt>
      <trkpt lat="42.507050" lon="2.158890">
        <ele>1300.0</ele>
      </trkpt>
      <trkpt lat="42.507100" lon="2.158810">
        <ele>1301.0</ele>
      </trkpt>
      <trkpt lat="42.507170" lon="2.158670">
        <ele>1301.0</ele>
      </trkpt>
      <trkpt lat="42.507240" lon="2.158570">
        <ele>1301.0</ele>
      </trkpt>
      <trkpt lat="42.507390" lon="2.158450">
        <ele>1302.0</ele>
      </trkpt>
      <trkpt lat="42.508420" lon="2.157620">
        <ele>1304.0</ele>
      </trkpt>
      <trkpt lat="42.508480" lon="2.157570">
        <ele>1306.0</ele>
      </trkpt>
      <trkpt lat="42.508540" lon="2.157520">
        <ele>1308.0</ele>
      </trkpt>
      <trkpt lat="42.508590" lon="2.157440">
        <ele>1309.0</ele>
      </trkpt>
      <trkpt lat="42.508640" lon="2.157330">
        <ele>1311.0</ele>
      </trkpt>
      <trkpt lat="42.508660" lon="2.157210">
        <ele>1312.0</ele>
      </trkpt>
      <trkpt lat="42.508700" lon="2.156150">
        <ele>1318.0</ele>
      </trkpt>
      <trkpt lat="42.508690" lon="2.155980">
        <ele>1323.0</ele>
      </trkpt>
      <trkpt lat="42.508650" lon="2.155860">
        <ele>1326.0</ele>
      </trkpt>
      <trkpt lat="42.508580" lon="2.155740">
        <ele>1329.0</ele>
      </trkpt>
      <trkpt lat="42.508500" lon="2.155650">
        <ele>1332.0</ele>
      </trkpt>
      <trkpt lat="42.508440" lon="2.155610">
        <ele>1334.0</ele>
      </trkpt>
      <trkpt lat="42.508320" lon="2.155580">
        <ele>1336.0</ele>
      </trkpt>
      <trkpt lat="42.508100" lon="2.155560">
        <ele>1338.0</ele>
      </trkpt>
      <trkpt lat="42.507940" lon="2.155530">
        <ele>1339.0</ele>
      </trkpt>
      <trkpt lat="42.507800" lon="2.155450">
        <ele>1340.0</ele>
      </trkpt>
      <trkpt lat="42.507700" lon="2.155360">
        <ele>1341.0</ele>
      </trkpt>
      <trkpt lat="42.507620" lon="2.155250">
        <ele>1341.0</ele>
      </trkpt>
      <trkpt lat="42.507530" lon="2.155090">
        <ele>1342.0</ele>
      </trkpt>
      <trkpt lat="42.507470" lon="2.154880">
        <ele>1342.0</ele>
      </trkpt>
      <trkpt lat="42.507460" lon="2.154610">
        <ele>1343.0</ele>
      </trkpt>
      <trkpt lat="42.507660" lon="2.152840">
        <ele>1344.0</ele>
      </trkpt>
      <trkpt lat="42.507700" lon="2.152610">
        <ele>1346.0</ele>
      </trkpt>
      <trkpt lat="42.507770" lon="2.152430">
        <ele>1348.0</ele>
      </trkpt>
      <trkpt lat="42.507860" lon="2.152290">
        <ele>1349.0</ele>
      </trkpt>
      <trkpt lat="42.507980" lon="2.152170">
        <ele>1351.0</ele>
      </trkpt>
      <trkpt lat="42.508260" lon="2.151970">
        <ele>1353.0</ele>
      </trkpt>
      <trkpt lat="42.508330" lon="2.151910">
        <ele>1355.0</ele>
      </trkpt>
      <trkpt lat="42.508510" lon="2.151750">
        <ele>1357.0</ele>
      </trkpt>
      <trkpt lat="42.509010" lon="2.151140">
        <ele>1361.0</ele>
      </trkpt>
      <trkpt lat="42.509070" lon="2.151010">
        <ele>1364.0</ele>
      </trkpt>
      <trkpt lat="42.509090" lon="2.150880">
        <ele>1365.0</ele>
      </trkpt>
      <trkpt lat="42.509080" lon="2.150770">
        <ele>1367.0</ele>
      </trkpt>
      <trkpt lat="42.509050" lon="2.150650">
        <ele>1368.0</ele>
      </trkpt>
      <trkpt lat="42.508970" lon="2.150560">
        <ele>1369.0</ele>
      </trkpt>
      <trkpt lat="42.508810" lon="2.150380">
        <ele>1369.0</ele>
      </trkpt>
      <trkpt lat="42.508730" lon="2.150260">
        <ele>1370.0</ele>
      </trkpt>
      <trkpt lat="42.508650" lon="2.150050">
        <ele>1371.0</ele>
      </trkpt>
      <trkpt lat="42.508600" lon="2.149910">
        <ele>1371.0</ele>
      </trkpt>
      <trkpt lat="42.508530" lon="2.149790">
        <ele>1372.0</ele>
      </trkpt>
      <trkpt lat="42.508350" lon="2.149580">
        <ele>1372.0</ele>
      </trkpt>
      <trkpt lat="42.508200" lon="2.149400">
        <ele>1373.0</ele>
      </trkpt>
      <trkpt lat="42.508100" lon="2.149250">
        <ele>1373.0</ele>
      </trkpt>
      <trkpt lat="42.508070" lon="2.149140">
        <ele>1374.0</ele>
      </trkpt>
      <trkpt lat="42.508040" lon="2.148980">
        <ele>1375.0</ele>
      </trkpt>
      <trkpt lat="42.508050" lon="2.148740">
        <ele>1376.0</ele>
      </trkpt>
      <trkpt lat="42.508050" lon="2.148510">
        <ele>1377.0</ele>
      </trkpt>
      <trkpt lat="42.508030" lon="2.148340">
        <ele>1378.0</ele>
      </trkpt>
      <trkpt lat="42.508000" lon="2.148190">
        <ele>1378.0</ele>
      </trkpt>
      <trkpt lat="42.507930" lon="2.147930">
        <ele>1380.0</ele>
      </trkpt>
      <trkpt lat="42.507850" lon="2.147730">
        <ele>1381.0</ele>
      </trkpt>
      <trkpt lat="42.507800" lon="2.147630">
        <ele>1382.0</ele>
      </trkpt>
      <trkpt lat="42.507730" lon="2.147470">
        <ele>1383.0</ele>
      </trkpt>
      <trkpt lat="42.507680" lon="2.147310">
        <ele>1384.0</ele>
      </trkpt>
      <trkpt lat="42.507660" lon="2.147080">
        <ele>1385.0</ele>
      </trkpt>
      <trkpt lat="42.507670" lon="2.146770">
        <ele>1386.0</ele>
      </trkpt>
      <trkpt lat="42.507690" lon="2.146540">
        <ele>1387.0</ele>
      </trkpt>
      <trkpt lat="42.507740" lon="2.146350">
        <ele>1388.0</ele>
      </trkpt>
      <trkpt lat="42.507830" lon="2.146140">
        <ele>1389.0</ele>
      </trkpt>
      <trkpt lat="42.508080" lon="2.145670">
        <ele>1391.0</ele>
      </trkpt>
      <trkpt lat="42.508120" lon="2.145560">
        <ele>1393.0</ele>
      </trkpt>
      <trkpt lat="42.508160" lon="2.145440">
        <ele>1394.0</ele>
      </trkpt>
      <trkpt lat="42.508160" lon="2.145310">
        <ele>1395.0</ele>
      </trkpt>
      <trkpt lat="42.508140" lon="2.145210">
        <ele>1395.0</ele>
      </trkpt>
      <trkpt lat="42.508080" lon="2.145110">
        <ele>1396.0</ele>
      </trkpt>
      <trkpt lat="42.507990" lon="2.145040">
        <ele>1397.0</ele>
      </trkpt>
      <trkpt lat="42.507530" lon="2.144910">
        <ele>1398.0</ele>
      </trkpt>
      <trkpt lat="42.507240" lon="2.144850">
        <ele>1400.0</ele>
      </trkpt>
      <trkpt lat="42.506880" lon="2.144880">
        <ele>1403.0</ele>
      </trkpt>
      <trkpt lat="42.506770" lon="2.144870">
        <ele>1405.0</ele>
      </trkpt>
      <trkpt lat="42.506700" lon="2.144850">
        <ele>1407.0</ele>
      </trkpt>
      <trkpt lat="42.506640" lon="2.144810">
        <ele>1408.0</ele>
      </trkpt>
      <trkpt lat="42.506580" lon="2.144750">
        <ele>1409.0</ele>
      </trkpt>
      <trkpt lat="42.506540" lon="2.144670">
        <ele>1410.0</ele>
      </trkpt>
      <trkpt lat="42.506520" lon="2.144580">
        <ele>1411.0</ele>
      </trkpt>
      <trkpt lat="42.506520" lon="2.144490">
        <ele>1412.0</ele>
      </trkpt>
      <trkpt lat="42.506540" lon="2.144400">
        <ele>1412.0</ele>
      </trkpt>
      <trkpt lat="42.506590" lon="2.144290">
        <ele>1413.0</ele>
      </trkpt>
      <trkpt lat="42.506640" lon="2.144220">
        <ele>1414.0</ele>
      </trkpt>
      <trkpt lat="42.506750" lon="2.144120">
        <ele>1415.0</ele>
      </trkpt>
      <trkpt lat="42.506890" lon="2.144000">
        <ele>1416.0</ele>
      </trkpt>
      <trkpt lat="42.507050" lon="2.143840">
        <ele>1418.0</ele>
      </trkpt>
      <trkpt lat="42.507140" lon="2.143700">
        <ele>1419.0</ele>
      </trkpt>
      <trkpt lat="42.507220" lon="2.143550">
        <ele>1421.0</ele>
      </trkpt>
      <trkpt lat="42.507320" lon="2.143380">
        <ele>1423.0</ele>
      </trkpt>
      <trkpt lat="42.507420" lon="2.143250">
        <ele>1425.0</ele>
      </trkpt>
      <trkpt lat="42.507510" lon="2.143170">
        <ele>1427.0</ele>
      </trkpt>
      <trkpt lat="42.507700" lon="2.142940">
        <ele>1429.0</ele>
      </trkpt>
      <trkpt lat="42.507950" lon="2.142610">
        <ele>1433.0</ele>
      </trkpt>
      <trkpt lat="42.508070" lon="2.142400">
        <ele>1436.0</ele>
      </trkpt>
      <trkpt lat="42.508150" lon="2.142180">
        <ele>1439.0</ele>
      </trkpt>
      <trkpt lat="42.508230" lon="2.141880">
        <ele>1442.0</ele>
      </trkpt>
      <trkpt lat="42.508310" lon="2.141490">
        <ele>1445.0</ele>
      </trkpt>
      <trkpt lat="42.508360" lon="2.141110">
        <ele>1446.0</ele>
      </trkpt>
      <trkpt lat="42.508430" lon="2.140480">
        <ele>1448.0</ele>
      </trkpt>
      <trkpt lat="42.508420" lon="2.140130">
        <ele>1450.0</ele>
      </trkpt>
      <trkpt lat="42.508370" lon="2.139240">
        <ele>1451.0</ele>
      </trkpt>
      <trkpt lat="42.508380" lon="2.138960">
        <ele>1453.0</ele>
      </trkpt>
      <trkpt lat="42.508400" lon="2.138760">
        <ele>1454.0</ele>
      </trkpt>
      <trkpt lat="42.508450" lon="2.138570">
        <ele>1455.0</ele>
      </trkpt>
      <trkpt lat="42.508520" lon="2.138400">
        <ele>1456.0</ele>
      </trkpt>
      <trkpt lat="42.508630" lon="2.138260">
        <ele>1457.0</ele>
      </trkpt>
      <trkpt lat="42.508660" lon="2.138210">
        <ele>1458.0</ele>
      </trkpt>
      <trkpt lat="42.508690" lon="2.138100">
        <ele>1459.0</ele>
      </trkpt>
      <trkpt lat="42.508690" lon="2.138010">
        <ele>1459.0</ele>
      </trkpt>
      <trkpt lat="42.508670" lon="2.137910">
        <ele>1460.0</ele>
      </trkpt>
      <trkpt lat="42.508630" lon="2.137800">
        <ele>1460.0</ele>
      </trkpt>
      <trkpt lat="42.508580" lon="2.137750">
        <ele>1461.0</ele>
      </trkpt>
      <trkpt lat="42.508300" lon="2.137550">
        <ele>1462.0</ele>
      </trkpt>
      <trkpt lat="42.508030" lon="2.137370">
        <ele>1463.0</ele>
      </trkpt>
      <trkpt lat="42.507910" lon="2.137270">
        <ele>1464.0</ele>
      </trkpt>
      <trkpt lat="42.507820" lon="2.137130">
        <ele>1465.0</ele>
      </trkpt>
      <trkpt lat="42.507760" lon="2.136940">
        <ele>1467.0</ele>
      </trkpt>
      <trkpt lat="42.507660" lon="2.136480">
        <ele>1469.0</ele>
      </trkpt>
      <trkpt lat="42.507620" lon="2.136360">
        <ele>1470.0</ele>
      </trkpt>
      <trkpt lat="42.507540" lon="2.136250">
        <ele>1471.0</ele>
      </trkpt>
      <trkpt lat="42.507340" lon="2.136090">
        <ele>1473.0</ele>
      </trkpt>
      <trkpt lat="42.507170" lon="2.135940">
        <ele>1475.0</ele>
      </trkpt>
      <trkpt lat="42.507000" lon="2.135800">
        <ele>1476.0</ele>
      </trkpt>
      <trkpt lat="42.506600" lon="2.135550">
        <ele>1479.0</ele>
      </trkpt>
      <trkpt lat="42.506600" lon="2.135550">
        <ele>1480.0</ele>
      </trkpt>
      <trkpt lat="42.506410" lon="2.135440">
        <ele>1481.0</ele>
      </trkpt>
      <trkpt lat="42.506300" lon="2.135360">
        <ele>1482.0</ele>
      </trkpt>
      <trkpt lat="42.506220" lon="2.135270">
        <ele>1483.0</ele>
      </trkpt>
      <trkpt lat="42.506160" lon="2.135170">
        <ele>1483.0</ele>
      </trkpt>
      <trkpt lat="42.506120" lon="2.135030">
        <ele>1483.0</ele>
      </trkpt>
      <trkpt lat="42.506110" lon="2.134910">
        <ele>1484.0</ele>
      </trkpt>
      <trkpt lat="42.506130" lon="2.134740">
        <ele>1484.0</ele>
      </trkpt>
      <trkpt lat="42.506190" lon="2.134610">
        <ele>1484.0</ele>
      </trkpt>
      <trkpt lat="42.506300" lon="2.134450">
        <ele>1484.0</ele>
      </trkpt>
      <trkpt lat="42.506420" lon="2.134330">
        <ele>1484.0</ele>
      </trkpt>
      <trkpt lat="42.506770" lon="2.134070">
        <ele>1484.0</ele>
      </trkpt>
      <trkpt lat="42.506890" lon="2.133930">
        <ele>1484.0</ele>
      </trkpt>
      <trkpt lat="42.506980" lon="2.133780">
        <ele>1485.0</ele>
      </trkpt>
      <trkpt lat="42.507030" lon="2.133650">
        <ele>1485.0</ele>
      </trkpt>
      <trkpt lat="42.507060" lon="2.133460">
        <ele>1486.0</ele>
      </trkpt>
      <trkpt lat="42.507060" lon="2.133330">
        <ele>1487.0</ele>
      </trkpt>
      <trkpt lat="42.507040" lon="2.132950">
        <ele>1488.0</ele>
      </trkpt>
      <trkpt lat="42.507030" lon="2.132690">
        <ele>1489.0</ele>
      </trkpt>
      <trkpt lat="42.507030" lon="2.132450">
        <ele>1491.0</ele>
      </trkpt>
      <trkpt lat="42.507050" lon="2.132290">
        <ele>1492.0</ele>
      </trkpt>
      <trkpt lat="42.507100" lon="2.132110">
        <ele>1493.0</ele>
      </trkpt>
      <trkpt lat="42.507150" lon="2.131960">
        <ele>1494.0</ele>
      </trkpt>
      <trkpt lat="42.507210" lon="2.131750">
        <ele>1495.0</ele>
      </trkpt>
      <trkpt lat="42.507250" lon="2.131580">
        <ele>1496.0</ele>
      </trkpt>
      <trkpt lat="42.507270" lon="2.131350">
        <ele>1497.0</ele>
      </trkpt>
      <trkpt lat="42.507290" lon="2.131050">
        <ele>1498.0</ele>
      </trkpt>
      <trkpt lat="42.507320" lon="2.130920">
        <ele>1498.0</ele>
      </trkpt>
      <trkpt lat="42.507380" lon="2.130840">
        <ele>1499.0</ele>
      </trkpt>
      <trkpt lat="42.507470" lon="2.130790">
        <ele>1499.0</ele>
      </trkpt>
      <trkpt lat="42.507670" lon="2.130700">
        <ele>1499.0</ele>
      </trkpt>
      <trkpt lat="42.507780" lon="2.130620">
        <ele>1500.0</ele>
      </trkpt>
      <trkpt lat="42.507850" lon="2.130550">
        <ele>1500.0</ele>
      </trkpt>
      <trkpt lat="42.507920" lon="2.130460">
        <ele>1500.0</ele>
      </trkpt>
      <trkpt lat="42.507990" lon="2.130400">
        <ele>1500.0</ele>
      </trkpt>
      <trkpt lat="42.508060" lon="2.130340">
        <ele>1500.0</ele>
      </trkpt>
      <trkpt lat="42.508140" lon="2.130320">
        <ele>1501.0</ele>
      </trkpt>
      <trkpt lat="42.508320" lon="2.130310">
        <ele>1501.0</ele>
      </trkpt>
      <trkpt lat="42.508560" lon="2.130250">
        <ele>1501.0</ele>
      </trkpt>
      <trkpt lat="42.508900" lon="2.130230">
        <ele>1502.0</ele>
      </trkpt>
      <trkpt lat="42.508950" lon="2.130210">
        <ele>1503.0</ele>
      </trkpt>
      <trkpt lat="42.509010" lon="2.130160">
        <ele>1503.0</ele>
      </trkpt>
      <trkpt lat="42.509250" lon="2.129920">
        <ele>1504.0</ele>
      </trkpt>
      <trkpt lat="42.509510" lon="2.129690">
        <ele>1506.0</ele>
      </trkpt>
      <trkpt lat="42.509610" lon="2.129580">
        <ele>1507.0</ele>
      </trkpt>
      <trkpt lat="42.509650" lon="2.129540">
        <ele>1508.0</ele>
      </trkpt>
      <trkpt lat="42.509810" lon="2.129360">
        <ele>1509.0</ele>
      </trkpt>
      <trkpt lat="42.509870" lon="2.129310">
        <ele>1510.0</ele>
      </trkpt>
      <trkpt lat="42.509940" lon="2.129270">
        <ele>1510.0</ele>
      </trkpt>
      <trkpt lat="42.509980" lon="2.129260">
        <ele>1511.0</ele>
      </trkpt>
      <trkpt lat="42.510030" lon="2.129240">
        <ele>1511.0</ele>
      </trkpt>
      <trkpt lat="42.510110" lon="2.129250">
        <ele>1512.0</ele>
      </trkpt>
      <trkpt lat="42.510220" lon="2.129270">
        <ele>1512.0</ele>
      </trkpt>
      <trkpt lat="42.510330" lon="2.129260">
        <ele>1513.0</ele>
      </trkpt>
      <trkpt lat="42.510470" lon="2.129170">
        <ele>1513.0</ele>
      </trkpt>
      <trkpt lat="42.510670" lon="2.129040">
        <ele>1513.0</ele>
      </trkpt>
      <trkpt lat="42.510770" lon="2.128960">
        <ele>1513.0</ele>
      </trkpt>
      <trkpt lat="42.510820" lon="2.128900">
        <ele>1513.0</ele>
      </trkpt>
      <trkpt lat="42.510840" lon="2.128820">
        <ele>1513.0</ele>
      </trkpt>
      <trkpt lat="42.510820" lon="2.128470">
        <ele>1513.0</ele>
      </trkpt>
      <trkpt lat="42.510820" lon="2.128270">
        <ele>1513.0</ele>
      </trkpt>
      <trkpt lat="42.510850" lon="2.128150">
        <ele>1513.0</ele>
      </trkpt>
      <trkpt lat="42.510980" lon="2.127830">
        <ele>1513.0</ele>
      </trkpt>
      <trkpt lat="42.511020" lon="2.127670">
        <ele>1513.0</ele>
      </trkpt>
      <trkpt lat="42.511040" lon="2.127480">
        <ele>1513.0</ele>
      </trkpt>
      <trkpt lat="42.511080" lon="2.127240">
        <ele>1513.0</ele>
      </trkpt>
      <trkpt lat="42.511140" lon="2.127070">
        <ele>1513.0</ele>
      </trkpt>
      <trkpt lat="42.511250" lon="2.126750">
        <ele>1513.0</ele>
      </trkpt>
      <trkpt lat="42.511270" lon="2.126630">
        <ele>1514.0</ele>
      </trkpt>
      <trkpt lat="42.511270" lon="2.126500">
        <ele>1514.0</ele>
      </trkpt>
      <trkpt lat="42.511240" lon="2.126260">
        <ele>1514.0</ele>
      </trkpt>
      <trkpt lat="42.511180" lon="2.126060">
        <ele>1515.0</ele>
      </trkpt>
      <trkpt lat="42.511090" lon="2.125850">
        <ele>1516.0</ele>
      </trkpt>
      <trkpt lat="42.511060" lon="2.125720">
        <ele>1516.0</ele>
      </trkpt>
      <trkpt lat="42.510930" lon="2.125030">
        <ele>1517.0</ele>
      </trkpt>
      <trkpt lat="42.510910" lon="2.124880">
        <ele>1518.0</ele>
      </trkpt>
      <trkpt lat="42.510910" lon="2.124770">
        <ele>1519.0</ele>
      </trkpt>
      <trkpt lat="42.510940" lon="2.124660">
        <ele>1519.0</ele>
      </trkpt>
      <trkpt lat="42.511000" lon="2.124510">
        <ele>1520.0</ele>
      </trkpt>
      <trkpt lat="42.511080" lon="2.124400">
        <ele>1521.0</ele>
      </trkpt>
      <trkpt lat="42.511150" lon="2.124340">
        <ele>1522.0</ele>
      </trkpt>
      <trkpt lat="42.511310" lon="2.124300">
        <ele>1523.0</ele>
      </trkpt>
      <trkpt lat="42.511380" lon="2.124260">
        <ele>1523.0</ele>
      </trkpt>
      <trkpt lat="42.511650" lon="2.124010">
        <ele>1525.0</ele>
      </trkpt>
      <trkpt lat="42.511880" lon="2.123880">
        <ele>1526.0</ele>
      </trkpt>
      <trkpt lat="42.511970" lon="2.123800">
        <ele>1528.0</ele>
      </trkpt>
      <trkpt lat="42.512040" lon="2.123670">
        <ele>1529.0</ele>
      </trkpt>
      <trkpt lat="42.512170" lon="2.123290">
        <ele>1530.0</ele>
      </trkpt>
      <trkpt lat="42.512210" lon="2.123060">
        <ele>1531.0</ele>
      </trkpt>
      <trkpt lat="42.512210" lon="2.122990">
        <ele>1532.0</ele>
      </trkpt>
      <trkpt lat="42.512200" lon="2.122940">
        <ele>1533.0</ele>
      </trkpt>
      <trkpt lat="42.512160" lon="2.122820">
        <ele>1533.0</ele>
      </trkpt>
      <trkpt lat="42.512080" lon="2.122730">
        <ele>1533.0</ele>
      </trkpt>
      <trkpt lat="42.511860" lon="2.122520">
        <ele>1534.0</ele>
      </trkpt>
      <trkpt lat="42.511800" lon="2.122490">
        <ele>1534.0</ele>
      </trkpt>
      <trkpt lat="42.511730" lon="2.122470">
        <ele>1534.0</ele>
      </trkpt>
      <trkpt lat="42.511660" lon="2.122490">
        <ele>1534.0</ele>
      </trkpt>
      <trkpt lat="42.511590" lon="2.122540">
        <ele>1534.0</ele>
      </trkpt>
      <trkpt lat="42.511060" lon="2.123120">
        <ele>1535.0</ele>
      </trkpt>
      <trkpt lat="42.510990" lon="2.123190">
        <ele>1535.0</ele>
      </trkpt>
      <trkpt lat="42.510920" lon="2.123230">
        <ele>1535.0</ele>
      </trkpt>
      <trkpt lat="42.510840" lon="2.123240">
        <ele>1535.0</ele>
      </trkpt>
      <trkpt lat="42.510730" lon="2.123230">
        <ele>1536.0</ele>
      </trkpt>
      <trkpt lat="42.510510" lon="2.123170">
        <ele>1537.0</ele>
      </trkpt>
      <trkpt lat="42.510350" lon="2.123140">
        <ele>1538.0</ele>
      </trkpt>
      <trkpt lat="42.510240" lon="2.123170">
        <ele>1539.0</ele>
      </trkpt>
      <trkpt lat="42.510150" lon="2.123240">
        <ele>1539.0</ele>
      </trkpt>
      <trkpt lat="42.509440" lon="2.124280">
        <ele>1542.0</ele>
      </trkpt>
      <trkpt lat="42.509340" lon="2.124450">
        <ele>1545.0</ele>
      </trkpt>
      <trkpt lat="42.509300" lon="2.124570">
        <ele>1546.0</ele>
      </trkpt>
      <trkpt lat="42.509280" lon="2.124670">
        <ele>1547.0</ele>
      </trkpt>
      <trkpt lat="42.509280" lon="2.124790">
        <ele>1548.0</ele>
      </trkpt>
      <trkpt lat="42.509320" lon="2.125380">
        <ele>1549.0</ele>
      </trkpt>
      <trkpt lat="42.509330" lon="2.125530">
        <ele>1550.0</ele>
      </trkpt>
      <trkpt lat="42.509310" lon="2.125630">
        <ele>1551.0</ele>
      </trkpt>
      <trkpt lat="42.509280" lon="2.125710">
        <ele>1551.0</ele>
      </trkpt>
      <trkpt lat="42.509230" lon="2.125760">
        <ele>1552.0</ele>
      </trkpt>
      <trkpt lat="42.509170" lon="2.125790">
        <ele>1552.0</ele>
      </trkpt>
      <trkpt lat="42.509100" lon="2.125790">
        <ele>1552.0</ele>
      </trkpt>
      <trkpt lat="42.509040" lon="2.125760">
        <ele>1552.0</ele>
      </trkpt>
      <trkpt lat="42.508950" lon="2.125670">
        <ele>1553.0</ele>
      </trkpt>
      <trkpt lat="42.508880" lon="2.125540">
        <ele>1553.0</ele>
      </trkpt>
      <trkpt lat="42.508760" lon="2.125270">
        <ele>1554.0</ele>
      </trkpt>
      <trkpt lat="42.508690" lon="2.125150">
        <ele>1554.0</ele>
      </trkpt>
      <trkpt lat="42.508610" lon="2.125050">
        <ele>1555.0</ele>
      </trkpt>
      <trkpt lat="42.508550" lon="2.124990">
        <ele>1555.0</ele>
      </trkpt>
      <trkpt lat="42.508480" lon="2.124930">
        <ele>1556.0</ele>
      </trkpt>
      <trkpt lat="42.508340" lon="2.124850">
        <ele>1557.0</ele>
      </trkpt>
      <trkpt lat="42.508220" lon="2.124780">
        <ele>1557.0</ele>
      </trkpt>
      <trkpt lat="42.508100" lon="2.124660">
        <ele>1558.0</ele>
      </trkpt>
      <trkpt lat="42.507990" lon="2.124520">
        <ele>1559.0</ele>
      </trkpt>
      <trkpt lat="42.507920" lon="2.124440">
        <ele>1560.0</ele>
      </trkpt>
      <trkpt lat="42.507830" lon="2.124350">
        <ele>1561.0</ele>
      </trkpt>
      <trkpt lat="42.507730" lon="2.124280">
        <ele>1562.0</ele>
      </trkpt>
      <trkpt lat="42.507630" lon="2.124200">
        <ele>1562.0</ele>
      </trkpt>
      <trkpt lat="42.507540" lon="2.124120">
        <ele>1563.0</ele>
      </trkpt>
      <trkpt lat="42.507470" lon="2.124020">
        <ele>1564.0</ele>
      </trkpt>
      <trkpt lat="42.507410" lon="2.123890">
        <ele>1565.0</ele>
      </trkpt>
      <trkpt lat="42.507330" lon="2.123630">
        <ele>1566.0</ele>
      </trkpt>
      <trkpt lat="42.507260" lon="2.123390">
        <ele>1566.0</ele>
      </trkpt>
      <trkpt lat="42.507210" lon="2.123280">
        <ele>1566.0</ele>
      </trkpt>
      <trkpt lat="42.507150" lon="2.123160">
        <ele>1567.0</ele>
      </trkpt>
      <trkpt lat="42.507060" lon="2.123030">
        <ele>1567.0</ele>
      </trkpt>
      <trkpt lat="42.506860" lon="2.122830">
        <ele>1567.0</ele>
      </trkpt>
      <trkpt lat="42.506750" lon="2.122660">
        <ele>1567.0</ele>
      </trkpt>
      <trkpt lat="42.506730" lon="2.122540">
        <ele>1567.0</ele>
      </trkpt>
      <trkpt lat="42.506710" lon="2.122450">
        <ele>1566.0</ele>
      </trkpt>
      <trkpt lat="42.506720" lon="2.122290">
        <ele>1566.0</ele>
      </trkpt>
      <trkpt lat="42.506730" lon="2.122090">
        <ele>1566.0</ele>
      </trkpt>
      <trkpt lat="42.506720" lon="2.121920">
        <ele>1566.0</ele>
      </trkpt>
      <trkpt lat="42.506720" lon="2.121840">
        <ele>1566.0</ele>
      </trkpt>
      <trkpt lat="42.506690" lon="2.121650">
        <ele>1566.0</ele>
      </trkpt>
      <trkpt lat="42.506670" lon="2.121540">
        <ele>1566.0</ele>
      </trkpt>
      <trkpt lat="42.506660" lon="2.121470">
        <ele>1566.0</ele>
      </trkpt>
      <trkpt lat="42.506630" lon="2.121230">
        <ele>1566.0</ele>
      </trkpt>
      <trkpt lat="42.506630" lon="2.121100">
        <ele>1566.0</ele>
      </trkpt>
      <trkpt lat="42.506650" lon="2.120990">
        <ele>1566.0</ele>
      </trkpt>
      <trkpt lat="42.506680" lon="2.120870">
        <ele>1566.0</ele>
      </trkpt>
      <trkpt lat="42.506730" lon="2.120770">
        <ele>1566.0</ele>
      </trkpt>
      <trkpt lat="42.506780" lon="2.120690">
        <ele>1567.0</ele>
      </trkpt>
      <trkpt lat="42.507160" lon="2.120220">
        <ele>1567.0</ele>
      </trkpt>
      <trkpt lat="42.507330" lon="2.119980">
        <ele>1568.0</ele>
      </trkpt>
      <trkpt lat="42.507360" lon="2.119930">
        <ele>1568.0</ele>
      </trkpt>
      <trkpt lat="42.507440" lon="2.119770">
        <ele>1568.0</ele>
      </trkpt>
      <trkpt lat="42.507510" lon="2.119590">
        <ele>1569.0</ele>
      </trkpt>
      <trkpt lat="42.507640" lon="2.119000">
        <ele>1569.0</ele>
      </trkpt>
      <trkpt lat="42.507690" lon="2.118890">
        <ele>1570.0</ele>
      </trkpt>
      <trkpt lat="42.507740" lon="2.118800">
        <ele>1570.0</ele>
      </trkpt>
      <trkpt lat="42.507850" lon="2.118640">
        <ele>1571.0</ele>
      </trkpt>
      <trkpt lat="42.508130" lon="2.118340">
        <ele>1571.0</ele>
      </trkpt>
      <trkpt lat="42.508240" lon="2.118180">
        <ele>1571.0</ele>
      </trkpt>
      <trkpt lat="42.508350" lon="2.117990">
        <ele>1572.0</ele>
      </trkpt>
      <trkpt lat="42.508440" lon="2.117770">
        <ele>1572.0</ele>
      </trkpt>
      <trkpt lat="42.508670" lon="2.117180">
        <ele>1573.0</ele>
      </trkpt>
      <trkpt lat="42.508720" lon="2.117010">
        <ele>1573.0</ele>
      </trkpt>
      <trkpt lat="42.508740" lon="2.116910">
        <ele>1574.0</ele>
      </trkpt>
      <trkpt lat="42.508740" lon="2.116800">
        <ele>1574.0</ele>
      </trkpt>
      <trkpt lat="42.508730" lon="2.116710">
        <ele>1575.0</ele>
      </trkpt>
      <trkpt lat="42.508700" lon="2.116600">
        <ele>1575.0</ele>
      </trkpt>
      <trkpt lat="42.508640" lon="2.116470">
        <ele>1575.0</ele>
      </trkpt>
      <trkpt lat="42.508550" lon="2.116370">
        <ele>1575.0</ele>
      </trkpt>
      <trkpt lat="42.508460" lon="2.116300">
        <ele>1576.0</ele>
      </trkpt>
      <trkpt lat="42.508390" lon="2.116270">
        <ele>1576.0</ele>
      </trkpt>
      <trkpt lat="42.508250" lon="2.116220">
        <ele>1576.0</ele>
      </trkpt>
      <trkpt lat="42.508080" lon="2.116190">
        <ele>1577.0</ele>
      </trkpt>
      <trkpt lat="42.507870" lon="2.116110">
        <ele>1577.0</ele>
      </trkpt>
      <trkpt lat="42.507760" lon="2.116070">
        <ele>1577.0</ele>
      </trkpt>
      <trkpt lat="42.507700" lon="2.116040">
        <ele>1578.0</ele>
      </trkpt>
      <trkpt lat="42.507610" lon="2.115980">
        <ele>1578.0</ele>
      </trkpt>
      <trkpt lat="42.507570" lon="2.115880">
        <ele>1578.0</ele>
      </trkpt>
      <trkpt lat="42.507540" lon="2.115790">
        <ele>1579.0</ele>
      </trkpt>
      <trkpt lat="42.507530" lon="2.115740">
        <ele>1579.0</ele>
      </trkpt>
      <trkpt lat="42.507540" lon="2.115700">
        <ele>1579.0</ele>
      </trkpt>
      <trkpt lat="42.507550" lon="2.115650">
        <ele>1579.0</ele>
      </trkpt>
      <trkpt lat="42.507540" lon="2.115590">
        <ele>1579.0</ele>
      </trkpt>
      <trkpt lat="42.507510" lon="2.115530">
        <ele>1579.0</ele>
      </trkpt>
      <trkpt lat="42.507480" lon="2.115490">
        <ele>1579.0</ele>
      </trkpt>
      <trkpt lat="42.507450" lon="2.115470">
        <ele>1579.0</ele>
      </trkpt>
      <trkpt lat="42.507410" lon="2.115460">
        <ele>1579.0</ele>
      </trkpt>
      <trkpt lat="42.507370" lon="2.115460">
        <ele>1579.0</ele>
      </trkpt>
      <trkpt lat="42.507330" lon="2.115480">
        <ele>1579.0</ele>
      </trkpt>
      <trkpt lat="42.507250" lon="2.115460">
        <ele>1579.0</ele>
      </trkpt>
      <trkpt lat="42.507180" lon="2.115410">
        <ele>1579.0</ele>
      </trkpt>
      <trkpt lat="42.507110" lon="2.115320">
        <ele>1579.0</ele>
      </trkpt>
      <trkpt lat="42.507040" lon="2.115210">
        <ele>1579.0</ele>
      </trkpt>
      <trkpt lat="42.506980" lon="2.114980">
        <ele>1579.0</ele>
      </trkpt>
      <trkpt lat="42.506910" lon="2.114760">
        <ele>1579.0</ele>
      </trkpt>
      <trkpt lat="42.506830" lon="2.114400">
        <ele>1579.0</ele>
      </trkpt>
      <trkpt lat="42.506790" lon="2.114140">
        <ele>1578.0</ele>
      </trkpt>
      <trkpt lat="42.506770" lon="2.113960">
        <ele>1578.0</ele>
      </trkpt>
      <trkpt lat="42.506760" lon="2.113700">
        <ele>1578.0</ele>
      </trkpt>
      <trkpt lat="42.506740" lon="2.113540">
        <ele>1578.0</ele>
      </trkpt>
      <trkpt lat="42.506690" lon="2.113330">
        <ele>1578.0</ele>
      </trkpt>
      <trkpt lat="42.506620" lon="2.113140">
        <ele>1577.0</ele>
      </trkpt>
      <trkpt lat="42.506560" lon="2.113020">
        <ele>1577.0</ele>
      </trkpt>
      <trkpt lat="42.506440" lon="2.112830">
        <ele>1577.0</ele>
      </trkpt>
      <trkpt lat="42.506160" lon="2.112450">
        <ele>1577.0</ele>
      </trkpt>
      <trkpt lat="42.506030" lon="2.112300">
        <ele>1576.0</ele>
      </trkpt>
      <trkpt lat="42.505750" lon="2.112010">
        <ele>1576.0</ele>
      </trkpt>
      <trkpt lat="42.505650" lon="2.111870">
        <ele>1575.0</ele>
      </trkpt>
      <trkpt lat="42.505550" lon="2.111690">
        <ele>1575.0</ele>
      </trkpt>
      <trkpt lat="42.505470" lon="2.111500">
        <ele>1575.0</ele>
      </trkpt>
      <trkpt lat="42.505430" lon="2.111300">
        <ele>1575.0</ele>
      </trkpt>
      <trkpt lat="42.505380" lon="2.111010">
        <ele>1574.0</ele>
      </trkpt>
      <trkpt lat="42.505350" lon="2.110780">
        <ele>1574.0</ele>
      </trkpt>
      <trkpt lat="42.505310" lon="2.110620">
        <ele>1574.0</ele>
      </trkpt>
      <trkpt lat="42.505230" lon="2.110450">
        <ele>1573.0</ele>
      </trkpt>
      <trkpt lat="42.505060" lon="2.110200">
        <ele>1573.0</ele>
      </trkpt>
      <trkpt lat="42.504940" lon="2.110000">
        <ele>1573.0</ele>
      </trkpt>
      <trkpt lat="42.504870" lon="2.109820">
        <ele>1573.0</ele>
      </trkpt>
      <trkpt lat="42.504830" lon="2.109650">
        <ele>1572.0</ele>
      </trkpt>
      <trkpt lat="42.504800" lon="2.109410">
        <ele>1572.0</ele>
      </trkpt>
      <trkpt lat="42.504810" lon="2.109180">
        <ele>1572.0</ele>
      </trkpt>
      <trkpt lat="42.504840" lon="2.108790">
        <ele>1572.0</ele>
      </trkpt>
      <trkpt lat="42.504840" lon="2.108460">
        <ele>1573.0</ele>
      </trkpt>
      <trkpt lat="42.504810" lon="2.108150">
        <ele>1573.0</ele>
      </trkpt>
      <trkpt lat="42.504730" lon="2.107530">
        <ele>1574.0</ele>
      </trkpt>
      <trkpt lat="42.504710" lon="2.107290">
        <ele>1574.0</ele>
      </trkpt>
      <trkpt lat="42.504710" lon="2.107070">
        <ele>1575.0</ele>
      </trkpt>
      <trkpt lat="42.504730" lon="2.106790">
        <ele>1575.0</ele>
      </trkpt>
      <trkpt lat="42.504800" lon="2.106240">
        <ele>1576.0</ele>
      </trkpt>
      <trkpt lat="42.504810" lon="2.105960">
        <ele>1576.0</ele>
      </trkpt>
      <trkpt lat="42.504790" lon="2.105730">
        <ele>1576.0</ele>
      </trkpt>
      <trkpt lat="42.504760" lon="2.105490">
        <ele>1576.0</ele>
      </trkpt>
      <trkpt lat="42.504690" lon="2.105210">
        <ele>1576.0</ele>
      </trkpt>
      <trkpt lat="42.504580" lon="2.104800">
        <ele>1576.0</ele>
      </trkpt>
      <trkpt lat="42.504500" lon="2.104490">
        <ele>1576.0</ele>
      </trkpt>
      <trkpt lat="42.504490" lon="2.104330">
        <ele>1576.0</ele>
      </trkpt>
      <trkpt lat="42.504470" lon="2.104130">
        <ele>1577.0</ele>
      </trkpt>
      <trkpt lat="42.504460" lon="2.103800">
        <ele>1577.0</ele>
      </trkpt>
      <trkpt lat="42.504430" lon="2.103480">
        <ele>1577.0</ele>
      </trkpt>
      <trkpt lat="42.504360" lon="2.103120">
        <ele>1577.0</ele>
      </trkpt>
      <trkpt lat="42.504280" lon="2.102900">
        <ele>1578.0</ele>
      </trkpt>
      <trkpt lat="42.503800" lon="2.101750">
        <ele>1578.0</ele>
      </trkpt>
      <trkpt lat="42.503220" lon="2.100380">
        <ele>1578.0</ele>
      </trkpt>
      <trkpt lat="42.503110" lon="2.100130">
        <ele>1578.0</ele>
      </trkpt>
      <trkpt lat="42.503010" lon="2.099980">
        <ele>1578.0</ele>
      </trkpt>
      <trkpt lat="42.502900" lon="2.099830">
        <ele>1577.0</ele>
      </trkpt>
      <trkpt lat="42.502740" lon="2.099660">
        <ele>1577.0</ele>
      </trkpt>
      <trkpt lat="42.502560" lon="2.099530">
        <ele>1577.0</ele>
      </trkpt>
      <trkpt lat="42.502420" lon="2.099460">
        <ele>1577.0</ele>
      </trkpt>
      <trkpt lat="42.502330" lon="2.099430">
        <ele>1577.0</ele>
      </trkpt>
      <trkpt lat="42.502060" lon="2.099370">
        <ele>1577.0</ele>
      </trkpt>
      <trkpt lat="42.501860" lon="2.099320">
        <ele>1577.0</ele>
      </trkpt>
      <trkpt lat="42.501660" lon="2.099260">
        <ele>1577.0</ele>
      </trkpt>
      <trkpt lat="42.501480" lon="2.099180">
        <ele>1577.0</ele>
      </trkpt>
      <trkpt lat="42.501350" lon="2.099100">
        <ele>1577.0</ele>
      </trkpt>
      <trkpt lat="42.501240" lon="2.098990">
        <ele>1577.0</ele>
      </trkpt>
      <trkpt lat="42.500360" lon="2.097930">
        <ele>1577.0</ele>
      </trkpt>
      <trkpt lat="42.500020" lon="2.097510">
        <ele>1576.0</ele>
      </trkpt>
      <trkpt lat="42.499930" lon="2.097340">
        <ele>1576.0</ele>
      </trkpt>
      <trkpt lat="42.499850" lon="2.097110">
        <ele>1576.0</ele>
      </trkpt>
      <trkpt lat="42.499790" lon="2.096930">
        <ele>1576.0</ele>
      </trkpt>
      <trkpt lat="42.499740" lon="2.096610">
        <ele>1576.0</ele>
      </trkpt>
      <trkpt lat="42.499710" lon="2.096230">
        <ele>1575.0</ele>
      </trkpt>
      <trkpt lat="42.499660" lon="2.095930">
        <ele>1575.0</ele>
      </trkpt>
      <trkpt lat="42.499590" lon="2.095710">
        <ele>1575.0</ele>
      </trkpt>
      <trkpt lat="42.499520" lon="2.095540">
        <ele>1575.0</ele>
      </trkpt>
      <trkpt lat="42.499410" lon="2.095330">
        <ele>1575.0</ele>
      </trkpt>
      <trkpt lat="42.499260" lon="2.095060">
        <ele>1575.0</ele>
      </trkpt>
      <trkpt lat="42.499200" lon="2.094960">
        <ele>1575.0</ele>
      </trkpt>
      <trkpt lat="42.499100" lon="2.094770">
        <ele>1575.0</ele>
      </trkpt>
      <trkpt lat="42.498990" lon="2.094610">
        <ele>1575.0</ele>
      </trkpt>
      <trkpt lat="42.498860" lon="2.094440">
        <ele>1575.0</ele>
      </trkpt>
      <trkpt lat="42.498740" lon="2.094330">
        <ele>1575.0</ele>
      </trkpt>
      <trkpt lat="42.498700" lon="2.094300">
        <ele>1575.0</ele>
      </trkpt>
      <trkpt lat="42.498640" lon="2.094250">
        <ele>1575.0</ele>
      </trkpt>
      <trkpt lat="42.498530" lon="2.094180">
        <ele>1575.0</ele>
      </trkpt>
      <trkpt lat="42.498400" lon="2.094120">
        <ele>1575.0</ele>
      </trkpt>
      <trkpt lat="42.498280" lon="2.094070">
        <ele>1575.0</ele>
      </trkpt>
      <trkpt lat="42.498170" lon="2.094040">
        <ele>1575.0</ele>
      </trkpt>
      <trkpt lat="42.498040" lon="2.094030">
        <ele>1575.0</ele>
      </trkpt>
      <trkpt lat="42.497920" lon="2.094030">
        <ele>1575.0</ele>
      </trkpt>
      <trkpt lat="42.497810" lon="2.094060">
        <ele>1576.0</ele>
      </trkpt>
      <trkpt lat="42.497700" lon="2.094090">
        <ele>1576.0</ele>
      </trkpt>
      <trkpt lat="42.497600" lon="2.094130">
        <ele>1576.0</ele>
      </trkpt>
      <trkpt lat="42.497440" lon="2.094170">
        <ele>1577.0</ele>
      </trkpt>
      <trkpt lat="42.497340" lon="2.094170">
        <ele>1577.0</ele>
      </trkpt>
      <trkpt lat="42.497270" lon="2.094170">
        <ele>1577.0</ele>
      </trkpt>
      <trkpt lat="42.497210" lon="2.094150">
        <ele>1578.0</ele>
      </trkpt>
      <trkpt lat="42.497120" lon="2.094110">
        <ele>1578.0</ele>
      </trkpt>
      <trkpt lat="42.497030" lon="2.094050">
        <ele>1578.0</ele>
      </trkpt>
      <trkpt lat="42.496950" lon="2.093950">
        <ele>1579.0</ele>
      </trkpt>
      <trkpt lat="42.496880" lon="2.093840">
        <ele>1579.0</ele>
      </trkpt>
      <trkpt lat="42.496790" lon="2.093500">
        <ele>1580.0</ele>
      </trkpt>
      <trkpt lat="42.496620" lon="2.092860">
        <ele>1581.0</ele>
      </trkpt>
      <trkpt lat="42.496580" lon="2.092700">
        <ele>1581.0</ele>
      </trkpt>
      <trkpt lat="42.496470" lon="2.092340">
        <ele>1581.0</ele>
      </trkpt>
      <trkpt lat="42.496450" lon="2.092270">
        <ele>1581.0</ele>
      </trkpt>
      <trkpt lat="42.496360" lon="2.091930">
        <ele>1580.0</ele>
      </trkpt>
      <trkpt lat="42.495060" lon="2.086910">
        <ele>1574.0</ele>
      </trkpt>
      <trkpt lat="42.495000" lon="2.086590">
        <ele>1569.0</ele>
      </trkpt>
      <trkpt lat="42.494970" lon="2.086360">
        <ele>1565.0</ele>
      </trkpt>
      <trkpt lat="42.494960" lon="2.086110">
        <ele>1563.0</ele>
      </trkpt>
      <trkpt lat="42.494970" lon="2.084990">
        <ele>1560.0</ele>
      </trkpt>
      <trkpt lat="42.494960" lon="2.084770">
        <ele>1557.0</ele>
      </trkpt>
      <trkpt lat="42.494950" lon="2.084540">
        <ele>1556.0</ele>
      </trkpt>
      <trkpt lat="42.494880" lon="2.083870">
        <ele>1554.0</ele>
      </trkpt>
      <trkpt lat="42.494820" lon="2.083240">
        <ele>1551.0</ele>
      </trkpt>
      <trkpt lat="42.494570" lon="2.080780">
        <ele>1547.0</ele>
      </trkpt>
      <trkpt lat="42.494540" lon="2.080510">
        <ele>1544.0</ele>
      </trkpt>
      <trkpt lat="42.494520" lon="2.080360">
        <ele>1542.0</ele>
      </trkpt>
      <trkpt lat="42.494490" lon="2.080200">
        <ele>1541.0</ele>
      </trkpt>
      <trkpt lat="42.494440" lon="2.079980">
        <ele>1540.0</ele>
      </trkpt>
      <trkpt lat="42.494380" lon="2.079800">
        <ele>1539.0</ele>
      </trkpt>
      <trkpt lat="42.494320" lon="2.079670">
        <ele>1538.0</ele>
      </trkpt>
      <trkpt lat="42.494230" lon="2.079530">
        <ele>1538.0</ele>
      </trkpt>
      <trkpt lat="42.494130" lon="2.079410">
        <ele>1537.0</ele>
      </trkpt>
      <trkpt lat="42.493950" lon="2.079210">
        <ele>1537.0</ele>
      </trkpt>
      <trkpt lat="42.493820" lon="2.079090">
        <ele>1537.0</ele>
      </trkpt>
      <trkpt lat="42.493670" lon="2.078970">
        <ele>1536.0</ele>
      </trkpt>
      <trkpt lat="42.493520" lon="2.078840">
        <ele>1536.0</ele>
      </trkpt>
      <trkpt lat="42.493400" lon="2.078690">
        <ele>1536.0</ele>
      </trkpt>
      <trkpt lat="42.493260" lon="2.078460">
        <ele>1535.0</ele>
      </trkpt>
      <trkpt lat="42.492870" lon="2.077720">
        <ele>1535.0</ele>
      </trkpt>
      <trkpt lat="42.492570" lon="2.077180">
        <ele>1534.0</ele>
      </trkpt>
      <trkpt lat="42.492470" lon="2.077040">
        <ele>1533.0</ele>
      </trkpt>
      <trkpt lat="42.492340" lon="2.076900">
        <ele>1533.0</ele>
      </trkpt>
      <trkpt lat="42.492230" lon="2.076810">
        <ele>1532.0</ele>
      </trkpt>
      <trkpt lat="42.491990" lon="2.076610">
        <ele>1531.0</ele>
      </trkpt>
      <trkpt lat="42.491860" lon="2.076470">
        <ele>1530.0</ele>
      </trkpt>
      <trkpt lat="42.491780" lon="2.076360">
        <ele>1529.0</ele>
      </trkpt>
      <trkpt lat="42.491710" lon="2.076230">
        <ele>1528.0</ele>
      </trkpt>
      <trkpt lat="42.491640" lon="2.076090">
        <ele>1527.0</ele>
      </trkpt>
      <trkpt lat="42.491580" lon="2.075950">
        <ele>1526.0</ele>
      </trkpt>
      <trkpt lat="42.491500" lon="2.075720">
        <ele>1526.0</ele>
      </trkpt>
      <trkpt lat="42.491220" lon="2.074700">
        <ele>1523.0</ele>
      </trkpt>
      <trkpt lat="42.490930" lon="2.073690">
        <ele>1520.0</ele>
      </trkpt>
      <trkpt lat="42.490770" lon="2.073170">
        <ele>1517.0</ele>
      </trkpt>
      <trkpt lat="42.490690" lon="2.072980">
        <ele>1515.0</ele>
      </trkpt>
      <trkpt lat="42.490590" lon="2.072790">
        <ele>1514.0</ele>
      </trkpt>
      <trkpt lat="42.490470" lon="2.072630">
        <ele>1512.0</ele>
      </trkpt>
      <trkpt lat="42.490340" lon="2.072480">
        <ele>1511.0</ele>
      </trkpt>
      <trkpt lat="42.490160" lon="2.072300">
        <ele>1510.0</ele>
      </trkpt>
      <trkpt lat="42.490050" lon="2.072140">
        <ele>1509.0</ele>
      </trkpt>
      <trkpt lat="42.489980" lon="2.071990">
        <ele>1508.0</ele>
      </trkpt>
      <trkpt lat="42.489910" lon="2.071760">
        <ele>1507.0</ele>
      </trkpt>
      <trkpt lat="42.489880" lon="2.071550">
        <ele>1506.0</ele>
      </trkpt>
      <trkpt lat="42.489870" lon="2.071290">
        <ele>1505.0</ele>
      </trkpt>
      <trkpt lat="42.489870" lon="2.071010">
        <ele>1504.0</ele>
      </trkpt>
      <trkpt lat="42.489870" lon="2.070670">
        <ele>1503.0</ele>
      </trkpt>
      <trkpt lat="42.489840" lon="2.070470">
        <ele>1502.0</ele>
      </trkpt>
      <trkpt lat="42.489800" lon="2.070320">
        <ele>1501.0</ele>
      </trkpt>
      <trkpt lat="42.489760" lon="2.070200">
        <ele>1500.0</ele>
      </trkpt>
      <trkpt lat="42.489630" lon="2.069990">
        <ele>1499.0</ele>
      </trkpt>
      <trkpt lat="42.489390" lon="2.069660">
        <ele>1498.0</ele>
      </trkpt>
      <trkpt lat="42.489310" lon="2.069560">
        <ele>1498.0</ele>
      </trkpt>
      <trkpt lat="42.489270" lon="2.069470">
        <ele>1497.0</ele>
      </trkpt>
      <trkpt lat="42.489210" lon="2.069370">
        <ele>1497.0</ele>
      </trkpt>
      <trkpt lat="42.489160" lon="2.069200">
        <ele>1496.0</ele>
      </trkpt>
      <trkpt lat="42.489120" lon="2.069060">
        <ele>1496.0</ele>
      </trkpt>
      <trkpt lat="42.489010" lon="2.068590">
        <ele>1495.0</ele>
      </trkpt>
      <trkpt lat="42.488970" lon="2.068450">
        <ele>1494.0</ele>
      </trkpt>
      <trkpt lat="42.488910" lon="2.068320">
        <ele>1494.0</ele>
      </trkpt>
      <trkpt lat="42.488820" lon="2.068170">
        <ele>1493.0</ele>
      </trkpt>
      <trkpt lat="42.488740" lon="2.068060">
        <ele>1493.0</ele>
      </trkpt>
      <trkpt lat="42.488590" lon="2.067910">
        <ele>1492.0</ele>
      </trkpt>
      <trkpt lat="42.487610" lon="2.066940">
        <ele>1490.0</ele>
      </trkpt>
      <trkpt lat="42.487490" lon="2.066820">
        <ele>1489.0</ele>
      </trkpt>
      <trkpt lat="42.487360" lon="2.066630">
        <ele>1487.0</ele>
      </trkpt>
      <trkpt lat="42.487300" lon="2.066460">
        <ele>1486.0</ele>
      </trkpt>
      <trkpt lat="42.487230" lon="2.066070">
        <ele>1486.0</ele>
      </trkpt>
      <trkpt lat="42.487200" lon="2.065930">
        <ele>1485.0</ele>
      </trkpt>
      <trkpt lat="42.487130" lon="2.065790">
        <ele>1485.0</ele>
      </trkpt>
      <trkpt lat="42.487010" lon="2.065640">
        <ele>1484.0</ele>
      </trkpt>
      <trkpt lat="42.486730" lon="2.065330">
        <ele>1484.0</ele>
      </trkpt>
      <trkpt lat="42.486640" lon="2.065180">
        <ele>1484.0</ele>
      </trkpt>
      <trkpt lat="42.486560" lon="2.065010">
        <ele>1484.0</ele>
      </trkpt>
      <trkpt lat="42.486410" lon="2.064570">
        <ele>1483.0</ele>
      </trkpt>
      <trkpt lat="42.486360" lon="2.064380">
        <ele>1483.0</ele>
      </trkpt>
      <trkpt lat="42.486350" lon="2.064190">
        <ele>1482.0</ele>
      </trkpt>
      <trkpt lat="42.486370" lon="2.063990">
        <ele>1482.0</ele>
      </trkpt>
      <trkpt lat="42.486380" lon="2.063830">
        <ele>1481.0</ele>
      </trkpt>
      <trkpt lat="42.486360" lon="2.063650">
        <ele>1480.0</ele>
      </trkpt>
      <trkpt lat="42.486290" lon="2.063170">
        <ele>1478.0</ele>
      </trkpt>
      <trkpt lat="42.486250" lon="2.062970">
        <ele>1476.0</ele>
      </trkpt>
      <trkpt lat="42.486180" lon="2.062770">
        <ele>1475.0</ele>
      </trkpt>
      <trkpt lat="42.486080" lon="2.062600">
        <ele>1473.0</ele>
      </trkpt>
      <trkpt lat="42.486000" lon="2.062420">
        <ele>1472.0</ele>
      </trkpt>
      <trkpt lat="42.485970" lon="2.062290">
        <ele>1471.0</ele>
      </trkpt>
      <trkpt lat="42.485950" lon="2.062130">
        <ele>1469.0</ele>
      </trkpt>
      <trkpt lat="42.485960" lon="2.061750">
        <ele>1468.0</ele>
      </trkpt>
      <trkpt lat="42.485950" lon="2.061360">
        <ele>1467.0</ele>
      </trkpt>
      <trkpt lat="42.485950" lon="2.061230">
        <ele>1466.0</ele>
      </trkpt>
      <trkpt lat="42.485910" lon="2.061080">
        <ele>1465.0</ele>
      </trkpt>
      <trkpt lat="42.485860" lon="2.060950">
        <ele>1465.0</ele>
      </trkpt>
      <trkpt lat="42.485790" lon="2.060850">
        <ele>1465.0</ele>
      </trkpt>
      <trkpt lat="42.485710" lon="2.060760">
        <ele>1464.0</ele>
      </trkpt>
      <trkpt lat="42.485620" lon="2.060720">
        <ele>1464.0</ele>
      </trkpt>
      <trkpt lat="42.485520" lon="2.060730">
        <ele>1464.0</ele>
      </trkpt>
      <trkpt lat="42.485470" lon="2.060740">
        <ele>1464.0</ele>
      </trkpt>
      <trkpt lat="42.485420" lon="2.060790">
        <ele>1464.0</ele>
      </trkpt>
      <trkpt lat="42.485360" lon="2.060860">
        <ele>1464.0</ele>
      </trkpt>
      <trkpt lat="42.485320" lon="2.060960">
        <ele>1464.0</ele>
      </trkpt>
      <trkpt lat="42.485250" lon="2.061150">
        <ele>1464.0</ele>
      </trkpt>
      <trkpt lat="42.485170" lon="2.061390">
        <ele>1464.0</ele>
      </trkpt>
      <trkpt lat="42.485100" lon="2.061520">
        <ele>1464.0</ele>
      </trkpt>
      <trkpt lat="42.485010" lon="2.061590">
        <ele>1464.0</ele>
      </trkpt>
      <trkpt lat="42.484950" lon="2.061470">
        <ele>1463.0</ele>
      </trkpt>
      <trkpt lat="42.484910" lon="2.061340">
        <ele>1463.0</ele>
      </trkpt>
      <trkpt lat="42.484930" lon="2.061260">
        <ele>1462.0</ele>
      </trkpt>
      <trkpt lat="42.485010" lon="2.061110">
        <ele>1462.0</ele>
      </trkpt>
      <trkpt lat="42.485130" lon="2.060920">
        <ele>1461.0</ele>
      </trkpt>
      <trkpt lat="42.485180" lon="2.060790">
        <ele>1460.0</ele>
      </trkpt>
      <trkpt lat="42.485220" lon="2.060630">
        <ele>1459.0</ele>
      </trkpt>
      <trkpt lat="42.485260" lon="2.060420">
        <ele>1458.0</ele>
      </trkpt>
      <trkpt lat="42.485300" lon="2.060180">
        <ele>1456.0</ele>
      </trkpt>
      <trkpt lat="42.485350" lon="2.060040">
        <ele>1455.0</ele>
      </trkpt>
      <trkpt lat="42.485440" lon="2.059840">
        <ele>1454.0</ele>
      </trkpt>
      <trkpt lat="42.485520" lon="2.059660">
        <ele>1453.0</ele>
      </trkpt>
      <trkpt lat="42.485570" lon="2.059490">
        <ele>1452.0</ele>
      </trkpt>
      <trkpt lat="42.485600" lon="2.059340">
        <ele>1451.0</ele>
      </trkpt>
      <trkpt lat="42.485620" lon="2.059210">
        <ele>1450.0</ele>
      </trkpt>
      <trkpt lat="42.485620" lon="2.059100">
        <ele>1449.0</ele>
      </trkpt>
      <trkpt lat="42.485610" lon="2.059020">
        <ele>1449.0</ele>
      </trkpt>
      <trkpt lat="42.485580" lon="2.058830">
        <ele>1449.0</ele>
      </trkpt>
      <trkpt lat="42.485550" lon="2.058640">
        <ele>1449.0</ele>
      </trkpt>
      <trkpt lat="42.485540" lon="2.058480">
        <ele>1449.0</ele>
      </trkpt>
      <trkpt lat="42.485540" lon="2.058320">
        <ele>1449.0</ele>
      </trkpt>
      <trkpt lat="42.485570" lon="2.057990">
        <ele>1449.0</ele>
      </trkpt>
      <trkpt lat="42.485590" lon="2.057740">
        <ele>1449.0</ele>
      </trkpt>
      <trkpt lat="42.485600" lon="2.057360">
        <ele>1449.0</ele>
      </trkpt>
      <trkpt lat="42.485590" lon="2.057070">
        <ele>1449.0</ele>
      </trkpt>
      <trkpt lat="42.485600" lon="2.056900">
        <ele>1449.0</ele>
      </trkpt>
      <trkpt lat="42.485610" lon="2.056620">
        <ele>1449.0</ele>
      </trkpt>
      <trkpt lat="42.485650" lon="2.056400">
        <ele>1449.0</ele>
      </trkpt>
      <trkpt lat="42.485660" lon="2.056280">
        <ele>1450.0</ele>
      </trkpt>
      <trkpt lat="42.485660" lon="2.056120">
        <ele>1450.0</ele>
      </trkpt>
      <trkpt lat="42.485640" lon="2.055990">
        <ele>1451.0</ele>
      </trkpt>
      <trkpt lat="42.485620" lon="2.055830">
        <ele>1451.0</ele>
      </trkpt>
      <trkpt lat="42.485620" lon="2.055700">
        <ele>1452.0</ele>
      </trkpt>
      <trkpt lat="42.485640" lon="2.055470">
        <ele>1452.0</ele>
      </trkpt>
      <trkpt lat="42.485640" lon="2.055320">
        <ele>1453.0</ele>
      </trkpt>
      <trkpt lat="42.485630" lon="2.055150">
        <ele>1453.0</ele>
      </trkpt>
      <trkpt lat="42.485610" lon="2.054980">
        <ele>1454.0</ele>
      </trkpt>
      <trkpt lat="42.485570" lon="2.054780">
        <ele>1454.0</ele>
      </trkpt>
      <trkpt lat="42.485550" lon="2.054640">
        <ele>1455.0</ele>
      </trkpt>
      <trkpt lat="42.485540" lon="2.054510">
        <ele>1455.0</ele>
      </trkpt>
      <trkpt lat="42.485570" lon="2.054210">
        <ele>1456.0</ele>
      </trkpt>
      <trkpt lat="42.485580" lon="2.054000">
        <ele>1457.0</ele>
      </trkpt>
      <trkpt lat="42.485610" lon="2.053650">
        <ele>1458.0</ele>
      </trkpt>
      <trkpt lat="42.485640" lon="2.053290">
        <ele>1459.0</ele>
      </trkpt>
      <trkpt lat="42.485660" lon="2.053100">
        <ele>1460.0</ele>
      </trkpt>
      <trkpt lat="42.485670" lon="2.052940">
        <ele>1462.0</ele>
      </trkpt>
      <trkpt lat="42.485720" lon="2.052850">
        <ele>1462.0</ele>
      </trkpt>
      <trkpt lat="42.485770" lon="2.052780">
        <ele>1463.0</ele>
      </trkpt>
      <trkpt lat="42.485850" lon="2.052740">
        <ele>1464.0</ele>
      </trkpt>
      <trkpt lat="42.485920" lon="2.052730">
        <ele>1464.0</ele>
      </trkpt>
      <trkpt lat="42.486000" lon="2.052750">
        <ele>1465.0</ele>
      </trkpt>
      <trkpt lat="42.486120" lon="2.052810">
        <ele>1466.0</ele>
      </trkpt>
      <trkpt lat="42.486330" lon="2.052920">
        <ele>1467.0</ele>
      </trkpt>
      <trkpt lat="42.486480" lon="2.052970">
        <ele>1468.0</ele>
      </trkpt>
      <trkpt lat="42.486610" lon="2.053000">
        <ele>1469.0</ele>
      </trkpt>
      <trkpt lat="42.486710" lon="2.052990">
        <ele>1469.0</ele>
      </trkpt>
      <trkpt lat="42.486810" lon="2.052950">
        <ele>1470.0</ele>
      </trkpt>
      <trkpt lat="42.486880" lon="2.052860">
        <ele>1471.0</ele>
      </trkpt>
      <trkpt lat="42.486910" lon="2.052830">
        <ele>1472.0</ele>
      </trkpt>
      <trkpt lat="42.487010" lon="2.052730">
        <ele>1472.0</ele>
      </trkpt>
      <trkpt lat="42.487080" lon="2.052680">
        <ele>1473.0</ele>
      </trkpt>
      <trkpt lat="42.487180" lon="2.052620">
        <ele>1474.0</ele>
      </trkpt>
      <trkpt lat="42.487270" lon="2.052560">
        <ele>1475.0</ele>
      </trkpt>
      <trkpt lat="42.487410" lon="2.052470">
        <ele>1475.0</ele>
      </trkpt>
      <trkpt lat="42.487490" lon="2.052440">
        <ele>1476.0</ele>
      </trkpt>
      <trkpt lat="42.487560" lon="2.052430">
        <ele>1477.0</ele>
      </trkpt>
      <trkpt lat="42.487620" lon="2.052440">
        <ele>1478.0</ele>
      </trkpt>
      <trkpt lat="42.487830" lon="2.052530">
        <ele>1479.0</ele>
      </trkpt>
      <trkpt lat="42.487930" lon="2.052570">
        <ele>1479.0</ele>
      </trkpt>
      <trkpt lat="42.488060" lon="2.052580">
        <ele>1480.0</ele>
      </trkpt>
      <trkpt lat="42.488140" lon="2.052560">
        <ele>1481.0</ele>
      </trkpt>
      <trkpt lat="42.488220" lon="2.052510">
        <ele>1482.0</ele>
      </trkpt>
      <trkpt lat="42.488300" lon="2.052440">
        <ele>1483.0</ele>
      </trkpt>
      <trkpt lat="42.488420" lon="2.052250">
        <ele>1483.0</ele>
      </trkpt>
      <trkpt lat="42.488550" lon="2.052030">
        <ele>1483.0</ele>
      </trkpt>
      <trkpt lat="42.488650" lon="2.051890">
        <ele>1484.0</ele>
      </trkpt>
      <trkpt lat="42.488740" lon="2.051780">
        <ele>1484.0</ele>
      </trkpt>
      <trkpt lat="42.488800" lon="2.051680">
        <ele>1484.0</ele>
      </trkpt>
      <trkpt lat="42.488830" lon="2.051550">
        <ele>1485.0</ele>
      </trkpt>
      <trkpt lat="42.488840" lon="2.051430">
        <ele>1485.0</ele>
      </trkpt>
      <trkpt lat="42.488840" lon="2.051300">
        <ele>1485.0</ele>
      </trkpt>
      <trkpt lat="42.488800" lon="2.051140">
        <ele>1485.0</ele>
      </trkpt>
      <trkpt lat="42.488660" lon="2.050820">
        <ele>1485.0</ele>
      </trkpt>
      <trkpt lat="42.488550" lon="2.050590">
        <ele>1486.0</ele>
      </trkpt>
      <trkpt lat="42.488430" lon="2.050320">
        <ele>1486.0</ele>
      </trkpt>
      <trkpt lat="42.488250" lon="2.049920">
        <ele>1486.0</ele>
      </trkpt>
      <trkpt lat="42.488160" lon="2.049750">
        <ele>1487.0</ele>
      </trkpt>
      <trkpt lat="42.488030" lon="2.049560">
        <ele>1487.0</ele>
      </trkpt>
      <trkpt lat="42.487880" lon="2.049360">
        <ele>1488.0</ele>
      </trkpt>
      <trkpt lat="42.487830" lon="2.049180">
        <ele>1488.0</ele>
      </trkpt>
      <trkpt lat="42.487820" lon="2.049060">
        <ele>1489.0</ele>
      </trkpt>
      <trkpt lat="42.487820" lon="2.048960">
        <ele>1489.0</ele>
      </trkpt>
      <trkpt lat="42.487820" lon="2.048770">
        <ele>1489.0</ele>
      </trkpt>
      <trkpt lat="42.487830" lon="2.048600">
        <ele>1490.0</ele>
      </trkpt>
      <trkpt lat="42.487860" lon="2.048410">
        <ele>1490.0</ele>
      </trkpt>
      <trkpt lat="42.487950" lon="2.048150">
        <ele>1491.0</ele>
      </trkpt>
      <trkpt lat="42.488240" lon="2.047500">
        <ele>1492.0</ele>
      </trkpt>
      <trkpt lat="42.488340" lon="2.047290">
        <ele>1493.0</ele>
      </trkpt>
      <trkpt lat="42.488360" lon="2.047240">
        <ele>1494.0</ele>
      </trkpt>
      <trkpt lat="42.488360" lon="2.047240">
        <ele>1494.0</ele>
      </trkpt>
      <trkpt lat="42.488410" lon="2.047100">
        <ele>1495.0</ele>
      </trkpt>
      <trkpt lat="42.488490" lon="2.046740">
        <ele>1495.0</ele>
      </trkpt>
      <trkpt lat="42.488550" lon="2.046440">
        <ele>1496.0</ele>
      </trkpt>
      <trkpt lat="42.488560" lon="2.046300">
        <ele>1497.0</ele>
      </trkpt>
      <trkpt lat="42.488560" lon="2.046160">
        <ele>1498.0</ele>
      </trkpt>
      <trkpt lat="42.488530" lon="2.046000">
        <ele>1498.0</ele>
      </trkpt>
      <trkpt lat="42.488410" lon="2.045430">
        <ele>1499.0</ele>
      </trkpt>
      <trkpt lat="42.488260" lon="2.044870">
        <ele>1500.0</ele>
      </trkpt>
      <trkpt lat="42.488210" lon="2.044650">
        <ele>1501.0</ele>
      </trkpt>
      <trkpt lat="42.488190" lon="2.044480">
        <ele>1502.0</ele>
      </trkpt>
      <trkpt lat="42.488170" lon="2.044260">
        <ele>1503.0</ele>
      </trkpt>
      <trkpt lat="42.488170" lon="2.044000">
        <ele>1504.0</ele>
      </trkpt>
      <trkpt lat="42.488170" lon="2.043790">
        <ele>1504.0</ele>
      </trkpt>
      <trkpt lat="42.488210" lon="2.043350">
        <ele>1505.0</ele>
      </trkpt>
      <trkpt lat="42.488240" lon="2.042800">
        <ele>1506.0</ele>
      </trkpt>
      <trkpt lat="42.488280" lon="2.042230">
        <ele>1507.0</ele>
      </trkpt>
      <trkpt lat="42.488300" lon="2.041920">
        <ele>1508.0</ele>
      </trkpt>
      <trkpt lat="42.488320" lon="2.041570">
        <ele>1509.0</ele>
      </trkpt>
      <trkpt lat="42.488360" lon="2.041420">
        <ele>1510.0</ele>
      </trkpt>
      <trkpt lat="42.488410" lon="2.041250">
        <ele>1511.0</ele>
      </trkpt>
      <trkpt lat="42.488470" lon="2.041070">
        <ele>1512.0</ele>
      </trkpt>
      <trkpt lat="42.488560" lon="2.040900">
        <ele>1512.0</ele>
      </trkpt>
      <trkpt lat="42.488580" lon="2.040850">
        <ele>1513.0</ele>
      </trkpt>
      <trkpt lat="42.488650" lon="2.040610">
        <ele>1514.0</ele>
      </trkpt>
      <trkpt lat="42.488650" lon="2.040500">
        <ele>1514.0</ele>
      </trkpt>
      <trkpt lat="42.488670" lon="2.040420">
        <ele>1515.0</ele>
      </trkpt>
      <trkpt lat="42.488680" lon="2.040380">
        <ele>1515.0</ele>
      </trkpt>
      <trkpt lat="42.488710" lon="2.040330">
        <ele>1515.0</ele>
      </trkpt>
      <trkpt lat="42.488840" lon="2.040240">
        <ele>1515.0</ele>
      </trkpt>
      <trkpt lat="42.489000" lon="2.040170">
        <ele>1516.0</ele>
      </trkpt>
      <trkpt lat="42.489130" lon="2.040150">
        <ele>1516.0</ele>
      </trkpt>
      <trkpt lat="42.489170" lon="2.040140">
        <ele>1516.0</ele>
      </trkpt>
      <trkpt lat="42.489270" lon="2.040120">
        <ele>1516.0</ele>
      </trkpt>
      <trkpt lat="42.489360" lon="2.040060">
        <ele>1517.0</ele>
      </trkpt>
      <trkpt lat="42.489420" lon="2.039910">
        <ele>1517.0</ele>
      </trkpt>
      <trkpt lat="42.489450" lon="2.039840">
        <ele>1517.0</ele>
      </trkpt>
      <trkpt lat="42.489490" lon="2.039640">
        <ele>1517.0</ele>
      </trkpt>
      <trkpt lat="42.489520" lon="2.039440">
        <ele>1518.0</ele>
      </trkpt>
      <trkpt lat="42.489630" lon="2.038970">
        <ele>1518.0</ele>
      </trkpt>
      <trkpt lat="42.489650" lon="2.038870">
        <ele>1518.0</ele>
      </trkpt>
      <trkpt lat="42.489730" lon="2.038520">
        <ele>1519.0</ele>
      </trkpt>
      <trkpt lat="42.489810" lon="2.038160">
        <ele>1519.0</ele>
      </trkpt>
      <trkpt lat="42.489860" lon="2.037970">
        <ele>1520.0</ele>
      </trkpt>
      <trkpt lat="42.489950" lon="2.037750">
        <ele>1521.0</ele>
      </trkpt>
      <trkpt lat="42.490030" lon="2.037550">
        <ele>1522.0</ele>
      </trkpt>
      <trkpt lat="42.490150" lon="2.037350">
        <ele>1523.0</ele>
      </trkpt>
      <trkpt lat="42.490190" lon="2.037280">
        <ele>1524.0</ele>
      </trkpt>
      <trkpt lat="42.490240" lon="2.037190">
        <ele>1524.0</ele>
      </trkpt>
      <trkpt lat="42.490310" lon="2.037120">
        <ele>1525.0</ele>
      </trkpt>
      <trkpt lat="42.490430" lon="2.036950">
        <ele>1525.0</ele>
      </trkpt>
      <trkpt lat="42.490540" lon="2.036850">
        <ele>1526.0</ele>
      </trkpt>
      <trkpt lat="42.490700" lon="2.036720">
        <ele>1527.0</ele>
      </trkpt>
      <trkpt lat="42.490870" lon="2.036590">
        <ele>1528.0</ele>
      </trkpt>
      <trkpt lat="42.490960" lon="2.036530">
        <ele>1529.0</ele>
      </trkpt>
      <trkpt lat="42.490980" lon="2.036530">
        <ele>1529.0</ele>
      </trkpt>
      <trkpt lat="42.491060" lon="2.036490">
        <ele>1530.0</ele>
      </trkpt>
      <trkpt lat="42.491240" lon="2.036480">
        <ele>1531.0</ele>
      </trkpt>
      <trkpt lat="42.491430" lon="2.036490">
        <ele>1533.0</ele>
      </trkpt>
      <trkpt lat="42.491610" lon="2.036540">
        <ele>1534.0</ele>
      </trkpt>
      <trkpt lat="42.491780" lon="2.036590">
        <ele>1536.0</ele>
      </trkpt>
      <trkpt lat="42.491930" lon="2.036630">
        <ele>1538.0</ele>
      </trkpt>
      <trkpt lat="42.492200" lon="2.036690">
        <ele>1540.0</ele>
      </trkpt>
      <trkpt lat="42.492340" lon="2.036740">
        <ele>1542.0</ele>
      </trkpt>
      <trkpt lat="42.492470" lon="2.036830">
        <ele>1543.0</ele>
      </trkpt>
      <trkpt lat="42.492590" lon="2.036970">
        <ele>1545.0</ele>
      </trkpt>
      <trkpt lat="42.493050" lon="2.037430">
        <ele>1547.0</ele>
      </trkpt>
      <trkpt lat="42.493190" lon="2.037530">
        <ele>1549.0</ele>
      </trkpt>
      <trkpt lat="42.493290" lon="2.037580">
        <ele>1551.0</ele>
      </trkpt>
      <trkpt lat="42.493380" lon="2.037620">
        <ele>1552.0</ele>
      </trkpt>
      <trkpt lat="42.493490" lon="2.037630">
        <ele>1553.0</ele>
      </trkpt>
      <trkpt lat="42.493590" lon="2.037630">
        <ele>1554.0</ele>
      </trkpt>
      <trkpt lat="42.493690" lon="2.037620">
        <ele>1554.0</ele>
      </trkpt>
      <trkpt lat="42.493780" lon="2.037590">
        <ele>1555.0</ele>
      </trkpt>
      <trkpt lat="42.493920" lon="2.037520">
        <ele>1556.0</ele>
      </trkpt>
      <trkpt lat="42.494030" lon="2.037450">
        <ele>1557.0</ele>
      </trkpt>
      <trkpt lat="42.494120" lon="2.037370">
        <ele>1557.0</ele>
      </trkpt>
      <trkpt lat="42.494220" lon="2.037260">
        <ele>1558.0</ele>
      </trkpt>
      <trkpt lat="42.494300" lon="2.037140">
        <ele>1559.0</ele>
      </trkpt>
      <trkpt lat="42.494450" lon="2.036900">
        <ele>1560.0</ele>
      </trkpt>
      <trkpt lat="42.494570" lon="2.036700">
        <ele>1560.0</ele>
      </trkpt>
      <trkpt lat="42.494630" lon="2.036580">
        <ele>1561.0</ele>
      </trkpt>
      <trkpt lat="42.494680" lon="2.036440">
        <ele>1562.0</ele>
      </trkpt>
      <trkpt lat="42.494710" lon="2.036320">
        <ele>1563.0</ele>
      </trkpt>
      <trkpt lat="42.494750" lon="2.036150">
        <ele>1563.0</ele>
      </trkpt>
      <trkpt lat="42.494800" lon="2.035990">
        <ele>1564.0</ele>
      </trkpt>
      <trkpt lat="42.494960" lon="2.035630">
        <ele>1565.0</ele>
      </trkpt>
      <trkpt lat="42.495020" lon="2.035520">
        <ele>1566.0</ele>
      </trkpt>
      <trkpt lat="42.495070" lon="2.035400">
        <ele>1566.0</ele>
      </trkpt>
      <trkpt lat="42.495140" lon="2.035320">
        <ele>1567.0</ele>
      </trkpt>
      <trkpt lat="42.495190" lon="2.035270">
        <ele>1568.0</ele>
      </trkpt>
      <trkpt lat="42.495330" lon="2.035160">
        <ele>1568.0</ele>
      </trkpt>
      <trkpt lat="42.495600" lon="2.034990">
        <ele>1569.0</ele>
      </trkpt>
      <trkpt lat="42.495660" lon="2.034950">
        <ele>1570.0</ele>
      </trkpt>
      <trkpt lat="42.496200" lon="2.034540">
        <ele>1572.0</ele>
      </trkpt>
      <trkpt lat="42.496400" lon="2.034400">
        <ele>1573.0</ele>
      </trkpt>
      <trkpt lat="42.496530" lon="2.034280">
        <ele>1574.0</ele>
      </trkpt>
      <trkpt lat="42.496630" lon="2.034150">
        <ele>1575.0</ele>
      </trkpt>
      <trkpt lat="42.496680" lon="2.034020">
        <ele>1576.0</ele>
      </trkpt>
      <trkpt lat="42.496720" lon="2.033880">
        <ele>1577.0</ele>
      </trkpt>
      <trkpt lat="42.496730" lon="2.033820">
        <ele>1578.0</ele>
      </trkpt>
      <trkpt lat="42.496750" lon="2.033690">
        <ele>1578.0</ele>
      </trkpt>
      <trkpt lat="42.496750" lon="2.033570">
        <ele>1579.0</ele>
      </trkpt>
      <trkpt lat="42.496760" lon="2.033450">
        <ele>1579.0</ele>
      </trkpt>
      <trkpt lat="42.496760" lon="2.033390">
        <ele>1580.0</ele>
      </trkpt>
      <trkpt lat="42.496750" lon="2.033050">
        <ele>1580.0</ele>
      </trkpt>
      <trkpt lat="42.496760" lon="2.032640">
        <ele>1581.0</ele>
      </trkpt>
      <trkpt lat="42.496760" lon="2.032230">
        <ele>1582.0</ele>
      </trkpt>
      <trkpt lat="42.496770" lon="2.031800">
        <ele>1584.0</ele>
      </trkpt>
      <trkpt lat="42.496810" lon="2.031660">
        <ele>1585.0</ele>
      </trkpt>
      <trkpt lat="42.496870" lon="2.031540">
        <ele>1586.0</ele>
      </trkpt>
      <trkpt lat="42.496890" lon="2.031540">
        <ele>1586.0</ele>
      </trkpt>
      <trkpt lat="42.496900" lon="2.031540">
        <ele>1587.0</ele>
      </trkpt>
      <trkpt lat="42.496930" lon="2.031540">
        <ele>1587.0</ele>
      </trkpt>
      <trkpt lat="42.496950" lon="2.031520">
        <ele>1587.0</ele>
      </trkpt>
      <trkpt lat="42.496970" lon="2.031500">
        <ele>1587.0</ele>
      </trkpt>
      <trkpt lat="42.496980" lon="2.031470">
        <ele>1588.0</ele>
      </trkpt>
      <trkpt lat="42.496990" lon="2.031440">
        <ele>1588.0</ele>
      </trkpt>
      <trkpt lat="42.497040" lon="2.031340">
        <ele>1588.0</ele>
      </trkpt>
      <trkpt lat="42.497070" lon="2.031260">
        <ele>1588.0</ele>
      </trkpt>
      <trkpt lat="42.497080" lon="2.031140">
        <ele>1589.0</ele>
      </trkpt>
      <trkpt lat="42.497090" lon="2.030980">
        <ele>1589.0</ele>
      </trkpt>
      <trkpt lat="42.497160" lon="2.030190">
        <ele>1591.0</ele>
      </trkpt>
      <trkpt lat="42.497180" lon="2.030030">
        <ele>1592.0</ele>
      </trkpt>
      <trkpt lat="42.497220" lon="2.029940">
        <ele>1593.0</ele>
      </trkpt>
      <trkpt lat="42.497290" lon="2.029850">
        <ele>1594.0</ele>
      </trkpt>
      <trkpt lat="42.497440" lon="2.029740">
        <ele>1594.0</ele>
      </trkpt>
      <trkpt lat="42.497550" lon="2.029680">
        <ele>1595.0</ele>
      </trkpt>
      <trkpt lat="42.497680" lon="2.029640">
        <ele>1596.0</ele>
      </trkpt>
      <trkpt lat="42.497880" lon="2.029640">
        <ele>1597.0</ele>
      </trkpt>
      <trkpt lat="42.498170" lon="2.029640">
        <ele>1598.0</ele>
      </trkpt>
      <trkpt lat="42.498640" lon="2.029610">
        <ele>1600.0</ele>
      </trkpt>
      <trkpt lat="42.498920" lon="2.029600">
        <ele>1602.0</ele>
      </trkpt>
      <trkpt lat="42.498980" lon="2.029630">
        <ele>1604.0</ele>
      </trkpt>
      <trkpt lat="42.499030" lon="2.029690">
        <ele>1605.0</ele>
      </trkpt>
      <trkpt lat="42.499070" lon="2.029770">
        <ele>1606.0</ele>
      </trkpt>
      <trkpt lat="42.499070" lon="2.029840">
        <ele>1607.0</ele>
      </trkpt>
      <trkpt lat="42.499070" lon="2.029900">
        <ele>1607.0</ele>
      </trkpt>
      <trkpt lat="42.499040" lon="2.029960">
        <ele>1608.0</ele>
      </trkpt>
      <trkpt lat="42.499000" lon="2.030000">
        <ele>1608.0</ele>
      </trkpt>
      <trkpt lat="42.498940" lon="2.030030">
        <ele>1609.0</ele>
      </trkpt>
      <trkpt lat="42.498860" lon="2.030040">
        <ele>1609.0</ele>
      </trkpt>
      <trkpt lat="42.498690" lon="2.030000">
        <ele>1610.0</ele>
      </trkpt>
      <trkpt lat="42.498610" lon="2.030000">
        <ele>1611.0</ele>
      </trkpt>
      <trkpt lat="42.498520" lon="2.030030">
        <ele>1612.0</ele>
      </trkpt>
      <trkpt lat="42.498440" lon="2.030100">
        <ele>1612.0</ele>
      </trkpt>
      <trkpt lat="42.498370" lon="2.030210">
        <ele>1613.0</ele>
      </trkpt>
      <trkpt lat="42.498130" lon="2.030850">
        <ele>1615.0</ele>
      </trkpt>
      <trkpt lat="42.498120" lon="2.031000">
        <ele>1616.0</ele>
      </trkpt>
      <trkpt lat="42.498130" lon="2.031150">
        <ele>1617.0</ele>
      </trkpt>
      <trkpt lat="42.498190" lon="2.031320">
        <ele>1618.0</ele>
      </trkpt>
      <trkpt lat="42.498300" lon="2.031470">
        <ele>1619.0</ele>
      </trkpt>
      <trkpt lat="42.498640" lon="2.031960">
        <ele>1621.0</ele>
      </trkpt>
      <trkpt lat="42.498720" lon="2.032070">
        <ele>1622.0</ele>
      </trkpt>
      <trkpt lat="42.498940" lon="2.032390">
        <ele>1623.0</ele>
      </trkpt>
      <trkpt lat="42.498970" lon="2.032430">
        <ele>1625.0</ele>
      </trkpt>
      <trkpt lat="42.499110" lon="2.032640">
        <ele>1626.0</ele>
      </trkpt>
      <trkpt lat="42.499340" lon="2.032960">
        <ele>1628.0</ele>
      </trkpt>
      <trkpt lat="42.499650" lon="2.033410">
        <ele>1630.0</ele>
      </trkpt>
      <trkpt lat="42.499720" lon="2.033510">
        <ele>1632.0</ele>
      </trkpt>
      <trkpt lat="42.499820" lon="2.033660">
        <ele>1633.0</ele>
      </trkpt>
      <trkpt lat="42.499880" lon="2.033720">
        <ele>1635.0</ele>
      </trkpt>
      <trkpt lat="42.499950" lon="2.033790">
        <ele>1636.0</ele>
      </trkpt>
      <trkpt lat="42.500070" lon="2.033840">
        <ele>1637.0</ele>
      </trkpt>
      <trkpt lat="42.500090" lon="2.033850">
        <ele>1637.0</ele>
      </trkpt>
      <trkpt lat="42.500200" lon="2.033880">
        <ele>1638.0</ele>
      </trkpt>
      <trkpt lat="42.500260" lon="2.033900">
        <ele>1639.0</ele>
      </trkpt>
      <trkpt lat="42.500420" lon="2.033950">
        <ele>1640.0</ele>
      </trkpt>
      <trkpt lat="42.500570" lon="2.034030">
        <ele>1641.0</ele>
      </trkpt>
      <trkpt lat="42.500710" lon="2.034250">
        <ele>1642.0</ele>
      </trkpt>
      <trkpt lat="42.500770" lon="2.034370">
        <ele>1643.0</ele>
      </trkpt>
      <trkpt lat="42.500890" lon="2.034540">
        <ele>1643.0</ele>
      </trkpt>
      <trkpt lat="42.500980" lon="2.034740">
        <ele>1644.0</ele>
      </trkpt>
      <trkpt lat="42.501080" lon="2.035160">
        <ele>1646.0</ele>
      </trkpt>
      <trkpt lat="42.501150" lon="2.035580">
        <ele>1647.0</ele>
      </trkpt>
      <trkpt lat="42.501140" lon="2.035820">
        <ele>1648.0</ele>
      </trkpt>
      <trkpt lat="42.500980" lon="2.036890">
        <ele>1651.0</ele>
      </trkpt>
      <trkpt lat="42.500800" lon="2.038400">
        <ele>1654.0</ele>
      </trkpt>
      <trkpt lat="42.500760" lon="2.038740">
        <ele>1657.0</ele>
      </trkpt>
      <trkpt lat="42.500680" lon="2.039340">
        <ele>1660.0</ele>
      </trkpt>
      <trkpt lat="42.500670" lon="2.039610">
        <ele>1662.0</ele>
      </trkpt>
      <trkpt lat="42.500680" lon="2.039840">
        <ele>1664.0</ele>
      </trkpt>
      <trkpt lat="42.500740" lon="2.040170">
        <ele>1666.0</ele>
      </trkpt>
      <trkpt lat="42.500840" lon="2.040510">
        <ele>1667.0</ele>
      </trkpt>
      <trkpt lat="42.500930" lon="2.040670">
        <ele>1669.0</ele>
      </trkpt>
      <trkpt lat="42.501050" lon="2.040810">
        <ele>1670.0</ele>
      </trkpt>
      <trkpt lat="42.501170" lon="2.040960">
        <ele>1671.0</ele>
      </trkpt>
      <trkpt lat="42.501320" lon="2.041200">
        <ele>1673.0</ele>
      </trkpt>
      <trkpt lat="42.501380" lon="2.041420">
        <ele>1674.0</ele>
      </trkpt>
      <trkpt lat="42.501550" lon="2.042170">
        <ele>1676.0</ele>
      </trkpt>
      <trkpt lat="42.501600" lon="2.042580">
        <ele>1678.0</ele>
      </trkpt>
      <trkpt lat="42.501630" lon="2.043050">
        <ele>1679.0</ele>
      </trkpt>
      <trkpt lat="42.501650" lon="2.043560">
        <ele>1681.0</ele>
      </trkpt>
      <trkpt lat="42.501630" lon="2.043990">
        <ele>1683.0</ele>
      </trkpt>
      <trkpt lat="42.501610" lon="2.044210">
        <ele>1685.0</ele>
      </trkpt>
      <trkpt lat="42.501570" lon="2.044470">
        <ele>1686.0</ele>
      </trkpt>
      <trkpt lat="42.501420" lon="2.045160">
        <ele>1688.0</ele>
      </trkpt>
      <trkpt lat="42.501360" lon="2.045420">
        <ele>1690.0</ele>
      </trkpt>
      <trkpt lat="42.501340" lon="2.045550">
        <ele>1692.0</ele>
      </trkpt>
      <trkpt lat="42.501340" lon="2.045700">
        <ele>1693.0</ele>
      </trkpt>
      <trkpt lat="42.501380" lon="2.045970">
        <ele>1694.0</ele>
      </trkpt>
      <trkpt lat="42.501380" lon="2.046270">
        <ele>1695.0</ele>
      </trkpt>
      <trkpt lat="42.501360" lon="2.046560">
        <ele>1697.0</ele>
      </trkpt>
      <trkpt lat="42.501350" lon="2.046950">
        <ele>1698.0</ele>
      </trkpt>
      <trkpt lat="42.501350" lon="2.047110">
        <ele>1700.0</ele>
      </trkpt>
      <trkpt lat="42.501410" lon="2.047210">
        <ele>1701.0</ele>
      </trkpt>
      <trkpt lat="42.501470" lon="2.047250">
        <ele>1701.0</ele>
      </trkpt>
      <trkpt lat="42.501530" lon="2.047270">
        <ele>1702.0</ele>
      </trkpt>
      <trkpt lat="42.501600" lon="2.047240">
        <ele>1703.0</ele>
      </trkpt>
      <trkpt lat="42.501650" lon="2.047180">
        <ele>1703.0</ele>
      </trkpt>
      <trkpt lat="42.501690" lon="2.047030">
        <ele>1704.0</ele>
      </trkpt>
      <trkpt lat="42.501720" lon="2.046430">
        <ele>1705.0</ele>
      </trkpt>
      <trkpt lat="42.501760" lon="2.046030">
        <ele>1706.0</ele>
      </trkpt>
      <trkpt lat="42.501800" lon="2.045850">
        <ele>1707.0</ele>
      </trkpt>
      <trkpt lat="42.501840" lon="2.045760">
        <ele>1708.0</ele>
      </trkpt>
      <trkpt lat="42.501900" lon="2.045680">
        <ele>1709.0</ele>
      </trkpt>
      <trkpt lat="42.501980" lon="2.045600">
        <ele>1709.0</ele>
      </trkpt>
      <trkpt lat="42.502050" lon="2.045510">
        <ele>1710.0</ele>
      </trkpt>
      <trkpt lat="42.502100" lon="2.045460">
        <ele>1710.0</ele>
      </trkpt>
      <trkpt lat="42.502200" lon="2.045330">
        <ele>1711.0</ele>
      </trkpt>
      <trkpt lat="42.502350" lon="2.044930">
        <ele>1712.0</ele>
      </trkpt>
      <trkpt lat="42.502380" lon="2.044740">
        <ele>1713.0</ele>
      </trkpt>
      <trkpt lat="42.502400" lon="2.044640">
        <ele>1713.0</ele>
      </trkpt>
      <trkpt lat="42.502440" lon="2.044530">
        <ele>1714.0</ele>
      </trkpt>
      <trkpt lat="42.502510" lon="2.044420">
        <ele>1714.0</ele>
      </trkpt>
      <trkpt lat="42.502720" lon="2.044220">
        <ele>1715.0</ele>
      </trkpt>
      <trkpt lat="42.502900" lon="2.044050">
        <ele>1716.0</ele>
      </trkpt>
      <trkpt lat="42.502990" lon="2.043920">
        <ele>1717.0</ele>
      </trkpt>
      <trkpt lat="42.503110" lon="2.043580">
        <ele>1718.0</ele>
      </trkpt>
      <trkpt lat="42.503140" lon="2.043410">
        <ele>1719.0</ele>
      </trkpt>
      <trkpt lat="42.503140" lon="2.043380">
        <ele>1719.0</ele>
      </trkpt>
      <trkpt lat="42.503150" lon="2.043220">
        <ele>1720.0</ele>
      </trkpt>
      <trkpt lat="42.503120" lon="2.042960">
        <ele>1721.0</ele>
      </trkpt>
      <trkpt lat="42.503100" lon="2.042850">
        <ele>1721.0</ele>
      </trkpt>
      <trkpt lat="42.503100" lon="2.042750">
        <ele>1722.0</ele>
      </trkpt>
      <trkpt lat="42.503100" lon="2.042660">
        <ele>1722.0</ele>
      </trkpt>
      <trkpt lat="42.503140" lon="2.042530">
        <ele>1723.0</ele>
      </trkpt>
      <trkpt lat="42.503190" lon="2.042430">
        <ele>1723.0</ele>
      </trkpt>
      <trkpt lat="42.503230" lon="2.042340">
        <ele>1724.0</ele>
      </trkpt>
      <trkpt lat="42.503300" lon="2.042240">
        <ele>1724.0</ele>
      </trkpt>
      <trkpt lat="42.503350" lon="2.042180">
        <ele>1725.0</ele>
      </trkpt>
      <trkpt lat="42.503450" lon="2.042110">
        <ele>1725.0</ele>
      </trkpt>
      <trkpt lat="42.503550" lon="2.042060">
        <ele>1726.0</ele>
      </trkpt>
      <trkpt lat="42.503660" lon="2.042030">
        <ele>1726.0</ele>
      </trkpt>
      <trkpt lat="42.503710" lon="2.042030">
        <ele>1727.0</ele>
      </trkpt>
      <trkpt lat="42.503780" lon="2.042040">
        <ele>1727.0</ele>
      </trkpt>
      <trkpt lat="42.503820" lon="2.041850">
        <ele>1728.0</ele>
      </trkpt>
      <trkpt lat="42.503830" lon="2.041750">
        <ele>1728.0</ele>
      </trkpt>
      <trkpt lat="42.503830" lon="2.041620">
        <ele>1729.0</ele>
      </trkpt>
      <trkpt lat="42.503820" lon="2.041480">
        <ele>1729.0</ele>
      </trkpt>
      <trkpt lat="42.503830" lon="2.041280">
        <ele>1730.0</ele>
      </trkpt>
      <trkpt lat="42.503860" lon="2.041010">
        <ele>1731.0</ele>
      </trkpt>
      <trkpt lat="42.503970" lon="2.040540">
        <ele>1732.0</ele>
      </trkpt>
      <trkpt lat="42.504000" lon="2.040480">
        <ele>1733.0</ele>
      </trkpt>
      <trkpt lat="42.504000" lon="2.040480">
        <ele>1734.0</ele>
      </trkpt>
      <trkpt lat="42.504030" lon="2.040430">
        <ele>1734.0</ele>
      </trkpt>
      <trkpt lat="42.504090" lon="2.040340">
        <ele>1735.0</ele>
      </trkpt>
      <trkpt lat="42.504150" lon="2.040250">
        <ele>1735.0</ele>
      </trkpt>
      <trkpt lat="42.504190" lon="2.040180">
        <ele>1736.0</ele>
      </trkpt>
      <trkpt lat="42.504200" lon="2.040160">
        <ele>1736.0</ele>
      </trkpt>
      <trkpt lat="42.504220" lon="2.040090">
        <ele>1736.0</ele>
      </trkpt>
      <trkpt lat="42.504240" lon="2.039990">
        <ele>1737.0</ele>
      </trkpt>
      <trkpt lat="42.504240" lon="2.039880">
        <ele>1737.0</ele>
      </trkpt>
      <trkpt lat="42.504230" lon="2.039760">
        <ele>1738.0</ele>
      </trkpt>
      <trkpt lat="42.504200" lon="2.039690">
        <ele>1738.0</ele>
      </trkpt>
      <trkpt lat="42.504180" lon="2.039650">
        <ele>1738.0</ele>
      </trkpt>
      <trkpt lat="42.504080" lon="2.039570">
        <ele>1739.0</ele>
      </trkpt>
      <trkpt lat="42.503860" lon="2.039430">
        <ele>1740.0</ele>
      </trkpt>
      <trkpt lat="42.503750" lon="2.039340">
        <ele>1740.0</ele>
      </trkpt>
      <trkpt lat="42.503690" lon="2.039230">
        <ele>1741.0</ele>
      </trkpt>
      <trkpt lat="42.503680" lon="2.039200">
        <ele>1742.0</ele>
      </trkpt>
      <trkpt lat="42.503670" lon="2.039140">
        <ele>1742.0</ele>
      </trkpt>
      <trkpt lat="42.503700" lon="2.039040">
        <ele>1743.0</ele>
      </trkpt>
      <trkpt lat="42.503760" lon="2.038940">
        <ele>1743.0</ele>
      </trkpt>
      <trkpt lat="42.503790" lon="2.038920">
        <ele>1744.0</ele>
      </trkpt>
      <trkpt lat="42.503830" lon="2.038920">
        <ele>1744.0</ele>
      </trkpt>
      <trkpt lat="42.503990" lon="2.039050">
        <ele>1745.0</ele>
      </trkpt>
      <trkpt lat="42.504130" lon="2.039160">
        <ele>1746.0</ele>
      </trkpt>
      <trkpt lat="42.504220" lon="2.039230">
        <ele>1747.0</ele>
      </trkpt>
      <trkpt lat="42.504280" lon="2.039280">
        <ele>1747.0</ele>
      </trkpt>
      <trkpt lat="42.504320" lon="2.039320">
        <ele>1748.0</ele>
      </trkpt>
      <trkpt lat="42.504390" lon="2.039440">
        <ele>1749.0</ele>
      </trkpt>
      <trkpt lat="42.504650" lon="2.039870">
        <ele>1750.0</ele>
      </trkpt>
      <trkpt lat="42.504740" lon="2.040050">
        <ele>1752.0</ele>
      </trkpt>
      <trkpt lat="42.504780" lon="2.040130">
        <ele>1753.0</ele>
      </trkpt>
      <trkpt lat="42.504790" lon="2.040140">
        <ele>1754.0</ele>
      </trkpt>
      <trkpt lat="42.504820" lon="2.040190">
        <ele>1754.0</ele>
      </trkpt>
      <trkpt lat="42.504970" lon="2.040470">
        <ele>1755.0</ele>
      </trkpt>
      <trkpt lat="42.505000" lon="2.040570">
        <ele>1756.0</ele>
      </trkpt>
      <trkpt lat="42.505000" lon="2.040600">
        <ele>1757.0</ele>
      </trkpt>
      <trkpt lat="42.505040" lon="2.040950">
        <ele>1757.0</ele>
      </trkpt>
      <trkpt lat="42.505090" lon="2.041550">
        <ele>1758.0</ele>
      </trkpt>
      <trkpt lat="42.505100" lon="2.041700">
        <ele>1758.0</ele>
      </trkpt>
      <trkpt lat="42.505120" lon="2.041820">
        <ele>1759.0</ele>
      </trkpt>
      <trkpt lat="42.505140" lon="2.042090">
        <ele>1759.0</ele>
      </trkpt>
      <trkpt lat="42.505160" lon="2.042290">
        <ele>1760.0</ele>
      </trkpt>
      <trkpt lat="42.505230" lon="2.042950">
        <ele>1760.0</ele>
      </trkpt>
      <trkpt lat="42.505250" lon="2.043130">
        <ele>1761.0</ele>
      </trkpt>
      <trkpt lat="42.505260" lon="2.043250">
        <ele>1762.0</ele>
      </trkpt>
      <trkpt lat="42.505260" lon="2.043770">
        <ele>1763.0</ele>
      </trkpt>
      <trkpt lat="42.505260" lon="2.043790">
        <ele>1764.0</ele>
      </trkpt>
      <trkpt lat="42.505250" lon="2.043880">
        <ele>1765.0</ele>
      </trkpt>
      <trkpt lat="42.505180" lon="2.044230">
        <ele>1767.0</ele>
      </trkpt>
      <trkpt lat="42.505150" lon="2.044320">
        <ele>1768.0</ele>
      </trkpt>
      <trkpt lat="42.505120" lon="2.044410">
        <ele>1769.0</ele>
      </trkpt>
      <trkpt lat="42.505090" lon="2.044550">
        <ele>1770.0</ele>
      </trkpt>
      <trkpt lat="42.505100" lon="2.044690">
        <ele>1770.0</ele>
      </trkpt>
      <trkpt lat="42.505140" lon="2.044790">
        <ele>1771.0</ele>
      </trkpt>
      <trkpt lat="42.505220" lon="2.044890">
        <ele>1772.0</ele>
      </trkpt>
      <trkpt lat="42.505300" lon="2.044960">
        <ele>1773.0</ele>
      </trkpt>
      <trkpt lat="42.505380" lon="2.045030">
        <ele>1774.0</ele>
      </trkpt>
      <trkpt lat="42.505500" lon="2.045120">
        <ele>1775.0</ele>
      </trkpt>
      <trkpt lat="42.505580" lon="2.045190">
        <ele>1776.0</ele>
      </trkpt>
      <trkpt lat="42.505670" lon="2.045250">
        <ele>1776.0</ele>
      </trkpt>
      <trkpt lat="42.505920" lon="2.045430">
        <ele>1777.0</ele>
      </trkpt>
      <trkpt lat="42.506150" lon="2.045570">
        <ele>1779.0</ele>
      </trkpt>
      <trkpt lat="42.506430" lon="2.045760">
        <ele>1780.0</ele>
      </trkpt>
      <trkpt lat="42.506820" lon="2.046070">
        <ele>1782.0</ele>
      </trkpt>
      <trkpt lat="42.506900" lon="2.046120">
        <ele>1784.0</ele>
      </trkpt>
      <trkpt lat="42.506990" lon="2.046150">
        <ele>1785.0</ele>
      </trkpt>
      <trkpt lat="42.507160" lon="2.046160">
        <ele>1786.0</ele>
      </trkpt>
      <trkpt lat="42.507260" lon="2.046150">
        <ele>1787.0</ele>
      </trkpt>
      <trkpt lat="42.507360" lon="2.046130">
        <ele>1788.0</ele>
      </trkpt>
      <trkpt lat="42.507500" lon="2.046070">
        <ele>1789.0</ele>
      </trkpt>
      <trkpt lat="42.507620" lon="2.045990">
        <ele>1790.0</ele>
      </trkpt>
      <trkpt lat="42.507750" lon="2.045910">
        <ele>1791.0</ele>
      </trkpt>
      <trkpt lat="42.507990" lon="2.045810">
        <ele>1792.0</ele>
      </trkpt>
      <trkpt lat="42.508130" lon="2.045790">
        <ele>1793.0</ele>
      </trkpt>
      <trkpt lat="42.508250" lon="2.045780">
        <ele>1794.0</ele>
      </trkpt>
      <trkpt lat="42.508410" lon="2.045820">
        <ele>1795.0</ele>
      </trkpt>
      <trkpt lat="42.508620" lon="2.045890">
        <ele>1796.0</ele>
      </trkpt>
      <trkpt lat="42.508790" lon="2.046010">
        <ele>1797.0</ele>
      </trkpt>
      <trkpt lat="42.508960" lon="2.046220">
        <ele>1798.0</ele>
      </trkpt>
      <trkpt lat="42.509140" lon="2.046460">
        <ele>1800.0</ele>
      </trkpt>
      <trkpt lat="42.509210" lon="2.046550">
        <ele>1801.0</ele>
      </trkpt>
      <trkpt lat="42.509230" lon="2.046570">
        <ele>1803.0</ele>
      </trkpt>
      <trkpt lat="42.509300" lon="2.046620">
        <ele>1804.0</ele>
      </trkpt>
      <trkpt lat="42.509400" lon="2.046670">
        <ele>1805.0</ele>
      </trkpt>
      <trkpt lat="42.509560" lon="2.046720">
        <ele>1806.0</ele>
      </trkpt>
      <trkpt lat="42.509700" lon="2.046770">
        <ele>1808.0</ele>
      </trkpt>
      <trkpt lat="42.509930" lon="2.046880">
        <ele>1810.0</ele>
      </trkpt>
      <trkpt lat="42.510080" lon="2.046940">
        <ele>1812.0</ele>
      </trkpt>
      <trkpt lat="42.510140" lon="2.046950">
        <ele>1813.0</ele>
      </trkpt>
      <trkpt lat="42.510190" lon="2.046950">
        <ele>1815.0</ele>
      </trkpt>
      <trkpt lat="42.510300" lon="2.046930">
        <ele>1816.0</ele>
      </trkpt>
      <trkpt lat="42.510440" lon="2.046830">
        <ele>1817.0</ele>
      </trkpt>
      <trkpt lat="42.510570" lon="2.046660">
        <ele>1819.0</ele>
      </trkpt>
      <trkpt lat="42.510750" lon="2.046450">
        <ele>1820.0</ele>
      </trkpt>
      <trkpt lat="42.510890" lon="2.046350">
        <ele>1821.0</ele>
      </trkpt>
      <trkpt lat="42.511290" lon="2.046220">
        <ele>1822.0</ele>
      </trkpt>
      <trkpt lat="42.511410" lon="2.046210">
        <ele>1822.0</ele>
      </trkpt>
      <trkpt lat="42.511630" lon="2.046150">
        <ele>1823.0</ele>
      </trkpt>
      <trkpt lat="42.511750" lon="2.046140">
        <ele>1823.0</ele>
      </trkpt>
      <trkpt lat="42.511820" lon="2.046150">
        <ele>1823.0</ele>
      </trkpt>
      <trkpt lat="42.511890" lon="2.046170">
        <ele>1824.0</ele>
      </trkpt>
      <trkpt lat="42.511980" lon="2.046260">
        <ele>1824.0</ele>
      </trkpt>
      <trkpt lat="42.512040" lon="2.046340">
        <ele>1824.0</ele>
      </trkpt>
      <trkpt lat="42.512050" lon="2.046370">
        <ele>1824.0</ele>
      </trkpt>
      <trkpt lat="42.512100" lon="2.046490">
        <ele>1824.0</ele>
      </trkpt>
      <trkpt lat="42.512120" lon="2.046620">
        <ele>1824.0</ele>
      </trkpt>
      <trkpt lat="42.512140" lon="2.046720">
        <ele>1825.0</ele>
      </trkpt>
      <trkpt lat="42.512120" lon="2.046810">
        <ele>1825.0</ele>
      </trkpt>
      <trkpt lat="42.512100" lon="2.047000">
        <ele>1825.0</ele>
      </trkpt>
      <trkpt lat="42.511880" lon="2.047710">
        <ele>1827.0</ele>
      </trkpt>
      <trkpt lat="42.511660" lon="2.048460">
        <ele>1829.0</ele>
      </trkpt>
      <trkpt lat="42.511570" lon="2.048720">
        <ele>1831.0</ele>
      </trkpt>
      <trkpt lat="42.511520" lon="2.048920">
        <ele>1832.0</ele>
      </trkpt>
      <trkpt lat="42.511490" lon="2.049180">
        <ele>1834.0</ele>
      </trkpt>
      <trkpt lat="42.511480" lon="2.049360">
        <ele>1835.0</ele>
      </trkpt>
      <trkpt lat="42.511500" lon="2.049560">
        <ele>1835.0</ele>
      </trkpt>
      <trkpt lat="42.511520" lon="2.049710">
        <ele>1836.0</ele>
      </trkpt>
      <trkpt lat="42.511550" lon="2.049920">
        <ele>1836.0</ele>
      </trkpt>
      <trkpt lat="42.511570" lon="2.049970">
        <ele>1837.0</ele>
      </trkpt>
      <trkpt lat="42.511590" lon="2.050140">
        <ele>1837.0</ele>
      </trkpt>
      <trkpt lat="42.511630" lon="2.050280">
        <ele>1838.0</ele>
      </trkpt>
      <trkpt lat="42.511700" lon="2.050430">
        <ele>1838.0</ele>
      </trkpt>
      <trkpt lat="42.511820" lon="2.050580">
        <ele>1838.0</ele>
      </trkpt>
      <trkpt lat="42.511820" lon="2.050620">
        <ele>1839.0</ele>
      </trkpt>
      <trkpt lat="42.511830" lon="2.050650">
        <ele>1839.0</ele>
      </trkpt>
      <trkpt lat="42.511850" lon="2.050680">
        <ele>1839.0</ele>
      </trkpt>
      <trkpt lat="42.511870" lon="2.050710">
        <ele>1839.0</ele>
      </trkpt>
      <trkpt lat="42.511890" lon="2.050720">
        <ele>1839.0</ele>
      </trkpt>
      <trkpt lat="42.511920" lon="2.050720">
        <ele>1839.0</ele>
      </trkpt>
      <trkpt lat="42.511950" lon="2.050720">
        <ele>1839.0</ele>
      </trkpt>
      <trkpt lat="42.511980" lon="2.050690">
        <ele>1840.0</ele>
      </trkpt>
      <trkpt lat="42.512010" lon="2.050650">
        <ele>1840.0</ele>
      </trkpt>
      <trkpt lat="42.512010" lon="2.050600">
        <ele>1840.0</ele>
      </trkpt>
      <trkpt lat="42.512010" lon="2.050560">
        <ele>1840.0</ele>
      </trkpt>
      <trkpt lat="42.512010" lon="2.050530">
        <ele>1840.0</ele>
      </trkpt>
      <trkpt lat="42.512080" lon="2.050370">
        <ele>1840.0</ele>
      </trkpt>
      <trkpt lat="42.512180" lon="2.050310">
        <ele>1841.0</ele>
      </trkpt>
      <trkpt lat="42.512330" lon="2.050270">
        <ele>1841.0</ele>
      </trkpt>
      <trkpt lat="42.512600" lon="2.050110">
        <ele>1842.0</ele>
      </trkpt>
      <trkpt lat="42.512780" lon="2.049980">
        <ele>1844.0</ele>
      </trkpt>
      <trkpt lat="42.512890" lon="2.049850">
        <ele>1845.0</ele>
      </trkpt>
      <trkpt lat="42.512980" lon="2.049670">
        <ele>1846.0</ele>
      </trkpt>
      <trkpt lat="42.513140" lon="2.049280">
        <ele>1848.0</ele>
      </trkpt>
      <trkpt lat="42.513350" lon="2.048880">
        <ele>1850.0</ele>
      </trkpt>
      <trkpt lat="42.513430" lon="2.048770">
        <ele>1851.0</ele>
      </trkpt>
      <trkpt lat="42.513580" lon="2.048610">
        <ele>1853.0</ele>
      </trkpt>
      <trkpt lat="42.513700" lon="2.048540">
        <ele>1854.0</ele>
      </trkpt>
      <trkpt lat="42.513850" lon="2.048470">
        <ele>1856.0</ele>
      </trkpt>
      <trkpt lat="42.514050" lon="2.048430">
        <ele>1857.0</ele>
      </trkpt>
      <trkpt lat="42.514250" lon="2.048410">
        <ele>1858.0</ele>
      </trkpt>
      <trkpt lat="42.514350" lon="2.048430">
        <ele>1860.0</ele>
      </trkpt>
      <trkpt lat="42.514680" lon="2.048460">
        <ele>1861.0</ele>
      </trkpt>
      <trkpt lat="42.514840" lon="2.048450">
        <ele>1863.0</ele>
      </trkpt>
      <trkpt lat="42.515330" lon="2.048270">
        <ele>1865.0</ele>
      </trkpt>
      <trkpt lat="42.515530" lon="2.048170">
        <ele>1867.0</ele>
      </trkpt>
      <trkpt lat="42.515670" lon="2.048050">
        <ele>1868.0</ele>
      </trkpt>
      <trkpt lat="42.515990" lon="2.047670">
        <ele>1870.0</ele>
      </trkpt>
      <trkpt lat="42.516190" lon="2.047450">
        <ele>1871.0</ele>
      </trkpt>
      <trkpt lat="42.516710" lon="2.047070">
        <ele>1873.0</ele>
      </trkpt>
      <trkpt lat="42.517140" lon="2.046750">
        <ele>1875.0</ele>
      </trkpt>
      <trkpt lat="42.517230" lon="2.046640">
        <ele>1876.0</ele>
      </trkpt>
      <trkpt lat="42.517310" lon="2.046430">
        <ele>1878.0</ele>
      </trkpt>
      <trkpt lat="42.517430" lon="2.046050">
        <ele>1879.0</ele>
      </trkpt>
      <trkpt lat="42.517510" lon="2.045790">
        <ele>1881.0</ele>
      </trkpt>
      <trkpt lat="42.517630" lon="2.045340">
        <ele>1882.0</ele>
      </trkpt>
      <trkpt lat="42.517640" lon="2.045270">
        <ele>1884.0</ele>
      </trkpt>
      <trkpt lat="42.517720" lon="2.044970">
        <ele>1885.0</ele>
      </trkpt>
      <trkpt lat="42.517810" lon="2.044740">
        <ele>1886.0</ele>
      </trkpt>
      <trkpt lat="42.517960" lon="2.044530">
        <ele>1888.0</ele>
      </trkpt>
      <trkpt lat="42.518160" lon="2.044370">
        <ele>1889.0</ele>
      </trkpt>
      <trkpt lat="42.518310" lon="2.044270">
        <ele>1891.0</ele>
      </trkpt>
      <trkpt lat="42.518410" lon="2.044240">
        <ele>1892.0</ele>
      </trkpt>
      <trkpt lat="42.518550" lon="2.044240">
        <ele>1894.0</ele>
      </trkpt>
      <trkpt lat="42.518700" lon="2.044270">
        <ele>1895.0</ele>
      </trkpt>
      <trkpt lat="42.519230" lon="2.044420">
        <ele>1898.0</ele>
      </trkpt>
      <trkpt lat="42.519410" lon="2.044460">
        <ele>1900.0</ele>
      </trkpt>
      <trkpt lat="42.519640" lon="2.044460">
        <ele>1903.0</ele>
      </trkpt>
      <trkpt lat="42.519780" lon="2.044420">
        <ele>1905.0</ele>
      </trkpt>
      <trkpt lat="42.519930" lon="2.044350">
        <ele>1906.0</ele>
      </trkpt>
      <trkpt lat="42.520090" lon="2.044220">
        <ele>1907.0</ele>
      </trkpt>
      <trkpt lat="42.520200" lon="2.044090">
        <ele>1908.0</ele>
      </trkpt>
      <trkpt lat="42.520320" lon="2.043880">
        <ele>1909.0</ele>
      </trkpt>
      <trkpt lat="42.520380" lon="2.043680">
        <ele>1909.0</ele>
      </trkpt>
      <trkpt lat="42.520420" lon="2.043460">
        <ele>1910.0</ele>
      </trkpt>
      <trkpt lat="42.520440" lon="2.042960">
        <ele>1911.0</ele>
      </trkpt>
      <trkpt lat="42.520440" lon="2.042690">
        <ele>1911.0</ele>
      </trkpt>
      <trkpt lat="42.520470" lon="2.042220">
        <ele>1912.0</ele>
      </trkpt>
      <trkpt lat="42.520510" lon="2.041900">
        <ele>1913.0</ele>
      </trkpt>
      <trkpt lat="42.520590" lon="2.041500">
        <ele>1914.0</ele>
      </trkpt>
      <trkpt lat="42.520780" lon="2.040910">
        <ele>1915.0</ele>
      </trkpt>
      <trkpt lat="42.520930" lon="2.040520">
        <ele>1916.0</ele>
      </trkpt>
      <trkpt lat="42.521110" lon="2.040080">
        <ele>1917.0</ele>
      </trkpt>
      <trkpt lat="42.521180" lon="2.039900">
        <ele>1918.0</ele>
      </trkpt>
      <trkpt lat="42.521270" lon="2.039600">
        <ele>1919.0</ele>
      </trkpt>
      <trkpt lat="42.521280" lon="2.039130">
        <ele>1921.0</ele>
      </trkpt>
      <trkpt lat="42.521300" lon="2.037880">
        <ele>1923.0</ele>
      </trkpt>
      <trkpt lat="42.521220" lon="2.037700">
        <ele>1925.0</ele>
      </trkpt>
      <trkpt lat="42.521160" lon="2.037330">
        <ele>1926.0</ele>
      </trkpt>
      <trkpt lat="42.521070" lon="2.036830">
        <ele>1928.0</ele>
      </trkpt>
      <trkpt lat="42.521000" lon="2.036590">
        <ele>1930.0</ele>
      </trkpt>
      <trkpt lat="42.520740" lon="2.036200">
        <ele>1932.0</ele>
      </trkpt>
    </trkseg>
  </trk>
</gpx>