<?xml version="1.0" encoding="UTF-8"?>
<gpx version="1.1" creator="GPX Segmenter" xmlns="http://www.topografix.com/GPX/1/1">
  <trk>
    <name>stage-16-route - Segment 2 of 2</name>
    <trkseg>
      <trkpt lat="37.303550" lon="-6.751880">
        <ele>12.0</ele>
      </trkpt>
      <trkpt lat="37.303410" lon="-6.753920">
        <ele>11.0</ele>
      </trkpt>
      <trkpt lat="37.303410" lon="-6.753950">
        <ele>11.0</ele>
      </trkpt>
      <trkpt lat="37.302990" lon="-6.760060">
        <ele>9.0</ele>
      </trkpt>
      <trkpt lat="37.302730" lon="-6.763800">
        <ele>7.0</ele>
      </trkpt>
      <trkpt lat="37.302600" lon="-6.765710">
        <ele>6.0</ele>
      </trkpt>
      <trkpt lat="37.301930" lon="-6.775660">
        <ele>6.0</ele>
      </trkpt>
      <trkpt lat="37.301900" lon="-6.776190">
        <ele>6.0</ele>
      </trkpt>
      <trkpt lat="37.301910" lon="-6.776730">
        <ele>6.0</ele>
      </trkpt>
      <trkpt lat="37.301950" lon="-6.777260">
        <ele>5.0</ele>
      </trkpt>
      <trkpt lat="37.302040" lon="-6.777790">
        <ele>5.0</ele>
      </trkpt>
      <trkpt lat="37.302160" lon="-6.778300">
        <ele>5.0</ele>
      </trkpt>
      <trkpt lat="37.303540" lon="-6.782680">
        <ele>5.0</ele>
      </trkpt>
      <trkpt lat="37.304080" lon="-6.784410">
        <ele>4.0</ele>
      </trkpt>
      <trkpt lat="37.304150" lon="-6.784700">
        <ele>4.0</ele>
      </trkpt>
      <trkpt lat="37.304190" lon="-6.785000">
        <ele>4.0</ele>
      </trkpt>
      <trkpt lat="37.304210" lon="-6.785310">
        <ele>4.0</ele>
      </trkpt>
      <trkpt lat="37.304200" lon="-6.785610">
        <ele>4.0</ele>
      </trkpt>
      <trkpt lat="37.304170" lon="-6.785920">
        <ele>4.0</ele>
      </trkpt>
      <trkpt lat="37.301630" lon="-6.800320">
        <ele>5.0</ele>
      </trkpt>
      <trkpt lat="37.301570" lon="-6.800890">
        <ele>5.0</ele>
      </trkpt>
      <trkpt lat="37.301530" lon="-6.801500">
        <ele>6.0</ele>
      </trkpt>
      <trkpt lat="37.301540" lon="-6.802130">
        <ele>6.0</ele>
      </trkpt>
      <trkpt lat="37.301830" lon="-6.807360">
        <ele>6.0</ele>
      </trkpt>
      <trkpt lat="37.301840" lon="-6.807890">
        <ele>6.0</ele>
      </trkpt>
      <trkpt lat="37.301820" lon="-6.808450">
        <ele>5.0</ele>
      </trkpt>
      <trkpt lat="37.301690" lon="-6.810630">
        <ele>5.0</ele>
      </trkpt>
      <trkpt lat="37.301670" lon="-6.811180">
        <ele>4.0</ele>
      </trkpt>
      <trkpt lat="37.302010" lon="-6.818980">
        <ele>4.0</ele>
      </trkpt>
      <trkpt lat="37.302030" lon="-6.819260">
        <ele>3.0</ele>
      </trkpt>
      <trkpt lat="37.302050" lon="-6.819440">
        <ele>3.0</ele>
      </trkpt>
      <trkpt lat="37.302090" lon="-6.819680">
        <ele>3.0</ele>
      </trkpt>
      <trkpt lat="37.302190" lon="-6.820160">
        <ele>3.0</ele>
      </trkpt>
      <trkpt lat="37.302240" lon="-6.820260">
        <ele>3.0</ele>
      </trkpt>
      <trkpt lat="37.302290" lon="-6.820340">
        <ele>3.0</ele>
      </trkpt>
      <trkpt lat="37.302320" lon="-6.820380">
        <ele>3.0</ele>
      </trkpt>
      <trkpt lat="37.302330" lon="-6.820390">
        <ele>3.0</ele>
      </trkpt>
      <trkpt lat="37.302350" lon="-6.820390">
        <ele>3.0</ele>
      </trkpt>
      <trkpt lat="37.302370" lon="-6.820400">
        <ele>3.0</ele>
      </trkpt>
      <trkpt lat="37.302390" lon="-6.820410">
        <ele>3.0</ele>
      </trkpt>
      <trkpt lat="37.302400" lon="-6.820420">
        <ele>3.0</ele>
      </trkpt>
      <trkpt lat="37.302420" lon="-6.820430">
        <ele>3.0</ele>
      </trkpt>
      <trkpt lat="37.302430" lon="-6.820440">
        <ele>3.0</ele>
      </trkpt>
      <trkpt lat="37.302440" lon="-6.820450">
        <ele>3.0</ele>
      </trkpt>
      <trkpt lat="37.302450" lon="-6.820460">
        <ele>3.0</ele>
      </trkpt>
      <trkpt lat="37.302460" lon="-6.820470">
        <ele>3.0</ele>
      </trkpt>
      <trkpt lat="37.302470" lon="-6.820490">
        <ele>3.0</ele>
      </trkpt>
      <trkpt lat="37.302480" lon="-6.820510">
        <ele>3.0</ele>
      </trkpt>
      <trkpt lat="37.302480" lon="-6.820520">
        <ele>3.0</ele>
      </trkpt>
      <trkpt lat="37.302490" lon="-6.820530">
        <ele>3.0</ele>
      </trkpt>
      <trkpt lat="37.302500" lon="-6.820550">
        <ele>3.0</ele>
      </trkpt>
      <trkpt lat="37.302500" lon="-6.820570">
        <ele>3.0</ele>
      </trkpt>
      <trkpt lat="37.302510" lon="-6.820590">
        <ele>3.0</ele>
      </trkpt>
      <trkpt lat="37.302510" lon="-6.820600">
        <ele>3.0</ele>
      </trkpt>
      <trkpt lat="37.302550" lon="-6.820650">
        <ele>3.0</ele>
      </trkpt>
      <trkpt lat="37.302650" lon="-6.820830">
        <ele>3.0</ele>
      </trkpt>
      <trkpt lat="37.302670" lon="-6.820900">
        <ele>3.0</ele>
      </trkpt>
      <trkpt lat="37.302780" lon="-6.821100">
        <ele>3.0</ele>
      </trkpt>
      <trkpt lat="37.302800" lon="-6.821180">
        <ele>3.0</ele>
      </trkpt>
      <trkpt lat="37.302800" lon="-6.821240">
        <ele>3.0</ele>
      </trkpt>
      <trkpt lat="37.302790" lon="-6.821270">
        <ele>3.0</ele>
      </trkpt>
      <trkpt lat="37.302780" lon="-6.821330">
        <ele>3.0</ele>
      </trkpt>
      <trkpt lat="37.302750" lon="-6.821350">
        <ele>3.0</ele>
      </trkpt>
      <trkpt lat="37.302540" lon="-6.821530">
        <ele>3.0</ele>
      </trkpt>
      <trkpt lat="37.302370" lon="-6.821670">
        <ele>3.0</ele>
      </trkpt>
      <trkpt lat="37.302300" lon="-6.821790">
        <ele>3.0</ele>
      </trkpt>
      <trkpt lat="37.302050" lon="-6.822050">
        <ele>3.0</ele>
      </trkpt>
      <trkpt lat="37.301850" lon="-6.822300">
        <ele>3.0</ele>
      </trkpt>
      <trkpt lat="37.301650" lon="-6.822570">
        <ele>3.0</ele>
      </trkpt>
      <trkpt lat="37.301470" lon="-6.822880">
        <ele>3.0</ele>
      </trkpt>
      <trkpt lat="37.301020" lon="-6.823690">
        <ele>3.0</ele>
      </trkpt>
      <trkpt lat="37.300470" lon="-6.824610">
        <ele>3.0</ele>
      </trkpt>
      <trkpt lat="37.300360" lon="-6.824770">
        <ele>3.0</ele>
      </trkpt>
      <trkpt lat="37.299660" lon="-6.826070">
        <ele>3.0</ele>
      </trkpt>
      <trkpt lat="37.299210" lon="-6.826870">
        <ele>3.0</ele>
      </trkpt>
      <trkpt lat="37.298910" lon="-6.827360">
        <ele>4.0</ele>
      </trkpt>
      <trkpt lat="37.298670" lon="-6.827690">
        <ele>4.0</ele>
      </trkpt>
      <trkpt lat="37.298380" lon="-6.828010">
        <ele>5.0</ele>
      </trkpt>
      <trkpt lat="37.298050" lon="-6.828310">
        <ele>5.0</ele>
      </trkpt>
      <trkpt lat="37.297710" lon="-6.828560">
        <ele>5.0</ele>
      </trkpt>
      <trkpt lat="37.297300" lon="-6.828800">
        <ele>5.0</ele>
      </trkpt>
      <trkpt lat="37.296900" lon="-6.828960">
        <ele>6.0</ele>
      </trkpt>
      <trkpt lat="37.296480" lon="-6.829070">
        <ele>6.0</ele>
      </trkpt>
      <trkpt lat="37.294950" lon="-6.829280">
        <ele>7.0</ele>
      </trkpt>
      <trkpt lat="37.292280" lon="-6.829620">
        <ele>11.0</ele>
      </trkpt>
      <trkpt lat="37.290670" lon="-6.829790">
        <ele>16.0</ele>
      </trkpt>
      <trkpt lat="37.289770" lon="-6.829900">
        <ele>20.0</ele>
      </trkpt>
      <trkpt lat="37.285520" lon="-6.830250">
        <ele>29.0</ele>
      </trkpt>
      <trkpt lat="37.285060" lon="-6.830250">
        <ele>36.0</ele>
      </trkpt>
      <trkpt lat="37.284740" lon="-6.830210">
        <ele>41.0</ele>
      </trkpt>
      <trkpt lat="37.284190" lon="-6.830110">
        <ele>46.0</ele>
      </trkpt>
      <trkpt lat="37.283690" lon="-6.829900">
        <ele>50.0</ele>
      </trkpt>
      <trkpt lat="37.283540" lon="-6.829880">
        <ele>52.0</ele>
      </trkpt>
      <trkpt lat="37.283420" lon="-6.829870">
        <ele>54.0</ele>
      </trkpt>
      <trkpt lat="37.283350" lon="-6.829880">
        <ele>56.0</ele>
      </trkpt>
      <trkpt lat="37.283320" lon="-6.829890">
        <ele>57.0</ele>
      </trkpt>
      <trkpt lat="37.283280" lon="-6.829880">
        <ele>57.0</ele>
      </trkpt>
      <trkpt lat="37.283250" lon="-6.829860">
        <ele>58.0</ele>
      </trkpt>
      <trkpt lat="37.282880" lon="-6.829710">
        <ele>58.0</ele>
      </trkpt>
      <trkpt lat="37.282830" lon="-6.829670">
        <ele>59.0</ele>
      </trkpt>
      <trkpt lat="37.282810" lon="-6.829670">
        <ele>59.0</ele>
      </trkpt>
      <trkpt lat="37.282770" lon="-6.829670">
        <ele>59.0</ele>
      </trkpt>
      <trkpt lat="37.282740" lon="-6.829650">
        <ele>60.0</ele>
      </trkpt>
      <trkpt lat="37.282710" lon="-6.829620">
        <ele>60.0</ele>
      </trkpt>
      <trkpt lat="37.282690" lon="-6.829580">
        <ele>60.0</ele>
      </trkpt>
      <trkpt lat="37.282690" lon="-6.829570">
        <ele>60.0</ele>
      </trkpt>
      <trkpt lat="37.282530" lon="-6.829460">
        <ele>60.0</ele>
      </trkpt>
      <trkpt lat="37.282270" lon="-6.829350">
        <ele>61.0</ele>
      </trkpt>
      <trkpt lat="37.281820" lon="-6.829240">
        <ele>61.0</ele>
      </trkpt>
      <trkpt lat="37.281560" lon="-6.829200">
        <ele>62.0</ele>
      </trkpt>
      <trkpt lat="37.281290" lon="-6.829160">
        <ele>62.0</ele>
      </trkpt>
      <trkpt lat="37.280940" lon="-6.829140">
        <ele>63.0</ele>
      </trkpt>
      <trkpt lat="37.280840" lon="-6.829150">
        <ele>63.0</ele>
      </trkpt>
      <trkpt lat="37.280540" lon="-6.829150">
        <ele>63.0</ele>
      </trkpt>
      <trkpt lat="37.280260" lon="-6.829170">
        <ele>64.0</ele>
      </trkpt>
      <trkpt lat="37.279920" lon="-6.829200">
        <ele>64.0</ele>
      </trkpt>
      <trkpt lat="37.279660" lon="-6.829240">
        <ele>64.0</ele>
      </trkpt>
      <trkpt lat="37.279370" lon="-6.829300">
        <ele>64.0</ele>
      </trkpt>
      <trkpt lat="37.278170" lon="-6.829550">
        <ele>63.0</ele>
      </trkpt>
      <trkpt lat="37.278090" lon="-6.829550">
        <ele>62.0</ele>
      </trkpt>
      <trkpt lat="37.277170" lon="-6.829750">
        <ele>61.0</ele>
      </trkpt>
      <trkpt lat="37.277060" lon="-6.829780">
        <ele>60.0</ele>
      </trkpt>
      <trkpt lat="37.276990" lon="-6.829810">
        <ele>60.0</ele>
      </trkpt>
      <trkpt lat="37.276950" lon="-6.829840">
        <ele>59.0</ele>
      </trkpt>
      <trkpt lat="37.276920" lon="-6.829880">
        <ele>59.0</ele>
      </trkpt>
      <trkpt lat="37.276900" lon="-6.829900">
        <ele>59.0</ele>
      </trkpt>
      <trkpt lat="37.276870" lon="-6.829920">
        <ele>59.0</ele>
      </trkpt>
      <trkpt lat="37.276820" lon="-6.829920">
        <ele>59.0</ele>
      </trkpt>
      <trkpt lat="37.276780" lon="-6.829910">
        <ele>59.0</ele>
      </trkpt>
      <trkpt lat="37.276760" lon="-6.829880">
        <ele>58.0</ele>
      </trkpt>
      <trkpt lat="37.276490" lon="-6.829880">
        <ele>58.0</ele>
      </trkpt>
      <trkpt lat="37.276300" lon="-6.829930">
        <ele>58.0</ele>
      </trkpt>
      <trkpt lat="37.275890" lon="-6.830020">
        <ele>57.0</ele>
      </trkpt>
      <trkpt lat="37.274840" lon="-6.830250">
        <ele>56.0</ele>
      </trkpt>
      <trkpt lat="37.274420" lon="-6.830370">
        <ele>54.0</ele>
      </trkpt>
      <trkpt lat="37.274190" lon="-6.830450">
        <ele>53.0</ele>
      </trkpt>
      <trkpt lat="37.274000" lon="-6.830520">
        <ele>52.0</ele>
      </trkpt>
      <trkpt lat="37.273870" lon="-6.830600">
        <ele>51.0</ele>
      </trkpt>
      <trkpt lat="37.273470" lon="-6.830790">
        <ele>50.0</ele>
      </trkpt>
      <trkpt lat="37.273140" lon="-6.830970">
        <ele>49.0</ele>
      </trkpt>
      <trkpt lat="37.272890" lon="-6.831120">
        <ele>48.0</ele>
      </trkpt>
      <trkpt lat="37.272620" lon="-6.831300">
        <ele>47.0</ele>
      </trkpt>
      <trkpt lat="37.272380" lon="-6.831470">
        <ele>46.0</ele>
      </trkpt>
      <trkpt lat="37.272160" lon="-6.831640">
        <ele>45.0</ele>
      </trkpt>
      <trkpt lat="37.271890" lon="-6.831880">
        <ele>44.0</ele>
      </trkpt>
      <trkpt lat="37.271450" lon="-6.832300">
        <ele>43.0</ele>
      </trkpt>
      <trkpt lat="37.271340" lon="-6.832420">
        <ele>42.0</ele>
      </trkpt>
      <trkpt lat="37.271140" lon="-6.832630">
        <ele>41.0</ele>
      </trkpt>
      <trkpt lat="37.271020" lon="-6.832750">
        <ele>40.0</ele>
      </trkpt>
      <trkpt lat="37.270340" lon="-6.833470">
        <ele>39.0</ele>
      </trkpt>
      <trkpt lat="37.269200" lon="-6.834680">
        <ele>36.0</ele>
      </trkpt>
      <trkpt lat="37.269090" lon="-6.834770">
        <ele>34.0</ele>
      </trkpt>
      <trkpt lat="37.268690" lon="-6.835190">
        <ele>33.0</ele>
      </trkpt>
      <trkpt lat="37.268310" lon="-6.835600">
        <ele>33.0</ele>
      </trkpt>
      <trkpt lat="37.267860" lon="-6.836070">
        <ele>33.0</ele>
      </trkpt>
      <trkpt lat="37.266850" lon="-6.837160">
        <ele>34.0</ele>
      </trkpt>
      <trkpt lat="37.266080" lon="-6.838050">
        <ele>35.0</ele>
      </trkpt>
      <trkpt lat="37.265760" lon="-6.838430">
        <ele>36.0</ele>
      </trkpt>
      <trkpt lat="37.265460" lon="-6.838810">
        <ele>37.0</ele>
      </trkpt>
      <trkpt lat="37.264920" lon="-6.839530">
        <ele>38.0</ele>
      </trkpt>
      <trkpt lat="37.264410" lon="-6.840240">
        <ele>38.0</ele>
      </trkpt>
      <trkpt lat="37.264030" lon="-6.840810">
        <ele>37.0</ele>
      </trkpt>
      <trkpt lat="37.263760" lon="-6.841240">
        <ele>37.0</ele>
      </trkpt>
      <trkpt lat="37.263290" lon="-6.841970">
        <ele>38.0</ele>
      </trkpt>
      <trkpt lat="37.262810" lon="-6.842760">
        <ele>40.0</ele>
      </trkpt>
      <trkpt lat="37.262480" lon="-6.843310">
        <ele>40.0</ele>
      </trkpt>
      <trkpt lat="37.261960" lon="-6.844160">
        <ele>41.0</ele>
      </trkpt>
      <trkpt lat="37.261120" lon="-6.845530">
        <ele>40.0</ele>
      </trkpt>
      <trkpt lat="37.261020" lon="-6.845730">
        <ele>40.0</ele>
      </trkpt>
      <trkpt lat="37.260830" lon="-6.846030">
        <ele>40.0</ele>
      </trkpt>
      <trkpt lat="37.260310" lon="-6.846860">
        <ele>40.0</ele>
      </trkpt>
      <trkpt lat="37.260050" lon="-6.847280">
        <ele>40.0</ele>
      </trkpt>
      <trkpt lat="37.259840" lon="-6.847650">
        <ele>40.0</ele>
      </trkpt>
      <trkpt lat="37.259660" lon="-6.847960">
        <ele>39.0</ele>
      </trkpt>
      <trkpt lat="37.259400" lon="-6.848480">
        <ele>39.0</ele>
      </trkpt>
      <trkpt lat="37.259190" lon="-6.848990">
        <ele>38.0</ele>
      </trkpt>
      <trkpt lat="37.258950" lon="-6.849630">
        <ele>38.0</ele>
      </trkpt>
      <trkpt lat="37.258840" lon="-6.849940">
        <ele>37.0</ele>
      </trkpt>
      <trkpt lat="37.258740" lon="-6.850160">
        <ele>36.0</ele>
      </trkpt>
      <trkpt lat="37.258040" lon="-6.852090">
        <ele>33.0</ele>
      </trkpt>
      <trkpt lat="37.257770" lon="-6.852790">
        <ele>33.0</ele>
      </trkpt>
      <trkpt lat="37.257560" lon="-6.853260">
        <ele>34.0</ele>
      </trkpt>
      <trkpt lat="37.257000" lon="-6.854200">
        <ele>37.0</ele>
      </trkpt>
      <trkpt lat="37.256150" lon="-6.855550">
        <ele>39.0</ele>
      </trkpt>
      <trkpt lat="37.254940" lon="-6.857560">
        <ele>41.0</ele>
      </trkpt>
      <trkpt lat="37.253680" lon="-6.859590">
        <ele>40.0</ele>
      </trkpt>
      <trkpt lat="37.253120" lon="-6.860580">
        <ele>40.0</ele>
      </trkpt>
      <trkpt lat="37.252360" lon="-6.862010">
        <ele>41.0</ele>
      </trkpt>
      <trkpt lat="37.252300" lon="-6.862110">
        <ele>41.0</ele>
      </trkpt>
      <trkpt lat="37.252300" lon="-6.862110">
        <ele>41.0</ele>
      </trkpt>
      <trkpt lat="37.250180" lon="-6.865790">
        <ele>40.0</ele>
      </trkpt>
      <trkpt lat="37.249960" lon="-6.866220">
        <ele>39.0</ele>
      </trkpt>
      <trkpt lat="37.249810" lon="-6.866610">
        <ele>39.0</ele>
      </trkpt>
      <trkpt lat="37.249470" lon="-6.867860">
        <ele>40.0</ele>
      </trkpt>
      <trkpt lat="37.249420" lon="-6.868040">
        <ele>41.0</ele>
      </trkpt>
      <trkpt lat="37.249360" lon="-6.868240">
        <ele>41.0</ele>
      </trkpt>
      <trkpt lat="37.249310" lon="-6.868380">
        <ele>41.0</ele>
      </trkpt>
      <trkpt lat="37.249000" lon="-6.869200">
        <ele>40.0</ele>
      </trkpt>
      <trkpt lat="37.248210" lon="-6.871220">
        <ele>37.0</ele>
      </trkpt>
      <trkpt lat="37.247960" lon="-6.871810">
        <ele>34.0</ele>
      </trkpt>
      <trkpt lat="37.247720" lon="-6.872320">
        <ele>32.0</ele>
      </trkpt>
      <trkpt lat="37.247520" lon="-6.872710">
        <ele>31.0</ele>
      </trkpt>
      <trkpt lat="37.247280" lon="-6.873070">
        <ele>30.0</ele>
      </trkpt>
      <trkpt lat="37.246940" lon="-6.873500">
        <ele>29.0</ele>
      </trkpt>
      <trkpt lat="37.245930" lon="-6.874620">
        <ele>28.0</ele>
      </trkpt>
      <trkpt lat="37.245680" lon="-6.874970">
        <ele>28.0</ele>
      </trkpt>
      <trkpt lat="37.245500" lon="-6.875250">
        <ele>28.0</ele>
      </trkpt>
      <trkpt lat="37.245180" lon="-6.875800">
        <ele>28.0</ele>
      </trkpt>
      <trkpt lat="37.244640" lon="-6.876750">
        <ele>30.0</ele>
      </trkpt>
      <trkpt lat="37.244120" lon="-6.877750">
        <ele>32.0</ele>
      </trkpt>
      <trkpt lat="37.243970" lon="-6.878010">
        <ele>34.0</ele>
      </trkpt>
      <trkpt lat="37.243790" lon="-6.878250">
        <ele>35.0</ele>
      </trkpt>
      <trkpt lat="37.243150" lon="-6.879000">
        <ele>35.0</ele>
      </trkpt>
      <trkpt lat="37.242780" lon="-6.879520">
        <ele>36.0</ele>
      </trkpt>
      <trkpt lat="37.242320" lon="-6.880150">
        <ele>36.0</ele>
      </trkpt>
      <trkpt lat="37.242150" lon="-6.880350">
        <ele>36.0</ele>
      </trkpt>
      <trkpt lat="37.242060" lon="-6.880460">
        <ele>36.0</ele>
      </trkpt>
      <trkpt lat="37.241920" lon="-6.880580">
        <ele>36.0</ele>
      </trkpt>
      <trkpt lat="37.241580" lon="-6.880840">
        <ele>36.0</ele>
      </trkpt>
      <trkpt lat="37.241370" lon="-6.880980">
        <ele>36.0</ele>
      </trkpt>
      <trkpt lat="37.241190" lon="-6.881100">
        <ele>36.0</ele>
      </trkpt>
      <trkpt lat="37.240820" lon="-6.881320">
        <ele>36.0</ele>
      </trkpt>
      <trkpt lat="37.240690" lon="-6.881430">
        <ele>36.0</ele>
      </trkpt>
      <trkpt lat="37.240600" lon="-6.881500">
        <ele>35.0</ele>
      </trkpt>
      <trkpt lat="37.240530" lon="-6.881570">
        <ele>35.0</ele>
      </trkpt>
      <trkpt lat="37.240490" lon="-6.881630">
        <ele>35.0</ele>
      </trkpt>
      <trkpt lat="37.240480" lon="-6.881690">
        <ele>35.0</ele>
      </trkpt>
      <trkpt lat="37.240470" lon="-6.881740">
        <ele>34.0</ele>
      </trkpt>
      <trkpt lat="37.240440" lon="-6.881780">
        <ele>34.0</ele>
      </trkpt>
      <trkpt lat="37.240410" lon="-6.881820">
        <ele>34.0</ele>
      </trkpt>
      <trkpt lat="37.240380" lon="-6.881850">
        <ele>34.0</ele>
      </trkpt>
      <trkpt lat="37.240340" lon="-6.881870">
        <ele>34.0</ele>
      </trkpt>
      <trkpt lat="37.240290" lon="-6.881880">
        <ele>34.0</ele>
      </trkpt>
      <trkpt lat="37.240250" lon="-6.881880">
        <ele>34.0</ele>
      </trkpt>
      <trkpt lat="37.240210" lon="-6.881860">
        <ele>34.0</ele>
      </trkpt>
      <trkpt lat="37.240170" lon="-6.881840">
        <ele>34.0</ele>
      </trkpt>
      <trkpt lat="37.240140" lon="-6.881800">
        <ele>34.0</ele>
      </trkpt>
      <trkpt lat="37.240110" lon="-6.881770">
        <ele>33.0</ele>
      </trkpt>
      <trkpt lat="37.240090" lon="-6.881730">
        <ele>33.0</ele>
      </trkpt>
      <trkpt lat="37.240080" lon="-6.881680">
        <ele>33.0</ele>
      </trkpt>
      <trkpt lat="37.240020" lon="-6.881620">
        <ele>33.0</ele>
      </trkpt>
      <trkpt lat="37.239940" lon="-6.881560">
        <ele>33.0</ele>
      </trkpt>
      <trkpt lat="37.239830" lon="-6.881520">
        <ele>33.0</ele>
      </trkpt>
      <trkpt lat="37.239720" lon="-6.881480">
        <ele>33.0</ele>
      </trkpt>
      <trkpt lat="37.239080" lon="-6.881450">
        <ele>32.0</ele>
      </trkpt>
      <trkpt lat="37.238780" lon="-6.881420">
        <ele>32.0</ele>
      </trkpt>
      <trkpt lat="37.238500" lon="-6.881390">
        <ele>32.0</ele>
      </trkpt>
      <trkpt lat="37.238240" lon="-6.881330">
        <ele>31.0</ele>
      </trkpt>
      <trkpt lat="37.238010" lon="-6.881270">
        <ele>31.0</ele>
      </trkpt>
      <trkpt lat="37.237760" lon="-6.881200">
        <ele>31.0</ele>
      </trkpt>
      <trkpt lat="37.237520" lon="-6.881110">
        <ele>30.0</ele>
      </trkpt>
      <trkpt lat="37.237310" lon="-6.881020">
        <ele>30.0</ele>
      </trkpt>
      <trkpt lat="37.237100" lon="-6.880920">
        <ele>29.0</ele>
      </trkpt>
      <trkpt lat="37.236680" lon="-6.880680">
        <ele>29.0</ele>
      </trkpt>
      <trkpt lat="37.236280" lon="-6.880400">
        <ele>28.0</ele>
      </trkpt>
      <trkpt lat="37.235890" lon="-6.880080">
        <ele>27.0</ele>
      </trkpt>
      <trkpt lat="37.235030" lon="-6.879300">
        <ele>25.0</ele>
      </trkpt>
      <trkpt lat="37.234240" lon="-6.878570">
        <ele>22.0</ele>
      </trkpt>
      <trkpt lat="37.233280" lon="-6.877690">
        <ele>23.0</ele>
      </trkpt>
      <trkpt lat="37.231560" lon="-6.876100">
        <ele>27.0</ele>
      </trkpt>
      <trkpt lat="37.228850" lon="-6.873620">
        <ele>32.0</ele>
      </trkpt>
      <trkpt lat="37.228150" lon="-6.873020">
        <ele>37.0</ele>
      </trkpt>
      <trkpt lat="37.227610" lon="-6.872630">
        <ele>41.0</ele>
      </trkpt>
      <trkpt lat="37.227180" lon="-6.872390">
        <ele>44.0</ele>
      </trkpt>
      <trkpt lat="37.226750" lon="-6.872200">
        <ele>45.0</ele>
      </trkpt>
      <trkpt lat="37.226280" lon="-6.872030">
        <ele>46.0</ele>
      </trkpt>
      <trkpt lat="37.225930" lon="-6.871940">
        <ele>47.0</ele>
      </trkpt>
      <trkpt lat="37.225500" lon="-6.871840">
        <ele>47.0</ele>
      </trkpt>
      <trkpt lat="37.225040" lon="-6.871780">
        <ele>47.0</ele>
      </trkpt>
      <trkpt lat="37.224610" lon="-6.871740">
        <ele>47.0</ele>
      </trkpt>
      <trkpt lat="37.224130" lon="-6.871750">
        <ele>46.0</ele>
      </trkpt>
      <trkpt lat="37.223550" lon="-6.871820">
        <ele>46.0</ele>
      </trkpt>
      <trkpt lat="37.223040" lon="-6.871970">
        <ele>46.0</ele>
      </trkpt>
      <trkpt lat="37.222620" lon="-6.872130">
        <ele>46.0</ele>
      </trkpt>
      <trkpt lat="37.221600" lon="-6.872550">
        <ele>45.0</ele>
      </trkpt>
      <trkpt lat="37.220460" lon="-6.873050">
        <ele>43.0</ele>
      </trkpt>
      <trkpt lat="37.219700" lon="-6.873290">
        <ele>42.0</ele>
      </trkpt>
      <trkpt lat="37.218820" lon="-6.873460">
        <ele>41.0</ele>
      </trkpt>
      <trkpt lat="37.218270" lon="-6.873490">
        <ele>41.0</ele>
      </trkpt>
      <trkpt lat="37.218270" lon="-6.873490">
        <ele>40.0</ele>
      </trkpt>
      <trkpt lat="37.218160" lon="-6.873500">
        <ele>40.0</ele>
      </trkpt>
      <trkpt lat="37.217570" lon="-6.873500">
        <ele>39.0</ele>
      </trkpt>
      <trkpt lat="37.216950" lon="-6.873430">
        <ele>37.0</ele>
      </trkpt>
      <trkpt lat="37.216250" lon="-6.873310">
        <ele>35.0</ele>
      </trkpt>
      <trkpt lat="37.215820" lon="-6.873180">
        <ele>34.0</ele>
      </trkpt>
      <trkpt lat="37.215730" lon="-6.873150">
        <ele>32.0</ele>
      </trkpt>
      <trkpt lat="37.214410" lon="-6.872660">
        <ele>30.0</ele>
      </trkpt>
      <trkpt lat="37.213660" lon="-6.872400">
        <ele>28.0</ele>
      </trkpt>
      <trkpt lat="37.212610" lon="-6.872120">
        <ele>25.0</ele>
      </trkpt>
      <trkpt lat="37.211670" lon="-6.871970">
        <ele>23.0</ele>
      </trkpt>
      <trkpt lat="37.211410" lon="-6.871940">
        <ele>22.0</ele>
      </trkpt>
      <trkpt lat="37.210910" lon="-6.871890">
        <ele>20.0</ele>
      </trkpt>
      <trkpt lat="37.210190" lon="-6.871860">
        <ele>19.0</ele>
      </trkpt>
      <trkpt lat="37.209670" lon="-6.871860">
        <ele>18.0</ele>
      </trkpt>
      <trkpt lat="37.209140" lon="-6.871890">
        <ele>18.0</ele>
      </trkpt>
      <trkpt lat="37.209140" lon="-6.871890">
        <ele>18.0</ele>
      </trkpt>
      <trkpt lat="37.209090" lon="-6.871890">
        <ele>17.0</ele>
      </trkpt>
      <trkpt lat="37.208650" lon="-6.871930">
        <ele>17.0</ele>
      </trkpt>
      <trkpt lat="37.208180" lon="-6.871990">
        <ele>17.0</ele>
      </trkpt>
      <trkpt lat="37.207390" lon="-6.872140">
        <ele>16.0</ele>
      </trkpt>
      <trkpt lat="37.206810" lon="-6.872280">
        <ele>14.0</ele>
      </trkpt>
      <trkpt lat="37.206380" lon="-6.872410">
        <ele>11.0</ele>
      </trkpt>
      <trkpt lat="37.205940" lon="-6.872550">
        <ele>10.0</ele>
      </trkpt>
      <trkpt lat="37.205830" lon="-6.872590">
        <ele>8.0</ele>
      </trkpt>
      <trkpt lat="37.205330" lon="-6.872780">
        <ele>7.0</ele>
      </trkpt>
      <trkpt lat="37.204100" lon="-6.873300">
        <ele>6.0</ele>
      </trkpt>
      <trkpt lat="37.203780" lon="-6.873430">
        <ele>7.0</ele>
      </trkpt>
      <trkpt lat="37.203370" lon="-6.873570">
        <ele>8.0</ele>
      </trkpt>
      <trkpt lat="37.202870" lon="-6.873710">
        <ele>10.0</ele>
      </trkpt>
      <trkpt lat="37.202440" lon="-6.873810">
        <ele>13.0</ele>
      </trkpt>
      <trkpt lat="37.201950" lon="-6.873900">
        <ele>16.0</ele>
      </trkpt>
      <trkpt lat="37.201530" lon="-6.873950">
        <ele>19.0</ele>
      </trkpt>
      <trkpt lat="37.201070" lon="-6.874000">
        <ele>21.0</ele>
      </trkpt>
      <trkpt lat="37.200610" lon="-6.874010">
        <ele>23.0</ele>
      </trkpt>
      <trkpt lat="37.200110" lon="-6.874000">
        <ele>25.0</ele>
      </trkpt>
      <trkpt lat="37.199580" lon="-6.873970">
        <ele>26.0</ele>
      </trkpt>
      <trkpt lat="37.199290" lon="-6.873930">
        <ele>27.0</ele>
      </trkpt>
      <trkpt lat="37.198730" lon="-6.873840">
        <ele>29.0</ele>
      </trkpt>
      <trkpt lat="37.198170" lon="-6.873720">
        <ele>30.0</ele>
      </trkpt>
      <trkpt lat="37.197960" lon="-6.873660">
        <ele>30.0</ele>
      </trkpt>
      <trkpt lat="37.197610" lon="-6.873560">
        <ele>31.0</ele>
      </trkpt>
      <trkpt lat="37.197330" lon="-6.873470">
        <ele>31.0</ele>
      </trkpt>
      <trkpt lat="37.197200" lon="-6.873430">
        <ele>31.0</ele>
      </trkpt>
      <trkpt lat="37.196660" lon="-6.873220">
        <ele>31.0</ele>
      </trkpt>
      <trkpt lat="37.196130" lon="-6.872990">
        <ele>31.0</ele>
      </trkpt>
      <trkpt lat="37.195870" lon="-6.872880">
        <ele>31.0</ele>
      </trkpt>
      <trkpt lat="37.195560" lon="-6.872710">
        <ele>31.0</ele>
      </trkpt>
      <trkpt lat="37.195120" lon="-6.872450">
        <ele>31.0</ele>
      </trkpt>
      <trkpt lat="37.194690" lon="-6.872150">
        <ele>31.0</ele>
      </trkpt>
      <trkpt lat="37.194320" lon="-6.871860">
        <ele>31.0</ele>
      </trkpt>
      <trkpt lat="37.193950" lon="-6.871560">
        <ele>31.0</ele>
      </trkpt>
      <trkpt lat="37.193820" lon="-6.871430">
        <ele>31.0</ele>
      </trkpt>
      <trkpt lat="37.192850" lon="-6.870600">
        <ele>31.0</ele>
      </trkpt>
      <trkpt lat="37.191610" lon="-6.869540">
        <ele>31.0</ele>
      </trkpt>
      <trkpt lat="37.191510" lon="-6.869490">
        <ele>30.0</ele>
      </trkpt>
      <trkpt lat="37.190540" lon="-6.868660">
        <ele>29.0</ele>
      </trkpt>
      <trkpt lat="37.190400" lon="-6.868540">
        <ele>29.0</ele>
      </trkpt>
      <trkpt lat="37.190280" lon="-6.868430">
        <ele>29.0</ele>
      </trkpt>
      <trkpt lat="37.190150" lon="-6.868330">
        <ele>28.0</ele>
      </trkpt>
      <trkpt lat="37.190090" lon="-6.868290">
        <ele>28.0</ele>
      </trkpt>
      <trkpt lat="37.189970" lon="-6.868210">
        <ele>28.0</ele>
      </trkpt>
      <trkpt lat="37.189880" lon="-6.868130">
        <ele>28.0</ele>
      </trkpt>
      <trkpt lat="37.189790" lon="-6.868030">
        <ele>28.0</ele>
      </trkpt>
      <trkpt lat="37.189710" lon="-6.867950">
        <ele>28.0</ele>
      </trkpt>
      <trkpt lat="37.189520" lon="-6.867770">
        <ele>27.0</ele>
      </trkpt>
      <trkpt lat="37.186690" lon="-6.865360">
        <ele>27.0</ele>
      </trkpt>
      <trkpt lat="37.186550" lon="-6.865230">
        <ele>27.0</ele>
      </trkpt>
      <trkpt lat="37.186420" lon="-6.865130">
        <ele>27.0</ele>
      </trkpt>
      <trkpt lat="37.186300" lon="-6.865030">
        <ele>27.0</ele>
      </trkpt>
      <trkpt lat="37.186240" lon="-6.864990">
        <ele>27.0</ele>
      </trkpt>
      <trkpt lat="37.186100" lon="-6.864900">
        <ele>27.0</ele>
      </trkpt>
      <trkpt lat="37.186010" lon="-6.864820">
        <ele>27.0</ele>
      </trkpt>
      <trkpt lat="37.185930" lon="-6.864730">
        <ele>27.0</ele>
      </trkpt>
      <trkpt lat="37.185860" lon="-6.864660">
        <ele>27.0</ele>
      </trkpt>
      <trkpt lat="37.185490" lon="-6.864320">
        <ele>27.0</ele>
      </trkpt>
      <trkpt lat="37.181480" lon="-6.860890">
        <ele>27.0</ele>
      </trkpt>
      <trkpt lat="37.181240" lon="-6.860690">
        <ele>27.0</ele>
      </trkpt>
      <trkpt lat="37.181090" lon="-6.860570">
        <ele>27.0</ele>
      </trkpt>
      <trkpt lat="37.180970" lon="-6.860470">
        <ele>27.0</ele>
      </trkpt>
      <trkpt lat="37.180840" lon="-6.860380">
        <ele>27.0</ele>
      </trkpt>
      <trkpt lat="37.180780" lon="-6.860340">
        <ele>27.0</ele>
      </trkpt>
      <trkpt lat="37.180640" lon="-6.860260">
        <ele>27.0</ele>
      </trkpt>
      <trkpt lat="37.180570" lon="-6.860200">
        <ele>27.0</ele>
      </trkpt>
      <trkpt lat="37.180470" lon="-6.860080">
        <ele>27.0</ele>
      </trkpt>
      <trkpt lat="37.180380" lon="-6.860000">
        <ele>27.0</ele>
      </trkpt>
      <trkpt lat="37.180300" lon="-6.859920">
        <ele>27.0</ele>
      </trkpt>
      <trkpt lat="37.180030" lon="-6.859650">
        <ele>28.0</ele>
      </trkpt>
      <trkpt lat="37.179210" lon="-6.858940">
        <ele>28.0</ele>
      </trkpt>
      <trkpt lat="37.179160" lon="-6.858860">
        <ele>28.0</ele>
      </trkpt>
      <trkpt lat="37.178770" lon="-6.858530">
        <ele>28.0</ele>
      </trkpt>
      <trkpt lat="37.177180" lon="-6.857170">
        <ele>28.0</ele>
      </trkpt>
      <trkpt lat="37.175040" lon="-6.855330">
        <ele>29.0</ele>
      </trkpt>
      <trkpt lat="37.173760" lon="-6.854240">
        <ele>31.0</ele>
      </trkpt>
      <trkpt lat="37.172450" lon="-6.853110">
        <ele>32.0</ele>
      </trkpt>
      <trkpt lat="37.169510" lon="-6.850630">
        <ele>31.0</ele>
      </trkpt>
      <trkpt lat="37.169150" lon="-6.850260">
        <ele>31.0</ele>
      </trkpt>
      <trkpt lat="37.168890" lon="-6.849910">
        <ele>30.0</ele>
      </trkpt>
      <trkpt lat="37.166200" lon="-6.845830">
        <ele>29.0</ele>
      </trkpt>
      <trkpt lat="37.165920" lon="-6.845440">
        <ele>27.0</ele>
      </trkpt>
      <trkpt lat="37.165660" lon="-6.845150">
        <ele>27.0</ele>
      </trkpt>
      <trkpt lat="37.165360" lon="-6.844890">
        <ele>26.0</ele>
      </trkpt>
      <trkpt lat="37.165030" lon="-6.844690">
        <ele>26.0</ele>
      </trkpt>
      <trkpt lat="37.164710" lon="-6.844540">
        <ele>25.0</ele>
      </trkpt>
      <trkpt lat="37.163500" lon="-6.843940">
        <ele>23.0</ele>
      </trkpt>
      <trkpt lat="37.162910" lon="-6.843610">
        <ele>20.0</ele>
      </trkpt>
      <trkpt lat="37.162570" lon="-6.843350">
        <ele>18.0</ele>
      </trkpt>
      <trkpt lat="37.160990" lon="-6.841740">
        <ele>15.0</ele>
      </trkpt>
      <trkpt lat="37.160630" lon="-6.841410">
        <ele>14.0</ele>
      </trkpt>
      <trkpt lat="37.160310" lon="-6.841180">
        <ele>14.0</ele>
      </trkpt>
      <trkpt lat="37.159960" lon="-6.840960">
        <ele>15.0</ele>
      </trkpt>
      <trkpt lat="37.159500" lon="-6.840760">
        <ele>17.0</ele>
      </trkpt>
      <trkpt lat="37.158470" lon="-6.840420">
        <ele>21.0</ele>
      </trkpt>
      <trkpt lat="37.153440" lon="-6.838670">
        <ele>24.0</ele>
      </trkpt>
      <trkpt lat="37.153010" lon="-6.838440">
        <ele>26.0</ele>
      </trkpt>
      <trkpt lat="37.152130" lon="-6.837830">
        <ele>28.0</ele>
      </trkpt>
      <trkpt lat="37.149930" lon="-6.836280">
        <ele>31.0</ele>
      </trkpt>
      <trkpt lat="37.147650" lon="-6.834680">
        <ele>34.0</ele>
      </trkpt>
      <trkpt lat="37.146720" lon="-6.833990">
        <ele>36.0</ele>
      </trkpt>
      <trkpt lat="37.144510" lon="-6.832510">
        <ele>37.0</ele>
      </trkpt>
      <trkpt lat="37.142290" lon="-6.831010">
        <ele>36.0</ele>
      </trkpt>
      <trkpt lat="37.142200" lon="-6.830970">
        <ele>36.0</ele>
      </trkpt>
      <trkpt lat="37.142020" lon="-6.830860">
        <ele>35.0</ele>
      </trkpt>
      <trkpt lat="37.141920" lon="-6.830830">
        <ele>35.0</ele>
      </trkpt>
      <trkpt lat="37.141810" lon="-6.830820">
        <ele>35.0</ele>
      </trkpt>
      <trkpt lat="37.141700" lon="-6.830850">
        <ele>35.0</ele>
      </trkpt>
      <trkpt lat="37.141670" lon="-6.830870">
        <ele>35.0</ele>
      </trkpt>
      <trkpt lat="37.141610" lon="-6.830930">
        <ele>35.0</ele>
      </trkpt>
      <trkpt lat="37.141540" lon="-6.831070">
        <ele>35.0</ele>
      </trkpt>
      <trkpt lat="37.141510" lon="-6.831170">
        <ele>35.0</ele>
      </trkpt>
      <trkpt lat="37.141500" lon="-6.831320">
        <ele>35.0</ele>
      </trkpt>
      <trkpt lat="37.141550" lon="-6.831660">
        <ele>35.0</ele>
      </trkpt>
      <trkpt lat="37.141690" lon="-6.832180">
        <ele>36.0</ele>
      </trkpt>
      <trkpt lat="37.141880" lon="-6.832720">
        <ele>36.0</ele>
      </trkpt>
      <trkpt lat="37.142060" lon="-6.833140">
        <ele>36.0</ele>
      </trkpt>
      <trkpt lat="37.142060" lon="-6.833140">
        <ele>36.0</ele>
      </trkpt>
      <trkpt lat="37.142110" lon="-6.833230">
        <ele>36.0</ele>
      </trkpt>
      <trkpt lat="37.142340" lon="-6.833670">
        <ele>36.0</ele>
      </trkpt>
      <trkpt lat="37.142790" lon="-6.834420">
        <ele>36.0</ele>
      </trkpt>
      <trkpt lat="37.146140" lon="-6.839820">
        <ele>36.0</ele>
      </trkpt>
      <trkpt lat="37.146250" lon="-6.840000">
        <ele>36.0</ele>
      </trkpt>
      <trkpt lat="37.146480" lon="-6.840360">
        <ele>36.0</ele>
      </trkpt>
      <trkpt lat="37.146550" lon="-6.840490">
        <ele>36.0</ele>
      </trkpt>
      <trkpt lat="37.146930" lon="-6.841160">
        <ele>36.0</ele>
      </trkpt>
      <trkpt lat="37.147100" lon="-6.841470">
        <ele>36.0</ele>
      </trkpt>
      <trkpt lat="37.147240" lon="-6.841750">
        <ele>36.0</ele>
      </trkpt>
      <trkpt lat="37.147280" lon="-6.841820">
        <ele>35.0</ele>
      </trkpt>
      <trkpt lat="37.147470" lon="-6.842200">
        <ele>35.0</ele>
      </trkpt>
      <trkpt lat="37.147720" lon="-6.842720">
        <ele>34.0</ele>
      </trkpt>
      <trkpt lat="37.147980" lon="-6.843300">
        <ele>32.0</ele>
      </trkpt>
      <trkpt lat="37.148230" lon="-6.843920">
        <ele>30.0</ele>
      </trkpt>
      <trkpt lat="37.148430" lon="-6.844430">
        <ele>29.0</ele>
      </trkpt>
      <trkpt lat="37.148830" lon="-6.845570">
        <ele>28.0</ele>
      </trkpt>
      <trkpt lat="37.149040" lon="-6.846280">
        <ele>27.0</ele>
      </trkpt>
      <trkpt lat="37.149280" lon="-6.847170">
        <ele>26.0</ele>
      </trkpt>
      <trkpt lat="37.149450" lon="-6.847850">
        <ele>26.0</ele>
      </trkpt>
      <trkpt lat="37.149600" lon="-6.848540">
        <ele>25.0</ele>
      </trkpt>
      <trkpt lat="37.149870" lon="-6.850080">
        <ele>24.0</ele>
      </trkpt>
      <trkpt lat="37.150030" lon="-6.851590">
        <ele>23.0</ele>
      </trkpt>
      <trkpt lat="37.150060" lon="-6.851940">
        <ele>22.0</ele>
      </trkpt>
      <trkpt lat="37.150160" lon="-6.853360">
        <ele>22.0</ele>
      </trkpt>
      <trkpt lat="37.150170" lon="-6.853520">
        <ele>21.0</ele>
      </trkpt>
      <trkpt lat="37.150730" lon="-6.864280">
        <ele>20.0</ele>
      </trkpt>
      <trkpt lat="37.150840" lon="-6.865040">
        <ele>19.0</ele>
      </trkpt>
      <trkpt lat="37.150970" lon="-6.865690">
        <ele>18.0</ele>
      </trkpt>
      <trkpt lat="37.151160" lon="-6.866400">
        <ele>16.0</ele>
      </trkpt>
      <trkpt lat="37.151320" lon="-6.866860">
        <ele>14.0</ele>
      </trkpt>
      <trkpt lat="37.151490" lon="-6.867300">
        <ele>13.0</ele>
      </trkpt>
      <trkpt lat="37.151640" lon="-6.867650">
        <ele>13.0</ele>
      </trkpt>
      <trkpt lat="37.151800" lon="-6.867980">
        <ele>12.0</ele>
      </trkpt>
      <trkpt lat="37.152040" lon="-6.868430">
        <ele>12.0</ele>
      </trkpt>
      <trkpt lat="37.152300" lon="-6.868860">
        <ele>12.0</ele>
      </trkpt>
      <trkpt lat="37.153280" lon="-6.870360">
        <ele>11.0</ele>
      </trkpt>
      <trkpt lat="37.153930" lon="-6.871340">
        <ele>11.0</ele>
      </trkpt>
      <trkpt lat="37.154230" lon="-6.871780">
        <ele>10.0</ele>
      </trkpt>
      <trkpt lat="37.154470" lon="-6.872100">
        <ele>10.0</ele>
      </trkpt>
      <trkpt lat="37.154720" lon="-6.872400">
        <ele>10.0</ele>
      </trkpt>
      <trkpt lat="37.155070" lon="-6.872830">
        <ele>11.0</ele>
      </trkpt>
      <trkpt lat="37.155510" lon="-6.873330">
        <ele>11.0</ele>
      </trkpt>
      <trkpt lat="37.155940" lon="-6.873810">
        <ele>11.0</ele>
      </trkpt>
      <trkpt lat="37.156280" lon="-6.874200">
        <ele>10.0</ele>
      </trkpt>
      <trkpt lat="37.156560" lon="-6.874550">
        <ele>10.0</ele>
      </trkpt>
      <trkpt lat="37.156760" lon="-6.874850">
        <ele>9.0</ele>
      </trkpt>
      <trkpt lat="37.156890" lon="-6.875040">
        <ele>9.0</ele>
      </trkpt>
      <trkpt lat="37.157180" lon="-6.875520">
        <ele>8.0</ele>
      </trkpt>
      <trkpt lat="37.157430" lon="-6.876050">
        <ele>8.0</ele>
      </trkpt>
      <trkpt lat="37.158750" lon="-6.878970">
        <ele>9.0</ele>
      </trkpt>
      <trkpt lat="37.159330" lon="-6.880260">
        <ele>9.0</ele>
      </trkpt>
      <trkpt lat="37.159750" lon="-6.881150">
        <ele>10.0</ele>
      </trkpt>
      <trkpt lat="37.160220" lon="-6.882020">
        <ele>10.0</ele>
      </trkpt>
      <trkpt lat="37.161220" lon="-6.883770">
        <ele>10.0</ele>
      </trkpt>
      <trkpt lat="37.161540" lon="-6.884490">
        <ele>10.0</ele>
      </trkpt>
      <trkpt lat="37.162420" lon="-6.886750">
        <ele>9.0</ele>
      </trkpt>
      <trkpt lat="37.162670" lon="-6.887290">
        <ele>8.0</ele>
      </trkpt>
      <trkpt lat="37.162950" lon="-6.887800">
        <ele>7.0</ele>
      </trkpt>
      <trkpt lat="37.163270" lon="-6.888240">
        <ele>7.0</ele>
      </trkpt>
      <trkpt lat="37.163770" lon="-6.888790">
        <ele>7.0</ele>
      </trkpt>
      <trkpt lat="37.164080" lon="-6.889060">
        <ele>7.0</ele>
      </trkpt>
      <trkpt lat="37.164320" lon="-6.889260">
        <ele>7.0</ele>
      </trkpt>
      <trkpt lat="37.164780" lon="-6.889570">
        <ele>7.0</ele>
      </trkpt>
      <trkpt lat="37.165190" lon="-6.889840">
        <ele>7.0</ele>
      </trkpt>
      <trkpt lat="37.166310" lon="-6.890650">
        <ele>7.0</ele>
      </trkpt>
      <trkpt lat="37.167120" lon="-6.891370">
        <ele>8.0</ele>
      </trkpt>
      <trkpt lat="37.168190" lon="-6.892410">
        <ele>10.0</ele>
      </trkpt>
      <trkpt lat="37.168820" lon="-6.893120">
        <ele>11.0</ele>
      </trkpt>
      <trkpt lat="37.169410" lon="-6.893880">
        <ele>11.0</ele>
      </trkpt>
      <trkpt lat="37.170000" lon="-6.894780">
        <ele>11.0</ele>
      </trkpt>
      <trkpt lat="37.170190" lon="-6.895060">
        <ele>11.0</ele>
      </trkpt>
      <trkpt lat="37.170910" lon="-6.896320">
        <ele>10.0</ele>
      </trkpt>
      <trkpt lat="37.171360" lon="-6.897080">
        <ele>9.0</ele>
      </trkpt>
      <trkpt lat="37.171660" lon="-6.897590">
        <ele>8.0</ele>
      </trkpt>
      <trkpt lat="37.172890" lon="-6.899660">
        <ele>9.0</ele>
      </trkpt>
      <trkpt lat="37.173100" lon="-6.899870">
        <ele>10.0</ele>
      </trkpt>
      <trkpt lat="37.173180" lon="-6.899920">
        <ele>10.0</ele>
      </trkpt>
      <trkpt lat="37.173270" lon="-6.899930">
        <ele>10.0</ele>
      </trkpt>
      <trkpt lat="37.173340" lon="-6.900000">
        <ele>11.0</ele>
      </trkpt>
      <trkpt lat="37.173390" lon="-6.900080">
        <ele>11.0</ele>
      </trkpt>
      <trkpt lat="37.173390" lon="-6.900160">
        <ele>11.0</ele>
      </trkpt>
      <trkpt lat="37.173370" lon="-6.900270">
        <ele>11.0</ele>
      </trkpt>
      <trkpt lat="37.173400" lon="-6.900390">
        <ele>12.0</ele>
      </trkpt>
      <trkpt lat="37.173520" lon="-6.900720">
        <ele>12.0</ele>
      </trkpt>
      <trkpt lat="37.174590" lon="-6.902540">
        <ele>13.0</ele>
      </trkpt>
      <trkpt lat="37.175320" lon="-6.903790">
        <ele>14.0</ele>
      </trkpt>
      <trkpt lat="37.175970" lon="-6.904840">
        <ele>14.0</ele>
      </trkpt>
      <trkpt lat="37.176500" lon="-6.905620">
        <ele>13.0</ele>
      </trkpt>
      <trkpt lat="37.180260" lon="-6.910450">
        <ele>11.0</ele>
      </trkpt>
      <trkpt lat="37.180870" lon="-6.911120">
        <ele>10.0</ele>
      </trkpt>
      <trkpt lat="37.181970" lon="-6.912560">
        <ele>8.0</ele>
      </trkpt>
      <trkpt lat="37.182690" lon="-6.913470">
        <ele>7.0</ele>
      </trkpt>
      <trkpt lat="37.183360" lon="-6.914460">
        <ele>8.0</ele>
      </trkpt>
      <trkpt lat="37.184770" lon="-6.916260">
        <ele>7.0</ele>
      </trkpt>
      <trkpt lat="37.185540" lon="-6.917150">
        <ele>7.0</ele>
      </trkpt>
      <trkpt lat="37.186510" lon="-6.918060">
        <ele>7.0</ele>
      </trkpt>
      <trkpt lat="37.187580" lon="-6.918940">
        <ele>6.0</ele>
      </trkpt>
      <trkpt lat="37.187940" lon="-6.919230">
        <ele>6.0</ele>
      </trkpt>
      <trkpt lat="37.188540" lon="-6.919740">
        <ele>5.0</ele>
      </trkpt>
      <trkpt lat="37.189140" lon="-6.920240">
        <ele>4.0</ele>
      </trkpt>
      <trkpt lat="37.191020" lon="-6.921810">
        <ele>4.0</ele>
      </trkpt>
      <trkpt lat="37.193450" lon="-6.923820">
        <ele>5.0</ele>
      </trkpt>
      <trkpt lat="37.193450" lon="-6.923820">
        <ele>6.0</ele>
      </trkpt>
      <trkpt lat="37.193750" lon="-6.924070">
        <ele>7.0</ele>
      </trkpt>
      <trkpt lat="37.193890" lon="-6.924150">
        <ele>7.0</ele>
      </trkpt>
      <trkpt lat="37.194100" lon="-6.924300">
        <ele>7.0</ele>
      </trkpt>
      <trkpt lat="37.194320" lon="-6.924440">
        <ele>7.0</ele>
      </trkpt>
      <trkpt lat="37.194610" lon="-6.924600">
        <ele>6.0</ele>
      </trkpt>
      <trkpt lat="37.194820" lon="-6.924740">
        <ele>6.0</ele>
      </trkpt>
      <trkpt lat="37.195150" lon="-6.924980">
        <ele>6.0</ele>
      </trkpt>
      <trkpt lat="37.195320" lon="-6.925070">
        <ele>5.0</ele>
      </trkpt>
      <trkpt lat="37.195380" lon="-6.925110">
        <ele>5.0</ele>
      </trkpt>
      <trkpt lat="37.195440" lon="-6.925130">
        <ele>5.0</ele>
      </trkpt>
      <trkpt lat="37.195600" lon="-6.925220">
        <ele>5.0</ele>
      </trkpt>
      <trkpt lat="37.195850" lon="-6.925250">
        <ele>5.0</ele>
      </trkpt>
      <trkpt lat="37.196110" lon="-6.925230">
        <ele>5.0</ele>
      </trkpt>
      <trkpt lat="37.197180" lon="-6.924840">
        <ele>6.0</ele>
      </trkpt>
      <trkpt lat="37.198930" lon="-6.924220">
        <ele>4.0</ele>
      </trkpt>
      <trkpt lat="37.199880" lon="-6.923870">
        <ele>4.0</ele>
      </trkpt>
      <trkpt lat="37.200810" lon="-6.923530">
        <ele>5.0</ele>
      </trkpt>
      <trkpt lat="37.200860" lon="-6.923480">
        <ele>5.0</ele>
      </trkpt>
      <trkpt lat="37.200960" lon="-6.923440">
        <ele>6.0</ele>
      </trkpt>
      <trkpt lat="37.201030" lon="-6.923400">
        <ele>7.0</ele>
      </trkpt>
      <trkpt lat="37.201070" lon="-6.923370">
        <ele>7.0</ele>
      </trkpt>
      <trkpt lat="37.201130" lon="-6.923310">
        <ele>8.0</ele>
      </trkpt>
      <trkpt lat="37.201150" lon="-6.923240">
        <ele>8.0</ele>
      </trkpt>
      <trkpt lat="37.201190" lon="-6.923190">
        <ele>8.0</ele>
      </trkpt>
      <trkpt lat="37.201240" lon="-6.923150">
        <ele>9.0</ele>
      </trkpt>
      <trkpt lat="37.201290" lon="-6.923140">
        <ele>9.0</ele>
      </trkpt>
      <trkpt lat="37.201350" lon="-6.923150">
        <ele>9.0</ele>
      </trkpt>
      <trkpt lat="37.201400" lon="-6.923180">
        <ele>10.0</ele>
      </trkpt>
      <trkpt lat="37.201470" lon="-6.923190">
        <ele>10.0</ele>
      </trkpt>
      <trkpt lat="37.201530" lon="-6.923210">
        <ele>10.0</ele>
      </trkpt>
      <trkpt lat="37.201590" lon="-6.923210">
        <ele>11.0</ele>
      </trkpt>
      <trkpt lat="37.201660" lon="-6.923220">
        <ele>11.0</ele>
      </trkpt>
      <trkpt lat="37.204170" lon="-6.922290">
        <ele>16.0</ele>
      </trkpt>
      <trkpt lat="37.204450" lon="-6.922180">
        <ele>20.0</ele>
      </trkpt>
      <trkpt lat="37.204480" lon="-6.922170">
        <ele>22.0</ele>
      </trkpt>
      <trkpt lat="37.204520" lon="-6.922160">
        <ele>24.0</ele>
      </trkpt>
      <trkpt lat="37.204760" lon="-6.922070">
        <ele>25.0</ele>
      </trkpt>
      <trkpt lat="37.205040" lon="-6.921970">
        <ele>25.0</ele>
      </trkpt>
      <trkpt lat="37.208490" lon="-6.920730">
        <ele>26.0</ele>
      </trkpt>
    </trkseg>
  </trk>
</gpx>